<?xml version="1.0" encoding="UTF-8"?><gpx creator="https://mapa-turystyczna.pl" xmlns="http://www.topografix.com/GPX/1/1" version="1.1" xmlns:xsi="http://www.w3.org/2001/XMLSchema-instance" xsi:schemaLocation="http://www.topografix.com/GPX/1/1 http://www.topografix.com/GPX/1/1/gpx.xsd">
  <metadata>
    <link href="https://mapa-turystyczna.pl">
      <text>mapa-turystyczna.pl</text>
    </link>
    <time>2026-05-07T08:43:39Z</time>
    <bounds maxlat="50.910108" maxlon="21.085914" minlat="50.843971" minlon="20.874561"/>
  </metadata>

<trk>
  <name>Trzcianka – Święta Katarzyna</name>
  <link href="https://mapa-turystyczna.pl/route/qmcf">
    <text>Trzcianka – Święta Katarzyna</text>
  </link>
  <trkseg>
    <trkpt lat="50.843971" lon="21.067545">
      <ele>365</ele>
      <time>2026-05-07T08:43:39Z</time>
    </trkpt>
    <trkpt lat="50.844081" lon="21.06758">
      <ele>367</ele>
      <time>2026-05-07T08:43:55Z</time>
    </trkpt>
    <trkpt lat="50.84416" lon="21.067571">
      <ele>368</ele>
      <time>2026-05-07T08:44:06Z</time>
    </trkpt>
    <trkpt lat="50.844232" lon="21.06751">
      <ele>368</ele>
      <time>2026-05-07T08:44:17Z</time>
    </trkpt>
    <trkpt lat="50.844335" lon="21.067481">
      <ele>369</ele>
      <time>2026-05-07T08:44:32Z</time>
    </trkpt>
    <trkpt lat="50.844876" lon="21.067486">
      <ele>374</ele>
      <time>2026-05-07T08:45:47Z</time>
    </trkpt>
    <trkpt lat="50.84542" lon="21.067505">
      <ele>384</ele>
      <time>2026-05-07T08:47:04Z</time>
    </trkpt>
    <trkpt lat="50.845623" lon="21.067524">
      <ele>387</ele>
      <time>2026-05-07T08:47:32Z</time>
    </trkpt>
    <trkpt lat="50.845765" lon="21.067591">
      <ele>388</ele>
      <time>2026-05-07T08:47:53Z</time>
    </trkpt>
    <trkpt lat="50.845883" lon="21.067629">
      <ele>389</ele>
      <time>2026-05-07T08:48:10Z</time>
    </trkpt>
    <trkpt lat="50.846092" lon="21.067608">
      <ele>392</ele>
      <time>2026-05-07T08:48:39Z</time>
    </trkpt>
    <trkpt lat="50.846175" lon="21.067993">
      <ele>393</ele>
      <time>2026-05-07T08:49:08Z</time>
    </trkpt>
    <trkpt lat="50.846583" lon="21.069918">
      <ele>394</ele>
      <time>2026-05-07T08:51:32Z</time>
    </trkpt>
    <trkpt lat="50.846776" lon="21.070641">
      <ele>396</ele>
      <time>2026-05-07T08:52:27Z</time>
    </trkpt>
    <trkpt lat="50.847004" lon="21.071354">
      <ele>394</ele>
      <time>2026-05-07T08:53:24Z</time>
    </trkpt>
    <trkpt lat="50.847226" lon="21.071972">
      <ele>394</ele>
      <time>2026-05-07T08:54:14Z</time>
    </trkpt>
    <trkpt lat="50.847304" lon="21.072138">
      <ele>395</ele>
      <time>2026-05-07T08:54:29Z</time>
    </trkpt>
    <trkpt lat="50.847355" lon="21.072243">
      <ele>395</ele>
      <time>2026-05-07T08:54:39Z</time>
    </trkpt>
    <trkpt lat="50.847403" lon="21.072461">
      <ele>395</ele>
      <time>2026-05-07T08:54:55Z</time>
    </trkpt>
    <trkpt lat="50.847475" lon="21.072685">
      <ele>395</ele>
      <time>2026-05-07T08:55:13Z</time>
    </trkpt>
    <trkpt lat="50.847637" lon="21.072998">
      <ele>396</ele>
      <time>2026-05-07T08:55:41Z</time>
    </trkpt>
    <trkpt lat="50.847741" lon="21.073152">
      <ele>398</ele>
      <time>2026-05-07T08:55:57Z</time>
    </trkpt>
    <trkpt lat="50.847829" lon="21.073207">
      <ele>400</ele>
      <time>2026-05-07T08:56:08Z</time>
    </trkpt>
    <trkpt lat="50.847958" lon="21.073227">
      <ele>402</ele>
      <time>2026-05-07T08:56:23Z</time>
    </trkpt>
    <trkpt lat="50.848048" lon="21.073246">
      <ele>404</ele>
      <time>2026-05-07T08:56:33Z</time>
    </trkpt>
    <trkpt lat="50.848126" lon="21.073341">
      <ele>405</ele>
      <time>2026-05-07T08:56:45Z</time>
    </trkpt>
    <trkpt lat="50.848207" lon="21.073502">
      <ele>405</ele>
      <time>2026-05-07T08:56:59Z</time>
    </trkpt>
    <trkpt lat="50.848264" lon="21.073621">
      <ele>404</ele>
      <time>2026-05-07T08:57:10Z</time>
    </trkpt>
    <trkpt lat="50.848372" lon="21.07384">
      <ele>402</ele>
      <time>2026-05-07T08:57:29Z</time>
    </trkpt>
    <trkpt lat="50.848486" lon="21.074035">
      <ele>401</ele>
      <time>2026-05-07T08:57:48Z</time>
    </trkpt>
    <trkpt lat="50.848579" lon="21.074149">
      <ele>400</ele>
      <time>2026-05-07T08:58:02Z</time>
    </trkpt>
    <trkpt lat="50.848651" lon="21.074239">
      <ele>399</ele>
      <time>2026-05-07T08:58:12Z</time>
    </trkpt>
    <trkpt lat="50.848726" lon="21.074329">
      <ele>398</ele>
      <time>2026-05-07T08:58:23Z</time>
    </trkpt>
    <trkpt lat="50.848819" lon="21.074505">
      <ele>396</ele>
      <time>2026-05-07T08:58:39Z</time>
    </trkpt>
    <trkpt lat="50.848975" lon="21.074738">
      <ele>390</ele>
      <time>2026-05-07T08:59:03Z</time>
    </trkpt>
    <trkpt lat="50.849108" lon="21.074938">
      <ele>385</ele>
      <time>2026-05-07T08:59:23Z</time>
    </trkpt>
    <trkpt lat="50.849258" lon="21.07509">
      <ele>383</ele>
      <time>2026-05-07T08:59:42Z</time>
    </trkpt>
    <trkpt lat="50.849402" lon="21.075185">
      <ele>383</ele>
      <time>2026-05-07T08:59:59Z</time>
    </trkpt>
    <trkpt lat="50.849585" lon="21.075275">
      <ele>383</ele>
      <time>2026-05-07T09:00:20Z</time>
    </trkpt>
    <trkpt lat="50.849798" lon="21.07529">
      <ele>384</ele>
      <time>2026-05-07T09:00:43Z</time>
    </trkpt>
    <trkpt lat="50.850206" lon="21.075313">
      <ele>385</ele>
      <time>2026-05-07T09:01:27Z</time>
    </trkpt>
    <trkpt lat="50.850401" lon="21.075342">
      <ele>384</ele>
      <time>2026-05-07T09:01:48Z</time>
    </trkpt>
    <trkpt lat="50.850683" lon="21.075399">
      <ele>383</ele>
      <time>2026-05-07T09:02:19Z</time>
    </trkpt>
    <trkpt lat="50.850872" lon="21.075442">
      <ele>382</ele>
      <time>2026-05-07T09:02:39Z</time>
    </trkpt>
    <trkpt lat="50.851004" lon="21.075532">
      <ele>379</ele>
      <time>2026-05-07T09:02:55Z</time>
    </trkpt>
    <trkpt lat="50.851123" lon="21.075669">
      <ele>375</ele>
      <time>2026-05-07T09:03:11Z</time>
    </trkpt>
    <trkpt lat="50.851247" lon="21.075864">
      <ele>372</ele>
      <time>2026-05-07T09:03:30Z</time>
    </trkpt>
    <trkpt lat="50.851596" lon="21.076415">
      <ele>364</ele>
      <time>2026-05-07T09:04:24Z</time>
    </trkpt>
    <trkpt lat="50.851781" lon="21.076706">
      <ele>361</ele>
      <time>2026-05-07T09:04:52Z</time>
    </trkpt>
    <trkpt lat="50.85188" lon="21.076915">
      <ele>360</ele>
      <time>2026-05-07T09:05:10Z</time>
    </trkpt>
    <trkpt lat="50.852028" lon="21.077229">
      <ele>358</ele>
      <time>2026-05-07T09:05:37Z</time>
    </trkpt>
    <trkpt lat="50.852215" lon="21.077625">
      <ele>355</ele>
      <time>2026-05-07T09:06:10Z</time>
    </trkpt>
    <trkpt lat="50.852307" lon="21.077811">
      <ele>354</ele>
      <time>2026-05-07T09:06:26Z</time>
    </trkpt>
    <trkpt lat="50.852392" lon="21.077934">
      <ele>353</ele>
      <time>2026-05-07T09:06:39Z</time>
    </trkpt>
    <trkpt lat="50.852442" lon="21.078005">
      <ele>353</ele>
      <time>2026-05-07T09:06:46Z</time>
    </trkpt>
    <trkpt lat="50.852614" lon="21.07825">
      <ele>352</ele>
      <time>2026-05-07T09:07:11Z</time>
    </trkpt>
    <trkpt lat="50.852759" lon="21.078424">
      <ele>351</ele>
      <time>2026-05-07T09:07:31Z</time>
    </trkpt>
    <trkpt lat="50.852938" lon="21.078639">
      <ele>350</ele>
      <time>2026-05-07T09:07:55Z</time>
    </trkpt>
    <trkpt lat="50.853094" lon="21.078786">
      <ele>349</ele>
      <time>2026-05-07T09:08:14Z</time>
    </trkpt>
    <trkpt lat="50.853186" lon="21.078872">
      <ele>349</ele>
      <time>2026-05-07T09:08:26Z</time>
    </trkpt>
    <trkpt lat="50.85333" lon="21.078988">
      <ele>349</ele>
      <time>2026-05-07T09:08:43Z</time>
    </trkpt>
    <trkpt lat="50.853481" lon="21.079094">
      <ele>349</ele>
      <time>2026-05-07T09:09:01Z</time>
    </trkpt>
    <trkpt lat="50.853583" lon="21.079156">
      <ele>349</ele>
      <time>2026-05-07T09:09:13Z</time>
    </trkpt>
    <trkpt lat="50.853625" lon="21.079306">
      <ele>348</ele>
      <time>2026-05-07T09:09:24Z</time>
    </trkpt>
    <trkpt lat="50.853894" lon="21.08011">
      <ele>343</ele>
      <time>2026-05-07T09:10:26Z</time>
    </trkpt>
    <trkpt lat="50.854002" lon="21.080392">
      <ele>341</ele>
      <time>2026-05-07T09:10:49Z</time>
    </trkpt>
    <trkpt lat="50.854079" lon="21.080529">
      <ele>339</ele>
      <time>2026-05-07T09:11:01Z</time>
    </trkpt>
    <trkpt lat="50.854164" lon="21.080666">
      <ele>339</ele>
      <time>2026-05-07T09:11:14Z</time>
    </trkpt>
    <trkpt lat="50.854339" lon="21.080945">
      <ele>338</ele>
      <time>2026-05-07T09:11:41Z</time>
    </trkpt>
    <trkpt lat="50.854388" lon="21.081023">
      <ele>338</ele>
      <time>2026-05-07T09:11:49Z</time>
    </trkpt>
    <trkpt lat="50.854566" lon="21.081325">
      <ele>337</ele>
      <time>2026-05-07T09:12:17Z</time>
    </trkpt>
    <trkpt lat="50.854813" lon="21.081748">
      <ele>334</ele>
      <time>2026-05-07T09:12:56Z</time>
    </trkpt>
    <trkpt lat="50.854974" lon="21.082011">
      <ele>333</ele>
      <time>2026-05-07T09:13:21Z</time>
    </trkpt>
    <trkpt lat="50.855021" lon="21.082114">
      <ele>332</ele>
      <time>2026-05-07T09:13:30Z</time>
    </trkpt>
    <trkpt lat="50.855053" lon="21.082244">
      <ele>332</ele>
      <time>2026-05-07T09:13:39Z</time>
    </trkpt>
    <trkpt lat="50.855107" lon="21.082204">
      <ele>332</ele>
      <time>2026-05-07T09:13:46Z</time>
    </trkpt>
    <trkpt lat="50.855173" lon="21.082186">
      <ele>331</ele>
      <time>2026-05-07T09:13:54Z</time>
    </trkpt>
    <trkpt lat="50.855206" lon="21.082182">
      <ele>331</ele>
      <time>2026-05-07T09:13:58Z</time>
    </trkpt>
    <trkpt lat="50.855294" lon="21.082172">
      <ele>331</ele>
      <time>2026-05-07T09:14:08Z</time>
    </trkpt>
    <trkpt lat="50.855392" lon="21.08216">
      <ele>331</ele>
      <time>2026-05-07T09:14:20Z</time>
    </trkpt>
    <trkpt lat="50.855568" lon="21.082216">
      <ele>330</ele>
      <time>2026-05-07T09:14:41Z</time>
    </trkpt>
    <trkpt lat="50.855724" lon="21.08231">
      <ele>329</ele>
      <time>2026-05-07T09:15:01Z</time>
    </trkpt>
    <trkpt lat="50.856188" lon="21.082587">
      <ele>325</ele>
      <time>2026-05-07T09:16:00Z</time>
    </trkpt>
    <trkpt lat="50.856494" lon="21.08277">
      <ele>324</ele>
      <time>2026-05-07T09:16:39Z</time>
    </trkpt>
    <trkpt lat="50.85654" lon="21.082746">
      <ele>324</ele>
      <time>2026-05-07T09:16:44Z</time>
    </trkpt>
    <trkpt lat="50.856612" lon="21.082708">
      <ele>324</ele>
      <time>2026-05-07T09:16:52Z</time>
    </trkpt>
    <trkpt lat="50.856886" lon="21.082653">
      <ele>324</ele>
      <time>2026-05-07T09:17:21Z</time>
    </trkpt>
    <trkpt lat="50.856899" lon="21.08265">
      <ele>324</ele>
      <time>2026-05-07T09:17:22Z</time>
    </trkpt>
    <trkpt lat="50.857024" lon="21.082639">
      <ele>323</ele>
      <time>2026-05-07T09:17:35Z</time>
    </trkpt>
    <trkpt lat="50.857288" lon="21.082586">
      <ele>322</ele>
      <time>2026-05-07T09:18:03Z</time>
    </trkpt>
    <trkpt lat="50.857543" lon="21.082596">
      <ele>322</ele>
      <time>2026-05-07T09:18:29Z</time>
    </trkpt>
    <trkpt lat="50.857753" lon="21.0827">
      <ele>322</ele>
      <time>2026-05-07T09:18:52Z</time>
    </trkpt>
    <trkpt lat="50.857958" lon="21.082838">
      <ele>320</ele>
      <time>2026-05-07T09:19:15Z</time>
    </trkpt>
    <trkpt lat="50.858147" lon="21.082943">
      <ele>319</ele>
      <time>2026-05-07T09:19:36Z</time>
    </trkpt>
    <trkpt lat="50.858315" lon="21.082986">
      <ele>318</ele>
      <time>2026-05-07T09:19:54Z</time>
    </trkpt>
    <trkpt lat="50.858401" lon="21.083002">
      <ele>318</ele>
      <time>2026-05-07T09:20:03Z</time>
    </trkpt>
    <trkpt lat="50.858633" lon="21.083054">
      <ele>317</ele>
      <time>2026-05-07T09:20:27Z</time>
    </trkpt>
    <trkpt lat="50.858771" lon="21.083121">
      <ele>316</ele>
      <time>2026-05-07T09:20:42Z</time>
    </trkpt>
    <trkpt lat="50.858786" lon="21.083205">
      <ele>315</ele>
      <time>2026-05-07T09:20:48Z</time>
    </trkpt>
    <trkpt lat="50.858872" lon="21.083355">
      <ele>314</ele>
      <time>2026-05-07T09:21:01Z</time>
    </trkpt>
    <trkpt lat="50.859116" lon="21.083664">
      <ele>313</ele>
      <time>2026-05-07T09:21:34Z</time>
    </trkpt>
    <trkpt lat="50.859494" lon="21.084066">
      <ele>312</ele>
      <time>2026-05-07T09:22:21Z</time>
    </trkpt>
    <trkpt lat="50.859675" lon="21.084259">
      <ele>311</ele>
      <time>2026-05-07T09:22:43Z</time>
    </trkpt>
    <trkpt lat="50.859832" lon="21.084332">
      <ele>310</ele>
      <time>2026-05-07T09:23:01Z</time>
    </trkpt>
    <trkpt lat="50.859865" lon="21.084397">
      <ele>310</ele>
      <time>2026-05-07T09:23:06Z</time>
    </trkpt>
    <trkpt lat="50.860073" lon="21.084554">
      <ele>307</ele>
      <time>2026-05-07T09:23:30Z</time>
    </trkpt>
    <trkpt lat="50.860313" lon="21.084666">
      <ele>305</ele>
      <time>2026-05-07T09:23:56Z</time>
    </trkpt>
    <trkpt lat="50.860755" lon="21.084959">
      <ele>304</ele>
      <time>2026-05-07T09:24:46Z</time>
    </trkpt>
    <trkpt lat="50.861193" lon="21.085261">
      <ele>303</ele>
      <time>2026-05-07T09:25:35Z</time>
    </trkpt>
    <trkpt lat="50.861322" lon="21.085364">
      <ele>301</ele>
      <time>2026-05-07T09:25:51Z</time>
    </trkpt>
    <trkpt lat="50.861363" lon="21.085422">
      <ele>301</ele>
      <time>2026-05-07T09:25:56Z</time>
    </trkpt>
    <trkpt lat="50.861448" lon="21.085542">
      <ele>299</ele>
      <time>2026-05-07T09:26:08Z</time>
    </trkpt>
    <trkpt lat="50.86155" lon="21.085752">
      <ele>298</ele>
      <time>2026-05-07T09:26:26Z</time>
    </trkpt>
    <trkpt lat="50.861629" lon="21.085914">
      <ele>297</ele>
      <time>2026-05-07T09:26:39Z</time>
    </trkpt>
    <trkpt lat="50.861728" lon="21.085425">
      <ele>298</ele>
      <time>2026-05-07T09:27:16Z</time>
    </trkpt>
    <trkpt lat="50.861781" lon="21.085077">
      <ele>299</ele>
      <time>2026-05-07T09:27:43Z</time>
    </trkpt>
    <trkpt lat="50.861797" lon="21.084866">
      <ele>300</ele>
      <time>2026-05-07T09:27:58Z</time>
    </trkpt>
    <trkpt lat="50.861796" lon="21.084638">
      <ele>301</ele>
      <time>2026-05-07T09:28:15Z</time>
    </trkpt>
    <trkpt lat="50.861749" lon="21.0844">
      <ele>302</ele>
      <time>2026-05-07T09:28:33Z</time>
    </trkpt>
    <trkpt lat="50.861701" lon="21.084234">
      <ele>303</ele>
      <time>2026-05-07T09:28:46Z</time>
    </trkpt>
    <trkpt lat="50.861587" lon="21.083834">
      <ele>305</ele>
      <time>2026-05-07T09:29:19Z</time>
    </trkpt>
    <trkpt lat="50.861565" lon="21.083752">
      <ele>306</ele>
      <time>2026-05-07T09:29:25Z</time>
    </trkpt>
    <trkpt lat="50.861263" lon="21.082633">
      <ele>309</ele>
      <time>2026-05-07T09:30:54Z</time>
    </trkpt>
    <trkpt lat="50.860955" lon="21.081501">
      <ele>315</ele>
      <time>2026-05-07T09:32:24Z</time>
    </trkpt>
    <trkpt lat="50.860928" lon="21.081395">
      <ele>316</ele>
      <time>2026-05-07T09:32:33Z</time>
    </trkpt>
    <trkpt lat="50.860872" lon="21.08118">
      <ele>317</ele>
      <time>2026-05-07T09:32:50Z</time>
    </trkpt>
    <trkpt lat="50.860801" lon="21.080832">
      <ele>319</ele>
      <time>2026-05-07T09:33:16Z</time>
    </trkpt>
    <trkpt lat="50.860775" lon="21.080678">
      <ele>320</ele>
      <time>2026-05-07T09:33:28Z</time>
    </trkpt>
    <trkpt lat="50.860692" lon="21.080182">
      <ele>322</ele>
      <time>2026-05-07T09:34:05Z</time>
    </trkpt>
    <trkpt lat="50.860676" lon="21.080088">
      <ele>322</ele>
      <time>2026-05-07T09:34:13Z</time>
    </trkpt>
    <trkpt lat="50.86065" lon="21.079935">
      <ele>323</ele>
      <time>2026-05-07T09:34:24Z</time>
    </trkpt>
    <trkpt lat="50.860527" lon="21.079217">
      <ele>327</ele>
      <time>2026-05-07T09:35:19Z</time>
    </trkpt>
    <trkpt lat="50.860368" lon="21.078284">
      <ele>332</ele>
      <time>2026-05-07T09:36:29Z</time>
    </trkpt>
    <trkpt lat="50.860332" lon="21.078168">
      <ele>334</ele>
      <time>2026-05-07T09:36:39Z</time>
    </trkpt>
    <trkpt lat="50.860313" lon="21.078121">
      <ele>335</ele>
      <time>2026-05-07T09:36:51Z</time>
    </trkpt>
    <trkpt lat="50.860199" lon="21.077923">
      <ele>339</ele>
      <time>2026-05-07T09:37:50Z</time>
    </trkpt>
    <trkpt lat="50.860103" lon="21.077354">
      <ele>349</ele>
      <time>2026-05-07T09:40:01Z</time>
    </trkpt>
    <trkpt lat="50.860094" lon="21.077144">
      <ele>354</ele>
      <time>2026-05-07T09:40:48Z</time>
    </trkpt>
    <trkpt lat="50.860119" lon="21.076924">
      <ele>359</ele>
      <time>2026-05-07T09:41:39Z</time>
    </trkpt>
    <trkpt lat="50.860144" lon="21.076762">
      <ele>362</ele>
      <time>2026-05-07T09:42:39Z</time>
    </trkpt>
    <trkpt lat="50.860266" lon="21.076736">
      <ele>361</ele>
      <time>2026-05-07T09:42:53Z</time>
    </trkpt>
    <trkpt lat="50.860391" lon="21.076742">
      <ele>360</ele>
      <time>2026-05-07T09:43:07Z</time>
    </trkpt>
    <trkpt lat="50.86048" lon="21.076775">
      <ele>359</ele>
      <time>2026-05-07T09:43:17Z</time>
    </trkpt>
    <trkpt lat="50.86062" lon="21.076924">
      <ele>356</ele>
      <time>2026-05-07T09:43:36Z</time>
    </trkpt>
    <trkpt lat="50.860702" lon="21.076977">
      <ele>354</ele>
      <time>2026-05-07T09:43:46Z</time>
    </trkpt>
    <trkpt lat="50.8608" lon="21.077004">
      <ele>353</ele>
      <time>2026-05-07T09:43:57Z</time>
    </trkpt>
    <trkpt lat="50.860922" lon="21.07698">
      <ele>355</ele>
      <time>2026-05-07T09:44:11Z</time>
    </trkpt>
    <trkpt lat="50.861011" lon="21.077026">
      <ele>354</ele>
      <time>2026-05-07T09:44:22Z</time>
    </trkpt>
    <trkpt lat="50.861106" lon="21.077031">
      <ele>354</ele>
      <time>2026-05-07T09:44:32Z</time>
    </trkpt>
    <trkpt lat="50.861172" lon="21.077019">
      <ele>354</ele>
      <time>2026-05-07T09:44:40Z</time>
    </trkpt>
    <trkpt lat="50.861251" lon="21.07697">
      <ele>355</ele>
      <time>2026-05-07T09:44:49Z</time>
    </trkpt>
    <trkpt lat="50.86139" lon="21.076879">
      <ele>356</ele>
      <time>2026-05-07T09:45:06Z</time>
    </trkpt>
    <trkpt lat="50.861556" lon="21.076686">
      <ele>358</ele>
      <time>2026-05-07T09:45:29Z</time>
    </trkpt>
    <trkpt lat="50.861674" lon="21.076503">
      <ele>360</ele>
      <time>2026-05-07T09:45:48Z</time>
    </trkpt>
    <trkpt lat="50.861742" lon="21.076359">
      <ele>363</ele>
      <time>2026-05-07T09:46:00Z</time>
    </trkpt>
    <trkpt lat="50.861816" lon="21.076281">
      <ele>363</ele>
      <time>2026-05-07T09:46:10Z</time>
    </trkpt>
    <trkpt lat="50.861955" lon="21.076267">
      <ele>362</ele>
      <time>2026-05-07T09:46:26Z</time>
    </trkpt>
    <trkpt lat="50.862088" lon="21.076219">
      <ele>362</ele>
      <time>2026-05-07T09:46:41Z</time>
    </trkpt>
    <trkpt lat="50.86216" lon="21.076171">
      <ele>362</ele>
      <time>2026-05-07T09:46:50Z</time>
    </trkpt>
    <trkpt lat="50.862211" lon="21.0761">
      <ele>363</ele>
      <time>2026-05-07T09:46:58Z</time>
    </trkpt>
    <trkpt lat="50.862226" lon="21.075935">
      <ele>366</ele>
      <time>2026-05-07T09:47:10Z</time>
    </trkpt>
    <trkpt lat="50.862219" lon="21.075833">
      <ele>368</ele>
      <time>2026-05-07T09:47:17Z</time>
    </trkpt>
    <trkpt lat="50.86222" lon="21.075732">
      <ele>369</ele>
      <time>2026-05-07T09:47:24Z</time>
    </trkpt>
    <trkpt lat="50.862241" lon="21.075639">
      <ele>371</ele>
      <time>2026-05-07T09:47:32Z</time>
    </trkpt>
    <trkpt lat="50.862284" lon="21.075558">
      <ele>371</ele>
      <time>2026-05-07T09:47:39Z</time>
    </trkpt>
    <trkpt lat="50.862382" lon="21.075489">
      <ele>371</ele>
      <time>2026-05-07T09:47:51Z</time>
    </trkpt>
    <trkpt lat="50.862494" lon="21.07552">
      <ele>370</ele>
      <time>2026-05-07T09:48:04Z</time>
    </trkpt>
    <trkpt lat="50.862539" lon="21.075544">
      <ele>369</ele>
      <time>2026-05-07T09:48:09Z</time>
    </trkpt>
    <trkpt lat="50.862592" lon="21.07561">
      <ele>367</ele>
      <time>2026-05-07T09:48:17Z</time>
    </trkpt>
    <trkpt lat="50.862662" lon="21.075751">
      <ele>363</ele>
      <time>2026-05-07T09:48:30Z</time>
    </trkpt>
    <trkpt lat="50.862698" lon="21.075846">
      <ele>361</ele>
      <time>2026-05-07T09:48:38Z</time>
    </trkpt>
    <trkpt lat="50.862738" lon="21.075951">
      <ele>358</ele>
      <time>2026-05-07T09:48:47Z</time>
    </trkpt>
    <trkpt lat="50.862911" lon="21.076198">
      <ele>351</ele>
      <time>2026-05-07T09:49:14Z</time>
    </trkpt>
    <trkpt lat="50.86302" lon="21.076261">
      <ele>349</ele>
      <time>2026-05-07T09:49:27Z</time>
    </trkpt>
    <trkpt lat="50.863165" lon="21.076214">
      <ele>348</ele>
      <time>2026-05-07T09:49:44Z</time>
    </trkpt>
    <trkpt lat="50.863308" lon="21.076112">
      <ele>349</ele>
      <time>2026-05-07T09:50:02Z</time>
    </trkpt>
    <trkpt lat="50.86347" lon="21.076021">
      <ele>347</ele>
      <time>2026-05-07T09:50:21Z</time>
    </trkpt>
    <trkpt lat="50.863591" lon="21.07584">
      <ele>346</ele>
      <time>2026-05-07T09:50:39Z</time>
    </trkpt>
    <trkpt lat="50.864068" lon="21.075178">
      <ele>345</ele>
      <time>2026-05-07T09:51:50Z</time>
    </trkpt>
    <trkpt lat="50.864622" lon="21.074136">
      <ele>345</ele>
      <time>2026-05-07T09:53:26Z</time>
    </trkpt>
    <trkpt lat="50.864712" lon="21.073691">
      <ele>347</ele>
      <time>2026-05-07T09:53:59Z</time>
    </trkpt>
    <trkpt lat="50.865042" lon="21.07296">
      <ele>342</ele>
      <time>2026-05-07T09:55:03Z</time>
    </trkpt>
    <trkpt lat="50.865336" lon="21.072201">
      <ele>343</ele>
      <time>2026-05-07T09:56:05Z</time>
    </trkpt>
    <trkpt lat="50.865665" lon="21.071324">
      <ele>341</ele>
      <time>2026-05-07T09:57:17Z</time>
    </trkpt>
    <trkpt lat="50.865935" lon="21.070581">
      <ele>341</ele>
      <time>2026-05-07T09:58:18Z</time>
    </trkpt>
    <trkpt lat="50.866184" lon="21.069715">
      <ele>336</ele>
      <time>2026-05-07T09:59:25Z</time>
    </trkpt>
    <trkpt lat="50.866347" lon="21.069268">
      <ele>334</ele>
      <time>2026-05-07T10:00:01Z</time>
    </trkpt>
    <trkpt lat="50.866634" lon="21.068617">
      <ele>329</ele>
      <time>2026-05-07T10:00:58Z</time>
    </trkpt>
    <trkpt lat="50.866806" lon="21.068471">
      <ele>325</ele>
      <time>2026-05-07T10:01:20Z</time>
    </trkpt>
    <trkpt lat="50.866861" lon="21.06819">
      <ele>325</ele>
      <time>2026-05-07T10:01:40Z</time>
    </trkpt>
    <trkpt lat="50.866859" lon="21.067741">
      <ele>326</ele>
      <time>2026-05-07T10:02:12Z</time>
    </trkpt>
    <trkpt lat="50.867138" lon="21.066433">
      <ele>328</ele>
      <time>2026-05-07T10:03:49Z</time>
    </trkpt>
    <trkpt lat="50.867173" lon="21.066119">
      <ele>329</ele>
      <time>2026-05-07T10:04:12Z</time>
    </trkpt>
    <trkpt lat="50.867176" lon="21.066094">
      <ele>329</ele>
      <time>2026-05-07T10:04:14Z</time>
    </trkpt>
    <trkpt lat="50.867196" lon="21.065483">
      <ele>332</ele>
      <time>2026-05-07T10:04:57Z</time>
    </trkpt>
    <trkpt lat="50.867253" lon="21.065001">
      <ele>333</ele>
      <time>2026-05-07T10:05:31Z</time>
    </trkpt>
    <trkpt lat="50.867451" lon="21.064233">
      <ele>334</ele>
      <time>2026-05-07T10:06:30Z</time>
    </trkpt>
    <trkpt lat="50.867674" lon="21.063655">
      <ele>332</ele>
      <time>2026-05-07T10:07:18Z</time>
    </trkpt>
    <trkpt lat="50.867736" lon="21.063491">
      <ele>331</ele>
      <time>2026-05-07T10:07:31Z</time>
    </trkpt>
    <trkpt lat="50.8679" lon="21.063013">
      <ele>329</ele>
      <time>2026-05-07T10:08:09Z</time>
    </trkpt>
    <trkpt lat="50.868063" lon="21.06255">
      <ele>325</ele>
      <time>2026-05-07T10:08:47Z</time>
    </trkpt>
    <trkpt lat="50.86824" lon="21.062089">
      <ele>323</ele>
      <time>2026-05-07T10:09:25Z</time>
    </trkpt>
    <trkpt lat="50.868313" lon="21.06186">
      <ele>323</ele>
      <time>2026-05-07T10:09:43Z</time>
    </trkpt>
    <trkpt lat="50.868429" lon="21.061419">
      <ele>323</ele>
      <time>2026-05-07T10:10:17Z</time>
    </trkpt>
    <trkpt lat="50.868483" lon="21.061062">
      <ele>324</ele>
      <time>2026-05-07T10:10:43Z</time>
    </trkpt>
    <trkpt lat="50.868589" lon="21.060516">
      <ele>322</ele>
      <time>2026-05-07T10:11:23Z</time>
    </trkpt>
    <trkpt lat="50.869045" lon="21.058115">
      <ele>324</ele>
      <time>2026-05-07T10:14:20Z</time>
    </trkpt>
    <trkpt lat="50.869062" lon="21.058025">
      <ele>324</ele>
      <time>2026-05-07T10:14:26Z</time>
    </trkpt>
    <trkpt lat="50.869293" lon="21.056877">
      <ele>324</ele>
      <time>2026-05-07T10:15:51Z</time>
    </trkpt>
    <trkpt lat="50.869321" lon="21.056717">
      <ele>325</ele>
      <time>2026-05-07T10:16:03Z</time>
    </trkpt>
    <trkpt lat="50.869344" lon="21.056634">
      <ele>325</ele>
      <time>2026-05-07T10:16:09Z</time>
    </trkpt>
    <trkpt lat="50.869729" lon="21.055293">
      <ele>322</ele>
      <time>2026-05-07T10:17:53Z</time>
    </trkpt>
    <trkpt lat="50.869889" lon="21.054801">
      <ele>322</ele>
      <time>2026-05-07T10:18:32Z</time>
    </trkpt>
    <trkpt lat="50.869946" lon="21.054534">
      <ele>323</ele>
      <time>2026-05-07T10:18:52Z</time>
    </trkpt>
    <trkpt lat="50.869973" lon="21.054408">
      <ele>324</ele>
      <time>2026-05-07T10:19:01Z</time>
    </trkpt>
    <trkpt lat="50.870212" lon="21.053279">
      <ele>327</ele>
      <time>2026-05-07T10:20:25Z</time>
    </trkpt>
    <trkpt lat="50.870275" lon="21.053005">
      <ele>328</ele>
      <time>2026-05-07T10:20:46Z</time>
    </trkpt>
    <trkpt lat="50.870571" lon="21.052087">
      <ele>330</ele>
      <time>2026-05-07T10:21:59Z</time>
    </trkpt>
    <trkpt lat="50.870886" lon="21.051217">
      <ele>331</ele>
      <time>2026-05-07T10:23:09Z</time>
    </trkpt>
    <trkpt lat="50.871158" lon="21.050399">
      <ele>330</ele>
      <time>2026-05-07T10:24:14Z</time>
    </trkpt>
    <trkpt lat="50.871276" lon="21.050091">
      <ele>329</ele>
      <time>2026-05-07T10:24:40Z</time>
    </trkpt>
    <trkpt lat="50.871402" lon="21.049616">
      <ele>329</ele>
      <time>2026-05-07T10:25:16Z</time>
    </trkpt>
    <trkpt lat="50.87148" lon="21.049276">
      <ele>328</ele>
      <time>2026-05-07T10:25:42Z</time>
    </trkpt>
    <trkpt lat="50.871678" lon="21.048444">
      <ele>328</ele>
      <time>2026-05-07T10:26:44Z</time>
    </trkpt>
    <trkpt lat="50.871774" lon="21.047947">
      <ele>329</ele>
      <time>2026-05-07T10:27:21Z</time>
    </trkpt>
    <trkpt lat="50.871901" lon="21.047232">
      <ele>330</ele>
      <time>2026-05-07T10:28:13Z</time>
    </trkpt>
    <trkpt lat="50.872156" lon="21.045797">
      <ele>328</ele>
      <time>2026-05-07T10:29:58Z</time>
    </trkpt>
    <trkpt lat="50.872226" lon="21.045329">
      <ele>328</ele>
      <time>2026-05-07T10:30:32Z</time>
    </trkpt>
    <trkpt lat="50.872319" lon="21.044646">
      <ele>328</ele>
      <time>2026-05-07T10:31:21Z</time>
    </trkpt>
    <trkpt lat="50.872367" lon="21.044417">
      <ele>328</ele>
      <time>2026-05-07T10:31:38Z</time>
    </trkpt>
    <trkpt lat="50.87243" lon="21.043994">
      <ele>329</ele>
      <time>2026-05-07T10:32:09Z</time>
    </trkpt>
    <trkpt lat="50.872521" lon="21.043464">
      <ele>329</ele>
      <time>2026-05-07T10:32:48Z</time>
    </trkpt>
    <trkpt lat="50.872533" lon="21.043388">
      <ele>329</ele>
      <time>2026-05-07T10:32:53Z</time>
    </trkpt>
    <trkpt lat="50.872629" lon="21.042843">
      <ele>330</ele>
      <time>2026-05-07T10:33:33Z</time>
    </trkpt>
    <trkpt lat="50.872717" lon="21.042186">
      <ele>331</ele>
      <time>2026-05-07T10:34:20Z</time>
    </trkpt>
    <trkpt lat="50.872759" lon="21.041926">
      <ele>331</ele>
      <time>2026-05-07T10:34:39Z</time>
    </trkpt>
    <trkpt lat="50.872846" lon="21.041374">
      <ele>332</ele>
      <time>2026-05-07T10:35:19Z</time>
    </trkpt>
    <trkpt lat="50.872919" lon="21.040856">
      <ele>333</ele>
      <time>2026-05-07T10:35:57Z</time>
    </trkpt>
    <trkpt lat="50.872959" lon="21.040544">
      <ele>334</ele>
      <time>2026-05-07T10:36:19Z</time>
    </trkpt>
    <trkpt lat="50.87299" lon="21.040323">
      <ele>335</ele>
      <time>2026-05-07T10:36:35Z</time>
    </trkpt>
    <trkpt lat="50.873032" lon="21.040124">
      <ele>335</ele>
      <time>2026-05-07T10:36:50Z</time>
    </trkpt>
    <trkpt lat="50.873081" lon="21.039779">
      <ele>336</ele>
      <time>2026-05-07T10:37:15Z</time>
    </trkpt>
    <trkpt lat="50.873128" lon="21.039445">
      <ele>336</ele>
      <time>2026-05-07T10:37:39Z</time>
    </trkpt>
    <trkpt lat="50.873205" lon="21.03872">
      <ele>337</ele>
      <time>2026-05-07T10:38:31Z</time>
    </trkpt>
    <trkpt lat="50.87339" lon="21.037242">
      <ele>336</ele>
      <time>2026-05-07T10:40:17Z</time>
    </trkpt>
    <trkpt lat="50.87345" lon="21.036617">
      <ele>337</ele>
      <time>2026-05-07T10:41:01Z</time>
    </trkpt>
    <trkpt lat="50.873507" lon="21.036224">
      <ele>337</ele>
      <time>2026-05-07T10:41:30Z</time>
    </trkpt>
    <trkpt lat="50.873547" lon="21.035925">
      <ele>336</ele>
      <time>2026-05-07T10:41:51Z</time>
    </trkpt>
    <trkpt lat="50.873578" lon="21.035696">
      <ele>336</ele>
      <time>2026-05-07T10:42:08Z</time>
    </trkpt>
    <trkpt lat="50.873647" lon="21.035268">
      <ele>335</ele>
      <time>2026-05-07T10:42:39Z</time>
    </trkpt>
    <trkpt lat="50.873732" lon="21.034836">
      <ele>336</ele>
      <time>2026-05-07T10:43:09Z</time>
    </trkpt>
    <trkpt lat="50.873749" lon="21.034761">
      <ele>337</ele>
      <time>2026-05-07T10:43:14Z</time>
    </trkpt>
    <trkpt lat="50.873802" lon="21.034537">
      <ele>338</ele>
      <time>2026-05-07T10:43:30Z</time>
    </trkpt>
    <trkpt lat="50.873898" lon="21.034221">
      <ele>339</ele>
      <time>2026-05-07T10:43:54Z</time>
    </trkpt>
    <trkpt lat="50.873995" lon="21.033961">
      <ele>340</ele>
      <time>2026-05-07T10:44:14Z</time>
    </trkpt>
    <trkpt lat="50.874057" lon="21.033786">
      <ele>340</ele>
      <time>2026-05-07T10:44:27Z</time>
    </trkpt>
    <trkpt lat="50.874184" lon="21.03335">
      <ele>340</ele>
      <time>2026-05-07T10:44:59Z</time>
    </trkpt>
    <trkpt lat="50.874259" lon="21.033016">
      <ele>339</ele>
      <time>2026-05-07T10:45:22Z</time>
    </trkpt>
    <trkpt lat="50.874309" lon="21.032705">
      <ele>339</ele>
      <time>2026-05-07T10:45:44Z</time>
    </trkpt>
    <trkpt lat="50.874355" lon="21.032268">
      <ele>340</ele>
      <time>2026-05-07T10:46:13Z</time>
    </trkpt>
    <trkpt lat="50.874397" lon="21.031906">
      <ele>340</ele>
      <time>2026-05-07T10:46:37Z</time>
    </trkpt>
    <trkpt lat="50.874424" lon="21.031545">
      <ele>341</ele>
      <time>2026-05-07T10:47:02Z</time>
    </trkpt>
    <trkpt lat="50.874505" lon="21.030431">
      <ele>344</ele>
      <time>2026-05-07T10:48:16Z</time>
    </trkpt>
    <trkpt lat="50.874521" lon="21.030138">
      <ele>345</ele>
      <time>2026-05-07T10:48:36Z</time>
    </trkpt>
    <trkpt lat="50.874551" lon="21.029756">
      <ele>346</ele>
      <time>2026-05-07T10:49:01Z</time>
    </trkpt>
    <trkpt lat="50.874528" lon="21.028926">
      <ele>348</ele>
      <time>2026-05-07T10:49:56Z</time>
    </trkpt>
    <trkpt lat="50.874518" lon="21.028735">
      <ele>348</ele>
      <time>2026-05-07T10:50:09Z</time>
    </trkpt>
    <trkpt lat="50.874506" lon="21.028429">
      <ele>349</ele>
      <time>2026-05-07T10:50:29Z</time>
    </trkpt>
    <trkpt lat="50.874488" lon="21.028043">
      <ele>348</ele>
      <time>2026-05-07T10:50:55Z</time>
    </trkpt>
    <trkpt lat="50.874511" lon="21.027485">
      <ele>348</ele>
      <time>2026-05-07T10:51:32Z</time>
    </trkpt>
    <trkpt lat="50.874559" lon="21.026998">
      <ele>347</ele>
      <time>2026-05-07T10:52:05Z</time>
    </trkpt>
    <trkpt lat="50.874639" lon="21.026406">
      <ele>348</ele>
      <time>2026-05-07T10:52:45Z</time>
    </trkpt>
    <trkpt lat="50.874697" lon="21.026019">
      <ele>348</ele>
      <time>2026-05-07T10:53:11Z</time>
    </trkpt>
    <trkpt lat="50.874749" lon="21.025657">
      <ele>349</ele>
      <time>2026-05-07T10:53:36Z</time>
    </trkpt>
    <trkpt lat="50.874802" lon="21.025232">
      <ele>350</ele>
      <time>2026-05-07T10:54:05Z</time>
    </trkpt>
    <trkpt lat="50.87482" lon="21.025085">
      <ele>351</ele>
      <time>2026-05-07T10:54:15Z</time>
    </trkpt>
    <trkpt lat="50.874875" lon="21.024678">
      <ele>350</ele>
      <time>2026-05-07T10:54:42Z</time>
    </trkpt>
    <trkpt lat="50.874978" lon="21.023924">
      <ele>350</ele>
      <time>2026-05-07T10:55:34Z</time>
    </trkpt>
    <trkpt lat="50.875053" lon="21.023354">
      <ele>351</ele>
      <time>2026-05-07T10:56:12Z</time>
    </trkpt>
    <trkpt lat="50.875178" lon="21.022784">
      <ele>350</ele>
      <time>2026-05-07T10:56:52Z</time>
    </trkpt>
    <trkpt lat="50.875279" lon="21.022348">
      <ele>352</ele>
      <time>2026-05-07T10:57:23Z</time>
    </trkpt>
    <trkpt lat="50.875361" lon="21.021983">
      <ele>353</ele>
      <time>2026-05-07T10:57:49Z</time>
    </trkpt>
    <trkpt lat="50.875552" lon="21.021248">
      <ele>352</ele>
      <time>2026-05-07T10:58:42Z</time>
    </trkpt>
    <trkpt lat="50.875705" lon="21.020719">
      <ele>351</ele>
      <time>2026-05-07T10:59:20Z</time>
    </trkpt>
    <trkpt lat="50.875812" lon="21.020356">
      <ele>351</ele>
      <time>2026-05-07T10:59:47Z</time>
    </trkpt>
    <trkpt lat="50.876048" lon="21.019551">
      <ele>352</ele>
      <time>2026-05-07T11:00:46Z</time>
    </trkpt>
    <trkpt lat="50.876078" lon="21.019421">
      <ele>352</ele>
      <time>2026-05-07T11:00:55Z</time>
    </trkpt>
    <trkpt lat="50.876147" lon="21.019173">
      <ele>354</ele>
      <time>2026-05-07T11:01:13Z</time>
    </trkpt>
    <trkpt lat="50.876556" lon="21.01767">
      <ele>356</ele>
      <time>2026-05-07T11:03:02Z</time>
    </trkpt>
    <trkpt lat="50.877103" lon="21.015559">
      <ele>358</ele>
      <time>2026-05-07T11:05:33Z</time>
    </trkpt>
    <trkpt lat="50.877131" lon="21.015447">
      <ele>357</ele>
      <time>2026-05-07T11:05:41Z</time>
    </trkpt>
    <trkpt lat="50.877548" lon="21.013949">
      <ele>356</ele>
      <time>2026-05-07T11:07:30Z</time>
    </trkpt>
    <trkpt lat="50.877581" lon="21.013821">
      <ele>357</ele>
      <time>2026-05-07T11:07:39Z</time>
    </trkpt>
    <trkpt lat="50.877993" lon="21.012356">
      <ele>354</ele>
      <time>2026-05-07T11:09:25Z</time>
    </trkpt>
    <trkpt lat="50.878706" lon="21.010048">
      <ele>354</ele>
      <time>2026-05-07T11:12:16Z</time>
    </trkpt>
    <trkpt lat="50.879057" lon="21.009021">
      <ele>354</ele>
      <time>2026-05-07T11:13:33Z</time>
    </trkpt>
    <trkpt lat="50.879334" lon="21.008109">
      <ele>357</ele>
      <time>2026-05-07T11:14:41Z</time>
    </trkpt>
    <trkpt lat="50.879503" lon="21.007518">
      <ele>358</ele>
      <time>2026-05-07T11:15:24Z</time>
    </trkpt>
    <trkpt lat="50.879727" lon="21.006498">
      <ele>360</ele>
      <time>2026-05-07T11:16:35Z</time>
    </trkpt>
    <trkpt lat="50.879736" lon="21.006454">
      <ele>360</ele>
      <time>2026-05-07T11:16:38Z</time>
    </trkpt>
    <trkpt lat="50.879936" lon="21.00545">
      <ele>361</ele>
      <time>2026-05-07T11:17:48Z</time>
    </trkpt>
    <trkpt lat="50.880053" lon="21.004765">
      <ele>361</ele>
      <time>2026-05-07T11:18:35Z</time>
    </trkpt>
    <trkpt lat="50.880189" lon="21.003742">
      <ele>359</ele>
      <time>2026-05-07T11:19:45Z</time>
    </trkpt>
    <trkpt lat="50.880243" lon="21.003355">
      <ele>357</ele>
      <time>2026-05-07T11:20:11Z</time>
    </trkpt>
    <trkpt lat="50.880357" lon="21.002346">
      <ele>360</ele>
      <time>2026-05-07T11:21:19Z</time>
    </trkpt>
    <trkpt lat="50.880364" lon="21.002239">
      <ele>360</ele>
      <time>2026-05-07T11:21:26Z</time>
    </trkpt>
    <trkpt lat="50.880401" lon="21.001656">
      <ele>361</ele>
      <time>2026-05-07T11:22:05Z</time>
    </trkpt>
    <trkpt lat="50.880425" lon="21.000968">
      <ele>361</ele>
      <time>2026-05-07T11:22:51Z</time>
    </trkpt>
    <trkpt lat="50.880428" lon="21.000855">
      <ele>361</ele>
      <time>2026-05-07T11:22:58Z</time>
    </trkpt>
    <trkpt lat="50.880444" lon="21.000153">
      <ele>361</ele>
      <time>2026-05-07T11:23:45Z</time>
    </trkpt>
    <trkpt lat="50.880444" lon="21.000008">
      <ele>362</ele>
      <time>2026-05-07T11:23:55Z</time>
    </trkpt>
    <trkpt lat="50.880447" lon="20.99865">
      <ele>364</ele>
      <time>2026-05-07T11:25:25Z</time>
    </trkpt>
    <trkpt lat="50.880463" lon="20.998248">
      <ele>365</ele>
      <time>2026-05-07T11:25:52Z</time>
    </trkpt>
    <trkpt lat="50.880499" lon="20.997813">
      <ele>367</ele>
      <time>2026-05-07T11:26:21Z</time>
    </trkpt>
    <trkpt lat="50.880501" lon="20.997794">
      <ele>367</ele>
      <time>2026-05-07T11:26:22Z</time>
    </trkpt>
    <trkpt lat="50.880573" lon="20.997394">
      <ele>369</ele>
      <time>2026-05-07T11:26:50Z</time>
    </trkpt>
    <trkpt lat="50.880661" lon="20.997007">
      <ele>369</ele>
      <time>2026-05-07T11:27:17Z</time>
    </trkpt>
    <trkpt lat="50.880771" lon="20.996538">
      <ele>368</ele>
      <time>2026-05-07T11:27:50Z</time>
    </trkpt>
    <trkpt lat="50.880892" lon="20.996031">
      <ele>366</ele>
      <time>2026-05-07T11:28:26Z</time>
    </trkpt>
    <trkpt lat="50.881013" lon="20.99549">
      <ele>368</ele>
      <time>2026-05-07T11:29:04Z</time>
    </trkpt>
    <trkpt lat="50.881107" lon="20.995031">
      <ele>368</ele>
      <time>2026-05-07T11:29:36Z</time>
    </trkpt>
    <trkpt lat="50.881175" lon="20.994586">
      <ele>368</ele>
      <time>2026-05-07T11:30:07Z</time>
    </trkpt>
    <trkpt lat="50.881229" lon="20.994082">
      <ele>368</ele>
      <time>2026-05-07T11:30:41Z</time>
    </trkpt>
    <trkpt lat="50.881271" lon="20.993632">
      <ele>368</ele>
      <time>2026-05-07T11:31:11Z</time>
    </trkpt>
    <trkpt lat="50.881314" lon="20.992897">
      <ele>368</ele>
      <time>2026-05-07T11:32:00Z</time>
    </trkpt>
    <trkpt lat="50.881384" lon="20.992105">
      <ele>367</ele>
      <time>2026-05-07T11:32:53Z</time>
    </trkpt>
    <trkpt lat="50.881402" lon="20.991959">
      <ele>367</ele>
      <time>2026-05-07T11:33:03Z</time>
    </trkpt>
    <trkpt lat="50.881423" lon="20.99182">
      <ele>367</ele>
      <time>2026-05-07T11:33:12Z</time>
    </trkpt>
    <trkpt lat="50.881522" lon="20.991328">
      <ele>367</ele>
      <time>2026-05-07T11:33:46Z</time>
    </trkpt>
    <trkpt lat="50.881632" lon="20.99087">
      <ele>370</ele>
      <time>2026-05-07T11:34:19Z</time>
    </trkpt>
    <trkpt lat="50.881718" lon="20.990432">
      <ele>372</ele>
      <time>2026-05-07T11:34:49Z</time>
    </trkpt>
    <trkpt lat="50.881774" lon="20.989958">
      <ele>370</ele>
      <time>2026-05-07T11:35:21Z</time>
    </trkpt>
    <trkpt lat="50.881865" lon="20.989186">
      <ele>369</ele>
      <time>2026-05-07T11:36:14Z</time>
    </trkpt>
    <trkpt lat="50.88193" lon="20.988628">
      <ele>370</ele>
      <time>2026-05-07T11:36:51Z</time>
    </trkpt>
    <trkpt lat="50.88201" lon="20.988155">
      <ele>371</ele>
      <time>2026-05-07T11:37:24Z</time>
    </trkpt>
    <trkpt lat="50.882081" lon="20.987833">
      <ele>372</ele>
      <time>2026-05-07T11:37:46Z</time>
    </trkpt>
    <trkpt lat="50.882199" lon="20.987302">
      <ele>371</ele>
      <time>2026-05-07T11:38:24Z</time>
    </trkpt>
    <trkpt lat="50.882312" lon="20.98676">
      <ele>370</ele>
      <time>2026-05-07T11:39:02Z</time>
    </trkpt>
    <trkpt lat="50.882472" lon="20.986144">
      <ele>372</ele>
      <time>2026-05-07T11:39:46Z</time>
    </trkpt>
    <trkpt lat="50.882668" lon="20.985363">
      <ele>374</ele>
      <time>2026-05-07T11:40:42Z</time>
    </trkpt>
    <trkpt lat="50.882767" lon="20.984947">
      <ele>374</ele>
      <time>2026-05-07T11:41:11Z</time>
    </trkpt>
    <trkpt lat="50.882853" lon="20.984461">
      <ele>375</ele>
      <time>2026-05-07T11:41:45Z</time>
    </trkpt>
    <trkpt lat="50.882969" lon="20.983769">
      <ele>373</ele>
      <time>2026-05-07T11:42:32Z</time>
    </trkpt>
    <trkpt lat="50.883047" lon="20.983277">
      <ele>371</ele>
      <time>2026-05-07T11:43:06Z</time>
    </trkpt>
    <trkpt lat="50.883078" lon="20.98296">
      <ele>372</ele>
      <time>2026-05-07T11:43:27Z</time>
    </trkpt>
    <trkpt lat="50.883093" lon="20.982846">
      <ele>372</ele>
      <time>2026-05-07T11:43:35Z</time>
    </trkpt>
    <trkpt lat="50.883145" lon="20.982496">
      <ele>373</ele>
      <time>2026-05-07T11:43:59Z</time>
    </trkpt>
    <trkpt lat="50.883244" lon="20.982038">
      <ele>374</ele>
      <time>2026-05-07T11:44:31Z</time>
    </trkpt>
    <trkpt lat="50.883376" lon="20.981468">
      <ele>374</ele>
      <time>2026-05-07T11:45:11Z</time>
    </trkpt>
    <trkpt lat="50.883542" lon="20.980753">
      <ele>375</ele>
      <time>2026-05-07T11:46:02Z</time>
    </trkpt>
    <trkpt lat="50.88373" lon="20.980193">
      <ele>376</ele>
      <time>2026-05-07T11:46:44Z</time>
    </trkpt>
    <trkpt lat="50.883798" lon="20.979992">
      <ele>376</ele>
      <time>2026-05-07T11:46:59Z</time>
    </trkpt>
    <trkpt lat="50.883916" lon="20.97964">
      <ele>377</ele>
      <time>2026-05-07T11:47:25Z</time>
    </trkpt>
    <trkpt lat="50.884041" lon="20.979212">
      <ele>376</ele>
      <time>2026-05-07T11:47:57Z</time>
    </trkpt>
    <trkpt lat="50.88436" lon="20.978145">
      <ele>377</ele>
      <time>2026-05-07T11:49:15Z</time>
    </trkpt>
    <trkpt lat="50.884648" lon="20.977275">
      <ele>375</ele>
      <time>2026-05-07T11:50:20Z</time>
    </trkpt>
    <trkpt lat="50.884689" lon="20.977128">
      <ele>375</ele>
      <time>2026-05-07T11:50:31Z</time>
    </trkpt>
    <trkpt lat="50.884713" lon="20.977042">
      <ele>375</ele>
      <time>2026-05-07T11:50:37Z</time>
    </trkpt>
    <trkpt lat="50.884813" lon="20.976679">
      <ele>376</ele>
      <time>2026-05-07T11:51:03Z</time>
    </trkpt>
    <trkpt lat="50.884946" lon="20.976155">
      <ele>378</ele>
      <time>2026-05-07T11:51:41Z</time>
    </trkpt>
    <trkpt lat="50.885085" lon="20.975481">
      <ele>377</ele>
      <time>2026-05-07T11:52:28Z</time>
    </trkpt>
    <trkpt lat="50.885184" lon="20.97483">
      <ele>378</ele>
      <time>2026-05-07T11:53:12Z</time>
    </trkpt>
    <trkpt lat="50.88529" lon="20.973809">
      <ele>376</ele>
      <time>2026-05-07T11:54:21Z</time>
    </trkpt>
    <trkpt lat="50.885307" lon="20.973593">
      <ele>374</ele>
      <time>2026-05-07T11:54:36Z</time>
    </trkpt>
    <trkpt lat="50.88537" lon="20.972817">
      <ele>370</ele>
      <time>2026-05-07T11:55:28Z</time>
    </trkpt>
    <trkpt lat="50.885451" lon="20.971906">
      <ele>369</ele>
      <time>2026-05-07T11:56:29Z</time>
    </trkpt>
    <trkpt lat="50.885537" lon="20.970974">
      <ele>370</ele>
      <time>2026-05-07T11:57:31Z</time>
    </trkpt>
    <trkpt lat="50.885554" lon="20.970795">
      <ele>370</ele>
      <time>2026-05-07T11:57:43Z</time>
    </trkpt>
    <trkpt lat="50.885604" lon="20.970239">
      <ele>370</ele>
      <time>2026-05-07T11:58:21Z</time>
    </trkpt>
    <trkpt lat="50.885682" lon="20.969605">
      <ele>373</ele>
      <time>2026-05-07T11:59:03Z</time>
    </trkpt>
    <trkpt lat="50.885954" lon="20.968473">
      <ele>372</ele>
      <time>2026-05-07T12:00:24Z</time>
    </trkpt>
    <trkpt lat="50.886324" lon="20.967006">
      <ele>376</ele>
      <time>2026-05-07T12:02:09Z</time>
    </trkpt>
    <trkpt lat="50.886488" lon="20.966291">
      <ele>376</ele>
      <time>2026-05-07T12:02:59Z</time>
    </trkpt>
    <trkpt lat="50.886752" lon="20.965165">
      <ele>374</ele>
      <time>2026-05-07T12:04:19Z</time>
    </trkpt>
    <trkpt lat="50.887" lon="20.964168">
      <ele>375</ele>
      <time>2026-05-07T12:05:30Z</time>
    </trkpt>
    <trkpt lat="50.887265" lon="20.963434">
      <ele>374</ele>
      <time>2026-05-07T12:06:26Z</time>
    </trkpt>
    <trkpt lat="50.887484" lon="20.962965">
      <ele>373</ele>
      <time>2026-05-07T12:07:05Z</time>
    </trkpt>
    <trkpt lat="50.887674" lon="20.962523">
      <ele>369</ele>
      <time>2026-05-07T12:07:40Z</time>
    </trkpt>
    <trkpt lat="50.887789" lon="20.962254">
      <ele>367</ele>
      <time>2026-05-07T12:08:02Z</time>
    </trkpt>
    <trkpt lat="50.88791" lon="20.961938">
      <ele>367</ele>
      <time>2026-05-07T12:08:27Z</time>
    </trkpt>
    <trkpt lat="50.88828" lon="20.960642">
      <ele>371</ele>
      <time>2026-05-07T12:10:01Z</time>
    </trkpt>
    <trkpt lat="50.888588" lon="20.959584">
      <ele>368</ele>
      <time>2026-05-07T12:11:18Z</time>
    </trkpt>
    <trkpt lat="50.888955" lon="20.958356">
      <ele>361</ele>
      <time>2026-05-07T12:12:49Z</time>
    </trkpt>
    <trkpt lat="50.88938" lon="20.956891">
      <ele>365</ele>
      <time>2026-05-07T12:14:36Z</time>
    </trkpt>
    <trkpt lat="50.889428" lon="20.956717">
      <ele>365</ele>
      <time>2026-05-07T12:14:48Z</time>
    </trkpt>
    <trkpt lat="50.889699" lon="20.955816">
      <ele>360</ele>
      <time>2026-05-07T12:15:55Z</time>
    </trkpt>
    <trkpt lat="50.889725" lon="20.95572">
      <ele>360</ele>
      <time>2026-05-07T12:16:02Z</time>
    </trkpt>
    <trkpt lat="50.889939" lon="20.954971">
      <ele>364</ele>
      <time>2026-05-07T12:16:56Z</time>
    </trkpt>
    <trkpt lat="50.890158" lon="20.954263">
      <ele>361</ele>
      <time>2026-05-07T12:17:49Z</time>
    </trkpt>
    <trkpt lat="50.890875" lon="20.951835">
      <ele>358</ele>
      <time>2026-05-07T12:20:47Z</time>
    </trkpt>
    <trkpt lat="50.891477" lon="20.949781">
      <ele>355</ele>
      <time>2026-05-07T12:23:17Z</time>
    </trkpt>
    <trkpt lat="50.89151" lon="20.949594">
      <ele>356</ele>
      <time>2026-05-07T12:23:30Z</time>
    </trkpt>
    <trkpt lat="50.891563" lon="20.949096">
      <ele>359</ele>
      <time>2026-05-07T12:24:03Z</time>
    </trkpt>
    <trkpt lat="50.891587" lon="20.948818">
      <ele>361</ele>
      <time>2026-05-07T12:24:22Z</time>
    </trkpt>
    <trkpt lat="50.891611" lon="20.948546">
      <ele>361</ele>
      <time>2026-05-07T12:24:40Z</time>
    </trkpt>
    <trkpt lat="50.891731" lon="20.947967">
      <ele>359</ele>
      <time>2026-05-07T12:25:21Z</time>
    </trkpt>
    <trkpt lat="50.891802" lon="20.947708">
      <ele>358</ele>
      <time>2026-05-07T12:25:40Z</time>
    </trkpt>
    <trkpt lat="50.891952" lon="20.947163">
      <ele>362</ele>
      <time>2026-05-07T12:26:19Z</time>
    </trkpt>
    <trkpt lat="50.892145" lon="20.946492">
      <ele>364</ele>
      <time>2026-05-07T12:27:08Z</time>
    </trkpt>
    <trkpt lat="50.892343" lon="20.945809">
      <ele>361</ele>
      <time>2026-05-07T12:27:58Z</time>
    </trkpt>
    <trkpt lat="50.892592" lon="20.944955">
      <ele>360</ele>
      <time>2026-05-07T12:29:00Z</time>
    </trkpt>
    <trkpt lat="50.892699" lon="20.944671">
      <ele>360</ele>
      <time>2026-05-07T12:29:22Z</time>
    </trkpt>
    <trkpt lat="50.892743" lon="20.944553">
      <ele>360</ele>
      <time>2026-05-07T12:29:32Z</time>
    </trkpt>
    <trkpt lat="50.892895" lon="20.944146">
      <ele>360</ele>
      <time>2026-05-07T12:30:03Z</time>
    </trkpt>
    <trkpt lat="50.893503" lon="20.942744">
      <ele>357</ele>
      <time>2026-05-07T12:31:56Z</time>
    </trkpt>
    <trkpt lat="50.893553" lon="20.942629">
      <ele>357</ele>
      <time>2026-05-07T12:32:05Z</time>
    </trkpt>
    <trkpt lat="50.893587" lon="20.942551">
      <ele>358</ele>
      <time>2026-05-07T12:32:11Z</time>
    </trkpt>
    <trkpt lat="50.893997" lon="20.941742">
      <ele>360</ele>
      <time>2026-05-07T12:33:20Z</time>
    </trkpt>
    <trkpt lat="50.894144" lon="20.941352">
      <ele>360</ele>
      <time>2026-05-07T12:33:50Z</time>
    </trkpt>
    <trkpt lat="50.894832" lon="20.939435">
      <ele>356</ele>
      <time>2026-05-07T12:36:17Z</time>
    </trkpt>
    <trkpt lat="50.894996" lon="20.938866">
      <ele>353</ele>
      <time>2026-05-07T12:36:58Z</time>
    </trkpt>
    <trkpt lat="50.895149" lon="20.938499">
      <ele>353</ele>
      <time>2026-05-07T12:37:28Z</time>
    </trkpt>
    <trkpt lat="50.895225" lon="20.938375">
      <ele>353</ele>
      <time>2026-05-07T12:37:39Z</time>
    </trkpt>
    <trkpt lat="50.895313" lon="20.938201">
      <ele>353</ele>
      <time>2026-05-07T12:37:53Z</time>
    </trkpt>
    <trkpt lat="50.895659" lon="20.937378">
      <ele>354</ele>
      <time>2026-05-07T12:38:55Z</time>
    </trkpt>
    <trkpt lat="50.895921" lon="20.936836">
      <ele>355</ele>
      <time>2026-05-07T12:39:38Z</time>
    </trkpt>
    <trkpt lat="50.895962" lon="20.936737">
      <ele>355</ele>
      <time>2026-05-07T12:39:45Z</time>
    </trkpt>
    <trkpt lat="50.896004" lon="20.936627">
      <ele>356</ele>
      <time>2026-05-07T12:39:53Z</time>
    </trkpt>
    <trkpt lat="50.896089" lon="20.936417">
      <ele>357</ele>
      <time>2026-05-07T12:40:09Z</time>
    </trkpt>
    <trkpt lat="50.896421" lon="20.935669">
      <ele>356</ele>
      <time>2026-05-07T12:41:06Z</time>
    </trkpt>
    <trkpt lat="50.896473" lon="20.93556">
      <ele>355</ele>
      <time>2026-05-07T12:41:14Z</time>
    </trkpt>
    <trkpt lat="50.896605" lon="20.935337">
      <ele>354</ele>
      <time>2026-05-07T12:41:34Z</time>
    </trkpt>
    <trkpt lat="50.896818" lon="20.935106">
      <ele>352</ele>
      <time>2026-05-07T12:41:59Z</time>
    </trkpt>
    <trkpt lat="50.897132" lon="20.934739">
      <ele>352</ele>
      <time>2026-05-07T12:42:38Z</time>
    </trkpt>
    <trkpt lat="50.897341" lon="20.934412">
      <ele>353</ele>
      <time>2026-05-07T12:43:07Z</time>
    </trkpt>
    <trkpt lat="50.897494" lon="20.934099">
      <ele>352</ele>
      <time>2026-05-07T12:43:32Z</time>
    </trkpt>
    <trkpt lat="50.897608" lon="20.933768">
      <ele>350</ele>
      <time>2026-05-07T12:43:55Z</time>
    </trkpt>
    <trkpt lat="50.897785" lon="20.933283">
      <ele>348</ele>
      <time>2026-05-07T12:44:30Z</time>
    </trkpt>
    <trkpt lat="50.89799" lon="20.932659">
      <ele>349</ele>
      <time>2026-05-07T12:45:14Z</time>
    </trkpt>
    <trkpt lat="50.898041" lon="20.932504">
      <ele>350</ele>
      <time>2026-05-07T12:45:25Z</time>
    </trkpt>
    <trkpt lat="50.898461" lon="20.931281">
      <ele>349</ele>
      <time>2026-05-07T12:46:52Z</time>
    </trkpt>
    <trkpt lat="50.898791" lon="20.930302">
      <ele>347</ele>
      <time>2026-05-07T12:48:02Z</time>
    </trkpt>
    <trkpt lat="50.898943" lon="20.929862">
      <ele>347</ele>
      <time>2026-05-07T12:48:33Z</time>
    </trkpt>
    <trkpt lat="50.898969" lon="20.929789">
      <ele>347</ele>
      <time>2026-05-07T12:48:38Z</time>
    </trkpt>
    <trkpt lat="50.899063" lon="20.929538">
      <ele>347</ele>
      <time>2026-05-07T12:48:57Z</time>
    </trkpt>
    <trkpt lat="50.899389" lon="20.928542">
      <ele>346</ele>
      <time>2026-05-07T12:50:07Z</time>
    </trkpt>
    <trkpt lat="50.899589" lon="20.927982">
      <ele>345</ele>
      <time>2026-05-07T12:50:47Z</time>
    </trkpt>
    <trkpt lat="50.899639" lon="20.927843">
      <ele>345</ele>
      <time>2026-05-07T12:50:57Z</time>
    </trkpt>
    <trkpt lat="50.899838" lon="20.927268">
      <ele>345</ele>
      <time>2026-05-07T12:51:38Z</time>
    </trkpt>
    <trkpt lat="50.899932" lon="20.926975">
      <ele>344</ele>
      <time>2026-05-07T12:51:59Z</time>
    </trkpt>
    <trkpt lat="50.899984" lon="20.926803">
      <ele>343</ele>
      <time>2026-05-07T12:52:11Z</time>
    </trkpt>
    <trkpt lat="50.900114" lon="20.926153">
      <ele>343</ele>
      <time>2026-05-07T12:52:53Z</time>
    </trkpt>
    <trkpt lat="50.90025" lon="20.925406">
      <ele>341</ele>
      <time>2026-05-07T12:53:42Z</time>
    </trkpt>
    <trkpt lat="50.900406" lon="20.924505">
      <ele>342</ele>
      <time>2026-05-07T12:54:40Z</time>
    </trkpt>
    <trkpt lat="50.900518" lon="20.923863">
      <ele>341</ele>
      <time>2026-05-07T12:55:22Z</time>
    </trkpt>
    <trkpt lat="50.900539" lon="20.92374">
      <ele>341</ele>
      <time>2026-05-07T12:55:30Z</time>
    </trkpt>
    <trkpt lat="50.90068" lon="20.922932">
      <ele>340</ele>
      <time>2026-05-07T12:56:22Z</time>
    </trkpt>
    <trkpt lat="50.900801" lon="20.922442">
      <ele>340</ele>
      <time>2026-05-07T12:56:55Z</time>
    </trkpt>
    <trkpt lat="50.900886" lon="20.922204">
      <ele>341</ele>
      <time>2026-05-07T12:57:12Z</time>
    </trkpt>
    <trkpt lat="50.901" lon="20.921988">
      <ele>340</ele>
      <time>2026-05-07T12:57:30Z</time>
    </trkpt>
    <trkpt lat="50.901122" lon="20.9218">
      <ele>339</ele>
      <time>2026-05-07T12:57:47Z</time>
    </trkpt>
    <trkpt lat="50.901228" lon="20.921691">
      <ele>338</ele>
      <time>2026-05-07T12:57:59Z</time>
    </trkpt>
    <trkpt lat="50.901356" lon="20.92157">
      <ele>338</ele>
      <time>2026-05-07T12:58:14Z</time>
    </trkpt>
    <trkpt lat="50.901582" lon="20.92144">
      <ele>337</ele>
      <time>2026-05-07T12:58:38Z</time>
    </trkpt>
    <trkpt lat="50.901657" lon="20.921403">
      <ele>337</ele>
      <time>2026-05-07T12:58:46Z</time>
    </trkpt>
    <trkpt lat="50.902103" lon="20.9212">
      <ele>336</ele>
      <time>2026-05-07T12:59:32Z</time>
    </trkpt>
    <trkpt lat="50.902388" lon="20.921011">
      <ele>336</ele>
      <time>2026-05-07T13:00:03Z</time>
    </trkpt>
    <trkpt lat="50.902637" lon="20.920664">
      <ele>336</ele>
      <time>2026-05-07T13:00:35Z</time>
    </trkpt>
    <trkpt lat="50.902776" lon="20.920465">
      <ele>336</ele>
      <time>2026-05-07T13:00:54Z</time>
    </trkpt>
    <trkpt lat="50.902897" lon="20.920163">
      <ele>335</ele>
      <time>2026-05-07T13:01:16Z</time>
    </trkpt>
    <trkpt lat="50.902972" lon="20.91957">
      <ele>335</ele>
      <time>2026-05-07T13:01:54Z</time>
    </trkpt>
    <trkpt lat="50.902996" lon="20.918733">
      <ele>335</ele>
      <time>2026-05-07T13:02:47Z</time>
    </trkpt>
    <trkpt lat="50.903042" lon="20.918348">
      <ele>335</ele>
      <time>2026-05-07T13:03:11Z</time>
    </trkpt>
    <trkpt lat="50.903138" lon="20.91791">
      <ele>335</ele>
      <time>2026-05-07T13:03:40Z</time>
    </trkpt>
    <trkpt lat="50.903248" lon="20.917593">
      <ele>335</ele>
      <time>2026-05-07T13:04:03Z</time>
    </trkpt>
    <trkpt lat="50.903275" lon="20.917526">
      <ele>335</ele>
      <time>2026-05-07T13:04:08Z</time>
    </trkpt>
    <trkpt lat="50.903385" lon="20.917357">
      <ele>335</ele>
      <time>2026-05-07T13:04:23Z</time>
    </trkpt>
    <trkpt lat="50.903873" lon="20.916678">
      <ele>331</ele>
      <time>2026-05-07T13:05:27Z</time>
    </trkpt>
    <trkpt lat="50.904416" lon="20.915938">
      <ele>331</ele>
      <time>2026-05-07T13:06:38Z</time>
    </trkpt>
    <trkpt lat="50.90459" lon="20.915737">
      <ele>331</ele>
      <time>2026-05-07T13:07:00Z</time>
    </trkpt>
    <trkpt lat="50.904646" lon="20.915675">
      <ele>331</ele>
      <time>2026-05-07T13:07:06Z</time>
    </trkpt>
    <trkpt lat="50.904968" lon="20.915334">
      <ele>331</ele>
      <time>2026-05-07T13:07:45Z</time>
    </trkpt>
    <trkpt lat="50.90604" lon="20.914485">
      <ele>326</ele>
      <time>2026-05-07T13:09:44Z</time>
    </trkpt>
    <trkpt lat="50.906109" lon="20.914435">
      <ele>325</ele>
      <time>2026-05-07T13:09:51Z</time>
    </trkpt>
    <trkpt lat="50.906184" lon="20.91438">
      <ele>325</ele>
      <time>2026-05-07T13:09:59Z</time>
    </trkpt>
    <trkpt lat="50.906633" lon="20.914056">
      <ele>323</ele>
      <time>2026-05-07T13:10:48Z</time>
    </trkpt>
    <trkpt lat="50.906979" lon="20.913832">
      <ele>324</ele>
      <time>2026-05-07T13:11:25Z</time>
    </trkpt>
    <trkpt lat="50.907231" lon="20.913749">
      <ele>324</ele>
      <time>2026-05-07T13:11:51Z</time>
    </trkpt>
    <trkpt lat="50.908021" lon="20.913707">
      <ele>323</ele>
      <time>2026-05-07T13:13:09Z</time>
    </trkpt>
    <trkpt lat="50.908266" lon="20.91363">
      <ele>323</ele>
      <time>2026-05-07T13:13:34Z</time>
    </trkpt>
    <trkpt lat="50.908557" lon="20.91347">
      <ele>321</ele>
      <time>2026-05-07T13:14:05Z</time>
    </trkpt>
    <trkpt lat="50.908883" lon="20.913164">
      <ele>321</ele>
      <time>2026-05-07T13:14:42Z</time>
    </trkpt>
    <trkpt lat="50.909273" lon="20.912751">
      <ele>321</ele>
      <time>2026-05-07T13:15:29Z</time>
    </trkpt>
    <trkpt lat="50.909523" lon="20.912341">
      <ele>322</ele>
      <time>2026-05-07T13:16:04Z</time>
    </trkpt>
    <trkpt lat="50.909674" lon="20.912162">
      <ele>323</ele>
      <time>2026-05-07T13:16:23Z</time>
    </trkpt>
    <trkpt lat="50.909907" lon="20.911634">
      <ele>322</ele>
      <time>2026-05-07T13:17:03Z</time>
    </trkpt>
    <trkpt lat="50.910069" lon="20.911251">
      <ele>321</ele>
      <time>2026-05-07T13:17:32Z</time>
    </trkpt>
    <trkpt lat="50.910108" lon="20.911159">
      <ele>321</ele>
      <time>2026-05-07T13:17:39Z</time>
    </trkpt>
    <trkpt lat="50.910032" lon="20.911143">
      <ele>321</ele>
      <time>2026-05-07T13:17:48Z</time>
    </trkpt>
    <trkpt lat="50.909814" lon="20.911315">
      <ele>320</ele>
      <time>2026-05-07T13:18:16Z</time>
    </trkpt>
    <trkpt lat="50.909662" lon="20.911367">
      <ele>320</ele>
      <time>2026-05-07T13:18:33Z</time>
    </trkpt>
    <trkpt lat="50.909547" lon="20.911386">
      <ele>321</ele>
      <time>2026-05-07T13:18:47Z</time>
    </trkpt>
    <trkpt lat="50.90941" lon="20.911385">
      <ele>322</ele>
      <time>2026-05-07T13:19:02Z</time>
    </trkpt>
    <trkpt lat="50.90932" lon="20.911355">
      <ele>323</ele>
      <time>2026-05-07T13:19:13Z</time>
    </trkpt>
    <trkpt lat="50.909195" lon="20.911301">
      <ele>325</ele>
      <time>2026-05-07T13:19:28Z</time>
    </trkpt>
    <trkpt lat="50.909046" lon="20.911176">
      <ele>325</ele>
      <time>2026-05-07T13:19:47Z</time>
    </trkpt>
    <trkpt lat="50.908896" lon="20.911022">
      <ele>325</ele>
      <time>2026-05-07T13:20:07Z</time>
    </trkpt>
    <trkpt lat="50.908683" lon="20.910772">
      <ele>325</ele>
      <time>2026-05-07T13:20:38Z</time>
    </trkpt>
    <trkpt lat="50.908477" lon="20.910561">
      <ele>326</ele>
      <time>2026-05-07T13:21:06Z</time>
    </trkpt>
    <trkpt lat="50.907609" lon="20.909583">
      <ele>329</ele>
      <time>2026-05-07T13:23:08Z</time>
    </trkpt>
    <trkpt lat="50.907201" lon="20.909009">
      <ele>328</ele>
      <time>2026-05-07T13:24:10Z</time>
    </trkpt>
    <trkpt lat="50.906984" lon="20.90856">
      <ele>328</ele>
      <time>2026-05-07T13:24:51Z</time>
    </trkpt>
    <trkpt lat="50.906832" lon="20.908216">
      <ele>329</ele>
      <time>2026-05-07T13:25:21Z</time>
    </trkpt>
    <trkpt lat="50.906332" lon="20.907078">
      <ele>332</ele>
      <time>2026-05-07T13:27:01Z</time>
    </trkpt>
    <trkpt lat="50.905681" lon="20.905377">
      <ele>338</ele>
      <time>2026-05-07T13:29:25Z</time>
    </trkpt>
    <trkpt lat="50.904922" lon="20.903514">
      <ele>341</ele>
      <time>2026-05-07T13:32:05Z</time>
    </trkpt>
    <trkpt lat="50.904889" lon="20.903419">
      <ele>341</ele>
      <time>2026-05-07T13:32:12Z</time>
    </trkpt>
    <trkpt lat="50.904806" lon="20.903196">
      <ele>342</ele>
      <time>2026-05-07T13:32:31Z</time>
    </trkpt>
    <trkpt lat="50.904608" lon="20.902424">
      <ele>344</ele>
      <time>2026-05-07T13:33:31Z</time>
    </trkpt>
    <trkpt lat="50.904502" lon="20.901802">
      <ele>344</ele>
      <time>2026-05-07T13:34:18Z</time>
    </trkpt>
    <trkpt lat="50.904483" lon="20.901691">
      <ele>344</ele>
      <time>2026-05-07T13:34:26Z</time>
    </trkpt>
    <trkpt lat="50.904049" lon="20.898088">
      <ele>353</ele>
      <time>2026-05-07T13:38:50Z</time>
    </trkpt>
    <trkpt lat="50.903851" lon="20.896539">
      <ele>356</ele>
      <time>2026-05-07T13:40:44Z</time>
    </trkpt>
    <trkpt lat="50.903728" lon="20.895642">
      <ele>357</ele>
      <time>2026-05-07T13:41:51Z</time>
    </trkpt>
    <trkpt lat="50.903555" lon="20.894639">
      <ele>360</ele>
      <time>2026-05-07T13:43:06Z</time>
    </trkpt>
    <trkpt lat="50.903396" lon="20.893797">
      <ele>363</ele>
      <time>2026-05-07T13:44:09Z</time>
    </trkpt>
    <trkpt lat="50.903129" lon="20.892685">
      <ele>365</ele>
      <time>2026-05-07T13:45:35Z</time>
    </trkpt>
    <trkpt lat="50.90264" lon="20.890924">
      <ele>370</ele>
      <time>2026-05-07T13:47:54Z</time>
    </trkpt>
    <trkpt lat="50.902198" lon="20.889353">
      <ele>372</ele>
      <time>2026-05-07T13:49:58Z</time>
    </trkpt>
    <trkpt lat="50.90187" lon="20.888188">
      <ele>376</ele>
      <time>2026-05-07T13:51:30Z</time>
    </trkpt>
    <trkpt lat="50.901344" lon="20.886625">
      <ele>380</ele>
      <time>2026-05-07T13:53:38Z</time>
    </trkpt>
    <trkpt lat="50.900335" lon="20.883684">
      <ele>387</ele>
      <time>2026-05-07T13:57:39Z</time>
    </trkpt>
    <trkpt lat="50.900531" lon="20.883606">
      <ele>386</ele>
      <time>2026-05-07T13:57:55Z</time>
    </trkpt>
    <trkpt lat="50.900694" lon="20.883487">
      <ele>384</ele>
      <time>2026-05-07T13:58:10Z</time>
    </trkpt>
    <trkpt lat="50.901031" lon="20.883292">
      <ele>378</ele>
      <time>2026-05-07T13:58:39Z</time>
    </trkpt>
    <trkpt lat="50.901147" lon="20.883217">
      <ele>375</ele>
      <time>2026-05-07T13:58:54Z</time>
    </trkpt>
    <trkpt lat="50.901186" lon="20.883168">
      <ele>373</ele>
      <time>2026-05-07T13:58:59Z</time>
    </trkpt>
    <trkpt lat="50.901223" lon="20.883096">
      <ele>372</ele>
      <time>2026-05-07T13:59:06Z</time>
    </trkpt>
    <trkpt lat="50.901238" lon="20.882805">
      <ele>368</ele>
      <time>2026-05-07T13:59:28Z</time>
    </trkpt>
    <trkpt lat="50.901285" lon="20.882591">
      <ele>366</ele>
      <time>2026-05-07T13:59:44Z</time>
    </trkpt>
    <trkpt lat="50.901398" lon="20.882089">
      <ele>363</ele>
      <time>2026-05-07T14:00:22Z</time>
    </trkpt>
    <trkpt lat="50.901472" lon="20.881778">
      <ele>362</ele>
      <time>2026-05-07T14:00:46Z</time>
    </trkpt>
    <trkpt lat="50.901477" lon="20.881696">
      <ele>362</ele>
      <time>2026-05-07T14:00:52Z</time>
    </trkpt>
    <trkpt lat="50.901435" lon="20.881463">
      <ele>363</ele>
      <time>2026-05-07T14:01:10Z</time>
    </trkpt>
    <trkpt lat="50.901396" lon="20.881253">
      <ele>364</ele>
      <time>2026-05-07T14:01:25Z</time>
    </trkpt>
    <trkpt lat="50.901373" lon="20.881047">
      <ele>364</ele>
      <time>2026-05-07T14:01:40Z</time>
    </trkpt>
    <trkpt lat="50.901375" lon="20.880944">
      <ele>364</ele>
      <time>2026-05-07T14:01:48Z</time>
    </trkpt>
    <trkpt lat="50.901387" lon="20.88085">
      <ele>364</ele>
      <time>2026-05-07T14:01:55Z</time>
    </trkpt>
    <trkpt lat="50.901411" lon="20.880747">
      <ele>364</ele>
      <time>2026-05-07T14:02:03Z</time>
    </trkpt>
    <trkpt lat="50.901423" lon="20.880696">
      <ele>364</ele>
      <time>2026-05-07T14:02:06Z</time>
    </trkpt>
    <trkpt lat="50.901455" lon="20.880585">
      <ele>363</ele>
      <time>2026-05-07T14:02:15Z</time>
    </trkpt>
    <trkpt lat="50.901497" lon="20.880421">
      <ele>361</ele>
      <time>2026-05-07T14:02:28Z</time>
    </trkpt>
    <trkpt lat="50.901515" lon="20.880351">
      <ele>360</ele>
      <time>2026-05-07T14:02:34Z</time>
    </trkpt>
    <trkpt lat="50.901403" lon="20.880232">
      <ele>362</ele>
      <time>2026-05-07T14:02:49Z</time>
    </trkpt>
    <trkpt lat="50.901163" lon="20.879964">
      <ele>364</ele>
      <time>2026-05-07T14:03:22Z</time>
    </trkpt>
    <trkpt lat="50.901144" lon="20.879942">
      <ele>364</ele>
      <time>2026-05-07T14:03:25Z</time>
    </trkpt>
    <trkpt lat="50.901031" lon="20.879803">
      <ele>364</ele>
      <time>2026-05-07T14:03:41Z</time>
    </trkpt>
    <trkpt lat="50.900979" lon="20.87973">
      <ele>364</ele>
      <time>2026-05-07T14:03:49Z</time>
    </trkpt>
    <trkpt lat="50.900808" lon="20.879476">
      <ele>364</ele>
      <time>2026-05-07T14:04:16Z</time>
    </trkpt>
    <trkpt lat="50.90069" lon="20.879229">
      <ele>365</ele>
      <time>2026-05-07T14:04:38Z</time>
    </trkpt>
    <trkpt lat="50.900533" lon="20.878918">
      <ele>365</ele>
      <time>2026-05-07T14:05:07Z</time>
    </trkpt>
    <trkpt lat="50.900501" lon="20.878852">
      <ele>366</ele>
      <time>2026-05-07T14:05:13Z</time>
    </trkpt>
    <trkpt lat="50.900317" lon="20.878481">
      <ele>368</ele>
      <time>2026-05-07T14:05:47Z</time>
    </trkpt>
    <trkpt lat="50.900152" lon="20.87812">
      <ele>371</ele>
      <time>2026-05-07T14:06:19Z</time>
    </trkpt>
    <trkpt lat="50.900102" lon="20.878019">
      <ele>372</ele>
      <time>2026-05-07T14:06:28Z</time>
    </trkpt>
    <trkpt lat="50.900011" lon="20.877837">
      <ele>374</ele>
      <time>2026-05-07T14:06:45Z</time>
    </trkpt>
    <trkpt lat="50.899838" lon="20.877566">
      <ele>377</ele>
      <time>2026-05-07T14:07:13Z</time>
    </trkpt>
    <trkpt lat="50.899509" lon="20.877065">
      <ele>381</ele>
      <time>2026-05-07T14:08:05Z</time>
    </trkpt>
    <trkpt lat="50.89919" lon="20.876648">
      <ele>381</ele>
      <time>2026-05-07T14:08:52Z</time>
    </trkpt>
    <trkpt lat="50.898336" lon="20.875566">
      <ele>391</ele>
      <time>2026-05-07T14:10:57Z</time>
    </trkpt>
    <trkpt lat="50.898072" lon="20.875223">
      <ele>392</ele>
      <time>2026-05-07T14:11:36Z</time>
    </trkpt>
    <trkpt lat="50.897839" lon="20.874961">
      <ele>393</ele>
      <time>2026-05-07T14:12:08Z</time>
    </trkpt>
    <trkpt lat="50.897612" lon="20.874773">
      <ele>394</ele>
      <time>2026-05-07T14:12:37Z</time>
    </trkpt>
    <trkpt lat="50.8975" lon="20.874712">
      <ele>394</ele>
      <time>2026-05-07T14:12:51Z</time>
    </trkpt>
    <trkpt lat="50.897089" lon="20.874561">
      <ele>396</ele>
      <time>2026-05-07T14:13:39Z</time>
    </trkpt>
  </trkseg>
</trk>
</gpx>