<?xml version="1.0" encoding="UTF-8"?><gpx creator="https://mapa-turystyczna.pl" xmlns="http://www.topografix.com/GPX/1/1" version="1.1" xmlns:xsi="http://www.w3.org/2001/XMLSchema-instance" xsi:schemaLocation="http://www.topografix.com/GPX/1/1 http://www.topografix.com/GPX/1/1/gpx.xsd">
  <metadata>
    <link href="https://mapa-turystyczna.pl">
      <text>mapa-turystyczna.pl</text>
    </link>
    <time>2026-05-07T08:43:36Z</time>
    <bounds maxlat="50.943927" maxlon="15.884978" minlat="50.939359" minlon="15.877584"/>
  </metadata>

<trk>
  <name>Trasa przez: Skopiec</name>
  <link href="https://mapa-turystyczna.pl/route/c75s">
    <text>Trasa przez: Skopiec</text>
  </link>
  <trkseg>
    <trkpt lat="50.939359" lon="15.8776344">
      <ele>629</ele>
      <time>2026-05-07T08:43:36Z</time>
    </trkpt>
    <trkpt lat="50.939451" lon="15.877616">
      <ele>631</ele>
      <time>2026-05-07T08:43:46Z</time>
    </trkpt>
    <trkpt lat="50.9396" lon="15.877584">
      <ele>633</ele>
      <time>2026-05-07T08:44:02Z</time>
    </trkpt>
    <trkpt lat="50.939653" lon="15.87762">
      <ele>633</ele>
      <time>2026-05-07T08:44:08Z</time>
    </trkpt>
    <trkpt lat="50.939741" lon="15.877673">
      <ele>633</ele>
      <time>2026-05-07T08:44:18Z</time>
    </trkpt>
    <trkpt lat="50.939798" lon="15.877699">
      <ele>633</ele>
      <time>2026-05-07T08:44:25Z</time>
    </trkpt>
    <trkpt lat="50.939936" lon="15.877759">
      <ele>632</ele>
      <time>2026-05-07T08:44:40Z</time>
    </trkpt>
    <trkpt lat="50.940068" lon="15.877825">
      <ele>633</ele>
      <time>2026-05-07T08:44:55Z</time>
    </trkpt>
    <trkpt lat="50.94011" lon="15.877838">
      <ele>634</ele>
      <time>2026-05-07T08:44:59Z</time>
    </trkpt>
    <trkpt lat="50.940174" lon="15.877863">
      <ele>635</ele>
      <time>2026-05-07T08:45:06Z</time>
    </trkpt>
    <trkpt lat="50.940262" lon="15.877905">
      <ele>636</ele>
      <time>2026-05-07T08:45:16Z</time>
    </trkpt>
    <trkpt lat="50.940509" lon="15.87807">
      <ele>641</ele>
      <time>2026-05-07T08:45:45Z</time>
    </trkpt>
    <trkpt lat="50.94078" lon="15.878196">
      <ele>646</ele>
      <time>2026-05-07T08:46:16Z</time>
    </trkpt>
    <trkpt lat="50.941088" lon="15.878365">
      <ele>651</ele>
      <time>2026-05-07T08:46:50Z</time>
    </trkpt>
    <trkpt lat="50.941294" lon="15.878493">
      <ele>656</ele>
      <time>2026-05-07T08:47:15Z</time>
    </trkpt>
    <trkpt lat="50.9414" lon="15.878558">
      <ele>660</ele>
      <time>2026-05-07T08:47:27Z</time>
    </trkpt>
    <trkpt lat="50.941472" lon="15.878613">
      <ele>662</ele>
      <time>2026-05-07T08:47:36Z</time>
    </trkpt>
    <trkpt lat="50.941556" lon="15.878659">
      <ele>660</ele>
      <time>2026-05-07T08:47:41Z</time>
    </trkpt>
    <trkpt lat="50.941654" lon="15.878708">
      <ele>657</ele>
      <time>2026-05-07T08:47:47Z</time>
    </trkpt>
    <trkpt lat="50.941914" lon="15.87882">
      <ele>657</ele>
      <time>2026-05-07T08:48:02Z</time>
    </trkpt>
    <trkpt lat="50.94205" lon="15.878892">
      <ele>658</ele>
      <time>2026-05-07T08:48:11Z</time>
    </trkpt>
    <trkpt lat="50.942112" lon="15.878931">
      <ele>659</ele>
      <time>2026-05-07T08:48:14Z</time>
    </trkpt>
    <trkpt lat="50.942257" lon="15.879015">
      <ele>660</ele>
      <time>2026-05-07T08:48:23Z</time>
    </trkpt>
    <trkpt lat="50.942311" lon="15.879046">
      <ele>660</ele>
      <time>2026-05-07T08:48:26Z</time>
    </trkpt>
    <trkpt lat="50.942469" lon="15.879139">
      <ele>659</ele>
      <time>2026-05-07T08:48:36Z</time>
    </trkpt>
    <trkpt lat="50.942311" lon="15.879046">
      <ele>660</ele>
      <time>2026-05-07T08:48:55Z</time>
    </trkpt>
    <trkpt lat="50.942257" lon="15.879015">
      <ele>660</ele>
      <time>2026-05-07T08:49:02Z</time>
    </trkpt>
    <trkpt lat="50.942112" lon="15.878931">
      <ele>659</ele>
      <time>2026-05-07T08:49:19Z</time>
    </trkpt>
    <trkpt lat="50.94205" lon="15.878892">
      <ele>658</ele>
      <time>2026-05-07T08:49:27Z</time>
    </trkpt>
    <trkpt lat="50.941914" lon="15.87882">
      <ele>657</ele>
      <time>2026-05-07T08:49:43Z</time>
    </trkpt>
    <trkpt lat="50.941654" lon="15.878708">
      <ele>657</ele>
      <time>2026-05-07T08:50:14Z</time>
    </trkpt>
    <trkpt lat="50.941556" lon="15.878659">
      <ele>660</ele>
      <time>2026-05-07T08:50:26Z</time>
    </trkpt>
    <trkpt lat="50.941472" lon="15.878613">
      <ele>662</ele>
      <time>2026-05-07T08:50:36Z</time>
    </trkpt>
    <trkpt lat="50.941553" lon="15.878689">
      <ele>659</ele>
      <time>2026-05-07T08:50:54Z</time>
    </trkpt>
    <trkpt lat="50.941635" lon="15.878768">
      <ele>657</ele>
      <time>2026-05-07T08:51:13Z</time>
    </trkpt>
    <trkpt lat="50.941753" lon="15.878924">
      <ele>654</ele>
      <time>2026-05-07T08:51:42Z</time>
    </trkpt>
    <trkpt lat="50.941869" lon="15.879107">
      <ele>657</ele>
      <time>2026-05-07T08:52:13Z</time>
    </trkpt>
    <trkpt lat="50.941924" lon="15.879211">
      <ele>658</ele>
      <time>2026-05-07T08:52:29Z</time>
    </trkpt>
    <trkpt lat="50.941994" lon="15.879404">
      <ele>660</ele>
      <time>2026-05-07T08:52:56Z</time>
    </trkpt>
    <trkpt lat="50.942034" lon="15.87958">
      <ele>661</ele>
      <time>2026-05-07T08:53:18Z</time>
    </trkpt>
    <trkpt lat="50.942049" lon="15.879734">
      <ele>662</ele>
      <time>2026-05-07T08:53:36Z</time>
    </trkpt>
    <trkpt lat="50.942049" lon="15.879826">
      <ele>663</ele>
      <time>2026-05-07T08:53:47Z</time>
    </trkpt>
    <trkpt lat="50.942044" lon="15.879916">
      <ele>664</ele>
      <time>2026-05-07T08:53:58Z</time>
    </trkpt>
    <trkpt lat="50.941927" lon="15.880328">
      <ele>665</ele>
      <time>2026-05-07T08:54:52Z</time>
    </trkpt>
    <trkpt lat="50.941818" lon="15.880671">
      <ele>667</ele>
      <time>2026-05-07T08:55:37Z</time>
    </trkpt>
    <trkpt lat="50.941687" lon="15.881011">
      <ele>669</ele>
      <time>2026-05-07T08:56:24Z</time>
    </trkpt>
    <trkpt lat="50.941542" lon="15.881394">
      <ele>675</ele>
      <time>2026-05-07T08:57:18Z</time>
    </trkpt>
    <trkpt lat="50.941469" lon="15.881543">
      <ele>678</ele>
      <time>2026-05-07T08:57:41Z</time>
    </trkpt>
    <trkpt lat="50.941379" lon="15.881718">
      <ele>683</ele>
      <time>2026-05-07T08:58:09Z</time>
    </trkpt>
    <trkpt lat="50.941335" lon="15.881814">
      <ele>685</ele>
      <time>2026-05-07T08:58:23Z</time>
    </trkpt>
    <trkpt lat="50.941307" lon="15.88192">
      <ele>687</ele>
      <time>2026-05-07T08:58:37Z</time>
    </trkpt>
    <trkpt lat="50.941422" lon="15.882105">
      <ele>690</ele>
      <time>2026-05-07T08:59:08Z</time>
    </trkpt>
    <trkpt lat="50.941653" lon="15.882315">
      <ele>692</ele>
      <time>2026-05-07T08:59:59Z</time>
    </trkpt>
    <trkpt lat="50.941823" lon="15.882427">
      <ele>695</ele>
      <time>2026-05-07T09:00:34Z</time>
    </trkpt>
    <trkpt lat="50.942006" lon="15.882525">
      <ele>697</ele>
      <time>2026-05-07T09:01:10Z</time>
    </trkpt>
    <trkpt lat="50.942235" lon="15.882675">
      <ele>699</ele>
      <time>2026-05-07T09:01:57Z</time>
    </trkpt>
    <trkpt lat="50.942386" lon="15.882796">
      <ele>700</ele>
      <time>2026-05-07T09:02:28Z</time>
    </trkpt>
    <trkpt lat="50.942442" lon="15.882903">
      <ele>701</ele>
      <time>2026-05-07T09:02:45Z</time>
    </trkpt>
    <trkpt lat="50.942502" lon="15.883026">
      <ele>703</ele>
      <time>2026-05-07T09:03:03Z</time>
    </trkpt>
    <trkpt lat="50.94267" lon="15.883334">
      <ele>707</ele>
      <time>2026-05-07T09:03:52Z</time>
    </trkpt>
    <trkpt lat="50.942818" lon="15.883611">
      <ele>709</ele>
      <time>2026-05-07T09:04:35Z</time>
    </trkpt>
    <trkpt lat="50.942899" lon="15.883778">
      <ele>710</ele>
      <time>2026-05-07T09:05:00Z</time>
    </trkpt>
    <trkpt lat="50.942934" lon="15.883945">
      <ele>711</ele>
      <time>2026-05-07T09:05:21Z</time>
    </trkpt>
    <trkpt lat="50.942951" lon="15.884066">
      <ele>711</ele>
      <time>2026-05-07T09:05:36Z</time>
    </trkpt>
    <trkpt lat="50.943039" lon="15.884178">
      <ele>711</ele>
      <time>2026-05-07T09:05:52Z</time>
    </trkpt>
    <trkpt lat="50.943115" lon="15.884249">
      <ele>712</ele>
      <time>2026-05-07T09:06:05Z</time>
    </trkpt>
    <trkpt lat="50.94326" lon="15.884389">
      <ele>713</ele>
      <time>2026-05-07T09:06:30Z</time>
    </trkpt>
    <trkpt lat="50.943371" lon="15.884548">
      <ele>713</ele>
      <time>2026-05-07T09:06:51Z</time>
    </trkpt>
    <trkpt lat="50.943472" lon="15.884687">
      <ele>713</ele>
      <time>2026-05-07T09:07:11Z</time>
    </trkpt>
    <trkpt lat="50.943652" lon="15.884878">
      <ele>715</ele>
      <time>2026-05-07T09:07:42Z</time>
    </trkpt>
    <trkpt lat="50.943755" lon="15.884978">
      <ele>715</ele>
      <time>2026-05-07T09:07:59Z</time>
    </trkpt>
    <trkpt lat="50.943845" lon="15.884894">
      <ele>717</ele>
      <time>2026-05-07T09:08:15Z</time>
    </trkpt>
    <trkpt lat="50.943901" lon="15.8848">
      <ele>718</ele>
      <time>2026-05-07T09:08:27Z</time>
    </trkpt>
    <trkpt lat="50.943927" lon="15.884706">
      <ele>719</ele>
      <time>2026-05-07T09:08:36Z</time>
    </trkpt>
    <trkpt lat="50.943901" lon="15.8848">
      <ele>718</ele>
      <time>2026-05-07T09:08:42Z</time>
    </trkpt>
    <trkpt lat="50.943845" lon="15.884894">
      <ele>717</ele>
      <time>2026-05-07T09:08:50Z</time>
    </trkpt>
    <trkpt lat="50.943755" lon="15.884978">
      <ele>715</ele>
      <time>2026-05-07T09:09:00Z</time>
    </trkpt>
    <trkpt lat="50.943652" lon="15.884878">
      <ele>715</ele>
      <time>2026-05-07T09:09:12Z</time>
    </trkpt>
    <trkpt lat="50.943472" lon="15.884687">
      <ele>713</ele>
      <time>2026-05-07T09:09:33Z</time>
    </trkpt>
    <trkpt lat="50.943371" lon="15.884548">
      <ele>713</ele>
      <time>2026-05-07T09:09:46Z</time>
    </trkpt>
    <trkpt lat="50.94326" lon="15.884389">
      <ele>713</ele>
      <time>2026-05-07T09:10:00Z</time>
    </trkpt>
    <trkpt lat="50.943115" lon="15.884249">
      <ele>712</ele>
      <time>2026-05-07T09:10:17Z</time>
    </trkpt>
    <trkpt lat="50.943039" lon="15.884178">
      <ele>711</ele>
      <time>2026-05-07T09:10:25Z</time>
    </trkpt>
    <trkpt lat="50.942951" lon="15.884066">
      <ele>711</ele>
      <time>2026-05-07T09:10:36Z</time>
    </trkpt>
    <trkpt lat="50.942934" lon="15.883945">
      <ele>711</ele>
      <time>2026-05-07T09:10:46Z</time>
    </trkpt>
    <trkpt lat="50.942899" lon="15.883778">
      <ele>710</ele>
      <time>2026-05-07T09:11:00Z</time>
    </trkpt>
    <trkpt lat="50.942818" lon="15.883611">
      <ele>709</ele>
      <time>2026-05-07T09:11:16Z</time>
    </trkpt>
    <trkpt lat="50.94267" lon="15.883334">
      <ele>707</ele>
      <time>2026-05-07T09:11:45Z</time>
    </trkpt>
    <trkpt lat="50.942502" lon="15.883026">
      <ele>703</ele>
      <time>2026-05-07T09:12:18Z</time>
    </trkpt>
    <trkpt lat="50.942442" lon="15.882903">
      <ele>701</ele>
      <time>2026-05-07T09:12:30Z</time>
    </trkpt>
    <trkpt lat="50.942386" lon="15.882796">
      <ele>700</ele>
      <time>2026-05-07T09:12:41Z</time>
    </trkpt>
    <trkpt lat="50.942235" lon="15.882675">
      <ele>699</ele>
      <time>2026-05-07T09:13:02Z</time>
    </trkpt>
    <trkpt lat="50.942006" lon="15.882525">
      <ele>697</ele>
      <time>2026-05-07T09:13:33Z</time>
    </trkpt>
    <trkpt lat="50.941823" lon="15.882427">
      <ele>695</ele>
      <time>2026-05-07T09:13:58Z</time>
    </trkpt>
    <trkpt lat="50.941653" lon="15.882315">
      <ele>692</ele>
      <time>2026-05-07T09:14:21Z</time>
    </trkpt>
    <trkpt lat="50.941422" lon="15.882105">
      <ele>690</ele>
      <time>2026-05-07T09:14:54Z</time>
    </trkpt>
    <trkpt lat="50.941307" lon="15.88192">
      <ele>687</ele>
      <time>2026-05-07T09:15:15Z</time>
    </trkpt>
    <trkpt lat="50.941335" lon="15.881814">
      <ele>685</ele>
      <time>2026-05-07T09:15:24Z</time>
    </trkpt>
    <trkpt lat="50.941379" lon="15.881718">
      <ele>683</ele>
      <time>2026-05-07T09:15:34Z</time>
    </trkpt>
    <trkpt lat="50.941469" lon="15.881543">
      <ele>678</ele>
      <time>2026-05-07T09:15:53Z</time>
    </trkpt>
    <trkpt lat="50.941542" lon="15.881394">
      <ele>675</ele>
      <time>2026-05-07T09:16:08Z</time>
    </trkpt>
    <trkpt lat="50.941687" lon="15.881011">
      <ele>669</ele>
      <time>2026-05-07T09:16:44Z</time>
    </trkpt>
    <trkpt lat="50.941818" lon="15.880671">
      <ele>667</ele>
      <time>2026-05-07T09:17:15Z</time>
    </trkpt>
    <trkpt lat="50.941927" lon="15.880328">
      <ele>665</ele>
      <time>2026-05-07T09:17:46Z</time>
    </trkpt>
    <trkpt lat="50.942044" lon="15.879916">
      <ele>664</ele>
      <time>2026-05-07T09:18:21Z</time>
    </trkpt>
    <trkpt lat="50.942049" lon="15.879826">
      <ele>663</ele>
      <time>2026-05-07T09:18:28Z</time>
    </trkpt>
    <trkpt lat="50.942049" lon="15.879734">
      <ele>662</ele>
      <time>2026-05-07T09:18:36Z</time>
    </trkpt>
    <trkpt lat="50.942034" lon="15.87958">
      <ele>661</ele>
      <time>2026-05-07T09:18:48Z</time>
    </trkpt>
    <trkpt lat="50.941994" lon="15.879404">
      <ele>660</ele>
      <time>2026-05-07T09:19:03Z</time>
    </trkpt>
    <trkpt lat="50.941924" lon="15.879211">
      <ele>658</ele>
      <time>2026-05-07T09:19:21Z</time>
    </trkpt>
    <trkpt lat="50.941869" lon="15.879107">
      <ele>657</ele>
      <time>2026-05-07T09:19:31Z</time>
    </trkpt>
    <trkpt lat="50.941753" lon="15.878924">
      <ele>654</ele>
      <time>2026-05-07T09:19:52Z</time>
    </trkpt>
    <trkpt lat="50.941635" lon="15.878768">
      <ele>657</ele>
      <time>2026-05-07T09:20:12Z</time>
    </trkpt>
    <trkpt lat="50.941553" lon="15.878689">
      <ele>659</ele>
      <time>2026-05-07T09:20:24Z</time>
    </trkpt>
    <trkpt lat="50.941472" lon="15.878613">
      <ele>662</ele>
      <time>2026-05-07T09:20:36Z</time>
    </trkpt>
    <trkpt lat="50.941556" lon="15.878659">
      <ele>660</ele>
      <time>2026-05-07T09:20:41Z</time>
    </trkpt>
    <trkpt lat="50.941654" lon="15.878708">
      <ele>657</ele>
      <time>2026-05-07T09:20:47Z</time>
    </trkpt>
    <trkpt lat="50.941914" lon="15.87882">
      <ele>657</ele>
      <time>2026-05-07T09:21:02Z</time>
    </trkpt>
    <trkpt lat="50.94205" lon="15.878892">
      <ele>658</ele>
      <time>2026-05-07T09:21:11Z</time>
    </trkpt>
    <trkpt lat="50.942112" lon="15.878931">
      <ele>659</ele>
      <time>2026-05-07T09:21:14Z</time>
    </trkpt>
    <trkpt lat="50.942257" lon="15.879015">
      <ele>660</ele>
      <time>2026-05-07T09:21:23Z</time>
    </trkpt>
    <trkpt lat="50.942311" lon="15.879046">
      <ele>660</ele>
      <time>2026-05-07T09:21:26Z</time>
    </trkpt>
    <trkpt lat="50.942469" lon="15.879139">
      <ele>659</ele>
      <time>2026-05-07T09:21:36Z</time>
    </trkpt>
    <trkpt lat="50.942311" lon="15.879046">
      <ele>660</ele>
      <time>2026-05-07T09:21:55Z</time>
    </trkpt>
    <trkpt lat="50.942257" lon="15.879015">
      <ele>660</ele>
      <time>2026-05-07T09:22:02Z</time>
    </trkpt>
    <trkpt lat="50.942112" lon="15.878931">
      <ele>659</ele>
      <time>2026-05-07T09:22:19Z</time>
    </trkpt>
    <trkpt lat="50.94205" lon="15.878892">
      <ele>658</ele>
      <time>2026-05-07T09:22:27Z</time>
    </trkpt>
    <trkpt lat="50.941914" lon="15.87882">
      <ele>657</ele>
      <time>2026-05-07T09:22:43Z</time>
    </trkpt>
    <trkpt lat="50.941654" lon="15.878708">
      <ele>657</ele>
      <time>2026-05-07T09:23:14Z</time>
    </trkpt>
    <trkpt lat="50.941556" lon="15.878659">
      <ele>660</ele>
      <time>2026-05-07T09:23:26Z</time>
    </trkpt>
    <trkpt lat="50.941472" lon="15.878613">
      <ele>662</ele>
      <time>2026-05-07T09:23:36Z</time>
    </trkpt>
    <trkpt lat="50.9414" lon="15.878558">
      <ele>660</ele>
      <time>2026-05-07T09:23:45Z</time>
    </trkpt>
    <trkpt lat="50.941294" lon="15.878493">
      <ele>656</ele>
      <time>2026-05-07T09:23:57Z</time>
    </trkpt>
    <trkpt lat="50.941088" lon="15.878365">
      <ele>651</ele>
      <time>2026-05-07T09:24:22Z</time>
    </trkpt>
    <trkpt lat="50.94078" lon="15.878196">
      <ele>646</ele>
      <time>2026-05-07T09:24:56Z</time>
    </trkpt>
    <trkpt lat="50.940509" lon="15.87807">
      <ele>641</ele>
      <time>2026-05-07T09:25:27Z</time>
    </trkpt>
    <trkpt lat="50.940262" lon="15.877905">
      <ele>636</ele>
      <time>2026-05-07T09:25:56Z</time>
    </trkpt>
    <trkpt lat="50.940174" lon="15.877863">
      <ele>635</ele>
      <time>2026-05-07T09:26:06Z</time>
    </trkpt>
    <trkpt lat="50.94011" lon="15.877838">
      <ele>634</ele>
      <time>2026-05-07T09:26:13Z</time>
    </trkpt>
    <trkpt lat="50.940068" lon="15.877825">
      <ele>633</ele>
      <time>2026-05-07T09:26:17Z</time>
    </trkpt>
    <trkpt lat="50.939936" lon="15.877759">
      <ele>632</ele>
      <time>2026-05-07T09:26:32Z</time>
    </trkpt>
    <trkpt lat="50.939798" lon="15.877699">
      <ele>633</ele>
      <time>2026-05-07T09:26:47Z</time>
    </trkpt>
    <trkpt lat="50.939741" lon="15.877673">
      <ele>633</ele>
      <time>2026-05-07T09:26:54Z</time>
    </trkpt>
    <trkpt lat="50.939653" lon="15.87762">
      <ele>633</ele>
      <time>2026-05-07T09:27:04Z</time>
    </trkpt>
    <trkpt lat="50.9396" lon="15.877584">
      <ele>633</ele>
      <time>2026-05-07T09:27:10Z</time>
    </trkpt>
    <trkpt lat="50.939451" lon="15.877616">
      <ele>631</ele>
      <time>2026-05-07T09:27:26Z</time>
    </trkpt>
    <trkpt lat="50.939359" lon="15.8776344">
      <ele>629</ele>
      <time>2026-05-07T09:27:36Z</time>
    </trkpt>
  </trkseg>
</trk>
</gpx>