<?xml version="1.0" encoding="UTF-8"?><gpx creator="https://mapa-turystyczna.pl" xmlns="http://www.topografix.com/GPX/1/1" version="1.1" xmlns:xsi="http://www.w3.org/2001/XMLSchema-instance" xsi:schemaLocation="http://www.topografix.com/GPX/1/1 http://www.topografix.com/GPX/1/1/gpx.xsd">
  <metadata>
    <link href="https://mapa-turystyczna.pl">
      <text>mapa-turystyczna.pl</text>
    </link>
    <time>2026-05-07T08:43:37Z</time>
    <bounds maxlat="50.943927" maxlon="15.908615" minlat="50.903382" minlon="15.876764"/>
  </metadata>

<trk>
  <name>Trasa przez: Skopiec</name>
  <link href="https://mapa-turystyczna.pl/route/fxcm">
    <text>Trasa przez: Skopiec</text>
  </link>
  <trkseg>
    <trkpt lat="50.903382" lon="15.9078649">
      <ele>444</ele>
      <time>2026-05-07T08:43:37Z</time>
    </trkpt>
    <trkpt lat="50.903502" lon="15.907964">
      <ele>444</ele>
      <time>2026-05-07T08:43:48Z</time>
    </trkpt>
    <trkpt lat="50.903564" lon="15.908027">
      <ele>444</ele>
      <time>2026-05-07T08:43:54Z</time>
    </trkpt>
    <trkpt lat="50.903821" lon="15.908338">
      <ele>445</ele>
      <time>2026-05-07T08:44:21Z</time>
    </trkpt>
    <trkpt lat="50.903981" lon="15.908531">
      <ele>445</ele>
      <time>2026-05-07T08:44:37Z</time>
    </trkpt>
    <trkpt lat="50.904067" lon="15.908583">
      <ele>446</ele>
      <time>2026-05-07T08:44:49Z</time>
    </trkpt>
    <trkpt lat="50.904169" lon="15.908615">
      <ele>446</ele>
      <time>2026-05-07T08:45:03Z</time>
    </trkpt>
    <trkpt lat="50.904258" lon="15.908607">
      <ele>446</ele>
      <time>2026-05-07T08:45:15Z</time>
    </trkpt>
    <trkpt lat="50.90439" lon="15.908543">
      <ele>447</ele>
      <time>2026-05-07T08:45:33Z</time>
    </trkpt>
    <trkpt lat="50.9045" lon="15.908476">
      <ele>447</ele>
      <time>2026-05-07T08:45:48Z</time>
    </trkpt>
    <trkpt lat="50.904683" lon="15.908342">
      <ele>449</ele>
      <time>2026-05-07T08:46:15Z</time>
    </trkpt>
    <trkpt lat="50.90474" lon="15.908296">
      <ele>449</ele>
      <time>2026-05-07T08:46:23Z</time>
    </trkpt>
    <trkpt lat="50.904793" lon="15.908232">
      <ele>449</ele>
      <time>2026-05-07T08:46:32Z</time>
    </trkpt>
    <trkpt lat="50.904978" lon="15.908422">
      <ele>451</ele>
      <time>2026-05-07T08:47:01Z</time>
    </trkpt>
    <trkpt lat="50.905015" lon="15.90836">
      <ele>451</ele>
      <time>2026-05-07T08:47:08Z</time>
    </trkpt>
    <trkpt lat="50.905075" lon="15.908298">
      <ele>451</ele>
      <time>2026-05-07T08:47:18Z</time>
    </trkpt>
    <trkpt lat="50.905173" lon="15.908244">
      <ele>451</ele>
      <time>2026-05-07T08:47:31Z</time>
    </trkpt>
    <trkpt lat="50.905393" lon="15.90818">
      <ele>450</ele>
      <time>2026-05-07T08:48:01Z</time>
    </trkpt>
    <trkpt lat="50.905655" lon="15.908138">
      <ele>450</ele>
      <time>2026-05-07T08:48:36Z</time>
    </trkpt>
    <trkpt lat="50.906475" lon="15.908077">
      <ele>452</ele>
      <time>2026-05-07T08:50:24Z</time>
    </trkpt>
    <trkpt lat="50.906615" lon="15.908016">
      <ele>453</ele>
      <time>2026-05-07T08:50:43Z</time>
    </trkpt>
    <trkpt lat="50.906719" lon="15.907901">
      <ele>455</ele>
      <time>2026-05-07T08:51:00Z</time>
    </trkpt>
    <trkpt lat="50.906779" lon="15.907755">
      <ele>456</ele>
      <time>2026-05-07T08:51:14Z</time>
    </trkpt>
    <trkpt lat="50.907065" lon="15.907068">
      <ele>459</ele>
      <time>2026-05-07T08:52:23Z</time>
    </trkpt>
    <trkpt lat="50.907442" lon="15.906241">
      <ele>464</ele>
      <time>2026-05-07T08:53:48Z</time>
    </trkpt>
    <trkpt lat="50.907787" lon="15.905626">
      <ele>465</ele>
      <time>2026-05-07T08:54:56Z</time>
    </trkpt>
    <trkpt lat="50.907941" lon="15.905356">
      <ele>465</ele>
      <time>2026-05-07T08:55:26Z</time>
    </trkpt>
    <trkpt lat="50.908019" lon="15.905164">
      <ele>464</ele>
      <time>2026-05-07T08:55:45Z</time>
    </trkpt>
    <trkpt lat="50.90827" lon="15.903913">
      <ele>464</ele>
      <time>2026-05-07T08:57:34Z</time>
    </trkpt>
    <trkpt lat="50.908385" lon="15.903267">
      <ele>463</ele>
      <time>2026-05-07T08:58:30Z</time>
    </trkpt>
    <trkpt lat="50.908488" lon="15.902684">
      <ele>462</ele>
      <time>2026-05-07T08:59:20Z</time>
    </trkpt>
    <trkpt lat="50.908614" lon="15.90221">
      <ele>462</ele>
      <time>2026-05-07T09:00:03Z</time>
    </trkpt>
    <trkpt lat="50.908731" lon="15.901771">
      <ele>462</ele>
      <time>2026-05-07T09:00:43Z</time>
    </trkpt>
    <trkpt lat="50.908756" lon="15.901561">
      <ele>461</ele>
      <time>2026-05-07T09:01:00Z</time>
    </trkpt>
    <trkpt lat="50.908762" lon="15.901381">
      <ele>460</ele>
      <time>2026-05-07T09:01:15Z</time>
    </trkpt>
    <trkpt lat="50.908792" lon="15.901115">
      <ele>459</ele>
      <time>2026-05-07T09:01:38Z</time>
    </trkpt>
    <trkpt lat="50.908889" lon="15.90058">
      <ele>459</ele>
      <time>2026-05-07T09:02:24Z</time>
    </trkpt>
    <trkpt lat="50.908993" lon="15.900197">
      <ele>459</ele>
      <time>2026-05-07T09:02:59Z</time>
    </trkpt>
    <trkpt lat="50.909168" lon="15.899674">
      <ele>458</ele>
      <time>2026-05-07T09:03:48Z</time>
    </trkpt>
    <trkpt lat="50.909237" lon="15.899427">
      <ele>458</ele>
      <time>2026-05-07T09:04:10Z</time>
    </trkpt>
    <trkpt lat="50.909274" lon="15.899247">
      <ele>457</ele>
      <time>2026-05-07T09:04:26Z</time>
    </trkpt>
    <trkpt lat="50.909372" lon="15.899">
      <ele>457</ele>
      <time>2026-05-07T09:04:50Z</time>
    </trkpt>
    <trkpt lat="50.909515" lon="15.898714">
      <ele>457</ele>
      <time>2026-05-07T09:05:21Z</time>
    </trkpt>
    <trkpt lat="50.909775" lon="15.898175">
      <ele>454</ele>
      <time>2026-05-07T09:06:17Z</time>
    </trkpt>
    <trkpt lat="50.90997" lon="15.897804">
      <ele>452</ele>
      <time>2026-05-07T09:06:57Z</time>
    </trkpt>
    <trkpt lat="50.909986" lon="15.897768">
      <ele>452</ele>
      <time>2026-05-07T09:07:01Z</time>
    </trkpt>
    <trkpt lat="50.910172" lon="15.897357">
      <ele>450</ele>
      <time>2026-05-07T09:07:43Z</time>
    </trkpt>
    <trkpt lat="50.910532" lon="15.896468">
      <ele>448</ele>
      <time>2026-05-07T09:09:11Z</time>
    </trkpt>
    <trkpt lat="50.910666" lon="15.8962">
      <ele>448</ele>
      <time>2026-05-07T09:09:39Z</time>
    </trkpt>
    <trkpt lat="50.910777" lon="15.896041">
      <ele>448</ele>
      <time>2026-05-07T09:09:59Z</time>
    </trkpt>
    <trkpt lat="50.910911" lon="15.895891">
      <ele>448</ele>
      <time>2026-05-07T09:10:21Z</time>
    </trkpt>
    <trkpt lat="50.911113" lon="15.895729">
      <ele>449</ele>
      <time>2026-05-07T09:10:50Z</time>
    </trkpt>
    <trkpt lat="50.911438" lon="15.895529">
      <ele>451</ele>
      <time>2026-05-07T09:11:36Z</time>
    </trkpt>
    <trkpt lat="50.911553" lon="15.895454">
      <ele>451</ele>
      <time>2026-05-07T09:11:53Z</time>
    </trkpt>
    <trkpt lat="50.911683" lon="15.895308">
      <ele>450</ele>
      <time>2026-05-07T09:12:14Z</time>
    </trkpt>
    <trkpt lat="50.912029" lon="15.894802">
      <ele>451</ele>
      <time>2026-05-07T09:13:16Z</time>
    </trkpt>
    <trkpt lat="50.912145" lon="15.894634">
      <ele>451</ele>
      <time>2026-05-07T09:13:36Z</time>
    </trkpt>
    <trkpt lat="50.912331" lon="15.894457">
      <ele>451</ele>
      <time>2026-05-07T09:14:05Z</time>
    </trkpt>
    <trkpt lat="50.914167" lon="15.892711">
      <ele>460</ele>
      <time>2026-05-07T09:18:47Z</time>
    </trkpt>
    <trkpt lat="50.914669" lon="15.892301">
      <ele>462</ele>
      <time>2026-05-07T09:20:02Z</time>
    </trkpt>
    <trkpt lat="50.914739" lon="15.892243">
      <ele>462</ele>
      <time>2026-05-07T09:20:12Z</time>
    </trkpt>
    <trkpt lat="50.915815" lon="15.891258">
      <ele>469</ele>
      <time>2026-05-07T09:22:56Z</time>
    </trkpt>
    <trkpt lat="50.916035" lon="15.89101">
      <ele>470</ele>
      <time>2026-05-07T09:23:31Z</time>
    </trkpt>
    <trkpt lat="50.916618" lon="15.890352">
      <ele>471</ele>
      <time>2026-05-07T09:25:06Z</time>
    </trkpt>
    <trkpt lat="50.916855" lon="15.890065">
      <ele>473</ele>
      <time>2026-05-07T09:25:45Z</time>
    </trkpt>
    <trkpt lat="50.916968" lon="15.889903">
      <ele>474</ele>
      <time>2026-05-07T09:26:05Z</time>
    </trkpt>
    <trkpt lat="50.917034" lon="15.889796">
      <ele>474</ele>
      <time>2026-05-07T09:26:17Z</time>
    </trkpt>
    <trkpt lat="50.91711" lon="15.889671">
      <ele>473</ele>
      <time>2026-05-07T09:26:32Z</time>
    </trkpt>
    <trkpt lat="50.91722" lon="15.889467">
      <ele>472</ele>
      <time>2026-05-07T09:26:54Z</time>
    </trkpt>
    <trkpt lat="50.917346" lon="15.889146">
      <ele>471</ele>
      <time>2026-05-07T09:27:26Z</time>
    </trkpt>
    <trkpt lat="50.917684" lon="15.888548">
      <ele>470</ele>
      <time>2026-05-07T09:28:32Z</time>
    </trkpt>
    <trkpt lat="50.917786" lon="15.888307">
      <ele>470</ele>
      <time>2026-05-07T09:28:56Z</time>
    </trkpt>
    <trkpt lat="50.91787" lon="15.887995">
      <ele>468</ele>
      <time>2026-05-07T09:29:25Z</time>
    </trkpt>
    <trkpt lat="50.918007" lon="15.8874">
      <ele>466</ele>
      <time>2026-05-07T09:30:17Z</time>
    </trkpt>
    <trkpt lat="50.918109" lon="15.887047">
      <ele>467</ele>
      <time>2026-05-07T09:30:50Z</time>
    </trkpt>
    <trkpt lat="50.918195" lon="15.886853">
      <ele>467</ele>
      <time>2026-05-07T09:31:09Z</time>
    </trkpt>
    <trkpt lat="50.9183" lon="15.886667">
      <ele>468</ele>
      <time>2026-05-07T09:31:30Z</time>
    </trkpt>
    <trkpt lat="50.918486" lon="15.886379">
      <ele>469</ele>
      <time>2026-05-07T09:32:04Z</time>
    </trkpt>
    <trkpt lat="50.918511" lon="15.886328">
      <ele>469</ele>
      <time>2026-05-07T09:32:10Z</time>
    </trkpt>
    <trkpt lat="50.918533" lon="15.886259">
      <ele>469</ele>
      <time>2026-05-07T09:32:16Z</time>
    </trkpt>
    <trkpt lat="50.91855" lon="15.886174">
      <ele>469</ele>
      <time>2026-05-07T09:32:23Z</time>
    </trkpt>
    <trkpt lat="50.918652" lon="15.885432">
      <ele>464</ele>
      <time>2026-05-07T09:33:27Z</time>
    </trkpt>
    <trkpt lat="50.918876" lon="15.884662">
      <ele>462</ele>
      <time>2026-05-07T09:34:37Z</time>
    </trkpt>
    <trkpt lat="50.91897" lon="15.884391">
      <ele>462</ele>
      <time>2026-05-07T09:35:03Z</time>
    </trkpt>
    <trkpt lat="50.9191" lon="15.884068">
      <ele>462</ele>
      <time>2026-05-07T09:35:35Z</time>
    </trkpt>
    <trkpt lat="50.919288" lon="15.883703">
      <ele>463</ele>
      <time>2026-05-07T09:36:14Z</time>
    </trkpt>
    <trkpt lat="50.91941" lon="15.883491">
      <ele>464</ele>
      <time>2026-05-07T09:36:38Z</time>
    </trkpt>
    <trkpt lat="50.919548" lon="15.883299">
      <ele>465</ele>
      <time>2026-05-07T09:37:02Z</time>
    </trkpt>
    <trkpt lat="50.919836" lon="15.883005">
      <ele>467</ele>
      <time>2026-05-07T09:37:47Z</time>
    </trkpt>
    <trkpt lat="50.92029" lon="15.882539">
      <ele>468</ele>
      <time>2026-05-07T09:38:58Z</time>
    </trkpt>
    <trkpt lat="50.920759" lon="15.881989">
      <ele>468</ele>
      <time>2026-05-07T09:40:15Z</time>
    </trkpt>
    <trkpt lat="50.921279" lon="15.881406">
      <ele>467</ele>
      <time>2026-05-07T09:41:39Z</time>
    </trkpt>
    <trkpt lat="50.921373" lon="15.881292">
      <ele>466</ele>
      <time>2026-05-07T09:41:55Z</time>
    </trkpt>
    <trkpt lat="50.921465" lon="15.881162">
      <ele>466</ele>
      <time>2026-05-07T09:42:11Z</time>
    </trkpt>
    <trkpt lat="50.921543" lon="15.881007">
      <ele>467</ele>
      <time>2026-05-07T09:42:27Z</time>
    </trkpt>
    <trkpt lat="50.92165" lon="15.880723">
      <ele>468</ele>
      <time>2026-05-07T09:42:55Z</time>
    </trkpt>
    <trkpt lat="50.921845" lon="15.880067">
      <ele>468</ele>
      <time>2026-05-07T09:43:55Z</time>
    </trkpt>
    <trkpt lat="50.922096" lon="15.879357">
      <ele>467</ele>
      <time>2026-05-07T09:45:03Z</time>
    </trkpt>
    <trkpt lat="50.922183" lon="15.879022">
      <ele>465</ele>
      <time>2026-05-07T09:45:33Z</time>
    </trkpt>
    <trkpt lat="50.922209" lon="15.878865">
      <ele>465</ele>
      <time>2026-05-07T09:45:46Z</time>
    </trkpt>
    <trkpt lat="50.922231" lon="15.878736">
      <ele>464</ele>
      <time>2026-05-07T09:45:57Z</time>
    </trkpt>
    <trkpt lat="50.922276" lon="15.878495">
      <ele>463</ele>
      <time>2026-05-07T09:46:18Z</time>
    </trkpt>
    <trkpt lat="50.922331" lon="15.878329">
      <ele>462</ele>
      <time>2026-05-07T09:46:34Z</time>
    </trkpt>
    <trkpt lat="50.922374" lon="15.878243">
      <ele>462</ele>
      <time>2026-05-07T09:46:43Z</time>
    </trkpt>
    <trkpt lat="50.92241" lon="15.878195">
      <ele>462</ele>
      <time>2026-05-07T09:46:49Z</time>
    </trkpt>
    <trkpt lat="50.922431" lon="15.878167">
      <ele>462</ele>
      <time>2026-05-07T09:46:53Z</time>
    </trkpt>
    <trkpt lat="50.922499" lon="15.878104">
      <ele>462</ele>
      <time>2026-05-07T09:47:03Z</time>
    </trkpt>
    <trkpt lat="50.922568" lon="15.878064">
      <ele>462</ele>
      <time>2026-05-07T09:47:13Z</time>
    </trkpt>
    <trkpt lat="50.922853" lon="15.877891">
      <ele>462</ele>
      <time>2026-05-07T09:47:53Z</time>
    </trkpt>
    <trkpt lat="50.922931" lon="15.87782">
      <ele>462</ele>
      <time>2026-05-07T09:48:05Z</time>
    </trkpt>
    <trkpt lat="50.923029" lon="15.877717">
      <ele>462</ele>
      <time>2026-05-07T09:48:20Z</time>
    </trkpt>
    <trkpt lat="50.923102" lon="15.877588">
      <ele>463</ele>
      <time>2026-05-07T09:48:35Z</time>
    </trkpt>
    <trkpt lat="50.923172" lon="15.877408">
      <ele>463</ele>
      <time>2026-05-07T09:48:52Z</time>
    </trkpt>
    <trkpt lat="50.923235" lon="15.877176">
      <ele>463</ele>
      <time>2026-05-07T09:49:13Z</time>
    </trkpt>
    <trkpt lat="50.923325" lon="15.876764">
      <ele>466</ele>
      <time>2026-05-07T09:49:50Z</time>
    </trkpt>
    <trkpt lat="50.923374" lon="15.876878">
      <ele>466</ele>
      <time>2026-05-07T09:50:01Z</time>
    </trkpt>
    <trkpt lat="50.923419" lon="15.877128">
      <ele>465</ele>
      <time>2026-05-07T09:50:23Z</time>
    </trkpt>
    <trkpt lat="50.923487" lon="15.877248">
      <ele>466</ele>
      <time>2026-05-07T09:50:36Z</time>
    </trkpt>
    <trkpt lat="50.923921" lon="15.87751">
      <ele>470</ele>
      <time>2026-05-07T09:51:38Z</time>
    </trkpt>
    <trkpt lat="50.924516" lon="15.877756">
      <ele>475</ele>
      <time>2026-05-07T09:52:59Z</time>
    </trkpt>
    <trkpt lat="50.924645" lon="15.877825">
      <ele>476</ele>
      <time>2026-05-07T09:53:17Z</time>
    </trkpt>
    <trkpt lat="50.924755" lon="15.877927">
      <ele>477</ele>
      <time>2026-05-07T09:53:33Z</time>
    </trkpt>
    <trkpt lat="50.924822" lon="15.878098">
      <ele>478</ele>
      <time>2026-05-07T09:53:50Z</time>
    </trkpt>
    <trkpt lat="50.924866" lon="15.878304">
      <ele>479</ele>
      <time>2026-05-07T09:54:08Z</time>
    </trkpt>
    <trkpt lat="50.925161" lon="15.880302">
      <ele>490</ele>
      <time>2026-05-07T09:56:59Z</time>
    </trkpt>
    <trkpt lat="50.925195" lon="15.880591">
      <ele>493</ele>
      <time>2026-05-07T09:57:24Z</time>
    </trkpt>
    <trkpt lat="50.925228" lon="15.881081">
      <ele>496</ele>
      <time>2026-05-07T09:58:05Z</time>
    </trkpt>
    <trkpt lat="50.925249" lon="15.88113">
      <ele>497</ele>
      <time>2026-05-07T09:58:10Z</time>
    </trkpt>
    <trkpt lat="50.925276" lon="15.881193">
      <ele>497</ele>
      <time>2026-05-07T09:58:16Z</time>
    </trkpt>
    <trkpt lat="50.925492" lon="15.881349">
      <ele>499</ele>
      <time>2026-05-07T09:58:48Z</time>
    </trkpt>
    <trkpt lat="50.926258" lon="15.881803">
      <ele>511</ele>
      <time>2026-05-07T10:00:36Z</time>
    </trkpt>
    <trkpt lat="50.926439" lon="15.881961">
      <ele>514</ele>
      <time>2026-05-07T10:01:04Z</time>
    </trkpt>
    <trkpt lat="50.926479" lon="15.882029">
      <ele>515</ele>
      <time>2026-05-07T10:01:11Z</time>
    </trkpt>
    <trkpt lat="50.926599" lon="15.882236">
      <ele>518</ele>
      <time>2026-05-07T10:01:35Z</time>
    </trkpt>
    <trkpt lat="50.92674" lon="15.882441">
      <ele>520</ele>
      <time>2026-05-07T10:02:00Z</time>
    </trkpt>
    <trkpt lat="50.926858" lon="15.882554">
      <ele>522</ele>
      <time>2026-05-07T10:02:19Z</time>
    </trkpt>
    <trkpt lat="50.927055" lon="15.882667">
      <ele>526</ele>
      <time>2026-05-07T10:02:47Z</time>
    </trkpt>
    <trkpt lat="50.927324" lon="15.882726">
      <ele>529</ele>
      <time>2026-05-07T10:03:23Z</time>
    </trkpt>
    <trkpt lat="50.927592" lon="15.882747">
      <ele>530</ele>
      <time>2026-05-07T10:03:58Z</time>
    </trkpt>
    <trkpt lat="50.927652" lon="15.882776">
      <ele>530</ele>
      <time>2026-05-07T10:04:06Z</time>
    </trkpt>
    <trkpt lat="50.927703" lon="15.882848">
      <ele>530</ele>
      <time>2026-05-07T10:04:15Z</time>
    </trkpt>
    <trkpt lat="50.92782" lon="15.883491">
      <ele>537</ele>
      <time>2026-05-07T10:05:11Z</time>
    </trkpt>
    <trkpt lat="50.927841" lon="15.884389">
      <ele>545</ele>
      <time>2026-05-07T10:06:27Z</time>
    </trkpt>
    <trkpt lat="50.92787" lon="15.88479">
      <ele>549</ele>
      <time>2026-05-07T10:07:00Z</time>
    </trkpt>
    <trkpt lat="50.927934" lon="15.884973">
      <ele>551</ele>
      <time>2026-05-07T10:07:18Z</time>
    </trkpt>
    <trkpt lat="50.928065" lon="15.88518">
      <ele>553</ele>
      <time>2026-05-07T10:07:42Z</time>
    </trkpt>
    <trkpt lat="50.928409" lon="15.885722">
      <ele>563</ele>
      <time>2026-05-07T10:08:47Z</time>
    </trkpt>
    <trkpt lat="50.92868" lon="15.886217">
      <ele>571</ele>
      <time>2026-05-07T10:09:43Z</time>
    </trkpt>
    <trkpt lat="50.928838" lon="15.886508">
      <ele>574</ele>
      <time>2026-05-07T10:10:15Z</time>
    </trkpt>
    <trkpt lat="50.928963" lon="15.886707">
      <ele>576</ele>
      <time>2026-05-07T10:10:38Z</time>
    </trkpt>
    <trkpt lat="50.929047" lon="15.886814">
      <ele>578</ele>
      <time>2026-05-07T10:10:52Z</time>
    </trkpt>
    <trkpt lat="50.929118" lon="15.886905">
      <ele>579</ele>
      <time>2026-05-07T10:11:05Z</time>
    </trkpt>
    <trkpt lat="50.929231" lon="15.887049">
      <ele>581</ele>
      <time>2026-05-07T10:11:24Z</time>
    </trkpt>
    <trkpt lat="50.929322" lon="15.887174">
      <ele>583</ele>
      <time>2026-05-07T10:11:40Z</time>
    </trkpt>
    <trkpt lat="50.929344" lon="15.887219">
      <ele>584</ele>
      <time>2026-05-07T10:11:45Z</time>
    </trkpt>
    <trkpt lat="50.929393" lon="15.887292">
      <ele>585</ele>
      <time>2026-05-07T10:11:54Z</time>
    </trkpt>
    <trkpt lat="50.929488" lon="15.88745">
      <ele>587</ele>
      <time>2026-05-07T10:12:12Z</time>
    </trkpt>
    <trkpt lat="50.929619" lon="15.887809">
      <ele>590</ele>
      <time>2026-05-07T10:12:46Z</time>
    </trkpt>
    <trkpt lat="50.929623" lon="15.887819">
      <ele>591</ele>
      <time>2026-05-07T10:12:47Z</time>
    </trkpt>
    <trkpt lat="50.929754" lon="15.888196">
      <ele>594</ele>
      <time>2026-05-07T10:13:23Z</time>
    </trkpt>
    <trkpt lat="50.929829" lon="15.888472">
      <ele>597</ele>
      <time>2026-05-07T10:13:49Z</time>
    </trkpt>
    <trkpt lat="50.929876" lon="15.88872">
      <ele>600</ele>
      <time>2026-05-07T10:14:10Z</time>
    </trkpt>
    <trkpt lat="50.929903" lon="15.888939">
      <ele>603</ele>
      <time>2026-05-07T10:14:29Z</time>
    </trkpt>
    <trkpt lat="50.929923" lon="15.889231">
      <ele>607</ele>
      <time>2026-05-07T10:14:54Z</time>
    </trkpt>
    <trkpt lat="50.929951" lon="15.889413">
      <ele>610</ele>
      <time>2026-05-07T10:15:10Z</time>
    </trkpt>
    <trkpt lat="50.930008" lon="15.889497">
      <ele>611</ele>
      <time>2026-05-07T10:15:20Z</time>
    </trkpt>
    <trkpt lat="50.930117" lon="15.889607">
      <ele>613</ele>
      <time>2026-05-07T10:15:38Z</time>
    </trkpt>
    <trkpt lat="50.93027" lon="15.889785">
      <ele>615</ele>
      <time>2026-05-07T10:16:03Z</time>
    </trkpt>
    <trkpt lat="50.930324" lon="15.889898">
      <ele>617</ele>
      <time>2026-05-07T10:16:15Z</time>
    </trkpt>
    <trkpt lat="50.930372" lon="15.890019">
      <ele>618</ele>
      <time>2026-05-07T10:16:27Z</time>
    </trkpt>
    <trkpt lat="50.930399" lon="15.890122">
      <ele>618</ele>
      <time>2026-05-07T10:16:36Z</time>
    </trkpt>
    <trkpt lat="50.930448" lon="15.890185">
      <ele>618</ele>
      <time>2026-05-07T10:16:44Z</time>
    </trkpt>
    <trkpt lat="50.930526" lon="15.890171">
      <ele>619</ele>
      <time>2026-05-07T10:16:55Z</time>
    </trkpt>
    <trkpt lat="50.930635" lon="15.890137">
      <ele>620</ele>
      <time>2026-05-07T10:17:09Z</time>
    </trkpt>
    <trkpt lat="50.930716" lon="15.890096">
      <ele>621</ele>
      <time>2026-05-07T10:17:21Z</time>
    </trkpt>
    <trkpt lat="50.930802" lon="15.890045">
      <ele>622</ele>
      <time>2026-05-07T10:17:33Z</time>
    </trkpt>
    <trkpt lat="50.930883" lon="15.889938">
      <ele>623</ele>
      <time>2026-05-07T10:17:47Z</time>
    </trkpt>
    <trkpt lat="50.930981" lon="15.889763">
      <ele>624</ele>
      <time>2026-05-07T10:18:06Z</time>
    </trkpt>
    <trkpt lat="50.931063" lon="15.889664">
      <ele>624</ele>
      <time>2026-05-07T10:18:20Z</time>
    </trkpt>
    <trkpt lat="50.931172" lon="15.889584">
      <ele>626</ele>
      <time>2026-05-07T10:18:36Z</time>
    </trkpt>
    <trkpt lat="50.931281" lon="15.889492">
      <ele>627</ele>
      <time>2026-05-07T10:18:52Z</time>
    </trkpt>
    <trkpt lat="50.931421" lon="15.889359">
      <ele>628</ele>
      <time>2026-05-07T10:19:13Z</time>
    </trkpt>
    <trkpt lat="50.93148" lon="15.889307">
      <ele>629</ele>
      <time>2026-05-07T10:19:22Z</time>
    </trkpt>
    <trkpt lat="50.931524" lon="15.889278">
      <ele>629</ele>
      <time>2026-05-07T10:19:29Z</time>
    </trkpt>
    <trkpt lat="50.93157" lon="15.889282">
      <ele>629</ele>
      <time>2026-05-07T10:19:35Z</time>
    </trkpt>
    <trkpt lat="50.9316" lon="15.889287">
      <ele>630</ele>
      <time>2026-05-07T10:19:39Z</time>
    </trkpt>
    <trkpt lat="50.931649" lon="15.889322">
      <ele>630</ele>
      <time>2026-05-07T10:19:46Z</time>
    </trkpt>
    <trkpt lat="50.931731" lon="15.889425">
      <ele>632</ele>
      <time>2026-05-07T10:20:00Z</time>
    </trkpt>
    <trkpt lat="50.931782" lon="15.889477">
      <ele>632</ele>
      <time>2026-05-07T10:20:08Z</time>
    </trkpt>
    <trkpt lat="50.931836" lon="15.889512">
      <ele>633</ele>
      <time>2026-05-07T10:20:15Z</time>
    </trkpt>
    <trkpt lat="50.9319" lon="15.889521">
      <ele>633</ele>
      <time>2026-05-07T10:20:24Z</time>
    </trkpt>
    <trkpt lat="50.931974" lon="15.889509">
      <ele>634</ele>
      <time>2026-05-07T10:20:34Z</time>
    </trkpt>
    <trkpt lat="50.932067" lon="15.889488">
      <ele>635</ele>
      <time>2026-05-07T10:20:46Z</time>
    </trkpt>
    <trkpt lat="50.932154" lon="15.889469">
      <ele>637</ele>
      <time>2026-05-07T10:20:58Z</time>
    </trkpt>
    <trkpt lat="50.932274" lon="15.889466">
      <ele>639</ele>
      <time>2026-05-07T10:21:14Z</time>
    </trkpt>
    <trkpt lat="50.932482" lon="15.889471">
      <ele>642</ele>
      <time>2026-05-07T10:21:42Z</time>
    </trkpt>
    <trkpt lat="50.932889" lon="15.889443">
      <ele>648</ele>
      <time>2026-05-07T10:22:36Z</time>
    </trkpt>
    <trkpt lat="50.933226" lon="15.889394">
      <ele>655</ele>
      <time>2026-05-07T10:23:21Z</time>
    </trkpt>
    <trkpt lat="50.933479" lon="15.889356">
      <ele>658</ele>
      <time>2026-05-07T10:23:55Z</time>
    </trkpt>
    <trkpt lat="50.933738" lon="15.889325">
      <ele>661</ele>
      <time>2026-05-07T10:24:29Z</time>
    </trkpt>
    <trkpt lat="50.933903" lon="15.889296">
      <ele>663</ele>
      <time>2026-05-07T10:24:51Z</time>
    </trkpt>
    <trkpt lat="50.93407" lon="15.889273">
      <ele>664</ele>
      <time>2026-05-07T10:25:13Z</time>
    </trkpt>
    <trkpt lat="50.934132" lon="15.889247">
      <ele>664</ele>
      <time>2026-05-07T10:25:22Z</time>
    </trkpt>
    <trkpt lat="50.934254" lon="15.889316">
      <ele>663</ele>
      <time>2026-05-07T10:25:39Z</time>
    </trkpt>
    <trkpt lat="50.934368" lon="15.889362">
      <ele>661</ele>
      <time>2026-05-07T10:25:54Z</time>
    </trkpt>
    <trkpt lat="50.934609" lon="15.88944">
      <ele>658</ele>
      <time>2026-05-07T10:26:27Z</time>
    </trkpt>
    <trkpt lat="50.934847" lon="15.88961">
      <ele>654</ele>
      <time>2026-05-07T10:27:02Z</time>
    </trkpt>
    <trkpt lat="50.935005" lon="15.889765">
      <ele>653</ele>
      <time>2026-05-07T10:27:26Z</time>
    </trkpt>
    <trkpt lat="50.93558" lon="15.890153">
      <ele>655</ele>
      <time>2026-05-07T10:28:49Z</time>
    </trkpt>
    <trkpt lat="50.935805" lon="15.890292">
      <ele>657</ele>
      <time>2026-05-07T10:29:20Z</time>
    </trkpt>
    <trkpt lat="50.93637" lon="15.89054">
      <ele>660</ele>
      <time>2026-05-07T10:30:38Z</time>
    </trkpt>
    <trkpt lat="50.936629" lon="15.890661">
      <ele>662</ele>
      <time>2026-05-07T10:31:13Z</time>
    </trkpt>
    <trkpt lat="50.936757" lon="15.890675">
      <ele>664</ele>
      <time>2026-05-07T10:31:30Z</time>
    </trkpt>
    <trkpt lat="50.936824" lon="15.890644">
      <ele>664</ele>
      <time>2026-05-07T10:31:39Z</time>
    </trkpt>
    <trkpt lat="50.936922" lon="15.890571">
      <ele>664</ele>
      <time>2026-05-07T10:31:54Z</time>
    </trkpt>
    <trkpt lat="50.936992" lon="15.89052">
      <ele>664</ele>
      <time>2026-05-07T10:32:04Z</time>
    </trkpt>
    <trkpt lat="50.937165" lon="15.890393">
      <ele>665</ele>
      <time>2026-05-07T10:32:29Z</time>
    </trkpt>
    <trkpt lat="50.9373" lon="15.890326">
      <ele>664</ele>
      <time>2026-05-07T10:32:48Z</time>
    </trkpt>
    <trkpt lat="50.937491" lon="15.890232">
      <ele>663</ele>
      <time>2026-05-07T10:33:14Z</time>
    </trkpt>
    <trkpt lat="50.937696" lon="15.890145">
      <ele>661</ele>
      <time>2026-05-07T10:33:42Z</time>
    </trkpt>
    <trkpt lat="50.937927" lon="15.890039">
      <ele>660</ele>
      <time>2026-05-07T10:34:14Z</time>
    </trkpt>
    <trkpt lat="50.938129" lon="15.889964">
      <ele>661</ele>
      <time>2026-05-07T10:34:41Z</time>
    </trkpt>
    <trkpt lat="50.93825" lon="15.889898">
      <ele>662</ele>
      <time>2026-05-07T10:34:58Z</time>
    </trkpt>
    <trkpt lat="50.93831" lon="15.889797">
      <ele>664</ele>
      <time>2026-05-07T10:35:10Z</time>
    </trkpt>
    <trkpt lat="50.938366" lon="15.889653">
      <ele>666</ele>
      <time>2026-05-07T10:35:24Z</time>
    </trkpt>
    <trkpt lat="50.938415" lon="15.889509">
      <ele>669</ele>
      <time>2026-05-07T10:35:38Z</time>
    </trkpt>
    <trkpt lat="50.938488" lon="15.889379">
      <ele>671</ele>
      <time>2026-05-07T10:35:53Z</time>
    </trkpt>
    <trkpt lat="50.938597" lon="15.889316">
      <ele>673</ele>
      <time>2026-05-07T10:36:08Z</time>
    </trkpt>
    <trkpt lat="50.938843" lon="15.889209">
      <ele>675</ele>
      <time>2026-05-07T10:36:42Z</time>
    </trkpt>
    <trkpt lat="50.939117" lon="15.889083">
      <ele>677</ele>
      <time>2026-05-07T10:37:19Z</time>
    </trkpt>
    <trkpt lat="50.939328" lon="15.889016">
      <ele>678</ele>
      <time>2026-05-07T10:37:48Z</time>
    </trkpt>
    <trkpt lat="50.939658" lon="15.88895">
      <ele>678</ele>
      <time>2026-05-07T10:38:32Z</time>
    </trkpt>
    <trkpt lat="50.939847" lon="15.888852">
      <ele>677</ele>
      <time>2026-05-07T10:38:58Z</time>
    </trkpt>
    <trkpt lat="50.940001" lon="15.888806">
      <ele>676</ele>
      <time>2026-05-07T10:39:18Z</time>
    </trkpt>
    <trkpt lat="50.940295" lon="15.888746">
      <ele>668</ele>
      <time>2026-05-07T10:39:59Z</time>
    </trkpt>
    <trkpt lat="50.940446" lon="15.888665">
      <ele>666</ele>
      <time>2026-05-07T10:40:20Z</time>
    </trkpt>
    <trkpt lat="50.940591" lon="15.888541">
      <ele>666</ele>
      <time>2026-05-07T10:40:41Z</time>
    </trkpt>
    <trkpt lat="50.940765" lon="15.888334">
      <ele>668</ele>
      <time>2026-05-07T10:41:10Z</time>
    </trkpt>
    <trkpt lat="50.940923" lon="15.888196">
      <ele>670</ele>
      <time>2026-05-07T10:41:34Z</time>
    </trkpt>
    <trkpt lat="50.941181" lon="15.88802">
      <ele>672</ele>
      <time>2026-05-07T10:42:11Z</time>
    </trkpt>
    <trkpt lat="50.941348" lon="15.887867">
      <ele>675</ele>
      <time>2026-05-07T10:42:37Z</time>
    </trkpt>
    <trkpt lat="50.941546" lon="15.887696">
      <ele>677</ele>
      <time>2026-05-07T10:43:06Z</time>
    </trkpt>
    <trkpt lat="50.941792" lon="15.887474">
      <ele>678</ele>
      <time>2026-05-07T10:43:44Z</time>
    </trkpt>
    <trkpt lat="50.941917" lon="15.887358">
      <ele>679</ele>
      <time>2026-05-07T10:44:03Z</time>
    </trkpt>
    <trkpt lat="50.942059" lon="15.887182">
      <ele>680</ele>
      <time>2026-05-07T10:44:27Z</time>
    </trkpt>
    <trkpt lat="50.942404" lon="15.886753">
      <ele>686</ele>
      <time>2026-05-07T10:45:25Z</time>
    </trkpt>
    <trkpt lat="50.942612" lon="15.886468">
      <ele>692</ele>
      <time>2026-05-07T10:46:02Z</time>
    </trkpt>
    <trkpt lat="50.94272" lon="15.886292">
      <ele>696</ele>
      <time>2026-05-07T10:46:22Z</time>
    </trkpt>
    <trkpt lat="50.942745" lon="15.886186">
      <ele>698</ele>
      <time>2026-05-07T10:46:32Z</time>
    </trkpt>
    <trkpt lat="50.942749" lon="15.885967">
      <ele>700</ele>
      <time>2026-05-07T10:46:51Z</time>
    </trkpt>
    <trkpt lat="50.942729" lon="15.885653">
      <ele>703</ele>
      <time>2026-05-07T10:47:17Z</time>
    </trkpt>
    <trkpt lat="50.942687" lon="15.885224">
      <ele>704</ele>
      <time>2026-05-07T10:47:53Z</time>
    </trkpt>
    <trkpt lat="50.942683" lon="15.885097">
      <ele>704</ele>
      <time>2026-05-07T10:48:04Z</time>
    </trkpt>
    <trkpt lat="50.942696" lon="15.88499">
      <ele>705</ele>
      <time>2026-05-07T10:48:13Z</time>
    </trkpt>
    <trkpt lat="50.942725" lon="15.884846">
      <ele>706</ele>
      <time>2026-05-07T10:48:25Z</time>
    </trkpt>
    <trkpt lat="50.94278" lon="15.884662">
      <ele>709</ele>
      <time>2026-05-07T10:48:42Z</time>
    </trkpt>
    <trkpt lat="50.942828" lon="15.884507">
      <ele>710</ele>
      <time>2026-05-07T10:48:57Z</time>
    </trkpt>
    <trkpt lat="50.942887" lon="15.884344">
      <ele>711</ele>
      <time>2026-05-07T10:49:12Z</time>
    </trkpt>
    <trkpt lat="50.942951" lon="15.884066">
      <ele>711</ele>
      <time>2026-05-07T10:49:37Z</time>
    </trkpt>
    <trkpt lat="50.943039" lon="15.884178">
      <ele>711</ele>
      <time>2026-05-07T10:49:53Z</time>
    </trkpt>
    <trkpt lat="50.943115" lon="15.884249">
      <ele>712</ele>
      <time>2026-05-07T10:50:06Z</time>
    </trkpt>
    <trkpt lat="50.94326" lon="15.884389">
      <ele>713</ele>
      <time>2026-05-07T10:50:31Z</time>
    </trkpt>
    <trkpt lat="50.943371" lon="15.884548">
      <ele>713</ele>
      <time>2026-05-07T10:50:52Z</time>
    </trkpt>
    <trkpt lat="50.943472" lon="15.884687">
      <ele>713</ele>
      <time>2026-05-07T10:51:12Z</time>
    </trkpt>
    <trkpt lat="50.943652" lon="15.884878">
      <ele>715</ele>
      <time>2026-05-07T10:51:43Z</time>
    </trkpt>
    <trkpt lat="50.943755" lon="15.884978">
      <ele>715</ele>
      <time>2026-05-07T10:52:00Z</time>
    </trkpt>
    <trkpt lat="50.943845" lon="15.884894">
      <ele>717</ele>
      <time>2026-05-07T10:52:16Z</time>
    </trkpt>
    <trkpt lat="50.943901" lon="15.8848">
      <ele>718</ele>
      <time>2026-05-07T10:52:28Z</time>
    </trkpt>
    <trkpt lat="50.943927" lon="15.884706">
      <ele>719</ele>
      <time>2026-05-07T10:52:37Z</time>
    </trkpt>
    <trkpt lat="50.943901" lon="15.8848">
      <ele>718</ele>
      <time>2026-05-07T10:52:43Z</time>
    </trkpt>
    <trkpt lat="50.943845" lon="15.884894">
      <ele>717</ele>
      <time>2026-05-07T10:52:51Z</time>
    </trkpt>
    <trkpt lat="50.943755" lon="15.884978">
      <ele>715</ele>
      <time>2026-05-07T10:53:01Z</time>
    </trkpt>
    <trkpt lat="50.943652" lon="15.884878">
      <ele>715</ele>
      <time>2026-05-07T10:53:13Z</time>
    </trkpt>
    <trkpt lat="50.943472" lon="15.884687">
      <ele>713</ele>
      <time>2026-05-07T10:53:34Z</time>
    </trkpt>
    <trkpt lat="50.943371" lon="15.884548">
      <ele>713</ele>
      <time>2026-05-07T10:53:47Z</time>
    </trkpt>
    <trkpt lat="50.94326" lon="15.884389">
      <ele>713</ele>
      <time>2026-05-07T10:54:01Z</time>
    </trkpt>
    <trkpt lat="50.943115" lon="15.884249">
      <ele>712</ele>
      <time>2026-05-07T10:54:18Z</time>
    </trkpt>
    <trkpt lat="50.943039" lon="15.884178">
      <ele>711</ele>
      <time>2026-05-07T10:54:26Z</time>
    </trkpt>
    <trkpt lat="50.942951" lon="15.884066">
      <ele>711</ele>
      <time>2026-05-07T10:54:37Z</time>
    </trkpt>
    <trkpt lat="50.942887" lon="15.884344">
      <ele>711</ele>
      <time>2026-05-07T10:54:57Z</time>
    </trkpt>
    <trkpt lat="50.942828" lon="15.884507">
      <ele>710</ele>
      <time>2026-05-07T10:55:09Z</time>
    </trkpt>
    <trkpt lat="50.94278" lon="15.884662">
      <ele>709</ele>
      <time>2026-05-07T10:55:21Z</time>
    </trkpt>
    <trkpt lat="50.942725" lon="15.884846">
      <ele>706</ele>
      <time>2026-05-07T10:55:34Z</time>
    </trkpt>
    <trkpt lat="50.942696" lon="15.88499">
      <ele>705</ele>
      <time>2026-05-07T10:55:45Z</time>
    </trkpt>
    <trkpt lat="50.942683" lon="15.885097">
      <ele>704</ele>
      <time>2026-05-07T10:55:52Z</time>
    </trkpt>
    <trkpt lat="50.942687" lon="15.885224">
      <ele>704</ele>
      <time>2026-05-07T10:56:00Z</time>
    </trkpt>
    <trkpt lat="50.942729" lon="15.885653">
      <ele>703</ele>
      <time>2026-05-07T10:56:29Z</time>
    </trkpt>
    <trkpt lat="50.942749" lon="15.885967">
      <ele>700</ele>
      <time>2026-05-07T10:56:50Z</time>
    </trkpt>
    <trkpt lat="50.942745" lon="15.886186">
      <ele>698</ele>
      <time>2026-05-07T10:57:05Z</time>
    </trkpt>
    <trkpt lat="50.94272" lon="15.886292">
      <ele>696</ele>
      <time>2026-05-07T10:57:13Z</time>
    </trkpt>
    <trkpt lat="50.942612" lon="15.886468">
      <ele>692</ele>
      <time>2026-05-07T10:57:29Z</time>
    </trkpt>
    <trkpt lat="50.942404" lon="15.886753">
      <ele>686</ele>
      <time>2026-05-07T10:57:59Z</time>
    </trkpt>
    <trkpt lat="50.942059" lon="15.887182">
      <ele>680</ele>
      <time>2026-05-07T10:58:45Z</time>
    </trkpt>
    <trkpt lat="50.941917" lon="15.887358">
      <ele>679</ele>
      <time>2026-05-07T10:59:04Z</time>
    </trkpt>
    <trkpt lat="50.941792" lon="15.887474">
      <ele>678</ele>
      <time>2026-05-07T10:59:20Z</time>
    </trkpt>
    <trkpt lat="50.941546" lon="15.887696">
      <ele>677</ele>
      <time>2026-05-07T10:59:49Z</time>
    </trkpt>
    <trkpt lat="50.941348" lon="15.887867">
      <ele>675</ele>
      <time>2026-05-07T11:00:13Z</time>
    </trkpt>
    <trkpt lat="50.941181" lon="15.88802">
      <ele>672</ele>
      <time>2026-05-07T11:00:34Z</time>
    </trkpt>
    <trkpt lat="50.940923" lon="15.888196">
      <ele>670</ele>
      <time>2026-05-07T11:01:03Z</time>
    </trkpt>
    <trkpt lat="50.940765" lon="15.888334">
      <ele>668</ele>
      <time>2026-05-07T11:01:23Z</time>
    </trkpt>
    <trkpt lat="50.940591" lon="15.888541">
      <ele>666</ele>
      <time>2026-05-07T11:01:46Z</time>
    </trkpt>
    <trkpt lat="50.940446" lon="15.888665">
      <ele>666</ele>
      <time>2026-05-07T11:02:03Z</time>
    </trkpt>
    <trkpt lat="50.940295" lon="15.888746">
      <ele>668</ele>
      <time>2026-05-07T11:02:20Z</time>
    </trkpt>
    <trkpt lat="50.940001" lon="15.888806">
      <ele>676</ele>
      <time>2026-05-07T11:02:52Z</time>
    </trkpt>
    <trkpt lat="50.939847" lon="15.888852">
      <ele>677</ele>
      <time>2026-05-07T11:03:08Z</time>
    </trkpt>
    <trkpt lat="50.939658" lon="15.88895">
      <ele>678</ele>
      <time>2026-05-07T11:03:29Z</time>
    </trkpt>
    <trkpt lat="50.939328" lon="15.889016">
      <ele>678</ele>
      <time>2026-05-07T11:04:04Z</time>
    </trkpt>
    <trkpt lat="50.939117" lon="15.889083">
      <ele>677</ele>
      <time>2026-05-07T11:04:27Z</time>
    </trkpt>
    <trkpt lat="50.938843" lon="15.889209">
      <ele>675</ele>
      <time>2026-05-07T11:04:57Z</time>
    </trkpt>
    <trkpt lat="50.938597" lon="15.889316">
      <ele>673</ele>
      <time>2026-05-07T11:05:24Z</time>
    </trkpt>
    <trkpt lat="50.938488" lon="15.889379">
      <ele>671</ele>
      <time>2026-05-07T11:05:37Z</time>
    </trkpt>
    <trkpt lat="50.938415" lon="15.889509">
      <ele>669</ele>
      <time>2026-05-07T11:05:48Z</time>
    </trkpt>
    <trkpt lat="50.938366" lon="15.889653">
      <ele>666</ele>
      <time>2026-05-07T11:05:59Z</time>
    </trkpt>
    <trkpt lat="50.93831" lon="15.889797">
      <ele>664</ele>
      <time>2026-05-07T11:06:11Z</time>
    </trkpt>
    <trkpt lat="50.93825" lon="15.889898">
      <ele>662</ele>
      <time>2026-05-07T11:06:20Z</time>
    </trkpt>
    <trkpt lat="50.938129" lon="15.889964">
      <ele>661</ele>
      <time>2026-05-07T11:06:34Z</time>
    </trkpt>
    <trkpt lat="50.937927" lon="15.890039">
      <ele>660</ele>
      <time>2026-05-07T11:06:56Z</time>
    </trkpt>
    <trkpt lat="50.937696" lon="15.890145">
      <ele>661</ele>
      <time>2026-05-07T11:07:21Z</time>
    </trkpt>
    <trkpt lat="50.937491" lon="15.890232">
      <ele>663</ele>
      <time>2026-05-07T11:07:43Z</time>
    </trkpt>
    <trkpt lat="50.9373" lon="15.890326">
      <ele>664</ele>
      <time>2026-05-07T11:08:04Z</time>
    </trkpt>
    <trkpt lat="50.937165" lon="15.890393">
      <ele>665</ele>
      <time>2026-05-07T11:08:19Z</time>
    </trkpt>
    <trkpt lat="50.936992" lon="15.89052">
      <ele>664</ele>
      <time>2026-05-07T11:08:39Z</time>
    </trkpt>
    <trkpt lat="50.936922" lon="15.890571">
      <ele>664</ele>
      <time>2026-05-07T11:08:48Z</time>
    </trkpt>
    <trkpt lat="50.936824" lon="15.890644">
      <ele>664</ele>
      <time>2026-05-07T11:08:59Z</time>
    </trkpt>
    <trkpt lat="50.936757" lon="15.890675">
      <ele>664</ele>
      <time>2026-05-07T11:09:06Z</time>
    </trkpt>
    <trkpt lat="50.936629" lon="15.890661">
      <ele>662</ele>
      <time>2026-05-07T11:09:20Z</time>
    </trkpt>
    <trkpt lat="50.93637" lon="15.89054">
      <ele>660</ele>
      <time>2026-05-07T11:09:48Z</time>
    </trkpt>
    <trkpt lat="50.935805" lon="15.890292">
      <ele>657</ele>
      <time>2026-05-07T11:10:50Z</time>
    </trkpt>
    <trkpt lat="50.93558" lon="15.890153">
      <ele>655</ele>
      <time>2026-05-07T11:11:16Z</time>
    </trkpt>
    <trkpt lat="50.935005" lon="15.889765">
      <ele>653</ele>
      <time>2026-05-07T11:12:22Z</time>
    </trkpt>
    <trkpt lat="50.934847" lon="15.88961">
      <ele>654</ele>
      <time>2026-05-07T11:12:41Z</time>
    </trkpt>
    <trkpt lat="50.934609" lon="15.88944">
      <ele>658</ele>
      <time>2026-05-07T11:13:09Z</time>
    </trkpt>
    <trkpt lat="50.934368" lon="15.889362">
      <ele>661</ele>
      <time>2026-05-07T11:13:35Z</time>
    </trkpt>
    <trkpt lat="50.934254" lon="15.889316">
      <ele>663</ele>
      <time>2026-05-07T11:13:48Z</time>
    </trkpt>
    <trkpt lat="50.934132" lon="15.889247">
      <ele>664</ele>
      <time>2026-05-07T11:14:01Z</time>
    </trkpt>
    <trkpt lat="50.93407" lon="15.889273">
      <ele>664</ele>
      <time>2026-05-07T11:14:08Z</time>
    </trkpt>
    <trkpt lat="50.933903" lon="15.889296">
      <ele>663</ele>
      <time>2026-05-07T11:14:26Z</time>
    </trkpt>
    <trkpt lat="50.933738" lon="15.889325">
      <ele>661</ele>
      <time>2026-05-07T11:14:43Z</time>
    </trkpt>
    <trkpt lat="50.933479" lon="15.889356">
      <ele>658</ele>
      <time>2026-05-07T11:15:11Z</time>
    </trkpt>
    <trkpt lat="50.933226" lon="15.889394">
      <ele>655</ele>
      <time>2026-05-07T11:15:38Z</time>
    </trkpt>
    <trkpt lat="50.932889" lon="15.889443">
      <ele>648</ele>
      <time>2026-05-07T11:16:14Z</time>
    </trkpt>
    <trkpt lat="50.932482" lon="15.889471">
      <ele>642</ele>
      <time>2026-05-07T11:16:57Z</time>
    </trkpt>
    <trkpt lat="50.932274" lon="15.889466">
      <ele>639</ele>
      <time>2026-05-07T11:17:19Z</time>
    </trkpt>
    <trkpt lat="50.932154" lon="15.889469">
      <ele>637</ele>
      <time>2026-05-07T11:17:32Z</time>
    </trkpt>
    <trkpt lat="50.932067" lon="15.889488">
      <ele>635</ele>
      <time>2026-05-07T11:17:42Z</time>
    </trkpt>
    <trkpt lat="50.931974" lon="15.889509">
      <ele>634</ele>
      <time>2026-05-07T11:17:52Z</time>
    </trkpt>
    <trkpt lat="50.9319" lon="15.889521">
      <ele>633</ele>
      <time>2026-05-07T11:17:59Z</time>
    </trkpt>
    <trkpt lat="50.931836" lon="15.889512">
      <ele>633</ele>
      <time>2026-05-07T11:18:06Z</time>
    </trkpt>
    <trkpt lat="50.931782" lon="15.889477">
      <ele>632</ele>
      <time>2026-05-07T11:18:12Z</time>
    </trkpt>
    <trkpt lat="50.931731" lon="15.889425">
      <ele>632</ele>
      <time>2026-05-07T11:18:19Z</time>
    </trkpt>
    <trkpt lat="50.931649" lon="15.889322">
      <ele>630</ele>
      <time>2026-05-07T11:18:30Z</time>
    </trkpt>
    <trkpt lat="50.9316" lon="15.889287">
      <ele>630</ele>
      <time>2026-05-07T11:18:36Z</time>
    </trkpt>
    <trkpt lat="50.93157" lon="15.889282">
      <ele>629</ele>
      <time>2026-05-07T11:18:39Z</time>
    </trkpt>
    <trkpt lat="50.931524" lon="15.889278">
      <ele>629</ele>
      <time>2026-05-07T11:18:44Z</time>
    </trkpt>
    <trkpt lat="50.93148" lon="15.889307">
      <ele>629</ele>
      <time>2026-05-07T11:18:49Z</time>
    </trkpt>
    <trkpt lat="50.931421" lon="15.889359">
      <ele>628</ele>
      <time>2026-05-07T11:18:56Z</time>
    </trkpt>
    <trkpt lat="50.931281" lon="15.889492">
      <ele>627</ele>
      <time>2026-05-07T11:19:13Z</time>
    </trkpt>
    <trkpt lat="50.931172" lon="15.889584">
      <ele>626</ele>
      <time>2026-05-07T11:19:26Z</time>
    </trkpt>
    <trkpt lat="50.931063" lon="15.889664">
      <ele>624</ele>
      <time>2026-05-07T11:19:39Z</time>
    </trkpt>
    <trkpt lat="50.930981" lon="15.889763">
      <ele>624</ele>
      <time>2026-05-07T11:19:50Z</time>
    </trkpt>
    <trkpt lat="50.930883" lon="15.889938">
      <ele>623</ele>
      <time>2026-05-07T11:20:05Z</time>
    </trkpt>
    <trkpt lat="50.930802" lon="15.890045">
      <ele>622</ele>
      <time>2026-05-07T11:20:16Z</time>
    </trkpt>
    <trkpt lat="50.930716" lon="15.890096">
      <ele>621</ele>
      <time>2026-05-07T11:20:26Z</time>
    </trkpt>
    <trkpt lat="50.930635" lon="15.890137">
      <ele>620</ele>
      <time>2026-05-07T11:20:35Z</time>
    </trkpt>
    <trkpt lat="50.930526" lon="15.890171">
      <ele>619</ele>
      <time>2026-05-07T11:20:47Z</time>
    </trkpt>
    <trkpt lat="50.930448" lon="15.890185">
      <ele>618</ele>
      <time>2026-05-07T11:20:55Z</time>
    </trkpt>
    <trkpt lat="50.930399" lon="15.890122">
      <ele>618</ele>
      <time>2026-05-07T11:21:02Z</time>
    </trkpt>
    <trkpt lat="50.930372" lon="15.890019">
      <ele>618</ele>
      <time>2026-05-07T11:21:09Z</time>
    </trkpt>
    <trkpt lat="50.930324" lon="15.889898">
      <ele>617</ele>
      <time>2026-05-07T11:21:19Z</time>
    </trkpt>
    <trkpt lat="50.93027" lon="15.889785">
      <ele>615</ele>
      <time>2026-05-07T11:21:28Z</time>
    </trkpt>
    <trkpt lat="50.930117" lon="15.889607">
      <ele>613</ele>
      <time>2026-05-07T11:21:49Z</time>
    </trkpt>
    <trkpt lat="50.930008" lon="15.889497">
      <ele>611</ele>
      <time>2026-05-07T11:22:02Z</time>
    </trkpt>
    <trkpt lat="50.929951" lon="15.889413">
      <ele>610</ele>
      <time>2026-05-07T11:22:10Z</time>
    </trkpt>
    <trkpt lat="50.929923" lon="15.889231">
      <ele>607</ele>
      <time>2026-05-07T11:22:23Z</time>
    </trkpt>
    <trkpt lat="50.929903" lon="15.888939">
      <ele>603</ele>
      <time>2026-05-07T11:22:43Z</time>
    </trkpt>
    <trkpt lat="50.929876" lon="15.88872">
      <ele>600</ele>
      <time>2026-05-07T11:22:58Z</time>
    </trkpt>
    <trkpt lat="50.929829" lon="15.888472">
      <ele>597</ele>
      <time>2026-05-07T11:23:16Z</time>
    </trkpt>
    <trkpt lat="50.929754" lon="15.888196">
      <ele>594</ele>
      <time>2026-05-07T11:23:36Z</time>
    </trkpt>
    <trkpt lat="50.929623" lon="15.887819">
      <ele>591</ele>
      <time>2026-05-07T11:24:05Z</time>
    </trkpt>
    <trkpt lat="50.929619" lon="15.887809">
      <ele>590</ele>
      <time>2026-05-07T11:24:05Z</time>
    </trkpt>
    <trkpt lat="50.929488" lon="15.88745">
      <ele>587</ele>
      <time>2026-05-07T11:24:33Z</time>
    </trkpt>
    <trkpt lat="50.929393" lon="15.887292">
      <ele>585</ele>
      <time>2026-05-07T11:24:48Z</time>
    </trkpt>
    <trkpt lat="50.929344" lon="15.887219">
      <ele>584</ele>
      <time>2026-05-07T11:24:55Z</time>
    </trkpt>
    <trkpt lat="50.929322" lon="15.887174">
      <ele>583</ele>
      <time>2026-05-07T11:24:59Z</time>
    </trkpt>
    <trkpt lat="50.929231" lon="15.887049">
      <ele>581</ele>
      <time>2026-05-07T11:25:12Z</time>
    </trkpt>
    <trkpt lat="50.929118" lon="15.886905">
      <ele>579</ele>
      <time>2026-05-07T11:25:27Z</time>
    </trkpt>
    <trkpt lat="50.929047" lon="15.886814">
      <ele>578</ele>
      <time>2026-05-07T11:25:37Z</time>
    </trkpt>
    <trkpt lat="50.928963" lon="15.886707">
      <ele>576</ele>
      <time>2026-05-07T11:25:48Z</time>
    </trkpt>
    <trkpt lat="50.928838" lon="15.886508">
      <ele>574</ele>
      <time>2026-05-07T11:26:07Z</time>
    </trkpt>
    <trkpt lat="50.92868" lon="15.886217">
      <ele>571</ele>
      <time>2026-05-07T11:26:33Z</time>
    </trkpt>
    <trkpt lat="50.928409" lon="15.885722">
      <ele>563</ele>
      <time>2026-05-07T11:27:17Z</time>
    </trkpt>
    <trkpt lat="50.928065" lon="15.88518">
      <ele>553</ele>
      <time>2026-05-07T11:28:09Z</time>
    </trkpt>
    <trkpt lat="50.927934" lon="15.884973">
      <ele>551</ele>
      <time>2026-05-07T11:28:28Z</time>
    </trkpt>
    <trkpt lat="50.92787" lon="15.88479">
      <ele>549</ele>
      <time>2026-05-07T11:28:42Z</time>
    </trkpt>
    <trkpt lat="50.927841" lon="15.884389">
      <ele>545</ele>
      <time>2026-05-07T11:29:09Z</time>
    </trkpt>
    <trkpt lat="50.92782" lon="15.883491">
      <ele>537</ele>
      <time>2026-05-07T11:30:10Z</time>
    </trkpt>
    <trkpt lat="50.927703" lon="15.882848">
      <ele>530</ele>
      <time>2026-05-07T11:30:54Z</time>
    </trkpt>
    <trkpt lat="50.927652" lon="15.882776">
      <ele>530</ele>
      <time>2026-05-07T11:31:02Z</time>
    </trkpt>
    <trkpt lat="50.927592" lon="15.882747">
      <ele>530</ele>
      <time>2026-05-07T11:31:08Z</time>
    </trkpt>
    <trkpt lat="50.927324" lon="15.882726">
      <ele>529</ele>
      <time>2026-05-07T11:31:37Z</time>
    </trkpt>
    <trkpt lat="50.927055" lon="15.882667">
      <ele>526</ele>
      <time>2026-05-07T11:32:05Z</time>
    </trkpt>
    <trkpt lat="50.926858" lon="15.882554">
      <ele>522</ele>
      <time>2026-05-07T11:32:28Z</time>
    </trkpt>
    <trkpt lat="50.92674" lon="15.882441">
      <ele>520</ele>
      <time>2026-05-07T11:32:42Z</time>
    </trkpt>
    <trkpt lat="50.926599" lon="15.882236">
      <ele>518</ele>
      <time>2026-05-07T11:33:03Z</time>
    </trkpt>
    <trkpt lat="50.926479" lon="15.882029">
      <ele>515</ele>
      <time>2026-05-07T11:33:21Z</time>
    </trkpt>
    <trkpt lat="50.926439" lon="15.881961">
      <ele>514</ele>
      <time>2026-05-07T11:33:28Z</time>
    </trkpt>
    <trkpt lat="50.926258" lon="15.881803">
      <ele>511</ele>
      <time>2026-05-07T11:33:50Z</time>
    </trkpt>
    <trkpt lat="50.925492" lon="15.881349">
      <ele>499</ele>
      <time>2026-05-07T11:35:17Z</time>
    </trkpt>
    <trkpt lat="50.925276" lon="15.881193">
      <ele>497</ele>
      <time>2026-05-07T11:35:42Z</time>
    </trkpt>
    <trkpt lat="50.925249" lon="15.88113">
      <ele>497</ele>
      <time>2026-05-07T11:35:47Z</time>
    </trkpt>
    <trkpt lat="50.925228" lon="15.881081">
      <ele>496</ele>
      <time>2026-05-07T11:35:51Z</time>
    </trkpt>
    <trkpt lat="50.925195" lon="15.880591">
      <ele>493</ele>
      <time>2026-05-07T11:36:24Z</time>
    </trkpt>
    <trkpt lat="50.925161" lon="15.880302">
      <ele>490</ele>
      <time>2026-05-07T11:36:43Z</time>
    </trkpt>
    <trkpt lat="50.924866" lon="15.878304">
      <ele>479</ele>
      <time>2026-05-07T11:39:00Z</time>
    </trkpt>
    <trkpt lat="50.924822" lon="15.878098">
      <ele>478</ele>
      <time>2026-05-07T11:39:14Z</time>
    </trkpt>
    <trkpt lat="50.924755" lon="15.877927">
      <ele>477</ele>
      <time>2026-05-07T11:39:28Z</time>
    </trkpt>
    <trkpt lat="50.924645" lon="15.877825">
      <ele>476</ele>
      <time>2026-05-07T11:39:41Z</time>
    </trkpt>
    <trkpt lat="50.924516" lon="15.877756">
      <ele>475</ele>
      <time>2026-05-07T11:39:56Z</time>
    </trkpt>
    <trkpt lat="50.923921" lon="15.87751">
      <ele>470</ele>
      <time>2026-05-07T11:41:01Z</time>
    </trkpt>
    <trkpt lat="50.923487" lon="15.877248">
      <ele>466</ele>
      <time>2026-05-07T11:41:50Z</time>
    </trkpt>
    <trkpt lat="50.923419" lon="15.877128">
      <ele>465</ele>
      <time>2026-05-07T11:42:00Z</time>
    </trkpt>
    <trkpt lat="50.923374" lon="15.876878">
      <ele>466</ele>
      <time>2026-05-07T11:42:18Z</time>
    </trkpt>
    <trkpt lat="50.923325" lon="15.876764">
      <ele>466</ele>
      <time>2026-05-07T11:42:27Z</time>
    </trkpt>
    <trkpt lat="50.923235" lon="15.877176">
      <ele>463</ele>
      <time>2026-05-07T11:42:56Z</time>
    </trkpt>
    <trkpt lat="50.923172" lon="15.877408">
      <ele>463</ele>
      <time>2026-05-07T11:43:13Z</time>
    </trkpt>
    <trkpt lat="50.923102" lon="15.877588">
      <ele>463</ele>
      <time>2026-05-07T11:43:27Z</time>
    </trkpt>
    <trkpt lat="50.923029" lon="15.877717">
      <ele>462</ele>
      <time>2026-05-07T11:43:38Z</time>
    </trkpt>
    <trkpt lat="50.922931" lon="15.87782">
      <ele>462</ele>
      <time>2026-05-07T11:43:51Z</time>
    </trkpt>
    <trkpt lat="50.922853" lon="15.877891">
      <ele>462</ele>
      <time>2026-05-07T11:44:00Z</time>
    </trkpt>
    <trkpt lat="50.922568" lon="15.878064">
      <ele>462</ele>
      <time>2026-05-07T11:44:32Z</time>
    </trkpt>
    <trkpt lat="50.922499" lon="15.878104">
      <ele>462</ele>
      <time>2026-05-07T11:44:40Z</time>
    </trkpt>
    <trkpt lat="50.922431" lon="15.878167">
      <ele>462</ele>
      <time>2026-05-07T11:44:48Z</time>
    </trkpt>
    <trkpt lat="50.92241" lon="15.878195">
      <ele>462</ele>
      <time>2026-05-07T11:44:51Z</time>
    </trkpt>
    <trkpt lat="50.922374" lon="15.878243">
      <ele>462</ele>
      <time>2026-05-07T11:44:56Z</time>
    </trkpt>
    <trkpt lat="50.922331" lon="15.878329">
      <ele>462</ele>
      <time>2026-05-07T11:45:03Z</time>
    </trkpt>
    <trkpt lat="50.922276" lon="15.878495">
      <ele>463</ele>
      <time>2026-05-07T11:45:16Z</time>
    </trkpt>
    <trkpt lat="50.922231" lon="15.878736">
      <ele>464</ele>
      <time>2026-05-07T11:45:33Z</time>
    </trkpt>
    <trkpt lat="50.922209" lon="15.878865">
      <ele>465</ele>
      <time>2026-05-07T11:45:42Z</time>
    </trkpt>
    <trkpt lat="50.922183" lon="15.879022">
      <ele>465</ele>
      <time>2026-05-07T11:45:52Z</time>
    </trkpt>
    <trkpt lat="50.922096" lon="15.879357">
      <ele>467</ele>
      <time>2026-05-07T11:46:16Z</time>
    </trkpt>
    <trkpt lat="50.921845" lon="15.880067">
      <ele>468</ele>
      <time>2026-05-07T11:47:11Z</time>
    </trkpt>
    <trkpt lat="50.92165" lon="15.880723">
      <ele>468</ele>
      <time>2026-05-07T11:47:59Z</time>
    </trkpt>
    <trkpt lat="50.921543" lon="15.881007">
      <ele>467</ele>
      <time>2026-05-07T11:48:21Z</time>
    </trkpt>
    <trkpt lat="50.921465" lon="15.881162">
      <ele>466</ele>
      <time>2026-05-07T11:48:34Z</time>
    </trkpt>
    <trkpt lat="50.921373" lon="15.881292">
      <ele>466</ele>
      <time>2026-05-07T11:48:47Z</time>
    </trkpt>
    <trkpt lat="50.921279" lon="15.881406">
      <ele>467</ele>
      <time>2026-05-07T11:48:59Z</time>
    </trkpt>
    <trkpt lat="50.920759" lon="15.881989">
      <ele>468</ele>
      <time>2026-05-07T11:50:06Z</time>
    </trkpt>
    <trkpt lat="50.92029" lon="15.882539">
      <ele>468</ele>
      <time>2026-05-07T11:51:08Z</time>
    </trkpt>
    <trkpt lat="50.919836" lon="15.883005">
      <ele>467</ele>
      <time>2026-05-07T11:52:05Z</time>
    </trkpt>
    <trkpt lat="50.919548" lon="15.883299">
      <ele>465</ele>
      <time>2026-05-07T11:52:41Z</time>
    </trkpt>
    <trkpt lat="50.91941" lon="15.883491">
      <ele>464</ele>
      <time>2026-05-07T11:53:00Z</time>
    </trkpt>
    <trkpt lat="50.919288" lon="15.883703">
      <ele>463</ele>
      <time>2026-05-07T11:53:19Z</time>
    </trkpt>
    <trkpt lat="50.9191" lon="15.884068">
      <ele>462</ele>
      <time>2026-05-07T11:53:51Z</time>
    </trkpt>
    <trkpt lat="50.91897" lon="15.884391">
      <ele>462</ele>
      <time>2026-05-07T11:54:16Z</time>
    </trkpt>
    <trkpt lat="50.918876" lon="15.884662">
      <ele>462</ele>
      <time>2026-05-07T11:54:37Z</time>
    </trkpt>
    <trkpt lat="50.918652" lon="15.885432">
      <ele>464</ele>
      <time>2026-05-07T11:55:33Z</time>
    </trkpt>
    <trkpt lat="50.91855" lon="15.886174">
      <ele>469</ele>
      <time>2026-05-07T11:56:24Z</time>
    </trkpt>
    <trkpt lat="50.918533" lon="15.886259">
      <ele>469</ele>
      <time>2026-05-07T11:56:30Z</time>
    </trkpt>
    <trkpt lat="50.918511" lon="15.886328">
      <ele>469</ele>
      <time>2026-05-07T11:56:35Z</time>
    </trkpt>
    <trkpt lat="50.918486" lon="15.886379">
      <ele>469</ele>
      <time>2026-05-07T11:56:39Z</time>
    </trkpt>
    <trkpt lat="50.9183" lon="15.886667">
      <ele>468</ele>
      <time>2026-05-07T11:57:07Z</time>
    </trkpt>
    <trkpt lat="50.918195" lon="15.886853">
      <ele>467</ele>
      <time>2026-05-07T11:57:23Z</time>
    </trkpt>
    <trkpt lat="50.918109" lon="15.887047">
      <ele>467</ele>
      <time>2026-05-07T11:57:39Z</time>
    </trkpt>
    <trkpt lat="50.918007" lon="15.8874">
      <ele>466</ele>
      <time>2026-05-07T11:58:05Z</time>
    </trkpt>
    <trkpt lat="50.91787" lon="15.887995">
      <ele>468</ele>
      <time>2026-05-07T11:58:47Z</time>
    </trkpt>
    <trkpt lat="50.917786" lon="15.888307">
      <ele>470</ele>
      <time>2026-05-07T11:59:09Z</time>
    </trkpt>
    <trkpt lat="50.917684" lon="15.888548">
      <ele>470</ele>
      <time>2026-05-07T11:59:29Z</time>
    </trkpt>
    <trkpt lat="50.917346" lon="15.889146">
      <ele>471</ele>
      <time>2026-05-07T12:00:22Z</time>
    </trkpt>
    <trkpt lat="50.91722" lon="15.889467">
      <ele>472</ele>
      <time>2026-05-07T12:00:47Z</time>
    </trkpt>
    <trkpt lat="50.91711" lon="15.889671">
      <ele>473</ele>
      <time>2026-05-07T12:01:05Z</time>
    </trkpt>
    <trkpt lat="50.917034" lon="15.889796">
      <ele>474</ele>
      <time>2026-05-07T12:01:17Z</time>
    </trkpt>
    <trkpt lat="50.916968" lon="15.889903">
      <ele>474</ele>
      <time>2026-05-07T12:01:27Z</time>
    </trkpt>
    <trkpt lat="50.916855" lon="15.890065">
      <ele>473</ele>
      <time>2026-05-07T12:01:43Z</time>
    </trkpt>
    <trkpt lat="50.916618" lon="15.890352">
      <ele>471</ele>
      <time>2026-05-07T12:02:14Z</time>
    </trkpt>
    <trkpt lat="50.916035" lon="15.89101">
      <ele>470</ele>
      <time>2026-05-07T12:03:29Z</time>
    </trkpt>
    <trkpt lat="50.915815" lon="15.891258">
      <ele>469</ele>
      <time>2026-05-07T12:03:58Z</time>
    </trkpt>
    <trkpt lat="50.914739" lon="15.892243">
      <ele>462</ele>
      <time>2026-05-07T12:06:09Z</time>
    </trkpt>
    <trkpt lat="50.914669" lon="15.892301">
      <ele>462</ele>
      <time>2026-05-07T12:06:17Z</time>
    </trkpt>
    <trkpt lat="50.914167" lon="15.892711">
      <ele>460</ele>
      <time>2026-05-07T12:07:17Z</time>
    </trkpt>
    <trkpt lat="50.912331" lon="15.894457">
      <ele>451</ele>
      <time>2026-05-07T12:11:03Z</time>
    </trkpt>
    <trkpt lat="50.912145" lon="15.894634">
      <ele>451</ele>
      <time>2026-05-07T12:11:25Z</time>
    </trkpt>
    <trkpt lat="50.912029" lon="15.894802">
      <ele>451</ele>
      <time>2026-05-07T12:11:42Z</time>
    </trkpt>
    <trkpt lat="50.911683" lon="15.895308">
      <ele>450</ele>
      <time>2026-05-07T12:12:32Z</time>
    </trkpt>
    <trkpt lat="50.911553" lon="15.895454">
      <ele>451</ele>
      <time>2026-05-07T12:12:48Z</time>
    </trkpt>
    <trkpt lat="50.911438" lon="15.895529">
      <ele>451</ele>
      <time>2026-05-07T12:13:01Z</time>
    </trkpt>
    <trkpt lat="50.911113" lon="15.895729">
      <ele>449</ele>
      <time>2026-05-07T12:13:38Z</time>
    </trkpt>
    <trkpt lat="50.910911" lon="15.895891">
      <ele>448</ele>
      <time>2026-05-07T12:14:02Z</time>
    </trkpt>
    <trkpt lat="50.910777" lon="15.896041">
      <ele>448</ele>
      <time>2026-05-07T12:14:19Z</time>
    </trkpt>
    <trkpt lat="50.910666" lon="15.8962">
      <ele>448</ele>
      <time>2026-05-07T12:14:35Z</time>
    </trkpt>
    <trkpt lat="50.910532" lon="15.896468">
      <ele>448</ele>
      <time>2026-05-07T12:14:58Z</time>
    </trkpt>
    <trkpt lat="50.910172" lon="15.897357">
      <ele>450</ele>
      <time>2026-05-07T12:16:08Z</time>
    </trkpt>
    <trkpt lat="50.909986" lon="15.897768">
      <ele>452</ele>
      <time>2026-05-07T12:16:42Z</time>
    </trkpt>
    <trkpt lat="50.90997" lon="15.897804">
      <ele>452</ele>
      <time>2026-05-07T12:16:45Z</time>
    </trkpt>
    <trkpt lat="50.909775" lon="15.898175">
      <ele>454</ele>
      <time>2026-05-07T12:17:17Z</time>
    </trkpt>
    <trkpt lat="50.909515" lon="15.898714">
      <ele>457</ele>
      <time>2026-05-07T12:18:02Z</time>
    </trkpt>
    <trkpt lat="50.909372" lon="15.899">
      <ele>457</ele>
      <time>2026-05-07T12:18:26Z</time>
    </trkpt>
    <trkpt lat="50.909274" lon="15.899247">
      <ele>457</ele>
      <time>2026-05-07T12:18:46Z</time>
    </trkpt>
    <trkpt lat="50.909237" lon="15.899427">
      <ele>458</ele>
      <time>2026-05-07T12:18:58Z</time>
    </trkpt>
    <trkpt lat="50.909168" lon="15.899674">
      <ele>458</ele>
      <time>2026-05-07T12:19:16Z</time>
    </trkpt>
    <trkpt lat="50.908993" lon="15.900197">
      <ele>459</ele>
      <time>2026-05-07T12:19:56Z</time>
    </trkpt>
    <trkpt lat="50.908889" lon="15.90058">
      <ele>459</ele>
      <time>2026-05-07T12:20:23Z</time>
    </trkpt>
    <trkpt lat="50.908792" lon="15.901115">
      <ele>459</ele>
      <time>2026-05-07T12:21:00Z</time>
    </trkpt>
    <trkpt lat="50.908762" lon="15.901381">
      <ele>460</ele>
      <time>2026-05-07T12:21:18Z</time>
    </trkpt>
    <trkpt lat="50.908756" lon="15.901561">
      <ele>461</ele>
      <time>2026-05-07T12:21:30Z</time>
    </trkpt>
    <trkpt lat="50.908731" lon="15.901771">
      <ele>462</ele>
      <time>2026-05-07T12:21:44Z</time>
    </trkpt>
    <trkpt lat="50.908614" lon="15.90221">
      <ele>462</ele>
      <time>2026-05-07T12:22:16Z</time>
    </trkpt>
    <trkpt lat="50.908488" lon="15.902684">
      <ele>462</ele>
      <time>2026-05-07T12:22:50Z</time>
    </trkpt>
    <trkpt lat="50.908385" lon="15.903267">
      <ele>463</ele>
      <time>2026-05-07T12:23:31Z</time>
    </trkpt>
    <trkpt lat="50.90827" lon="15.903913">
      <ele>464</ele>
      <time>2026-05-07T12:24:15Z</time>
    </trkpt>
    <trkpt lat="50.908019" lon="15.905164">
      <ele>464</ele>
      <time>2026-05-07T12:25:42Z</time>
    </trkpt>
    <trkpt lat="50.907941" lon="15.905356">
      <ele>465</ele>
      <time>2026-05-07T12:25:58Z</time>
    </trkpt>
    <trkpt lat="50.907787" lon="15.905626">
      <ele>465</ele>
      <time>2026-05-07T12:26:22Z</time>
    </trkpt>
    <trkpt lat="50.907442" lon="15.906241">
      <ele>464</ele>
      <time>2026-05-07T12:27:16Z</time>
    </trkpt>
    <trkpt lat="50.907065" lon="15.907068">
      <ele>459</ele>
      <time>2026-05-07T12:28:24Z</time>
    </trkpt>
    <trkpt lat="50.906779" lon="15.907755">
      <ele>456</ele>
      <time>2026-05-07T12:29:19Z</time>
    </trkpt>
    <trkpt lat="50.906719" lon="15.907901">
      <ele>455</ele>
      <time>2026-05-07T12:29:31Z</time>
    </trkpt>
    <trkpt lat="50.906615" lon="15.908016">
      <ele>453</ele>
      <time>2026-05-07T12:29:44Z</time>
    </trkpt>
    <trkpt lat="50.906475" lon="15.908077">
      <ele>452</ele>
      <time>2026-05-07T12:30:00Z</time>
    </trkpt>
    <trkpt lat="50.905655" lon="15.908138">
      <ele>450</ele>
      <time>2026-05-07T12:31:26Z</time>
    </trkpt>
    <trkpt lat="50.905393" lon="15.90818">
      <ele>450</ele>
      <time>2026-05-07T12:31:54Z</time>
    </trkpt>
    <trkpt lat="50.905173" lon="15.908244">
      <ele>451</ele>
      <time>2026-05-07T12:32:17Z</time>
    </trkpt>
    <trkpt lat="50.905075" lon="15.908298">
      <ele>451</ele>
      <time>2026-05-07T12:32:28Z</time>
    </trkpt>
    <trkpt lat="50.905015" lon="15.90836">
      <ele>451</ele>
      <time>2026-05-07T12:32:36Z</time>
    </trkpt>
    <trkpt lat="50.904978" lon="15.908422">
      <ele>451</ele>
      <time>2026-05-07T12:32:42Z</time>
    </trkpt>
    <trkpt lat="50.904793" lon="15.908232">
      <ele>449</ele>
      <time>2026-05-07T12:33:05Z</time>
    </trkpt>
    <trkpt lat="50.90474" lon="15.908296">
      <ele>449</ele>
      <time>2026-05-07T12:33:12Z</time>
    </trkpt>
    <trkpt lat="50.904683" lon="15.908342">
      <ele>449</ele>
      <time>2026-05-07T12:33:19Z</time>
    </trkpt>
    <trkpt lat="50.9045" lon="15.908476">
      <ele>447</ele>
      <time>2026-05-07T12:33:40Z</time>
    </trkpt>
    <trkpt lat="50.90439" lon="15.908543">
      <ele>447</ele>
      <time>2026-05-07T12:33:52Z</time>
    </trkpt>
    <trkpt lat="50.904258" lon="15.908607">
      <ele>446</ele>
      <time>2026-05-07T12:34:07Z</time>
    </trkpt>
    <trkpt lat="50.904169" lon="15.908615">
      <ele>446</ele>
      <time>2026-05-07T12:34:16Z</time>
    </trkpt>
    <trkpt lat="50.904067" lon="15.908583">
      <ele>446</ele>
      <time>2026-05-07T12:34:27Z</time>
    </trkpt>
    <trkpt lat="50.903981" lon="15.908531">
      <ele>445</ele>
      <time>2026-05-07T12:34:37Z</time>
    </trkpt>
    <trkpt lat="50.903821" lon="15.908338">
      <ele>445</ele>
      <time>2026-05-07T12:34:53Z</time>
    </trkpt>
    <trkpt lat="50.903564" lon="15.908027">
      <ele>444</ele>
      <time>2026-05-07T12:35:20Z</time>
    </trkpt>
    <trkpt lat="50.903502" lon="15.907964">
      <ele>444</ele>
      <time>2026-05-07T12:35:26Z</time>
    </trkpt>
    <trkpt lat="50.903382" lon="15.9078649">
      <ele>444</ele>
      <time>2026-05-07T12:35:37Z</time>
    </trkpt>
  </trkseg>
</trk>
</gpx>