<?xml version="1.0" encoding="UTF-8"?><gpx creator="https://mapa-turystyczna.pl" xmlns="http://www.topografix.com/GPX/1/1" version="1.1" xmlns:xsi="http://www.w3.org/2001/XMLSchema-instance" xsi:schemaLocation="http://www.topografix.com/GPX/1/1 http://www.topografix.com/GPX/1/1/gpx.xsd">
  <metadata>
    <link href="https://mapa-turystyczna.pl">
      <text>mapa-turystyczna.pl</text>
    </link>
    <time>2026-05-07T08:43:32Z</time>
    <bounds maxlat="49.800542" maxlon="20.059416" minlat="49.766828" minlon="20.000576"/>
  </metadata>

<trk>
  <name>Poręba – Poręba</name>
  <link href="https://mapa-turystyczna.pl/route/i86">
    <text>Poręba – Poręba</text>
  </link>
  <trkseg>
    <trkpt lat="49.797494" lon="20.017039">
      <ele>413</ele>
      <time>2026-05-07T08:43:32Z</time>
    </trkpt>
    <trkpt lat="49.797997" lon="20.016922">
      <ele>411</ele>
      <time>2026-05-07T08:45:16Z</time>
    </trkpt>
    <trkpt lat="49.798136" lon="20.016898">
      <ele>410</ele>
      <time>2026-05-07T08:45:44Z</time>
    </trkpt>
    <trkpt lat="49.799884" lon="20.016599">
      <ele>399</ele>
      <time>2026-05-07T08:51:44Z</time>
    </trkpt>
    <trkpt lat="49.799893" lon="20.016655">
      <ele>399</ele>
      <time>2026-05-07T08:51:51Z</time>
    </trkpt>
    <trkpt lat="49.799896" lon="20.016677">
      <ele>399</ele>
      <time>2026-05-07T08:51:54Z</time>
    </trkpt>
    <trkpt lat="49.79992" lon="20.016937">
      <ele>400</ele>
      <time>2026-05-07T08:52:29Z</time>
    </trkpt>
    <trkpt lat="49.799943" lon="20.017299">
      <ele>402</ele>
      <time>2026-05-07T08:53:17Z</time>
    </trkpt>
    <trkpt lat="49.8001" lon="20.018321">
      <ele>411</ele>
      <time>2026-05-07T08:55:36Z</time>
    </trkpt>
    <trkpt lat="49.800102" lon="20.018471">
      <ele>413</ele>
      <time>2026-05-07T08:55:56Z</time>
    </trkpt>
    <trkpt lat="49.800092" lon="20.018619">
      <ele>414</ele>
      <time>2026-05-07T08:56:16Z</time>
    </trkpt>
    <trkpt lat="49.800047" lon="20.018908">
      <ele>420</ele>
      <time>2026-05-07T08:56:56Z</time>
    </trkpt>
    <trkpt lat="49.800031" lon="20.019147">
      <ele>423</ele>
      <time>2026-05-07T08:57:29Z</time>
    </trkpt>
    <trkpt lat="49.800029" lon="20.019517">
      <ele>428</ele>
      <time>2026-05-07T08:58:18Z</time>
    </trkpt>
    <trkpt lat="49.799996" lon="20.019772">
      <ele>432</ele>
      <time>2026-05-07T08:58:53Z</time>
    </trkpt>
    <trkpt lat="49.799993" lon="20.019898">
      <ele>433</ele>
      <time>2026-05-07T08:59:10Z</time>
    </trkpt>
    <trkpt lat="49.80005" lon="20.020126">
      <ele>435</ele>
      <time>2026-05-07T08:59:42Z</time>
    </trkpt>
    <trkpt lat="49.800171" lon="20.020625">
      <ele>440</ele>
      <time>2026-05-07T09:00:53Z</time>
    </trkpt>
    <trkpt lat="49.800209" lon="20.020845">
      <ele>442</ele>
      <time>2026-05-07T09:01:23Z</time>
    </trkpt>
    <trkpt lat="49.800241" lon="20.021194">
      <ele>448</ele>
      <time>2026-05-07T09:02:11Z</time>
    </trkpt>
    <trkpt lat="49.800241" lon="20.021395">
      <ele>451</ele>
      <time>2026-05-07T09:02:38Z</time>
    </trkpt>
    <trkpt lat="49.800211" lon="20.021628">
      <ele>455</ele>
      <time>2026-05-07T09:03:10Z</time>
    </trkpt>
    <trkpt lat="49.800135" lon="20.021942">
      <ele>460</ele>
      <time>2026-05-07T09:03:55Z</time>
    </trkpt>
    <trkpt lat="49.800051" lon="20.022248">
      <ele>465</ele>
      <time>2026-05-07T09:04:40Z</time>
    </trkpt>
    <trkpt lat="49.800002" lon="20.022345">
      <ele>467</ele>
      <time>2026-05-07T09:04:57Z</time>
    </trkpt>
    <trkpt lat="49.799867" lon="20.022505">
      <ele>473</ele>
      <time>2026-05-07T09:05:33Z</time>
    </trkpt>
    <trkpt lat="49.799795" lon="20.022553">
      <ele>475</ele>
      <time>2026-05-07T09:05:49Z</time>
    </trkpt>
    <trkpt lat="49.799717" lon="20.022573">
      <ele>478</ele>
      <time>2026-05-07T09:06:06Z</time>
    </trkpt>
    <trkpt lat="49.799628" lon="20.022564">
      <ele>482</ele>
      <time>2026-05-07T09:06:26Z</time>
    </trkpt>
    <trkpt lat="49.799459" lon="20.022478">
      <ele>489</ele>
      <time>2026-05-07T09:07:04Z</time>
    </trkpt>
    <trkpt lat="49.798987" lon="20.02215">
      <ele>500</ele>
      <time>2026-05-07T09:08:52Z</time>
    </trkpt>
    <trkpt lat="49.79873" lon="20.02211">
      <ele>504</ele>
      <time>2026-05-07T09:09:45Z</time>
    </trkpt>
    <trkpt lat="49.79854" lon="20.022132">
      <ele>506</ele>
      <time>2026-05-07T09:10:24Z</time>
    </trkpt>
    <trkpt lat="49.7985" lon="20.022173">
      <ele>507</ele>
      <time>2026-05-07T09:10:34Z</time>
    </trkpt>
    <trkpt lat="49.798473" lon="20.022263">
      <ele>509</ele>
      <time>2026-05-07T09:10:47Z</time>
    </trkpt>
    <trkpt lat="49.798473" lon="20.022361">
      <ele>510</ele>
      <time>2026-05-07T09:11:00Z</time>
    </trkpt>
    <trkpt lat="49.798575" lon="20.022924">
      <ele>520</ele>
      <time>2026-05-07T09:12:20Z</time>
    </trkpt>
    <trkpt lat="49.798594" lon="20.023269">
      <ele>526</ele>
      <time>2026-05-07T09:13:06Z</time>
    </trkpt>
    <trkpt lat="49.798565" lon="20.023643">
      <ele>530</ele>
      <time>2026-05-07T09:13:57Z</time>
    </trkpt>
    <trkpt lat="49.798543" lon="20.02407">
      <ele>535</ele>
      <time>2026-05-07T09:14:54Z</time>
    </trkpt>
    <trkpt lat="49.798525" lon="20.02445">
      <ele>539</ele>
      <time>2026-05-07T09:15:45Z</time>
    </trkpt>
    <trkpt lat="49.798508" lon="20.024788">
      <ele>542</ele>
      <time>2026-05-07T09:16:29Z</time>
    </trkpt>
    <trkpt lat="49.798463" lon="20.025029">
      <ele>544</ele>
      <time>2026-05-07T09:17:03Z</time>
    </trkpt>
    <trkpt lat="49.798428" lon="20.025185">
      <ele>547</ele>
      <time>2026-05-07T09:17:25Z</time>
    </trkpt>
    <trkpt lat="49.798428" lon="20.025485">
      <ele>552</ele>
      <time>2026-05-07T09:18:06Z</time>
    </trkpt>
    <trkpt lat="49.798442" lon="20.0257">
      <ele>555</ele>
      <time>2026-05-07T09:18:35Z</time>
    </trkpt>
    <trkpt lat="49.798421" lon="20.025882">
      <ele>558</ele>
      <time>2026-05-07T09:18:59Z</time>
    </trkpt>
    <trkpt lat="49.798386" lon="20.026102">
      <ele>561</ele>
      <time>2026-05-07T09:19:30Z</time>
    </trkpt>
    <trkpt lat="49.798386" lon="20.0263">
      <ele>563</ele>
      <time>2026-05-07T09:19:56Z</time>
    </trkpt>
    <trkpt lat="49.798402" lon="20.02655">
      <ele>565</ele>
      <time>2026-05-07T09:20:30Z</time>
    </trkpt>
    <trkpt lat="49.798459" lon="20.027175">
      <ele>566</ele>
      <time>2026-05-07T09:21:53Z</time>
    </trkpt>
    <trkpt lat="49.798518" lon="20.027577">
      <ele>567</ele>
      <time>2026-05-07T09:22:47Z</time>
    </trkpt>
    <trkpt lat="49.798604" lon="20.028039">
      <ele>570</ele>
      <time>2026-05-07T09:23:50Z</time>
    </trkpt>
    <trkpt lat="49.798667" lon="20.0285">
      <ele>573</ele>
      <time>2026-05-07T09:24:53Z</time>
    </trkpt>
    <trkpt lat="49.798719" lon="20.028811">
      <ele>576</ele>
      <time>2026-05-07T09:25:35Z</time>
    </trkpt>
    <trkpt lat="49.798885" lon="20.029541">
      <ele>587</ele>
      <time>2026-05-07T09:27:20Z</time>
    </trkpt>
    <trkpt lat="49.798985" lon="20.030007">
      <ele>592</ele>
      <time>2026-05-07T09:28:25Z</time>
    </trkpt>
    <trkpt lat="49.799083" lon="20.030635">
      <ele>599</ele>
      <time>2026-05-07T09:29:51Z</time>
    </trkpt>
    <trkpt lat="49.799078" lon="20.030786">
      <ele>601</ele>
      <time>2026-05-07T09:30:11Z</time>
    </trkpt>
    <trkpt lat="49.799022" lon="20.031064">
      <ele>608</ele>
      <time>2026-05-07T09:30:51Z</time>
    </trkpt>
    <trkpt lat="49.798892" lon="20.031434">
      <ele>616</ele>
      <time>2026-05-07T09:31:49Z</time>
    </trkpt>
    <trkpt lat="49.798847" lon="20.031531">
      <ele>619</ele>
      <time>2026-05-07T09:32:05Z</time>
    </trkpt>
    <trkpt lat="49.798739" lon="20.031767">
      <ele>624</ele>
      <time>2026-05-07T09:32:45Z</time>
    </trkpt>
    <trkpt lat="49.798681" lon="20.031949">
      <ele>628</ele>
      <time>2026-05-07T09:33:12Z</time>
    </trkpt>
    <trkpt lat="49.798643" lon="20.032164">
      <ele>630</ele>
      <time>2026-05-07T09:33:42Z</time>
    </trkpt>
    <trkpt lat="49.798604" lon="20.032391">
      <ele>633</ele>
      <time>2026-05-07T09:34:13Z</time>
    </trkpt>
    <trkpt lat="49.798632" lon="20.032641">
      <ele>636</ele>
      <time>2026-05-07T09:34:47Z</time>
    </trkpt>
    <trkpt lat="49.798691" lon="20.032861">
      <ele>641</ele>
      <time>2026-05-07T09:35:20Z</time>
    </trkpt>
    <trkpt lat="49.79866" lon="20.033033">
      <ele>645</ele>
      <time>2026-05-07T09:35:45Z</time>
    </trkpt>
    <trkpt lat="49.79858" lon="20.033172">
      <ele>648</ele>
      <time>2026-05-07T09:36:10Z</time>
    </trkpt>
    <trkpt lat="49.798539" lon="20.033269">
      <ele>650</ele>
      <time>2026-05-07T09:36:25Z</time>
    </trkpt>
    <trkpt lat="49.798805" lon="20.034011">
      <ele>668</ele>
      <time>2026-05-07T09:38:22Z</time>
    </trkpt>
    <trkpt lat="49.798891" lon="20.034247">
      <ele>673</ele>
      <time>2026-05-07T09:38:59Z</time>
    </trkpt>
    <trkpt lat="49.799236" lon="20.034802">
      <ele>680</ele>
      <time>2026-05-07T09:40:41Z</time>
    </trkpt>
    <trkpt lat="49.799412" lon="20.035182">
      <ele>687</ele>
      <time>2026-05-07T09:41:44Z</time>
    </trkpt>
    <trkpt lat="49.799488" lon="20.035441">
      <ele>689</ele>
      <time>2026-05-07T09:42:21Z</time>
    </trkpt>
    <trkpt lat="49.799571" lon="20.035823">
      <ele>693</ele>
      <time>2026-05-07T09:43:15Z</time>
    </trkpt>
    <trkpt lat="49.799721" lon="20.036239">
      <ele>700</ele>
      <time>2026-05-07T09:44:19Z</time>
    </trkpt>
    <trkpt lat="49.799815" lon="20.036556">
      <ele>703</ele>
      <time>2026-05-07T09:45:05Z</time>
    </trkpt>
    <trkpt lat="49.799882" lon="20.036884">
      <ele>706</ele>
      <time>2026-05-07T09:45:51Z</time>
    </trkpt>
    <trkpt lat="49.799979" lon="20.037239">
      <ele>709</ele>
      <time>2026-05-07T09:46:42Z</time>
    </trkpt>
    <trkpt lat="49.80012" lon="20.037711">
      <ele>714</ele>
      <time>2026-05-07T09:47:51Z</time>
    </trkpt>
    <trkpt lat="49.800302" lon="20.03828">
      <ele>722</ele>
      <time>2026-05-07T09:49:16Z</time>
    </trkpt>
    <trkpt lat="49.800341" lon="20.038498">
      <ele>724</ele>
      <time>2026-05-07T09:49:46Z</time>
    </trkpt>
    <trkpt lat="49.800321" lon="20.038762">
      <ele>727</ele>
      <time>2026-05-07T09:50:21Z</time>
    </trkpt>
    <trkpt lat="49.800339" lon="20.038944">
      <ele>728</ele>
      <time>2026-05-07T09:50:46Z</time>
    </trkpt>
    <trkpt lat="49.800443" lon="20.039473">
      <ele>731</ele>
      <time>2026-05-07T09:51:59Z</time>
    </trkpt>
    <trkpt lat="49.800469" lon="20.039698">
      <ele>733</ele>
      <time>2026-05-07T09:52:29Z</time>
    </trkpt>
    <trkpt lat="49.800524" lon="20.039972">
      <ele>735</ele>
      <time>2026-05-07T09:53:07Z</time>
    </trkpt>
    <trkpt lat="49.800542" lon="20.040159">
      <ele>737</ele>
      <time>2026-05-07T09:53:32Z</time>
    </trkpt>
    <trkpt lat="49.800493" lon="20.04038">
      <ele>740</ele>
      <time>2026-05-07T09:53:52Z</time>
    </trkpt>
    <trkpt lat="49.800419" lon="20.040562">
      <ele>741</ele>
      <time>2026-05-07T09:54:11Z</time>
    </trkpt>
    <trkpt lat="49.800391" lon="20.04068">
      <ele>742</ele>
      <time>2026-05-07T09:54:22Z</time>
    </trkpt>
    <trkpt lat="49.800391" lon="20.040852">
      <ele>745</ele>
      <time>2026-05-07T09:54:37Z</time>
    </trkpt>
    <trkpt lat="49.800422" lon="20.041047">
      <ele>748</ele>
      <time>2026-05-07T09:54:55Z</time>
    </trkpt>
    <trkpt lat="49.80044" lon="20.041171">
      <ele>750</ele>
      <time>2026-05-07T09:55:07Z</time>
    </trkpt>
    <trkpt lat="49.800459" lon="20.041369">
      <ele>753</ele>
      <time>2026-05-07T09:55:24Z</time>
    </trkpt>
    <trkpt lat="49.800482" lon="20.04155">
      <ele>755</ele>
      <time>2026-05-07T09:55:41Z</time>
    </trkpt>
    <trkpt lat="49.80049" lon="20.041662">
      <ele>757</ele>
      <time>2026-05-07T09:55:51Z</time>
    </trkpt>
    <trkpt lat="49.800476" lon="20.041755">
      <ele>758</ele>
      <time>2026-05-07T09:55:59Z</time>
    </trkpt>
    <trkpt lat="49.800388" lon="20.042013">
      <ele>762</ele>
      <time>2026-05-07T09:56:25Z</time>
    </trkpt>
    <trkpt lat="49.800348" lon="20.042211">
      <ele>763</ele>
      <time>2026-05-07T09:56:43Z</time>
    </trkpt>
    <trkpt lat="49.800363" lon="20.042386">
      <ele>764</ele>
      <time>2026-05-07T09:56:58Z</time>
    </trkpt>
    <trkpt lat="49.800422" lon="20.042595">
      <ele>766</ele>
      <time>2026-05-07T09:57:18Z</time>
    </trkpt>
    <trkpt lat="49.800426" lon="20.042768">
      <ele>767</ele>
      <time>2026-05-07T09:57:33Z</time>
    </trkpt>
    <trkpt lat="49.800426" lon="20.04302">
      <ele>767</ele>
      <time>2026-05-07T09:57:55Z</time>
    </trkpt>
    <trkpt lat="49.80044" lon="20.043375">
      <ele>768</ele>
      <time>2026-05-07T09:58:26Z</time>
    </trkpt>
    <trkpt lat="49.800436" lon="20.043579">
      <ele>769</ele>
      <time>2026-05-07T09:58:43Z</time>
    </trkpt>
    <trkpt lat="49.800416" lon="20.043651">
      <ele>769</ele>
      <time>2026-05-07T09:58:50Z</time>
    </trkpt>
    <trkpt lat="49.800412" lon="20.043696">
      <ele>770</ele>
      <time>2026-05-07T09:58:54Z</time>
    </trkpt>
    <trkpt lat="49.800381" lon="20.043982">
      <ele>771</ele>
      <time>2026-05-07T09:59:20Z</time>
    </trkpt>
    <trkpt lat="49.800332" lon="20.044185">
      <ele>773</ele>
      <time>2026-05-07T09:59:38Z</time>
    </trkpt>
    <trkpt lat="49.800244" lon="20.044355">
      <ele>775</ele>
      <time>2026-05-07T09:59:58Z</time>
    </trkpt>
    <trkpt lat="49.800047" lon="20.044719">
      <ele>778</ele>
      <time>2026-05-07T10:00:39Z</time>
    </trkpt>
    <trkpt lat="49.799962" lon="20.045006">
      <ele>780</ele>
      <time>2026-05-07T10:01:06Z</time>
    </trkpt>
    <trkpt lat="49.799869" lon="20.045241">
      <ele>781</ele>
      <time>2026-05-07T10:01:30Z</time>
    </trkpt>
    <trkpt lat="49.799743" lon="20.045536">
      <ele>783</ele>
      <time>2026-05-07T10:02:01Z</time>
    </trkpt>
    <trkpt lat="49.799647" lon="20.045891">
      <ele>786</ele>
      <time>2026-05-07T10:02:35Z</time>
    </trkpt>
    <trkpt lat="49.799511" lon="20.046285">
      <ele>786</ele>
      <time>2026-05-07T10:03:14Z</time>
    </trkpt>
    <trkpt lat="49.79934" lon="20.046682">
      <ele>785</ele>
      <time>2026-05-07T10:03:55Z</time>
    </trkpt>
    <trkpt lat="49.799298" lon="20.046872">
      <ele>785</ele>
      <time>2026-05-07T10:04:12Z</time>
    </trkpt>
    <trkpt lat="49.799276" lon="20.047098">
      <ele>786</ele>
      <time>2026-05-07T10:04:32Z</time>
    </trkpt>
    <trkpt lat="49.79928" lon="20.04734">
      <ele>786</ele>
      <time>2026-05-07T10:04:53Z</time>
    </trkpt>
    <trkpt lat="49.799259" lon="20.047565">
      <ele>786</ele>
      <time>2026-05-07T10:05:13Z</time>
    </trkpt>
    <trkpt lat="49.799216" lon="20.04783">
      <ele>786</ele>
      <time>2026-05-07T10:05:37Z</time>
    </trkpt>
    <trkpt lat="49.799182" lon="20.047988">
      <ele>785</ele>
      <time>2026-05-07T10:05:51Z</time>
    </trkpt>
    <trkpt lat="49.799055" lon="20.048488">
      <ele>783</ele>
      <time>2026-05-07T10:06:38Z</time>
    </trkpt>
    <trkpt lat="49.79902" lon="20.04873">
      <ele>782</ele>
      <time>2026-05-07T10:06:59Z</time>
    </trkpt>
    <trkpt lat="49.798992" lon="20.04897">
      <ele>781</ele>
      <time>2026-05-07T10:07:21Z</time>
    </trkpt>
    <trkpt lat="49.798869" lon="20.049425">
      <ele>780</ele>
      <time>2026-05-07T10:08:03Z</time>
    </trkpt>
    <trkpt lat="49.798821" lon="20.049699">
      <ele>779</ele>
      <time>2026-05-07T10:08:28Z</time>
    </trkpt>
    <trkpt lat="49.798781" lon="20.049929">
      <ele>777</ele>
      <time>2026-05-07T10:08:49Z</time>
    </trkpt>
    <trkpt lat="49.798734" lon="20.050087">
      <ele>776</ele>
      <time>2026-05-07T10:09:04Z</time>
    </trkpt>
    <trkpt lat="49.798516" lon="20.050522">
      <ele>775</ele>
      <time>2026-05-07T10:09:52Z</time>
    </trkpt>
    <trkpt lat="49.798186" lon="20.051058">
      <ele>775</ele>
      <time>2026-05-07T10:10:56Z</time>
    </trkpt>
    <trkpt lat="49.798111" lon="20.05118">
      <ele>774</ele>
      <time>2026-05-07T10:11:11Z</time>
    </trkpt>
    <trkpt lat="49.797801" lon="20.051658">
      <ele>774</ele>
      <time>2026-05-07T10:12:09Z</time>
    </trkpt>
    <trkpt lat="49.797657" lon="20.05182">
      <ele>775</ele>
      <time>2026-05-07T10:12:33Z</time>
    </trkpt>
    <trkpt lat="49.797483" lon="20.051932">
      <ele>778</ele>
      <time>2026-05-07T10:12:59Z</time>
    </trkpt>
    <trkpt lat="49.797303" lon="20.05208">
      <ele>779</ele>
      <time>2026-05-07T10:13:27Z</time>
    </trkpt>
    <trkpt lat="49.797144" lon="20.052275">
      <ele>779</ele>
      <time>2026-05-07T10:13:54Z</time>
    </trkpt>
    <trkpt lat="49.796905" lon="20.05248">
      <ele>777</ele>
      <time>2026-05-07T10:14:31Z</time>
    </trkpt>
    <trkpt lat="49.796654" lon="20.052634">
      <ele>777</ele>
      <time>2026-05-07T10:15:07Z</time>
    </trkpt>
    <trkpt lat="49.796452" lon="20.05281">
      <ele>777</ele>
      <time>2026-05-07T10:15:38Z</time>
    </trkpt>
    <trkpt lat="49.79634" lon="20.052871">
      <ele>778</ele>
      <time>2026-05-07T10:15:54Z</time>
    </trkpt>
    <trkpt lat="49.796241" lon="20.052902">
      <ele>778</ele>
      <time>2026-05-07T10:16:08Z</time>
    </trkpt>
    <trkpt lat="49.79618" lon="20.052926">
      <ele>778</ele>
      <time>2026-05-07T10:16:16Z</time>
    </trkpt>
    <trkpt lat="49.796003" lon="20.052974">
      <ele>779</ele>
      <time>2026-05-07T10:16:40Z</time>
    </trkpt>
    <trkpt lat="49.79567" lon="20.053181">
      <ele>779</ele>
      <time>2026-05-07T10:17:28Z</time>
    </trkpt>
    <trkpt lat="49.795474" lon="20.053364">
      <ele>780</ele>
      <time>2026-05-07T10:17:59Z</time>
    </trkpt>
    <trkpt lat="49.79538" lon="20.053434">
      <ele>780</ele>
      <time>2026-05-07T10:18:13Z</time>
    </trkpt>
    <trkpt lat="49.795108" lon="20.053578">
      <ele>780</ele>
      <time>2026-05-07T10:18:52Z</time>
    </trkpt>
    <trkpt lat="49.794904" lon="20.053773">
      <ele>779</ele>
      <time>2026-05-07T10:19:24Z</time>
    </trkpt>
    <trkpt lat="49.794678" lon="20.05392">
      <ele>778</ele>
      <time>2026-05-07T10:19:57Z</time>
    </trkpt>
    <trkpt lat="49.794564" lon="20.05401">
      <ele>778</ele>
      <time>2026-05-07T10:20:14Z</time>
    </trkpt>
    <trkpt lat="49.794216" lon="20.054286">
      <ele>780</ele>
      <time>2026-05-07T10:21:07Z</time>
    </trkpt>
    <trkpt lat="49.793402" lon="20.054686">
      <ele>779</ele>
      <time>2026-05-07T10:23:02Z</time>
    </trkpt>
    <trkpt lat="49.793299" lon="20.054709">
      <ele>778</ele>
      <time>2026-05-07T10:23:16Z</time>
    </trkpt>
    <trkpt lat="49.793185" lon="20.054769">
      <ele>776</ele>
      <time>2026-05-07T10:23:32Z</time>
    </trkpt>
    <trkpt lat="49.79308" lon="20.054825">
      <ele>780</ele>
      <time>2026-05-07T10:23:47Z</time>
    </trkpt>
    <trkpt lat="49.792818" lon="20.054897">
      <ele>785</ele>
      <time>2026-05-07T10:24:20Z</time>
    </trkpt>
    <trkpt lat="49.792688" lon="20.054963">
      <ele>786</ele>
      <time>2026-05-07T10:24:37Z</time>
    </trkpt>
    <trkpt lat="49.792472" lon="20.05512">
      <ele>788</ele>
      <time>2026-05-07T10:25:07Z</time>
    </trkpt>
    <trkpt lat="49.792059" lon="20.055353">
      <ele>793</ele>
      <time>2026-05-07T10:26:01Z</time>
    </trkpt>
    <trkpt lat="49.7918" lon="20.055531">
      <ele>796</ele>
      <time>2026-05-07T10:26:37Z</time>
    </trkpt>
    <trkpt lat="49.791599" lon="20.055698">
      <ele>799</ele>
      <time>2026-05-07T10:27:05Z</time>
    </trkpt>
    <trkpt lat="49.791297" lon="20.055882">
      <ele>802</ele>
      <time>2026-05-07T10:27:46Z</time>
    </trkpt>
    <trkpt lat="49.790884" lon="20.05611">
      <ele>807</ele>
      <time>2026-05-07T10:28:40Z</time>
    </trkpt>
    <trkpt lat="49.790757" lon="20.056201">
      <ele>810</ele>
      <time>2026-05-07T10:28:58Z</time>
    </trkpt>
    <trkpt lat="49.79066" lon="20.056305">
      <ele>812</ele>
      <time>2026-05-07T10:29:13Z</time>
    </trkpt>
    <trkpt lat="49.790505" lon="20.056532">
      <ele>817</ele>
      <time>2026-05-07T10:29:40Z</time>
    </trkpt>
    <trkpt lat="49.790416" lon="20.056629">
      <ele>819</ele>
      <time>2026-05-07T10:29:53Z</time>
    </trkpt>
    <trkpt lat="49.789971" lon="20.057049">
      <ele>825</ele>
      <time>2026-05-07T10:30:58Z</time>
    </trkpt>
    <trkpt lat="49.789726" lon="20.05713">
      <ele>826</ele>
      <time>2026-05-07T10:31:29Z</time>
    </trkpt>
    <trkpt lat="49.789252" lon="20.057158">
      <ele>824</ele>
      <time>2026-05-07T10:32:28Z</time>
    </trkpt>
    <trkpt lat="49.788776" lon="20.057054">
      <ele>820</ele>
      <time>2026-05-07T10:33:28Z</time>
    </trkpt>
    <trkpt lat="49.788637" lon="20.056962">
      <ele>818</ele>
      <time>2026-05-07T10:33:47Z</time>
    </trkpt>
    <trkpt lat="49.788321" lon="20.056631">
      <ele>813</ele>
      <time>2026-05-07T10:34:35Z</time>
    </trkpt>
    <trkpt lat="49.788103" lon="20.056449">
      <ele>809</ele>
      <time>2026-05-07T10:35:06Z</time>
    </trkpt>
    <trkpt lat="49.787577" lon="20.056144">
      <ele>800</ele>
      <time>2026-05-07T10:36:16Z</time>
    </trkpt>
    <trkpt lat="49.786913" lon="20.055889">
      <ele>788</ele>
      <time>2026-05-07T10:37:42Z</time>
    </trkpt>
    <trkpt lat="49.786794" lon="20.055801">
      <ele>785</ele>
      <time>2026-05-07T10:37:59Z</time>
    </trkpt>
    <trkpt lat="49.786716" lon="20.055709">
      <ele>783</ele>
      <time>2026-05-07T10:38:11Z</time>
    </trkpt>
    <trkpt lat="49.786536" lon="20.055435">
      <ele>780</ele>
      <time>2026-05-07T10:38:43Z</time>
    </trkpt>
    <trkpt lat="49.786268" lon="20.054972">
      <ele>776</ele>
      <time>2026-05-07T10:39:32Z</time>
    </trkpt>
    <trkpt lat="49.786081" lon="20.054521">
      <ele>774</ele>
      <time>2026-05-07T10:40:15Z</time>
    </trkpt>
    <trkpt lat="49.785976" lon="20.054295">
      <ele>773</ele>
      <time>2026-05-07T10:40:38Z</time>
    </trkpt>
    <trkpt lat="49.785874" lon="20.054187">
      <ele>772</ele>
      <time>2026-05-07T10:40:53Z</time>
    </trkpt>
    <trkpt lat="49.785729" lon="20.054056">
      <ele>771</ele>
      <time>2026-05-07T10:41:14Z</time>
    </trkpt>
    <trkpt lat="49.785452" lon="20.053831">
      <ele>768</ele>
      <time>2026-05-07T10:41:53Z</time>
    </trkpt>
    <trkpt lat="49.785299" lon="20.053659">
      <ele>765</ele>
      <time>2026-05-07T10:42:17Z</time>
    </trkpt>
    <trkpt lat="49.78506" lon="20.053361">
      <ele>759</ele>
      <time>2026-05-07T10:42:55Z</time>
    </trkpt>
    <trkpt lat="49.784959" lon="20.05321">
      <ele>756</ele>
      <time>2026-05-07T10:43:13Z</time>
    </trkpt>
    <trkpt lat="49.784878" lon="20.05309">
      <ele>754</ele>
      <time>2026-05-07T10:43:27Z</time>
    </trkpt>
    <trkpt lat="49.784626" lon="20.052604">
      <ele>749</ele>
      <time>2026-05-07T10:44:17Z</time>
    </trkpt>
    <trkpt lat="49.784537" lon="20.052447">
      <ele>746</ele>
      <time>2026-05-07T10:44:34Z</time>
    </trkpt>
    <trkpt lat="49.78444" lon="20.052181">
      <ele>744</ele>
      <time>2026-05-07T10:44:59Z</time>
    </trkpt>
    <trkpt lat="49.784374" lon="20.051929">
      <ele>740</ele>
      <time>2026-05-07T10:45:21Z</time>
    </trkpt>
    <trkpt lat="49.78431" lon="20.051715">
      <ele>736</ele>
      <time>2026-05-07T10:45:40Z</time>
    </trkpt>
    <trkpt lat="49.78425" lon="20.051615">
      <ele>734</ele>
      <time>2026-05-07T10:45:52Z</time>
    </trkpt>
    <trkpt lat="49.784135" lon="20.051548">
      <ele>731</ele>
      <time>2026-05-07T10:46:07Z</time>
    </trkpt>
    <trkpt lat="49.783693" lon="20.0513">
      <ele>719</ele>
      <time>2026-05-07T10:47:07Z</time>
    </trkpt>
    <trkpt lat="49.783509" lon="20.051218">
      <ele>714</ele>
      <time>2026-05-07T10:47:31Z</time>
    </trkpt>
    <trkpt lat="49.783317" lon="20.051163">
      <ele>709</ele>
      <time>2026-05-07T10:47:56Z</time>
    </trkpt>
    <trkpt lat="49.783252" lon="20.05115">
      <ele>709</ele>
      <time>2026-05-07T10:48:04Z</time>
    </trkpt>
    <trkpt lat="49.783157" lon="20.051119">
      <ele>708</ele>
      <time>2026-05-07T10:48:16Z</time>
    </trkpt>
    <trkpt lat="49.783063" lon="20.050988">
      <ele>708</ele>
      <time>2026-05-07T10:48:32Z</time>
    </trkpt>
    <trkpt lat="49.782878" lon="20.050933">
      <ele>708</ele>
      <time>2026-05-07T10:49:16Z</time>
    </trkpt>
    <trkpt lat="49.782529" lon="20.050884">
      <ele>707</ele>
      <time>2026-05-07T10:50:38Z</time>
    </trkpt>
    <trkpt lat="49.782333" lon="20.050854">
      <ele>710</ele>
      <time>2026-05-07T10:51:25Z</time>
    </trkpt>
    <trkpt lat="49.782137" lon="20.050851">
      <ele>714</ele>
      <time>2026-05-07T10:52:11Z</time>
    </trkpt>
    <trkpt lat="49.782025" lon="20.050859">
      <ele>717</ele>
      <time>2026-05-07T10:52:38Z</time>
    </trkpt>
    <trkpt lat="49.781988" lon="20.050878">
      <ele>718</ele>
      <time>2026-05-07T10:52:48Z</time>
    </trkpt>
    <trkpt lat="49.781882" lon="20.050933">
      <ele>720</ele>
      <time>2026-05-07T10:53:14Z</time>
    </trkpt>
    <trkpt lat="49.781797" lon="20.050977">
      <ele>722</ele>
      <time>2026-05-07T10:53:35Z</time>
    </trkpt>
    <trkpt lat="49.781669" lon="20.050902">
      <ele>727</ele>
      <time>2026-05-07T10:54:09Z</time>
    </trkpt>
    <trkpt lat="49.781631" lon="20.050848">
      <ele>729</ele>
      <time>2026-05-07T10:54:22Z</time>
    </trkpt>
    <trkpt lat="49.781597" lon="20.050746">
      <ele>732</ele>
      <time>2026-05-07T10:54:40Z</time>
    </trkpt>
    <trkpt lat="49.781579" lon="20.050558">
      <ele>737</ele>
      <time>2026-05-07T10:55:11Z</time>
    </trkpt>
    <trkpt lat="49.781531" lon="20.050392">
      <ele>741</ele>
      <time>2026-05-07T10:55:40Z</time>
    </trkpt>
    <trkpt lat="49.781451" lon="20.050279">
      <ele>745</ele>
      <time>2026-05-07T10:56:07Z</time>
    </trkpt>
    <trkpt lat="49.78133" lon="20.050172">
      <ele>752</ele>
      <time>2026-05-07T10:56:42Z</time>
    </trkpt>
    <trkpt lat="49.781222" lon="20.050043">
      <ele>759</ele>
      <time>2026-05-07T10:57:17Z</time>
    </trkpt>
    <trkpt lat="49.781122" lon="20.049979">
      <ele>765</ele>
      <time>2026-05-07T10:57:45Z</time>
    </trkpt>
    <trkpt lat="49.781018" lon="20.049984">
      <ele>770</ele>
      <time>2026-05-07T10:58:12Z</time>
    </trkpt>
    <trkpt lat="49.78089" lon="20.05">
      <ele>777</ele>
      <time>2026-05-07T10:58:45Z</time>
    </trkpt>
    <trkpt lat="49.780734" lon="20.05">
      <ele>784</ele>
      <time>2026-05-07T10:59:25Z</time>
    </trkpt>
    <trkpt lat="49.78054" lon="20.050054">
      <ele>790</ele>
      <time>2026-05-07T11:00:12Z</time>
    </trkpt>
    <trkpt lat="49.780331" lon="20.050103">
      <ele>795</ele>
      <time>2026-05-07T11:01:03Z</time>
    </trkpt>
    <trkpt lat="49.780242" lon="20.050124">
      <ele>797</ele>
      <time>2026-05-07T11:01:25Z</time>
    </trkpt>
    <trkpt lat="49.780065" lon="20.050148">
      <ele>801</ele>
      <time>2026-05-07T11:02:07Z</time>
    </trkpt>
    <trkpt lat="49.779878" lon="20.050188">
      <ele>805</ele>
      <time>2026-05-07T11:02:52Z</time>
    </trkpt>
    <trkpt lat="49.779646" lon="20.050242">
      <ele>809</ele>
      <time>2026-05-07T11:03:48Z</time>
    </trkpt>
    <trkpt lat="49.779518" lon="20.050247">
      <ele>811</ele>
      <time>2026-05-07T11:04:18Z</time>
    </trkpt>
    <trkpt lat="49.779366" lon="20.050232">
      <ele>815</ele>
      <time>2026-05-07T11:04:54Z</time>
    </trkpt>
    <trkpt lat="49.77912" lon="20.05014">
      <ele>822</ele>
      <time>2026-05-07T11:05:56Z</time>
    </trkpt>
    <trkpt lat="49.778954" lon="20.050092">
      <ele>827</ele>
      <time>2026-05-07T11:06:36Z</time>
    </trkpt>
    <trkpt lat="49.778659" lon="20.049979">
      <ele>835</ele>
      <time>2026-05-07T11:07:49Z</time>
    </trkpt>
    <trkpt lat="49.778382" lon="20.049904">
      <ele>842</ele>
      <time>2026-05-07T11:08:57Z</time>
    </trkpt>
    <trkpt lat="49.778219" lon="20.049904">
      <ele>846</ele>
      <time>2026-05-07T11:09:36Z</time>
    </trkpt>
    <trkpt lat="49.778077" lon="20.049936">
      <ele>849</ele>
      <time>2026-05-07T11:10:10Z</time>
    </trkpt>
    <trkpt lat="49.777897" lon="20.04999">
      <ele>852</ele>
      <time>2026-05-07T11:10:53Z</time>
    </trkpt>
    <trkpt lat="49.777811" lon="20.049974">
      <ele>854</ele>
      <time>2026-05-07T11:11:14Z</time>
    </trkpt>
    <trkpt lat="49.77772" lon="20.049958">
      <ele>856</ele>
      <time>2026-05-07T11:11:36Z</time>
    </trkpt>
    <trkpt lat="49.777544" lon="20.049941">
      <ele>861</ele>
      <time>2026-05-07T11:12:18Z</time>
    </trkpt>
    <trkpt lat="49.777429" lon="20.049888">
      <ele>864</ele>
      <time>2026-05-07T11:12:47Z</time>
    </trkpt>
    <trkpt lat="49.777358" lon="20.049893">
      <ele>866</ele>
      <time>2026-05-07T11:13:04Z</time>
    </trkpt>
    <trkpt lat="49.777218" lon="20.049904">
      <ele>869</ele>
      <time>2026-05-07T11:13:38Z</time>
    </trkpt>
    <trkpt lat="49.777066" lon="20.049893">
      <ele>871</ele>
      <time>2026-05-07T11:14:13Z</time>
    </trkpt>
    <trkpt lat="49.777022" lon="20.049876">
      <ele>872</ele>
      <time>2026-05-07T11:14:24Z</time>
    </trkpt>
    <trkpt lat="49.776927" lon="20.04984">
      <ele>873</ele>
      <time>2026-05-07T11:14:47Z</time>
    </trkpt>
    <trkpt lat="49.776782" lon="20.049716">
      <ele>876</ele>
      <time>2026-05-07T11:15:26Z</time>
    </trkpt>
    <trkpt lat="49.776657" lon="20.049604">
      <ele>878</ele>
      <time>2026-05-07T11:16:00Z</time>
    </trkpt>
    <trkpt lat="49.776577" lon="20.049566">
      <ele>878</ele>
      <time>2026-05-07T11:16:20Z</time>
    </trkpt>
    <trkpt lat="49.776456" lon="20.049437">
      <ele>879</ele>
      <time>2026-05-07T11:16:55Z</time>
    </trkpt>
    <trkpt lat="49.776282" lon="20.048874">
      <ele>891</ele>
      <time>2026-05-07T11:18:32Z</time>
    </trkpt>
    <trkpt lat="49.776188" lon="20.048947">
      <ele>888</ele>
      <time>2026-05-07T11:18:49Z</time>
    </trkpt>
    <trkpt lat="49.77586" lon="20.049148">
      <ele>889</ele>
      <time>2026-05-07T11:19:43Z</time>
    </trkpt>
    <trkpt lat="49.775666" lon="20.049292">
      <ele>889</ele>
      <time>2026-05-07T11:20:16Z</time>
    </trkpt>
    <trkpt lat="49.775458" lon="20.049496">
      <ele>887</ele>
      <time>2026-05-07T11:20:54Z</time>
    </trkpt>
    <trkpt lat="49.775155" lon="20.049583">
      <ele>887</ele>
      <time>2026-05-07T11:21:41Z</time>
    </trkpt>
    <trkpt lat="49.774956" lon="20.049695">
      <ele>887</ele>
      <time>2026-05-07T11:22:14Z</time>
    </trkpt>
    <trkpt lat="49.774705" lon="20.049742">
      <ele>886</ele>
      <time>2026-05-07T11:22:52Z</time>
    </trkpt>
    <trkpt lat="49.774468" lon="20.049861">
      <ele>882</ele>
      <time>2026-05-07T11:23:31Z</time>
    </trkpt>
    <trkpt lat="49.774235" lon="20.050267">
      <ele>880</ele>
      <time>2026-05-07T11:24:25Z</time>
    </trkpt>
    <trkpt lat="49.774181" lon="20.050401">
      <ele>880</ele>
      <time>2026-05-07T11:24:41Z</time>
    </trkpt>
    <trkpt lat="49.773754" lon="20.050725">
      <ele>879</ele>
      <time>2026-05-07T11:25:54Z</time>
    </trkpt>
    <trkpt lat="49.773443" lon="20.050926">
      <ele>878</ele>
      <time>2026-05-07T11:26:45Z</time>
    </trkpt>
    <trkpt lat="49.773116" lon="20.05102">
      <ele>883</ele>
      <time>2026-05-07T11:27:37Z</time>
    </trkpt>
    <trkpt lat="49.772777" lon="20.051106">
      <ele>894</ele>
      <time>2026-05-07T11:28:32Z</time>
    </trkpt>
    <trkpt lat="49.7725" lon="20.051272">
      <ele>889</ele>
      <time>2026-05-07T11:29:03Z</time>
    </trkpt>
    <trkpt lat="49.772177" lon="20.051449">
      <ele>886</ele>
      <time>2026-05-07T11:29:39Z</time>
    </trkpt>
    <trkpt lat="49.771904" lon="20.05157">
      <ele>887</ele>
      <time>2026-05-07T11:30:09Z</time>
    </trkpt>
    <trkpt lat="49.771798" lon="20.051648">
      <ele>887</ele>
      <time>2026-05-07T11:30:21Z</time>
    </trkpt>
    <trkpt lat="49.77163" lon="20.051822">
      <ele>887</ele>
      <time>2026-05-07T11:30:42Z</time>
    </trkpt>
    <trkpt lat="49.771482" lon="20.051994">
      <ele>889</ele>
      <time>2026-05-07T11:31:01Z</time>
    </trkpt>
    <trkpt lat="49.771361" lon="20.05215">
      <ele>890</ele>
      <time>2026-05-07T11:31:18Z</time>
    </trkpt>
    <trkpt lat="49.771221" lon="20.052331">
      <ele>891</ele>
      <time>2026-05-07T11:31:37Z</time>
    </trkpt>
    <trkpt lat="49.771048" lon="20.052584">
      <ele>893</ele>
      <time>2026-05-07T11:32:02Z</time>
    </trkpt>
    <trkpt lat="49.770815" lon="20.052823">
      <ele>894</ele>
      <time>2026-05-07T11:32:31Z</time>
    </trkpt>
    <trkpt lat="49.770583" lon="20.052998">
      <ele>895</ele>
      <time>2026-05-07T11:32:58Z</time>
    </trkpt>
    <trkpt lat="49.770221" lon="20.053195">
      <ele>894</ele>
      <time>2026-05-07T11:33:38Z</time>
    </trkpt>
    <trkpt lat="49.770047" lon="20.053289">
      <ele>894</ele>
      <time>2026-05-07T11:33:57Z</time>
    </trkpt>
    <trkpt lat="49.769842" lon="20.053359">
      <ele>893</ele>
      <time>2026-05-07T11:34:19Z</time>
    </trkpt>
    <trkpt lat="49.769642" lon="20.053439">
      <ele>893</ele>
      <time>2026-05-07T11:34:41Z</time>
    </trkpt>
    <trkpt lat="49.769293" lon="20.053684">
      <ele>892</ele>
      <time>2026-05-07T11:35:21Z</time>
    </trkpt>
    <trkpt lat="49.76889" lon="20.053898">
      <ele>889</ele>
      <time>2026-05-07T11:36:05Z</time>
    </trkpt>
    <trkpt lat="49.768811" lon="20.053957">
      <ele>889</ele>
      <time>2026-05-07T11:36:14Z</time>
    </trkpt>
    <trkpt lat="49.768607" lon="20.054138">
      <ele>887</ele>
      <time>2026-05-07T11:36:39Z</time>
    </trkpt>
    <trkpt lat="49.768583" lon="20.054189">
      <ele>887</ele>
      <time>2026-05-07T11:36:43Z</time>
    </trkpt>
    <trkpt lat="49.76812" lon="20.054769">
      <ele>887</ele>
      <time>2026-05-07T11:37:45Z</time>
    </trkpt>
    <trkpt lat="49.767982" lon="20.055">
      <ele>889</ele>
      <time>2026-05-07T11:38:06Z</time>
    </trkpt>
    <trkpt lat="49.767795" lon="20.055456">
      <ele>891</ele>
      <time>2026-05-07T11:38:43Z</time>
    </trkpt>
    <trkpt lat="49.767715" lon="20.055783">
      <ele>889</ele>
      <time>2026-05-07T11:39:06Z</time>
    </trkpt>
    <trkpt lat="49.767638" lon="20.056138">
      <ele>888</ele>
      <time>2026-05-07T11:39:32Z</time>
    </trkpt>
    <trkpt lat="49.767572" lon="20.056448">
      <ele>889</ele>
      <time>2026-05-07T11:39:54Z</time>
    </trkpt>
    <trkpt lat="49.767517" lon="20.056778">
      <ele>890</ele>
      <time>2026-05-07T11:40:17Z</time>
    </trkpt>
    <trkpt lat="49.767463" lon="20.056964">
      <ele>889</ele>
      <time>2026-05-07T11:40:30Z</time>
    </trkpt>
    <trkpt lat="49.767343" lon="20.057254">
      <ele>888</ele>
      <time>2026-05-07T11:40:54Z</time>
    </trkpt>
    <trkpt lat="49.767245" lon="20.057471">
      <ele>887</ele>
      <time>2026-05-07T11:41:11Z</time>
    </trkpt>
    <trkpt lat="49.767229" lon="20.057566">
      <ele>888</ele>
      <time>2026-05-07T11:41:18Z</time>
    </trkpt>
    <trkpt lat="49.767195" lon="20.057697">
      <ele>889</ele>
      <time>2026-05-07T11:41:28Z</time>
    </trkpt>
    <trkpt lat="49.767102" lon="20.057936">
      <ele>889</ele>
      <time>2026-05-07T11:41:46Z</time>
    </trkpt>
    <trkpt lat="49.767067" lon="20.058058">
      <ele>890</ele>
      <time>2026-05-07T11:41:55Z</time>
    </trkpt>
    <trkpt lat="49.767013" lon="20.058205">
      <ele>891</ele>
      <time>2026-05-07T11:42:07Z</time>
    </trkpt>
    <trkpt lat="49.766991" lon="20.058297">
      <ele>892</ele>
      <time>2026-05-07T11:42:14Z</time>
    </trkpt>
    <trkpt lat="49.766962" lon="20.058446">
      <ele>893</ele>
      <time>2026-05-07T11:42:24Z</time>
    </trkpt>
    <trkpt lat="49.766917" lon="20.058707">
      <ele>896</ele>
      <time>2026-05-07T11:42:43Z</time>
    </trkpt>
    <trkpt lat="49.766899" lon="20.058842">
      <ele>898</ele>
      <time>2026-05-07T11:42:52Z</time>
    </trkpt>
    <trkpt lat="49.766894" lon="20.058993">
      <ele>899</ele>
      <time>2026-05-07T11:43:02Z</time>
    </trkpt>
    <trkpt lat="49.766879" lon="20.059109">
      <ele>900</ele>
      <time>2026-05-07T11:43:10Z</time>
    </trkpt>
    <trkpt lat="49.766859" lon="20.059196">
      <ele>900</ele>
      <time>2026-05-07T11:43:16Z</time>
    </trkpt>
    <trkpt lat="49.766835" lon="20.059361">
      <ele>903</ele>
      <time>2026-05-07T11:43:28Z</time>
    </trkpt>
    <trkpt lat="49.766828" lon="20.059416">
      <ele>904</ele>
      <time>2026-05-07T11:43:32Z</time>
    </trkpt>
    <trkpt lat="49.766835" lon="20.059361">
      <ele>903</ele>
      <time>2026-05-07T11:43:36Z</time>
    </trkpt>
    <trkpt lat="49.766859" lon="20.059196">
      <ele>900</ele>
      <time>2026-05-07T11:43:48Z</time>
    </trkpt>
    <trkpt lat="49.766879" lon="20.059109">
      <ele>900</ele>
      <time>2026-05-07T11:43:54Z</time>
    </trkpt>
    <trkpt lat="49.766894" lon="20.058993">
      <ele>899</ele>
      <time>2026-05-07T11:44:02Z</time>
    </trkpt>
    <trkpt lat="49.766899" lon="20.058842">
      <ele>898</ele>
      <time>2026-05-07T11:44:12Z</time>
    </trkpt>
    <trkpt lat="49.766917" lon="20.058707">
      <ele>896</ele>
      <time>2026-05-07T11:44:21Z</time>
    </trkpt>
    <trkpt lat="49.766962" lon="20.058446">
      <ele>893</ele>
      <time>2026-05-07T11:44:40Z</time>
    </trkpt>
    <trkpt lat="49.766991" lon="20.058297">
      <ele>892</ele>
      <time>2026-05-07T11:44:50Z</time>
    </trkpt>
    <trkpt lat="49.767013" lon="20.058205">
      <ele>891</ele>
      <time>2026-05-07T11:44:57Z</time>
    </trkpt>
    <trkpt lat="49.767067" lon="20.058058">
      <ele>890</ele>
      <time>2026-05-07T11:45:09Z</time>
    </trkpt>
    <trkpt lat="49.767102" lon="20.057936">
      <ele>889</ele>
      <time>2026-05-07T11:45:18Z</time>
    </trkpt>
    <trkpt lat="49.767195" lon="20.057697">
      <ele>889</ele>
      <time>2026-05-07T11:45:36Z</time>
    </trkpt>
    <trkpt lat="49.767229" lon="20.057566">
      <ele>888</ele>
      <time>2026-05-07T11:45:46Z</time>
    </trkpt>
    <trkpt lat="49.767245" lon="20.057471">
      <ele>887</ele>
      <time>2026-05-07T11:45:53Z</time>
    </trkpt>
    <trkpt lat="49.767343" lon="20.057254">
      <ele>888</ele>
      <time>2026-05-07T11:46:10Z</time>
    </trkpt>
    <trkpt lat="49.767463" lon="20.056964">
      <ele>889</ele>
      <time>2026-05-07T11:46:34Z</time>
    </trkpt>
    <trkpt lat="49.767517" lon="20.056778">
      <ele>890</ele>
      <time>2026-05-07T11:46:47Z</time>
    </trkpt>
    <trkpt lat="49.767572" lon="20.056448">
      <ele>889</ele>
      <time>2026-05-07T11:47:10Z</time>
    </trkpt>
    <trkpt lat="49.767638" lon="20.056138">
      <ele>888</ele>
      <time>2026-05-07T11:47:32Z</time>
    </trkpt>
    <trkpt lat="49.767715" lon="20.055783">
      <ele>889</ele>
      <time>2026-05-07T11:47:58Z</time>
    </trkpt>
    <trkpt lat="49.767795" lon="20.055456">
      <ele>891</ele>
      <time>2026-05-07T11:48:21Z</time>
    </trkpt>
    <trkpt lat="49.767982" lon="20.055">
      <ele>889</ele>
      <time>2026-05-07T11:48:58Z</time>
    </trkpt>
    <trkpt lat="49.76812" lon="20.054769">
      <ele>887</ele>
      <time>2026-05-07T11:49:19Z</time>
    </trkpt>
    <trkpt lat="49.768583" lon="20.054189">
      <ele>887</ele>
      <time>2026-05-07T11:50:21Z</time>
    </trkpt>
    <trkpt lat="49.768607" lon="20.054138">
      <ele>887</ele>
      <time>2026-05-07T11:50:25Z</time>
    </trkpt>
    <trkpt lat="49.768811" lon="20.053957">
      <ele>889</ele>
      <time>2026-05-07T11:50:50Z</time>
    </trkpt>
    <trkpt lat="49.76889" lon="20.053898">
      <ele>889</ele>
      <time>2026-05-07T11:50:59Z</time>
    </trkpt>
    <trkpt lat="49.769293" lon="20.053684">
      <ele>892</ele>
      <time>2026-05-07T11:51:43Z</time>
    </trkpt>
    <trkpt lat="49.769642" lon="20.053439">
      <ele>893</ele>
      <time>2026-05-07T11:52:23Z</time>
    </trkpt>
    <trkpt lat="49.769842" lon="20.053359">
      <ele>893</ele>
      <time>2026-05-07T11:52:45Z</time>
    </trkpt>
    <trkpt lat="49.770047" lon="20.053289">
      <ele>894</ele>
      <time>2026-05-07T11:53:07Z</time>
    </trkpt>
    <trkpt lat="49.770221" lon="20.053195">
      <ele>894</ele>
      <time>2026-05-07T11:53:26Z</time>
    </trkpt>
    <trkpt lat="49.770583" lon="20.052998">
      <ele>895</ele>
      <time>2026-05-07T11:54:06Z</time>
    </trkpt>
    <trkpt lat="49.770815" lon="20.052823">
      <ele>894</ele>
      <time>2026-05-07T11:54:33Z</time>
    </trkpt>
    <trkpt lat="49.771048" lon="20.052584">
      <ele>893</ele>
      <time>2026-05-07T11:55:02Z</time>
    </trkpt>
    <trkpt lat="49.771221" lon="20.052331">
      <ele>891</ele>
      <time>2026-05-07T11:55:27Z</time>
    </trkpt>
    <trkpt lat="49.771361" lon="20.05215">
      <ele>890</ele>
      <time>2026-05-07T11:55:46Z</time>
    </trkpt>
    <trkpt lat="49.771482" lon="20.051994">
      <ele>889</ele>
      <time>2026-05-07T11:56:03Z</time>
    </trkpt>
    <trkpt lat="49.77163" lon="20.051822">
      <ele>887</ele>
      <time>2026-05-07T11:56:22Z</time>
    </trkpt>
    <trkpt lat="49.771798" lon="20.051648">
      <ele>887</ele>
      <time>2026-05-07T11:56:43Z</time>
    </trkpt>
    <trkpt lat="49.771904" lon="20.05157">
      <ele>887</ele>
      <time>2026-05-07T11:56:55Z</time>
    </trkpt>
    <trkpt lat="49.772177" lon="20.051449">
      <ele>886</ele>
      <time>2026-05-07T11:57:25Z</time>
    </trkpt>
    <trkpt lat="49.7725" lon="20.051272">
      <ele>889</ele>
      <time>2026-05-07T11:58:01Z</time>
    </trkpt>
    <trkpt lat="49.772777" lon="20.051106">
      <ele>894</ele>
      <time>2026-05-07T11:58:32Z</time>
    </trkpt>
    <trkpt lat="49.773116" lon="20.05102">
      <ele>883</ele>
      <time>2026-05-07T11:59:27Z</time>
    </trkpt>
    <trkpt lat="49.773443" lon="20.050926">
      <ele>878</ele>
      <time>2026-05-07T12:00:19Z</time>
    </trkpt>
    <trkpt lat="49.773754" lon="20.050725">
      <ele>879</ele>
      <time>2026-05-07T12:01:10Z</time>
    </trkpt>
    <trkpt lat="49.774181" lon="20.050401">
      <ele>880</ele>
      <time>2026-05-07T12:02:23Z</time>
    </trkpt>
    <trkpt lat="49.774235" lon="20.050267">
      <ele>880</ele>
      <time>2026-05-07T12:02:39Z</time>
    </trkpt>
    <trkpt lat="49.774468" lon="20.049861">
      <ele>882</ele>
      <time>2026-05-07T12:03:33Z</time>
    </trkpt>
    <trkpt lat="49.774705" lon="20.049742">
      <ele>886</ele>
      <time>2026-05-07T12:04:12Z</time>
    </trkpt>
    <trkpt lat="49.774956" lon="20.049695">
      <ele>887</ele>
      <time>2026-05-07T12:04:50Z</time>
    </trkpt>
    <trkpt lat="49.775155" lon="20.049583">
      <ele>887</ele>
      <time>2026-05-07T12:05:23Z</time>
    </trkpt>
    <trkpt lat="49.775458" lon="20.049496">
      <ele>887</ele>
      <time>2026-05-07T12:06:10Z</time>
    </trkpt>
    <trkpt lat="49.775666" lon="20.049292">
      <ele>889</ele>
      <time>2026-05-07T12:06:48Z</time>
    </trkpt>
    <trkpt lat="49.77586" lon="20.049148">
      <ele>889</ele>
      <time>2026-05-07T12:07:21Z</time>
    </trkpt>
    <trkpt lat="49.776188" lon="20.048947">
      <ele>888</ele>
      <time>2026-05-07T12:08:15Z</time>
    </trkpt>
    <trkpt lat="49.776282" lon="20.048874">
      <ele>891</ele>
      <time>2026-05-07T12:08:32Z</time>
    </trkpt>
    <trkpt lat="49.77643" lon="20.048695">
      <ele>888</ele>
      <time>2026-05-07T12:08:50Z</time>
    </trkpt>
    <trkpt lat="49.776816" lon="20.048295">
      <ele>890</ele>
      <time>2026-05-07T12:09:32Z</time>
    </trkpt>
    <trkpt lat="49.777065" lon="20.048037">
      <ele>889</ele>
      <time>2026-05-07T12:10:00Z</time>
    </trkpt>
    <trkpt lat="49.77714" lon="20.047971">
      <ele>889</ele>
      <time>2026-05-07T12:10:08Z</time>
    </trkpt>
    <trkpt lat="49.777367" lon="20.047769">
      <ele>888</ele>
      <time>2026-05-07T12:10:32Z</time>
    </trkpt>
    <trkpt lat="49.777474" lon="20.04766">
      <ele>887</ele>
      <time>2026-05-07T12:10:45Z</time>
    </trkpt>
    <trkpt lat="49.777838" lon="20.047231">
      <ele>884</ele>
      <time>2026-05-07T12:11:30Z</time>
    </trkpt>
    <trkpt lat="49.778073" lon="20.047005">
      <ele>882</ele>
      <time>2026-05-07T12:11:58Z</time>
    </trkpt>
    <trkpt lat="49.778228" lon="20.046834">
      <ele>881</ele>
      <time>2026-05-07T12:12:17Z</time>
    </trkpt>
    <trkpt lat="49.77857" lon="20.046461">
      <ele>875</ele>
      <time>2026-05-07T12:12:58Z</time>
    </trkpt>
    <trkpt lat="49.778796" lon="20.046252">
      <ele>870</ele>
      <time>2026-05-07T12:13:25Z</time>
    </trkpt>
    <trkpt lat="49.778902" lon="20.046154">
      <ele>869</ele>
      <time>2026-05-07T12:13:37Z</time>
    </trkpt>
    <trkpt lat="49.779116" lon="20.045822">
      <ele>866</ele>
      <time>2026-05-07T12:14:07Z</time>
    </trkpt>
    <trkpt lat="49.779335" lon="20.045439">
      <ele>861</ele>
      <time>2026-05-07T12:14:40Z</time>
    </trkpt>
    <trkpt lat="49.779442" lon="20.045189">
      <ele>859</ele>
      <time>2026-05-07T12:15:00Z</time>
    </trkpt>
    <trkpt lat="49.779591" lon="20.044853">
      <ele>854</ele>
      <time>2026-05-07T12:15:26Z</time>
    </trkpt>
    <trkpt lat="49.77976" lon="20.044625">
      <ele>850</ele>
      <time>2026-05-07T12:15:49Z</time>
    </trkpt>
    <trkpt lat="49.779928" lon="20.044609">
      <ele>847</ele>
      <time>2026-05-07T12:16:06Z</time>
    </trkpt>
    <trkpt lat="49.780116" lon="20.04436">
      <ele>842</ele>
      <time>2026-05-07T12:16:30Z</time>
    </trkpt>
    <trkpt lat="49.78027" lon="20.044159">
      <ele>838</ele>
      <time>2026-05-07T12:16:51Z</time>
    </trkpt>
    <trkpt lat="49.780426" lon="20.043746">
      <ele>834</ele>
      <time>2026-05-07T12:17:22Z</time>
    </trkpt>
    <trkpt lat="49.780533" lon="20.043365">
      <ele>830</ele>
      <time>2026-05-07T12:17:48Z</time>
    </trkpt>
    <trkpt lat="49.780672" lon="20.042925">
      <ele>824</ele>
      <time>2026-05-07T12:18:20Z</time>
    </trkpt>
    <trkpt lat="49.78071" lon="20.042722">
      <ele>822</ele>
      <time>2026-05-07T12:18:34Z</time>
    </trkpt>
    <trkpt lat="49.780748" lon="20.042517">
      <ele>820</ele>
      <time>2026-05-07T12:18:48Z</time>
    </trkpt>
    <trkpt lat="49.780774" lon="20.042353">
      <ele>818</ele>
      <time>2026-05-07T12:18:59Z</time>
    </trkpt>
    <trkpt lat="49.780786" lon="20.042281">
      <ele>817</ele>
      <time>2026-05-07T12:19:03Z</time>
    </trkpt>
    <trkpt lat="49.780821" lon="20.041965">
      <ele>815</ele>
      <time>2026-05-07T12:19:24Z</time>
    </trkpt>
    <trkpt lat="49.780828" lon="20.041653">
      <ele>813</ele>
      <time>2026-05-07T12:19:44Z</time>
    </trkpt>
    <trkpt lat="49.780796" lon="20.041144">
      <ele>807</ele>
      <time>2026-05-07T12:20:17Z</time>
    </trkpt>
    <trkpt lat="49.780823" lon="20.040786">
      <ele>803</ele>
      <time>2026-05-07T12:20:41Z</time>
    </trkpt>
    <trkpt lat="49.780831" lon="20.040586">
      <ele>800</ele>
      <time>2026-05-07T12:20:54Z</time>
    </trkpt>
    <trkpt lat="49.780852" lon="20.040351">
      <ele>798</ele>
      <time>2026-05-07T12:21:09Z</time>
    </trkpt>
    <trkpt lat="49.780848" lon="20.040131">
      <ele>797</ele>
      <time>2026-05-07T12:21:23Z</time>
    </trkpt>
    <trkpt lat="49.780859" lon="20.039806">
      <ele>794</ele>
      <time>2026-05-07T12:21:44Z</time>
    </trkpt>
    <trkpt lat="49.780838" lon="20.039653">
      <ele>793</ele>
      <time>2026-05-07T12:21:54Z</time>
    </trkpt>
    <trkpt lat="49.780911" lon="20.039449">
      <ele>791</ele>
      <time>2026-05-07T12:22:09Z</time>
    </trkpt>
    <trkpt lat="49.781015" lon="20.039213">
      <ele>790</ele>
      <time>2026-05-07T12:22:28Z</time>
    </trkpt>
    <trkpt lat="49.781081" lon="20.039046">
      <ele>789</ele>
      <time>2026-05-07T12:22:40Z</time>
    </trkpt>
    <trkpt lat="49.781187" lon="20.038735">
      <ele>787</ele>
      <time>2026-05-07T12:23:03Z</time>
    </trkpt>
    <trkpt lat="49.781243" lon="20.038489">
      <ele>786</ele>
      <time>2026-05-07T12:23:19Z</time>
    </trkpt>
    <trkpt lat="49.781295" lon="20.038198">
      <ele>785</ele>
      <time>2026-05-07T12:23:39Z</time>
    </trkpt>
    <trkpt lat="49.78134" lon="20.037957">
      <ele>783</ele>
      <time>2026-05-07T12:23:55Z</time>
    </trkpt>
    <trkpt lat="49.781344" lon="20.037727">
      <ele>781</ele>
      <time>2026-05-07T12:24:10Z</time>
    </trkpt>
    <trkpt lat="49.781326" lon="20.037577">
      <ele>780</ele>
      <time>2026-05-07T12:24:20Z</time>
    </trkpt>
    <trkpt lat="49.781285" lon="20.037201">
      <ele>776</ele>
      <time>2026-05-07T12:24:44Z</time>
    </trkpt>
    <trkpt lat="49.78133" lon="20.036745">
      <ele>774</ele>
      <time>2026-05-07T12:25:14Z</time>
    </trkpt>
    <trkpt lat="49.781351" lon="20.036386">
      <ele>774</ele>
      <time>2026-05-07T12:25:37Z</time>
    </trkpt>
    <trkpt lat="49.781413" lon="20.03616">
      <ele>774</ele>
      <time>2026-05-07T12:25:53Z</time>
    </trkpt>
    <trkpt lat="49.781541" lon="20.035693">
      <ele>775</ele>
      <time>2026-05-07T12:26:25Z</time>
    </trkpt>
    <trkpt lat="49.781592" lon="20.035202">
      <ele>775</ele>
      <time>2026-05-07T12:26:57Z</time>
    </trkpt>
    <trkpt lat="49.781562" lon="20.035066">
      <ele>774</ele>
      <time>2026-05-07T12:27:06Z</time>
    </trkpt>
    <trkpt lat="49.781578" lon="20.034792">
      <ele>773</ele>
      <time>2026-05-07T12:27:24Z</time>
    </trkpt>
    <trkpt lat="49.781735" lon="20.034572">
      <ele>770</ele>
      <time>2026-05-07T12:27:45Z</time>
    </trkpt>
    <trkpt lat="49.781811" lon="20.034116">
      <ele>766</ele>
      <time>2026-05-07T12:28:15Z</time>
    </trkpt>
    <trkpt lat="49.781899" lon="20.033588">
      <ele>764</ele>
      <time>2026-05-07T12:28:50Z</time>
    </trkpt>
    <trkpt lat="49.781887" lon="20.03314">
      <ele>762</ele>
      <time>2026-05-07T12:29:19Z</time>
    </trkpt>
    <trkpt lat="49.781899" lon="20.032557">
      <ele>759</ele>
      <time>2026-05-07T12:29:57Z</time>
    </trkpt>
    <trkpt lat="49.781987" lon="20.031842">
      <ele>757</ele>
      <time>2026-05-07T12:30:43Z</time>
    </trkpt>
    <trkpt lat="49.782025" lon="20.031541">
      <ele>756</ele>
      <time>2026-05-07T12:31:03Z</time>
    </trkpt>
    <trkpt lat="49.782169" lon="20.03069">
      <ele>751</ele>
      <time>2026-05-07T12:31:59Z</time>
    </trkpt>
    <trkpt lat="49.78221" lon="20.030206">
      <ele>750</ele>
      <time>2026-05-07T12:32:31Z</time>
    </trkpt>
    <trkpt lat="49.78223" lon="20.029782">
      <ele>749</ele>
      <time>2026-05-07T12:32:58Z</time>
    </trkpt>
    <trkpt lat="49.782189" lon="20.029385">
      <ele>748</ele>
      <time>2026-05-07T12:33:24Z</time>
    </trkpt>
    <trkpt lat="49.782137" lon="20.02879">
      <ele>744</ele>
      <time>2026-05-07T12:34:02Z</time>
    </trkpt>
    <trkpt lat="49.782162" lon="20.028322">
      <ele>743</ele>
      <time>2026-05-07T12:34:32Z</time>
    </trkpt>
    <trkpt lat="49.782157" lon="20.028172">
      <ele>743</ele>
      <time>2026-05-07T12:34:42Z</time>
    </trkpt>
    <trkpt lat="49.782159" lon="20.027391">
      <ele>741</ele>
      <time>2026-05-07T12:35:32Z</time>
    </trkpt>
    <trkpt lat="49.782047" lon="20.026574">
      <ele>738</ele>
      <time>2026-05-07T12:36:18Z</time>
    </trkpt>
    <trkpt lat="49.782026" lon="20.025583">
      <ele>736</ele>
      <time>2026-05-07T12:37:12Z</time>
    </trkpt>
    <trkpt lat="49.781986" lon="20.025216">
      <ele>735</ele>
      <time>2026-05-07T12:37:32Z</time>
    </trkpt>
    <trkpt lat="49.782029" lon="20.024593">
      <ele>736</ele>
      <time>2026-05-07T12:38:35Z</time>
    </trkpt>
    <trkpt lat="49.782158" lon="20.024069">
      <ele>739</ele>
      <time>2026-05-07T12:39:32Z</time>
    </trkpt>
    <trkpt lat="49.782164" lon="20.023719">
      <ele>738</ele>
      <time>2026-05-07T12:40:08Z</time>
    </trkpt>
    <trkpt lat="49.782253" lon="20.023324">
      <ele>736</ele>
      <time>2026-05-07T12:40:50Z</time>
    </trkpt>
    <trkpt lat="49.782309" lon="20.023133">
      <ele>734</ele>
      <time>2026-05-07T12:41:12Z</time>
    </trkpt>
    <trkpt lat="49.782373" lon="20.02297">
      <ele>732</ele>
      <time>2026-05-07T12:41:31Z</time>
    </trkpt>
    <trkpt lat="49.782432" lon="20.022501">
      <ele>727</ele>
      <time>2026-05-07T12:42:20Z</time>
    </trkpt>
    <trkpt lat="49.782433" lon="20.022386">
      <ele>727</ele>
      <time>2026-05-07T12:42:32Z</time>
    </trkpt>
    <trkpt lat="49.782492" lon="20.021875">
      <ele>723</ele>
      <time>2026-05-07T12:43:09Z</time>
    </trkpt>
    <trkpt lat="49.782515" lon="20.021646">
      <ele>721</ele>
      <time>2026-05-07T12:43:25Z</time>
    </trkpt>
    <trkpt lat="49.782591" lon="20.021317">
      <ele>718</ele>
      <time>2026-05-07T12:43:50Z</time>
    </trkpt>
    <trkpt lat="49.78266" lon="20.021061">
      <ele>715</ele>
      <time>2026-05-07T12:44:10Z</time>
    </trkpt>
    <trkpt lat="49.782676" lon="20.020869">
      <ele>713</ele>
      <time>2026-05-07T12:44:24Z</time>
    </trkpt>
    <trkpt lat="49.782733" lon="20.02062">
      <ele>711</ele>
      <time>2026-05-07T12:44:43Z</time>
    </trkpt>
    <trkpt lat="49.782778" lon="20.020405">
      <ele>710</ele>
      <time>2026-05-07T12:44:59Z</time>
    </trkpt>
    <trkpt lat="49.782847" lon="20.020164">
      <ele>707</ele>
      <time>2026-05-07T12:45:18Z</time>
    </trkpt>
    <trkpt lat="49.78294" lon="20.019944">
      <ele>704</ele>
      <time>2026-05-07T12:45:36Z</time>
    </trkpt>
    <trkpt lat="49.783027" lon="20.019735">
      <ele>700</ele>
      <time>2026-05-07T12:45:54Z</time>
    </trkpt>
    <trkpt lat="49.783062" lon="20.019531">
      <ele>697</ele>
      <time>2026-05-07T12:46:10Z</time>
    </trkpt>
    <trkpt lat="49.783099" lon="20.019343">
      <ele>693</ele>
      <time>2026-05-07T12:46:24Z</time>
    </trkpt>
    <trkpt lat="49.783285" lon="20.01915">
      <ele>690</ele>
      <time>2026-05-07T12:46:49Z</time>
    </trkpt>
    <trkpt lat="49.783419" lon="20.019005">
      <ele>688</ele>
      <time>2026-05-07T12:47:07Z</time>
    </trkpt>
    <trkpt lat="49.78356" lon="20.018806">
      <ele>686</ele>
      <time>2026-05-07T12:47:28Z</time>
    </trkpt>
    <trkpt lat="49.783741" lon="20.018619">
      <ele>683</ele>
      <time>2026-05-07T12:47:52Z</time>
    </trkpt>
    <trkpt lat="49.78397" lon="20.018411">
      <ele>679</ele>
      <time>2026-05-07T12:48:21Z</time>
    </trkpt>
    <trkpt lat="49.783876" lon="20.018259">
      <ele>679</ele>
      <time>2026-05-07T12:48:36Z</time>
    </trkpt>
    <trkpt lat="49.783613" lon="20.018121">
      <ele>682</ele>
      <time>2026-05-07T12:49:07Z</time>
    </trkpt>
    <trkpt lat="49.783481" lon="20.018012">
      <ele>678</ele>
      <time>2026-05-07T12:49:23Z</time>
    </trkpt>
    <trkpt lat="49.783311" lon="20.017873">
      <ele>674</ele>
      <time>2026-05-07T12:49:45Z</time>
    </trkpt>
    <trkpt lat="49.783059" lon="20.017746">
      <ele>671</ele>
      <time>2026-05-07T12:50:14Z</time>
    </trkpt>
    <trkpt lat="49.782885" lon="20.017734">
      <ele>669</ele>
      <time>2026-05-07T12:50:33Z</time>
    </trkpt>
    <trkpt lat="49.782771" lon="20.017728">
      <ele>667</ele>
      <time>2026-05-07T12:50:46Z</time>
    </trkpt>
    <trkpt lat="49.782577" lon="20.017658">
      <ele>663</ele>
      <time>2026-05-07T12:51:08Z</time>
    </trkpt>
    <trkpt lat="49.78239" lon="20.017573">
      <ele>659</ele>
      <time>2026-05-07T12:51:29Z</time>
    </trkpt>
    <trkpt lat="49.782165" lon="20.017444">
      <ele>655</ele>
      <time>2026-05-07T12:51:56Z</time>
    </trkpt>
    <trkpt lat="49.781964" lon="20.017353">
      <ele>653</ele>
      <time>2026-05-07T12:52:19Z</time>
    </trkpt>
    <trkpt lat="49.781801" lon="20.017337">
      <ele>653</ele>
      <time>2026-05-07T12:52:37Z</time>
    </trkpt>
    <trkpt lat="49.781544" lon="20.017325">
      <ele>654</ele>
      <time>2026-05-07T12:53:05Z</time>
    </trkpt>
    <trkpt lat="49.781371" lon="20.017326">
      <ele>655</ele>
      <time>2026-05-07T12:53:24Z</time>
    </trkpt>
    <trkpt lat="49.781205" lon="20.017369">
      <ele>657</ele>
      <time>2026-05-07T12:53:43Z</time>
    </trkpt>
    <trkpt lat="49.781053" lon="20.017374">
      <ele>659</ele>
      <time>2026-05-07T12:53:59Z</time>
    </trkpt>
    <trkpt lat="49.780862" lon="20.01731">
      <ele>659</ele>
      <time>2026-05-07T12:54:21Z</time>
    </trkpt>
    <trkpt lat="49.780369" lon="20.017065">
      <ele>655</ele>
      <time>2026-05-07T12:55:18Z</time>
    </trkpt>
    <trkpt lat="49.780273" lon="20.016975">
      <ele>654</ele>
      <time>2026-05-07T12:55:30Z</time>
    </trkpt>
    <trkpt lat="49.780246" lon="20.016878">
      <ele>653</ele>
      <time>2026-05-07T12:55:37Z</time>
    </trkpt>
    <trkpt lat="49.780378" lon="20.016907">
      <ele>653</ele>
      <time>2026-05-07T12:55:52Z</time>
    </trkpt>
    <trkpt lat="49.78053" lon="20.016885">
      <ele>652</ele>
      <time>2026-05-07T12:56:09Z</time>
    </trkpt>
    <trkpt lat="49.781141" lon="20.016661">
      <ele>647</ele>
      <time>2026-05-07T12:57:18Z</time>
    </trkpt>
    <trkpt lat="49.781448" lon="20.016392">
      <ele>641</ele>
      <time>2026-05-07T12:57:57Z</time>
    </trkpt>
    <trkpt lat="49.781638" lon="20.016312">
      <ele>639</ele>
      <time>2026-05-07T12:58:18Z</time>
    </trkpt>
    <trkpt lat="49.781933" lon="20.016218">
      <ele>636</ele>
      <time>2026-05-07T12:58:51Z</time>
    </trkpt>
    <trkpt lat="49.782214" lon="20.015894">
      <ele>631</ele>
      <time>2026-05-07T12:59:30Z</time>
    </trkpt>
    <trkpt lat="49.782335" lon="20.015742">
      <ele>628</ele>
      <time>2026-05-07T12:59:47Z</time>
    </trkpt>
    <trkpt lat="49.782428" lon="20.015534">
      <ele>624</ele>
      <time>2026-05-07T13:00:06Z</time>
    </trkpt>
    <trkpt lat="49.782543" lon="20.015126">
      <ele>618</ele>
      <time>2026-05-07T13:00:38Z</time>
    </trkpt>
    <trkpt lat="49.78274" lon="20.01473">
      <ele>615</ele>
      <time>2026-05-07T13:01:13Z</time>
    </trkpt>
    <trkpt lat="49.782838" lon="20.014255">
      <ele>612</ele>
      <time>2026-05-07T13:01:49Z</time>
    </trkpt>
    <trkpt lat="49.782856" lon="20.014008">
      <ele>611</ele>
      <time>2026-05-07T13:02:06Z</time>
    </trkpt>
    <trkpt lat="49.782838" lon="20.013747">
      <ele>608</ele>
      <time>2026-05-07T13:02:25Z</time>
    </trkpt>
    <trkpt lat="49.782839" lon="20.013498">
      <ele>607</ele>
      <time>2026-05-07T13:02:43Z</time>
    </trkpt>
    <trkpt lat="49.782951" lon="20.01319">
      <ele>607</ele>
      <time>2026-05-07T13:03:08Z</time>
    </trkpt>
    <trkpt lat="49.783124" lon="20.012884">
      <ele>607</ele>
      <time>2026-05-07T13:03:36Z</time>
    </trkpt>
    <trkpt lat="49.783238" lon="20.012632">
      <ele>606</ele>
      <time>2026-05-07T13:03:58Z</time>
    </trkpt>
    <trkpt lat="49.78338" lon="20.012174">
      <ele>604</ele>
      <time>2026-05-07T13:04:34Z</time>
    </trkpt>
    <trkpt lat="49.783469" lon="20.011825">
      <ele>602</ele>
      <time>2026-05-07T13:05:01Z</time>
    </trkpt>
    <trkpt lat="49.783648" lon="20.011453">
      <ele>604</ele>
      <time>2026-05-07T13:05:34Z</time>
    </trkpt>
    <trkpt lat="49.783732" lon="20.011259">
      <ele>604</ele>
      <time>2026-05-07T13:05:50Z</time>
    </trkpt>
    <trkpt lat="49.78377" lon="20.011171">
      <ele>604</ele>
      <time>2026-05-07T13:05:58Z</time>
    </trkpt>
    <trkpt lat="49.783846" lon="20.010978">
      <ele>603</ele>
      <time>2026-05-07T13:06:14Z</time>
    </trkpt>
    <trkpt lat="49.784156" lon="20.010352">
      <ele>599</ele>
      <time>2026-05-07T13:07:10Z</time>
    </trkpt>
    <trkpt lat="49.784602" lon="20.00972">
      <ele>592</ele>
      <time>2026-05-07T13:08:16Z</time>
    </trkpt>
    <trkpt lat="49.784859" lon="20.009242">
      <ele>585</ele>
      <time>2026-05-07T13:09:01Z</time>
    </trkpt>
    <trkpt lat="49.784915" lon="20.009006">
      <ele>583</ele>
      <time>2026-05-07T13:09:18Z</time>
    </trkpt>
    <trkpt lat="49.784998" lon="20.008657">
      <ele>581</ele>
      <time>2026-05-07T13:09:45Z</time>
    </trkpt>
    <trkpt lat="49.785159" lon="20.007992">
      <ele>579</ele>
      <time>2026-05-07T13:10:35Z</time>
    </trkpt>
    <trkpt lat="49.785311" lon="20.007249">
      <ele>578</ele>
      <time>2026-05-07T13:11:30Z</time>
    </trkpt>
    <trkpt lat="49.785434" lon="20.006672">
      <ele>577</ele>
      <time>2026-05-07T13:12:13Z</time>
    </trkpt>
    <trkpt lat="49.785518" lon="20.006238">
      <ele>576</ele>
      <time>2026-05-07T13:12:45Z</time>
    </trkpt>
    <trkpt lat="49.785549" lon="20.006055">
      <ele>576</ele>
      <time>2026-05-07T13:12:58Z</time>
    </trkpt>
    <trkpt lat="49.785573" lon="20.005862">
      <ele>575</ele>
      <time>2026-05-07T13:13:12Z</time>
    </trkpt>
    <trkpt lat="49.785592" lon="20.005481">
      <ele>574</ele>
      <time>2026-05-07T13:13:39Z</time>
    </trkpt>
    <trkpt lat="49.785644" lon="20.005251">
      <ele>574</ele>
      <time>2026-05-07T13:13:57Z</time>
    </trkpt>
    <trkpt lat="49.785722" lon="20.004988">
      <ele>572</ele>
      <time>2026-05-07T13:14:17Z</time>
    </trkpt>
    <trkpt lat="49.785956" lon="20.004486">
      <ele>572</ele>
      <time>2026-05-07T13:15:01Z</time>
    </trkpt>
    <trkpt lat="49.785994" lon="20.004384">
      <ele>572</ele>
      <time>2026-05-07T13:15:09Z</time>
    </trkpt>
    <trkpt lat="49.786015" lon="20.004285">
      <ele>572</ele>
      <time>2026-05-07T13:15:17Z</time>
    </trkpt>
    <trkpt lat="49.786061" lon="20.004027">
      <ele>572</ele>
      <time>2026-05-07T13:15:36Z</time>
    </trkpt>
    <trkpt lat="49.786137" lon="20.003445">
      <ele>568</ele>
      <time>2026-05-07T13:16:18Z</time>
    </trkpt>
    <trkpt lat="49.786182" lon="20.002877">
      <ele>564</ele>
      <time>2026-05-07T13:16:58Z</time>
    </trkpt>
    <trkpt lat="49.786333" lon="20.002511">
      <ele>563</ele>
      <time>2026-05-07T13:17:29Z</time>
    </trkpt>
    <trkpt lat="49.786484" lon="20.00212">
      <ele>564</ele>
      <time>2026-05-07T13:18:01Z</time>
    </trkpt>
    <trkpt lat="49.786603" lon="20.001849">
      <ele>566</ele>
      <time>2026-05-07T13:18:25Z</time>
    </trkpt>
    <trkpt lat="49.786673" lon="20.001788">
      <ele>567</ele>
      <time>2026-05-07T13:18:33Z</time>
    </trkpt>
    <trkpt lat="49.786757" lon="20.00174">
      <ele>568</ele>
      <time>2026-05-07T13:18:43Z</time>
    </trkpt>
    <trkpt lat="49.786775" lon="20.001635">
      <ele>569</ele>
      <time>2026-05-07T13:18:51Z</time>
    </trkpt>
    <trkpt lat="49.786908" lon="20.001509">
      <ele>572</ele>
      <time>2026-05-07T13:19:08Z</time>
    </trkpt>
    <trkpt lat="49.787033" lon="20.001423">
      <ele>573</ele>
      <time>2026-05-07T13:19:23Z</time>
    </trkpt>
    <trkpt lat="49.787125" lon="20.001343">
      <ele>575</ele>
      <time>2026-05-07T13:19:35Z</time>
    </trkpt>
    <trkpt lat="49.787218" lon="20.001222">
      <ele>576</ele>
      <time>2026-05-07T13:19:48Z</time>
    </trkpt>
    <trkpt lat="49.787287" lon="20.001029">
      <ele>579</ele>
      <time>2026-05-07T13:20:04Z</time>
    </trkpt>
    <trkpt lat="49.787377" lon="20.000924">
      <ele>581</ele>
      <time>2026-05-07T13:20:17Z</time>
    </trkpt>
    <trkpt lat="49.787525" lon="20.0009">
      <ele>584</ele>
      <time>2026-05-07T13:20:33Z</time>
    </trkpt>
    <trkpt lat="49.787644" lon="20.000916">
      <ele>585</ele>
      <time>2026-05-07T13:20:46Z</time>
    </trkpt>
    <trkpt lat="49.7878" lon="20.000911">
      <ele>588</ele>
      <time>2026-05-07T13:21:04Z</time>
    </trkpt>
    <trkpt lat="49.787914" lon="20.0009">
      <ele>589</ele>
      <time>2026-05-07T13:21:16Z</time>
    </trkpt>
    <trkpt lat="49.788039" lon="20.000846">
      <ele>592</ele>
      <time>2026-05-07T13:21:31Z</time>
    </trkpt>
    <trkpt lat="49.788567" lon="20.000576">
      <ele>600</ele>
      <time>2026-05-07T13:22:32Z</time>
    </trkpt>
    <trkpt lat="49.78897" lon="20.001127">
      <ele>592</ele>
      <time>2026-05-07T13:23:32Z</time>
    </trkpt>
    <trkpt lat="49.789038" lon="20.001453">
      <ele>586</ele>
      <time>2026-05-07T13:23:54Z</time>
    </trkpt>
    <trkpt lat="49.78908" lon="20.001646">
      <ele>581</ele>
      <time>2026-05-07T13:24:07Z</time>
    </trkpt>
    <trkpt lat="49.789164" lon="20.001809">
      <ele>577</ele>
      <time>2026-05-07T13:24:21Z</time>
    </trkpt>
    <trkpt lat="49.789342" lon="20.002117">
      <ele>568</ele>
      <time>2026-05-07T13:24:47Z</time>
    </trkpt>
    <trkpt lat="49.789381" lon="20.002244">
      <ele>565</ele>
      <time>2026-05-07T13:24:56Z</time>
    </trkpt>
    <trkpt lat="49.789419" lon="20.002482">
      <ele>561</ele>
      <time>2026-05-07T13:25:12Z</time>
    </trkpt>
    <trkpt lat="49.789462" lon="20.002673">
      <ele>556</ele>
      <time>2026-05-07T13:25:25Z</time>
    </trkpt>
    <trkpt lat="49.78958" lon="20.003068">
      <ele>545</ele>
      <time>2026-05-07T13:25:54Z</time>
    </trkpt>
    <trkpt lat="49.789635" lon="20.003158">
      <ele>544</ele>
      <time>2026-05-07T13:26:01Z</time>
    </trkpt>
    <trkpt lat="49.789682" lon="20.003186">
      <ele>543</ele>
      <time>2026-05-07T13:26:06Z</time>
    </trkpt>
    <trkpt lat="49.789912" lon="20.003303">
      <ele>541</ele>
      <time>2026-05-07T13:26:30Z</time>
    </trkpt>
    <trkpt lat="49.790015" lon="20.00337">
      <ele>540</ele>
      <time>2026-05-07T13:26:40Z</time>
    </trkpt>
    <trkpt lat="49.790089" lon="20.003459">
      <ele>539</ele>
      <time>2026-05-07T13:26:49Z</time>
    </trkpt>
    <trkpt lat="49.790175" lon="20.003577">
      <ele>538</ele>
      <time>2026-05-07T13:27:00Z</time>
    </trkpt>
    <trkpt lat="49.790345" lon="20.003874">
      <ele>535</ele>
      <time>2026-05-07T13:27:25Z</time>
    </trkpt>
    <trkpt lat="49.79038" lon="20.003934">
      <ele>534</ele>
      <time>2026-05-07T13:27:30Z</time>
    </trkpt>
    <trkpt lat="49.790503" lon="20.004176">
      <ele>528</ele>
      <time>2026-05-07T13:27:50Z</time>
    </trkpt>
    <trkpt lat="49.790577" lon="20.004379">
      <ele>525</ele>
      <time>2026-05-07T13:28:05Z</time>
    </trkpt>
    <trkpt lat="49.790676" lon="20.004708">
      <ele>522</ele>
      <time>2026-05-07T13:28:27Z</time>
    </trkpt>
    <trkpt lat="49.790689" lon="20.00474">
      <ele>522</ele>
      <time>2026-05-07T13:28:30Z</time>
    </trkpt>
    <trkpt lat="49.790748" lon="20.004936">
      <ele>520</ele>
      <time>2026-05-07T13:28:43Z</time>
    </trkpt>
    <trkpt lat="49.79079" lon="20.005216">
      <ele>519</ele>
      <time>2026-05-07T13:29:01Z</time>
    </trkpt>
    <trkpt lat="49.790829" lon="20.005366">
      <ele>518</ele>
      <time>2026-05-07T13:29:11Z</time>
    </trkpt>
    <trkpt lat="49.790877" lon="20.005476">
      <ele>516</ele>
      <time>2026-05-07T13:29:19Z</time>
    </trkpt>
    <trkpt lat="49.791007" lon="20.005693">
      <ele>513</ele>
      <time>2026-05-07T13:29:38Z</time>
    </trkpt>
    <trkpt lat="49.791071" lon="20.00583">
      <ele>512</ele>
      <time>2026-05-07T13:29:48Z</time>
    </trkpt>
    <trkpt lat="49.791126" lon="20.006012">
      <ele>511</ele>
      <time>2026-05-07T13:30:01Z</time>
    </trkpt>
    <trkpt lat="49.791201" lon="20.006189">
      <ele>507</ele>
      <time>2026-05-07T13:30:14Z</time>
    </trkpt>
    <trkpt lat="49.791438" lon="20.006567">
      <ele>498</ele>
      <time>2026-05-07T13:30:48Z</time>
    </trkpt>
    <trkpt lat="49.79157" lon="20.006746">
      <ele>494</ele>
      <time>2026-05-07T13:31:05Z</time>
    </trkpt>
    <trkpt lat="49.791666" lon="20.006799">
      <ele>493</ele>
      <time>2026-05-07T13:31:15Z</time>
    </trkpt>
    <trkpt lat="49.791768" lon="20.006771">
      <ele>492</ele>
      <time>2026-05-07T13:31:25Z</time>
    </trkpt>
    <trkpt lat="49.791861" lon="20.006679">
      <ele>493</ele>
      <time>2026-05-07T13:31:36Z</time>
    </trkpt>
    <trkpt lat="49.791873" lon="20.006668">
      <ele>493</ele>
      <time>2026-05-07T13:31:37Z</time>
    </trkpt>
    <trkpt lat="49.792075" lon="20.006316">
      <ele>491</ele>
      <time>2026-05-07T13:32:06Z</time>
    </trkpt>
    <trkpt lat="49.79226" lon="20.005975">
      <ele>487</ele>
      <time>2026-05-07T13:32:34Z</time>
    </trkpt>
    <trkpt lat="49.792355" lon="20.005821">
      <ele>484</ele>
      <time>2026-05-07T13:32:47Z</time>
    </trkpt>
    <trkpt lat="49.792405" lon="20.005828">
      <ele>482</ele>
      <time>2026-05-07T13:32:53Z</time>
    </trkpt>
    <trkpt lat="49.792448" lon="20.005898">
      <ele>479</ele>
      <time>2026-05-07T13:32:59Z</time>
    </trkpt>
    <trkpt lat="49.792483" lon="20.006084">
      <ele>476</ele>
      <time>2026-05-07T13:33:11Z</time>
    </trkpt>
    <trkpt lat="49.792512" lon="20.006602">
      <ele>471</ele>
      <time>2026-05-07T13:33:44Z</time>
    </trkpt>
    <trkpt lat="49.792542" lon="20.006811">
      <ele>470</ele>
      <time>2026-05-07T13:33:57Z</time>
    </trkpt>
    <trkpt lat="49.792595" lon="20.007082">
      <ele>468</ele>
      <time>2026-05-07T13:34:15Z</time>
    </trkpt>
    <trkpt lat="49.792607" lon="20.007272">
      <ele>466</ele>
      <time>2026-05-07T13:34:27Z</time>
    </trkpt>
    <trkpt lat="49.792595" lon="20.007414">
      <ele>465</ele>
      <time>2026-05-07T13:34:36Z</time>
    </trkpt>
    <trkpt lat="49.79258" lon="20.007581">
      <ele>463</ele>
      <time>2026-05-07T13:34:46Z</time>
    </trkpt>
    <trkpt lat="49.792575" lon="20.007732">
      <ele>461</ele>
      <time>2026-05-07T13:34:56Z</time>
    </trkpt>
    <trkpt lat="49.792583" lon="20.00786">
      <ele>459</ele>
      <time>2026-05-07T13:35:04Z</time>
    </trkpt>
    <trkpt lat="49.792617" lon="20.008035">
      <ele>458</ele>
      <time>2026-05-07T13:35:15Z</time>
    </trkpt>
    <trkpt lat="49.79265" lon="20.00819">
      <ele>456</ele>
      <time>2026-05-07T13:35:25Z</time>
    </trkpt>
    <trkpt lat="49.792697" lon="20.008314">
      <ele>455</ele>
      <time>2026-05-07T13:35:34Z</time>
    </trkpt>
    <trkpt lat="49.79274" lon="20.008413">
      <ele>453</ele>
      <time>2026-05-07T13:35:42Z</time>
    </trkpt>
    <trkpt lat="49.792832" lon="20.008545">
      <ele>451</ele>
      <time>2026-05-07T13:35:54Z</time>
    </trkpt>
    <trkpt lat="49.792855" lon="20.008579">
      <ele>451</ele>
      <time>2026-05-07T13:35:57Z</time>
    </trkpt>
    <trkpt lat="49.793219" lon="20.009078">
      <ele>444</ele>
      <time>2026-05-07T13:36:44Z</time>
    </trkpt>
    <trkpt lat="49.79362" lon="20.009577">
      <ele>439</ele>
      <time>2026-05-07T13:37:34Z</time>
    </trkpt>
    <trkpt lat="49.793724" lon="20.009717">
      <ele>437</ele>
      <time>2026-05-07T13:37:47Z</time>
    </trkpt>
    <trkpt lat="49.793817" lon="20.009867">
      <ele>436</ele>
      <time>2026-05-07T13:38:00Z</time>
    </trkpt>
    <trkpt lat="49.793983" lon="20.010121">
      <ele>434</ele>
      <time>2026-05-07T13:38:22Z</time>
    </trkpt>
    <trkpt lat="49.794216" lon="20.010485">
      <ele>433</ele>
      <time>2026-05-07T13:38:54Z</time>
    </trkpt>
    <trkpt lat="49.794462" lon="20.010859">
      <ele>432</ele>
      <time>2026-05-07T13:39:27Z</time>
    </trkpt>
    <trkpt lat="49.794731" lon="20.0112">
      <ele>434</ele>
      <time>2026-05-07T13:40:00Z</time>
    </trkpt>
    <trkpt lat="49.79504" lon="20.011623">
      <ele>439</ele>
      <time>2026-05-07T13:40:40Z</time>
    </trkpt>
    <trkpt lat="49.795209" lon="20.011902">
      <ele>440</ele>
      <time>2026-05-07T13:41:04Z</time>
    </trkpt>
    <trkpt lat="49.795303" lon="20.012055">
      <ele>440</ele>
      <time>2026-05-07T13:41:17Z</time>
    </trkpt>
    <trkpt lat="49.79541" lon="20.012324">
      <ele>439</ele>
      <time>2026-05-07T13:41:37Z</time>
    </trkpt>
    <trkpt lat="49.795462" lon="20.012495">
      <ele>439</ele>
      <time>2026-05-07T13:41:48Z</time>
    </trkpt>
    <trkpt lat="49.795526" lon="20.012699">
      <ele>439</ele>
      <time>2026-05-07T13:42:02Z</time>
    </trkpt>
    <trkpt lat="49.795547" lon="20.012919">
      <ele>437</ele>
      <time>2026-05-07T13:42:16Z</time>
    </trkpt>
    <trkpt lat="49.795569" lon="20.013466">
      <ele>431</ele>
      <time>2026-05-07T13:42:51Z</time>
    </trkpt>
    <trkpt lat="49.795604" lon="20.013999">
      <ele>424</ele>
      <time>2026-05-07T13:43:24Z</time>
    </trkpt>
    <trkpt lat="49.795635" lon="20.01422">
      <ele>420</ele>
      <time>2026-05-07T13:43:39Z</time>
    </trkpt>
    <trkpt lat="49.795677" lon="20.014376">
      <ele>418</ele>
      <time>2026-05-07T13:43:49Z</time>
    </trkpt>
    <trkpt lat="49.795734" lon="20.014586">
      <ele>415</ele>
      <time>2026-05-07T13:44:04Z</time>
    </trkpt>
    <trkpt lat="49.795792" lon="20.014689">
      <ele>414</ele>
      <time>2026-05-07T13:44:12Z</time>
    </trkpt>
    <trkpt lat="49.795893" lon="20.014871">
      <ele>411</ele>
      <time>2026-05-07T13:44:27Z</time>
    </trkpt>
    <trkpt lat="49.795983" lon="20.014972">
      <ele>409</ele>
      <time>2026-05-07T13:44:38Z</time>
    </trkpt>
    <trkpt lat="49.796063" lon="20.015075">
      <ele>409</ele>
      <time>2026-05-07T13:44:48Z</time>
    </trkpt>
    <trkpt lat="49.796109" lon="20.015156">
      <ele>408</ele>
      <time>2026-05-07T13:44:55Z</time>
    </trkpt>
    <trkpt lat="49.796141" lon="20.015211">
      <ele>408</ele>
      <time>2026-05-07T13:44:59Z</time>
    </trkpt>
    <trkpt lat="49.796153" lon="20.015233">
      <ele>407</ele>
      <time>2026-05-07T13:45:01Z</time>
    </trkpt>
    <trkpt lat="49.796213" lon="20.015394">
      <ele>407</ele>
      <time>2026-05-07T13:45:13Z</time>
    </trkpt>
    <trkpt lat="49.796238" lon="20.015488">
      <ele>408</ele>
      <time>2026-05-07T13:45:19Z</time>
    </trkpt>
    <trkpt lat="49.79625" lon="20.015635">
      <ele>408</ele>
      <time>2026-05-07T13:45:28Z</time>
    </trkpt>
    <trkpt lat="49.796238" lon="20.016137">
      <ele>411</ele>
      <time>2026-05-07T13:45:59Z</time>
    </trkpt>
    <trkpt lat="49.796377" lon="20.016787">
      <ele>411</ele>
      <time>2026-05-07T13:46:42Z</time>
    </trkpt>
    <trkpt lat="49.796588" lon="20.016761">
      <ele>411</ele>
      <time>2026-05-07T13:47:02Z</time>
    </trkpt>
    <trkpt lat="49.796666" lon="20.016774">
      <ele>411</ele>
      <time>2026-05-07T13:47:10Z</time>
    </trkpt>
    <trkpt lat="49.796818" lon="20.016811">
      <ele>410</ele>
      <time>2026-05-07T13:47:24Z</time>
    </trkpt>
    <trkpt lat="49.796926" lon="20.016866">
      <ele>410</ele>
      <time>2026-05-07T13:47:35Z</time>
    </trkpt>
    <trkpt lat="49.797253" lon="20.017054">
      <ele>412</ele>
      <time>2026-05-07T13:48:09Z</time>
    </trkpt>
    <trkpt lat="49.797311" lon="20.017061">
      <ele>412</ele>
      <time>2026-05-07T13:48:14Z</time>
    </trkpt>
    <trkpt lat="49.797494" lon="20.017039">
      <ele>413</ele>
      <time>2026-05-07T13:48:32Z</time>
    </trkpt>
  </trkseg>
</trk>
</gpx>