<?xml version="1.0" encoding="UTF-8"?><gpx creator="https://mapa-turystyczna.pl" xmlns="http://www.topografix.com/GPX/1/1" version="1.1" xmlns:xsi="http://www.w3.org/2001/XMLSchema-instance" xsi:schemaLocation="http://www.topografix.com/GPX/1/1 http://www.topografix.com/GPX/1/1/gpx.xsd">
  <metadata>
    <link href="https://mapa-turystyczna.pl">
      <text>mapa-turystyczna.pl</text>
    </link>
    <time>2026-05-07T08:43:15Z</time>
    <bounds maxlat="49.4492388" maxlon="20.620999" minlat="49.41883" minlon="20.6042217"/>
  </metadata>

<trk>
  <name>Przełęcz Gromadzka – Przełęcz Gromadzka</name>
  <link href="https://mapa-turystyczna.pl/route/e4im">
    <text>Przełęcz Gromadzka – Przełęcz Gromadzka</text>
  </link>
  <trkseg>
    <trkpt lat="49.41883" lon="20.620999">
      <ele>908</ele>
      <time>2026-05-07T08:43:15Z</time>
    </trkpt>
    <trkpt lat="49.418996" lon="20.620746">
      <ele>911</ele>
      <time>2026-05-07T08:43:38Z</time>
    </trkpt>
    <trkpt lat="49.419114" lon="20.620571">
      <ele>913</ele>
      <time>2026-05-07T08:43:53Z</time>
    </trkpt>
    <trkpt lat="49.419171" lon="20.62047">
      <ele>914</ele>
      <time>2026-05-07T08:44:02Z</time>
    </trkpt>
    <trkpt lat="49.419181" lon="20.620428">
      <ele>914</ele>
      <time>2026-05-07T08:44:05Z</time>
    </trkpt>
    <trkpt lat="49.419191" lon="20.620379">
      <ele>914</ele>
      <time>2026-05-07T08:44:08Z</time>
    </trkpt>
    <trkpt lat="49.419201" lon="20.620295">
      <ele>915</ele>
      <time>2026-05-07T08:44:13Z</time>
    </trkpt>
    <trkpt lat="49.419213" lon="20.620217">
      <ele>915</ele>
      <time>2026-05-07T08:44:18Z</time>
    </trkpt>
    <trkpt lat="49.419263" lon="20.620044">
      <ele>916</ele>
      <time>2026-05-07T08:44:30Z</time>
    </trkpt>
    <trkpt lat="49.41933" lon="20.619851">
      <ele>917</ele>
      <time>2026-05-07T08:44:44Z</time>
    </trkpt>
    <trkpt lat="49.419407" lon="20.619631">
      <ele>918</ele>
      <time>2026-05-07T08:45:00Z</time>
    </trkpt>
    <trkpt lat="49.419436" lon="20.619499">
      <ele>918</ele>
      <time>2026-05-07T08:45:08Z</time>
    </trkpt>
    <trkpt lat="49.419446" lon="20.619416">
      <ele>918</ele>
      <time>2026-05-07T08:45:14Z</time>
    </trkpt>
    <trkpt lat="49.419451" lon="20.619316">
      <ele>918</ele>
      <time>2026-05-07T08:45:20Z</time>
    </trkpt>
    <trkpt lat="49.419464" lon="20.619187">
      <ele>918</ele>
      <time>2026-05-07T08:45:28Z</time>
    </trkpt>
    <trkpt lat="49.419489" lon="20.619091">
      <ele>918</ele>
      <time>2026-05-07T08:45:34Z</time>
    </trkpt>
    <trkpt lat="49.419513" lon="20.619033">
      <ele>918</ele>
      <time>2026-05-07T08:45:39Z</time>
    </trkpt>
    <trkpt lat="49.419534" lon="20.618992">
      <ele>917</ele>
      <time>2026-05-07T08:45:42Z</time>
    </trkpt>
    <trkpt lat="49.419607" lon="20.618904">
      <ele>917</ele>
      <time>2026-05-07T08:45:51Z</time>
    </trkpt>
    <trkpt lat="49.419655" lon="20.618836">
      <ele>917</ele>
      <time>2026-05-07T08:45:57Z</time>
    </trkpt>
    <trkpt lat="49.419686" lon="20.618785">
      <ele>917</ele>
      <time>2026-05-07T08:46:02Z</time>
    </trkpt>
    <trkpt lat="49.419715" lon="20.618728">
      <ele>917</ele>
      <time>2026-05-07T08:46:06Z</time>
    </trkpt>
    <trkpt lat="49.419751" lon="20.618638">
      <ele>918</ele>
      <time>2026-05-07T08:46:13Z</time>
    </trkpt>
    <trkpt lat="49.419806" lon="20.618468">
      <ele>919</ele>
      <time>2026-05-07T08:46:25Z</time>
    </trkpt>
    <trkpt lat="49.419941" lon="20.618068">
      <ele>921</ele>
      <time>2026-05-07T08:46:53Z</time>
    </trkpt>
    <trkpt lat="49.420011" lon="20.617865">
      <ele>922</ele>
      <time>2026-05-07T08:47:07Z</time>
    </trkpt>
    <trkpt lat="49.420089" lon="20.617639">
      <ele>924</ele>
      <time>2026-05-07T08:47:23Z</time>
    </trkpt>
    <trkpt lat="49.420169" lon="20.617409">
      <ele>925</ele>
      <time>2026-05-07T08:47:40Z</time>
    </trkpt>
    <trkpt lat="49.420269" lon="20.617125">
      <ele>928</ele>
      <time>2026-05-07T08:48:00Z</time>
    </trkpt>
    <trkpt lat="49.420291" lon="20.617006">
      <ele>929</ele>
      <time>2026-05-07T08:48:08Z</time>
    </trkpt>
    <trkpt lat="49.420279" lon="20.616894">
      <ele>929</ele>
      <time>2026-05-07T08:48:15Z</time>
    </trkpt>
    <trkpt lat="49.420434" lon="20.616547">
      <ele>930</ele>
      <time>2026-05-07T08:48:51Z</time>
    </trkpt>
    <trkpt lat="49.420509" lon="20.616333">
      <ele>930</ele>
      <time>2026-05-07T08:49:11Z</time>
    </trkpt>
    <trkpt lat="49.420577" lon="20.616196">
      <ele>930</ele>
      <time>2026-05-07T08:49:26Z</time>
    </trkpt>
    <trkpt lat="49.420626" lon="20.616129">
      <ele>930</ele>
      <time>2026-05-07T08:49:34Z</time>
    </trkpt>
    <trkpt lat="49.420639" lon="20.616119">
      <ele>930</ele>
      <time>2026-05-07T08:49:36Z</time>
    </trkpt>
    <trkpt lat="49.420737" lon="20.616048">
      <ele>931</ele>
      <time>2026-05-07T08:49:50Z</time>
    </trkpt>
    <trkpt lat="49.420836" lon="20.615955">
      <ele>931</ele>
      <time>2026-05-07T08:50:05Z</time>
    </trkpt>
    <trkpt lat="49.420898" lon="20.615874">
      <ele>931</ele>
      <time>2026-05-07T08:50:16Z</time>
    </trkpt>
    <trkpt lat="49.420984" lon="20.615723">
      <ele>931</ele>
      <time>2026-05-07T08:50:33Z</time>
    </trkpt>
    <trkpt lat="49.421101" lon="20.615518">
      <ele>932</ele>
      <time>2026-05-07T08:50:56Z</time>
    </trkpt>
    <trkpt lat="49.421194" lon="20.615372">
      <ele>932</ele>
      <time>2026-05-07T08:51:13Z</time>
    </trkpt>
    <trkpt lat="49.421338" lon="20.615156">
      <ele>932</ele>
      <time>2026-05-07T08:51:40Z</time>
    </trkpt>
    <trkpt lat="49.421471" lon="20.61493">
      <ele>932</ele>
      <time>2026-05-07T08:52:05Z</time>
    </trkpt>
    <trkpt lat="49.421559" lon="20.614766">
      <ele>932</ele>
      <time>2026-05-07T08:52:23Z</time>
    </trkpt>
    <trkpt lat="49.421609" lon="20.61467">
      <ele>932</ele>
      <time>2026-05-07T08:52:34Z</time>
    </trkpt>
    <trkpt lat="49.421753" lon="20.614505">
      <ele>932</ele>
      <time>2026-05-07T08:52:57Z</time>
    </trkpt>
    <trkpt lat="49.421845" lon="20.614368">
      <ele>931</ele>
      <time>2026-05-07T08:53:14Z</time>
    </trkpt>
    <trkpt lat="49.421958" lon="20.614196">
      <ele>932</ele>
      <time>2026-05-07T08:53:34Z</time>
    </trkpt>
    <trkpt lat="49.422073" lon="20.614004">
      <ele>933</ele>
      <time>2026-05-07T08:53:57Z</time>
    </trkpt>
    <trkpt lat="49.42223" lon="20.6137">
      <ele>937</ele>
      <time>2026-05-07T08:54:30Z</time>
    </trkpt>
    <trkpt lat="49.422373" lon="20.61338">
      <ele>939</ele>
      <time>2026-05-07T08:55:03Z</time>
    </trkpt>
    <trkpt lat="49.422527" lon="20.613031">
      <ele>940</ele>
      <time>2026-05-07T08:55:38Z</time>
    </trkpt>
    <trkpt lat="49.422668" lon="20.612828">
      <ele>942</ele>
      <time>2026-05-07T08:56:03Z</time>
    </trkpt>
    <trkpt lat="49.422836" lon="20.612587">
      <ele>944</ele>
      <time>2026-05-07T08:56:33Z</time>
    </trkpt>
    <trkpt lat="49.423047" lon="20.612316">
      <ele>946</ele>
      <time>2026-05-07T08:57:09Z</time>
    </trkpt>
    <trkpt lat="49.423261" lon="20.611891">
      <ele>944</ele>
      <time>2026-05-07T08:57:55Z</time>
    </trkpt>
    <trkpt lat="49.423437" lon="20.611714">
      <ele>943</ele>
      <time>2026-05-07T08:58:22Z</time>
    </trkpt>
    <trkpt lat="49.423678" lon="20.611446">
      <ele>943</ele>
      <time>2026-05-07T08:59:01Z</time>
    </trkpt>
    <trkpt lat="49.42386" lon="20.611273">
      <ele>943</ele>
      <time>2026-05-07T08:59:29Z</time>
    </trkpt>
    <trkpt lat="49.424043" lon="20.611128">
      <ele>942</ele>
      <time>2026-05-07T08:59:56Z</time>
    </trkpt>
    <trkpt lat="49.424222" lon="20.61096">
      <ele>942</ele>
      <time>2026-05-07T09:00:23Z</time>
    </trkpt>
    <trkpt lat="49.424416" lon="20.61072">
      <ele>941</ele>
      <time>2026-05-07T09:00:55Z</time>
    </trkpt>
    <trkpt lat="49.424614" lon="20.610412">
      <ele>940</ele>
      <time>2026-05-07T09:01:32Z</time>
    </trkpt>
    <trkpt lat="49.424825" lon="20.610147">
      <ele>941</ele>
      <time>2026-05-07T09:02:07Z</time>
    </trkpt>
    <trkpt lat="49.42494" lon="20.609947">
      <ele>942</ele>
      <time>2026-05-07T09:02:30Z</time>
    </trkpt>
    <trkpt lat="49.42508" lon="20.609646">
      <ele>943</ele>
      <time>2026-05-07T09:03:01Z</time>
    </trkpt>
    <trkpt lat="49.425139" lon="20.609511">
      <ele>943</ele>
      <time>2026-05-07T09:03:15Z</time>
    </trkpt>
    <trkpt lat="49.425176" lon="20.609423">
      <ele>943</ele>
      <time>2026-05-07T09:03:24Z</time>
    </trkpt>
    <trkpt lat="49.425239" lon="20.609292">
      <ele>942</ele>
      <time>2026-05-07T09:03:38Z</time>
    </trkpt>
    <trkpt lat="49.425307" lon="20.609182">
      <ele>942</ele>
      <time>2026-05-07T09:03:51Z</time>
    </trkpt>
    <trkpt lat="49.425345" lon="20.609062">
      <ele>941</ele>
      <time>2026-05-07T09:04:02Z</time>
    </trkpt>
    <trkpt lat="49.425386" lon="20.608917">
      <ele>940</ele>
      <time>2026-05-07T09:04:15Z</time>
    </trkpt>
    <trkpt lat="49.425428" lon="20.608683">
      <ele>938</ele>
      <time>2026-05-07T09:04:36Z</time>
    </trkpt>
    <trkpt lat="49.425466" lon="20.60852">
      <ele>938</ele>
      <time>2026-05-07T09:04:51Z</time>
    </trkpt>
    <trkpt lat="49.425515" lon="20.608415">
      <ele>938</ele>
      <time>2026-05-07T09:05:02Z</time>
    </trkpt>
    <trkpt lat="49.425569" lon="20.60831">
      <ele>939</ele>
      <time>2026-05-07T09:05:13Z</time>
    </trkpt>
    <trkpt lat="49.42567" lon="20.608176">
      <ele>943</ele>
      <time>2026-05-07T09:05:31Z</time>
    </trkpt>
    <trkpt lat="49.425744" lon="20.60802">
      <ele>946</ele>
      <time>2026-05-07T09:05:48Z</time>
    </trkpt>
    <trkpt lat="49.425805" lon="20.607852">
      <ele>950</ele>
      <time>2026-05-07T09:06:05Z</time>
    </trkpt>
    <trkpt lat="49.425873" lon="20.607624">
      <ele>954</ele>
      <time>2026-05-07T09:06:26Z</time>
    </trkpt>
    <trkpt lat="49.425921" lon="20.607372">
      <ele>956</ele>
      <time>2026-05-07T09:06:49Z</time>
    </trkpt>
    <trkpt lat="49.42596" lon="20.607203">
      <ele>958</ele>
      <time>2026-05-07T09:07:04Z</time>
    </trkpt>
    <trkpt lat="49.425986" lon="20.607112">
      <ele>959</ele>
      <time>2026-05-07T09:07:13Z</time>
    </trkpt>
    <trkpt lat="49.426016" lon="20.606993">
      <ele>961</ele>
      <time>2026-05-07T09:07:24Z</time>
    </trkpt>
    <trkpt lat="49.42603" lon="20.606875">
      <ele>962</ele>
      <time>2026-05-07T09:07:34Z</time>
    </trkpt>
    <trkpt lat="49.426057" lon="20.606738">
      <ele>964</ele>
      <time>2026-05-07T09:07:46Z</time>
    </trkpt>
    <trkpt lat="49.426111" lon="20.606409">
      <ele>967</ele>
      <time>2026-05-07T09:08:15Z</time>
    </trkpt>
    <trkpt lat="49.426255" lon="20.606446">
      <ele>970</ele>
      <time>2026-05-07T09:08:43Z</time>
    </trkpt>
    <trkpt lat="49.426384" lon="20.606464">
      <ele>972</ele>
      <time>2026-05-07T09:09:07Z</time>
    </trkpt>
    <trkpt lat="49.426523" lon="20.606446">
      <ele>975</ele>
      <time>2026-05-07T09:09:34Z</time>
    </trkpt>
    <trkpt lat="49.426676" lon="20.606478">
      <ele>978</ele>
      <time>2026-05-07T09:10:03Z</time>
    </trkpt>
    <trkpt lat="49.426767" lon="20.606452">
      <ele>979</ele>
      <time>2026-05-07T09:10:20Z</time>
    </trkpt>
    <trkpt lat="49.426809" lon="20.606399">
      <ele>980</ele>
      <time>2026-05-07T09:10:30Z</time>
    </trkpt>
    <trkpt lat="49.426867" lon="20.606225">
      <ele>982</ele>
      <time>2026-05-07T09:10:54Z</time>
    </trkpt>
    <trkpt lat="49.426912" lon="20.606041">
      <ele>984</ele>
      <time>2026-05-07T09:11:19Z</time>
    </trkpt>
    <trkpt lat="49.426986" lon="20.605856">
      <ele>986</ele>
      <time>2026-05-07T09:11:45Z</time>
    </trkpt>
    <trkpt lat="49.42704" lon="20.605653">
      <ele>988</ele>
      <time>2026-05-07T09:12:12Z</time>
    </trkpt>
    <trkpt lat="49.427118" lon="20.605553">
      <ele>989</ele>
      <time>2026-05-07T09:12:31Z</time>
    </trkpt>
    <trkpt lat="49.427231" lon="20.605458">
      <ele>990</ele>
      <time>2026-05-07T09:12:55Z</time>
    </trkpt>
    <trkpt lat="49.427447" lon="20.605289">
      <ele>991</ele>
      <time>2026-05-07T09:13:40Z</time>
    </trkpt>
    <trkpt lat="49.42789" lon="20.604939">
      <ele>996</ele>
      <time>2026-05-07T09:15:14Z</time>
    </trkpt>
    <trkpt lat="49.42824" lon="20.604754">
      <ele>1001</ele>
      <time>2026-05-07T09:16:23Z</time>
    </trkpt>
    <trkpt lat="49.428371" lon="20.604762">
      <ele>1002</ele>
      <time>2026-05-07T09:16:48Z</time>
    </trkpt>
    <trkpt lat="49.428507" lon="20.604794">
      <ele>1004</ele>
      <time>2026-05-07T09:17:13Z</time>
    </trkpt>
    <trkpt lat="49.428645" lon="20.60483">
      <ele>1005</ele>
      <time>2026-05-07T09:17:40Z</time>
    </trkpt>
    <trkpt lat="49.429238" lon="20.604827">
      <ele>1011</ele>
      <time>2026-05-07T09:19:31Z</time>
    </trkpt>
    <trkpt lat="49.42982" lon="20.604874">
      <ele>1020</ele>
      <time>2026-05-07T09:21:20Z</time>
    </trkpt>
    <trkpt lat="49.430368" lon="20.604888">
      <ele>1033</ele>
      <time>2026-05-07T09:23:05Z</time>
    </trkpt>
    <trkpt lat="49.430593" lon="20.604932">
      <ele>1038</ele>
      <time>2026-05-07T09:23:48Z</time>
    </trkpt>
    <trkpt lat="49.430853" lon="20.60503">
      <ele>1043</ele>
      <time>2026-05-07T09:24:39Z</time>
    </trkpt>
    <trkpt lat="49.431031" lon="20.605102">
      <ele>1047</ele>
      <time>2026-05-07T09:25:14Z</time>
    </trkpt>
    <trkpt lat="49.431259" lon="20.605169">
      <ele>1052</ele>
      <time>2026-05-07T09:25:58Z</time>
    </trkpt>
    <trkpt lat="49.431434" lon="20.605172">
      <ele>1055</ele>
      <time>2026-05-07T09:26:31Z</time>
    </trkpt>
    <trkpt lat="49.431543" lon="20.605148">
      <ele>1057</ele>
      <time>2026-05-07T09:26:52Z</time>
    </trkpt>
    <trkpt lat="49.431659" lon="20.605113">
      <ele>1059</ele>
      <time>2026-05-07T09:27:14Z</time>
    </trkpt>
    <trkpt lat="49.431739" lon="20.605097">
      <ele>1061</ele>
      <time>2026-05-07T09:27:29Z</time>
    </trkpt>
    <trkpt lat="49.431911" lon="20.605288">
      <ele>1065</ele>
      <time>2026-05-07T09:28:09Z</time>
    </trkpt>
    <trkpt lat="49.432036" lon="20.605269">
      <ele>1068</ele>
      <time>2026-05-07T09:28:33Z</time>
    </trkpt>
    <trkpt lat="49.432157" lon="20.60526">
      <ele>1070</ele>
      <time>2026-05-07T09:28:56Z</time>
    </trkpt>
    <trkpt lat="49.432302" lon="20.605181">
      <ele>1072</ele>
      <time>2026-05-07T09:29:25Z</time>
    </trkpt>
    <trkpt lat="49.432446" lon="20.605148">
      <ele>1074</ele>
      <time>2026-05-07T09:29:52Z</time>
    </trkpt>
    <trkpt lat="49.432779" lon="20.605126">
      <ele>1079</ele>
      <time>2026-05-07T09:30:55Z</time>
    </trkpt>
    <trkpt lat="49.433112" lon="20.605103">
      <ele>1083</ele>
      <time>2026-05-07T09:31:58Z</time>
    </trkpt>
    <trkpt lat="49.433252" lon="20.605076">
      <ele>1084</ele>
      <time>2026-05-07T09:32:24Z</time>
    </trkpt>
    <trkpt lat="49.433503" lon="20.605008">
      <ele>1085</ele>
      <time>2026-05-07T09:33:12Z</time>
    </trkpt>
    <trkpt lat="49.433579" lon="20.605031">
      <ele>1085</ele>
      <time>2026-05-07T09:33:26Z</time>
    </trkpt>
    <trkpt lat="49.433679" lon="20.605155">
      <ele>1086</ele>
      <time>2026-05-07T09:33:50Z</time>
    </trkpt>
    <trkpt lat="49.433759" lon="20.60535">
      <ele>1087</ele>
      <time>2026-05-07T09:34:18Z</time>
    </trkpt>
    <trkpt lat="49.433847" lon="20.605629">
      <ele>1087</ele>
      <time>2026-05-07T09:34:56Z</time>
    </trkpt>
    <trkpt lat="49.433959" lon="20.605813">
      <ele>1088</ele>
      <time>2026-05-07T09:35:26Z</time>
    </trkpt>
    <trkpt lat="49.434139" lon="20.605957">
      <ele>1091</ele>
      <time>2026-05-07T09:36:05Z</time>
    </trkpt>
    <trkpt lat="49.434301" lon="20.606129">
      <ele>1093</ele>
      <time>2026-05-07T09:36:41Z</time>
    </trkpt>
    <trkpt lat="49.434457" lon="20.606351">
      <ele>1095</ele>
      <time>2026-05-07T09:37:21Z</time>
    </trkpt>
    <trkpt lat="49.43455" lon="20.606635">
      <ele>1098</ele>
      <time>2026-05-07T09:38:00Z</time>
    </trkpt>
    <trkpt lat="49.434601" lon="20.606941">
      <ele>1103</ele>
      <time>2026-05-07T09:38:40Z</time>
    </trkpt>
    <trkpt lat="49.434612" lon="20.607012">
      <ele>1105</ele>
      <time>2026-05-07T09:38:49Z</time>
    </trkpt>
    <trkpt lat="49.434601" lon="20.607173">
      <ele>1108</ele>
      <time>2026-05-07T09:39:09Z</time>
    </trkpt>
    <trkpt lat="49.434571" lon="20.607318">
      <ele>1110</ele>
      <time>2026-05-07T09:39:28Z</time>
    </trkpt>
    <trkpt lat="49.434565" lon="20.60753">
      <ele>1115</ele>
      <time>2026-05-07T09:39:55Z</time>
    </trkpt>
    <trkpt lat="49.434583" lon="20.607651">
      <ele>1118</ele>
      <time>2026-05-07T09:40:11Z</time>
    </trkpt>
    <trkpt lat="49.434628" lon="20.607771">
      <ele>1121</ele>
      <time>2026-05-07T09:40:28Z</time>
    </trkpt>
    <trkpt lat="49.434684" lon="20.607871">
      <ele>1124</ele>
      <time>2026-05-07T09:40:45Z</time>
    </trkpt>
    <trkpt lat="49.434837" lon="20.608013">
      <ele>1130</ele>
      <time>2026-05-07T09:41:20Z</time>
    </trkpt>
    <trkpt lat="49.434995" lon="20.608128">
      <ele>1134</ele>
      <time>2026-05-07T09:41:53Z</time>
    </trkpt>
    <trkpt lat="49.4352" lon="20.608314">
      <ele>1140</ele>
      <time>2026-05-07T09:42:39Z</time>
    </trkpt>
    <trkpt lat="49.435344" lon="20.608382">
      <ele>1143</ele>
      <time>2026-05-07T09:43:07Z</time>
    </trkpt>
    <trkpt lat="49.435566" lon="20.608432">
      <ele>1146</ele>
      <time>2026-05-07T09:43:49Z</time>
    </trkpt>
    <trkpt lat="49.435787" lon="20.60852">
      <ele>1149</ele>
      <time>2026-05-07T09:44:32Z</time>
    </trkpt>
    <trkpt lat="49.43589" lon="20.608492">
      <ele>1148</ele>
      <time>2026-05-07T09:44:52Z</time>
    </trkpt>
    <trkpt lat="49.436008" lon="20.608493">
      <ele>1148</ele>
      <time>2026-05-07T09:45:14Z</time>
    </trkpt>
    <trkpt lat="49.436105" lon="20.608526">
      <ele>1148</ele>
      <time>2026-05-07T09:45:32Z</time>
    </trkpt>
    <trkpt lat="49.436198" lon="20.60857">
      <ele>1147</ele>
      <time>2026-05-07T09:45:51Z</time>
    </trkpt>
    <trkpt lat="49.436338" lon="20.608672">
      <ele>1148</ele>
      <time>2026-05-07T09:46:19Z</time>
    </trkpt>
    <trkpt lat="49.436418" lon="20.608801">
      <ele>1149</ele>
      <time>2026-05-07T09:46:41Z</time>
    </trkpt>
    <trkpt lat="49.436506" lon="20.608907">
      <ele>1149</ele>
      <time>2026-05-07T09:47:02Z</time>
    </trkpt>
    <trkpt lat="49.43664" lon="20.609074">
      <ele>1151</ele>
      <time>2026-05-07T09:47:34Z</time>
    </trkpt>
    <trkpt lat="49.436758" lon="20.609149">
      <ele>1150</ele>
      <time>2026-05-07T09:47:58Z</time>
    </trkpt>
    <trkpt lat="49.436973" lon="20.609364">
      <ele>1147</ele>
      <time>2026-05-07T09:48:46Z</time>
    </trkpt>
    <trkpt lat="49.437428" lon="20.610092">
      <ele>1135</ele>
      <time>2026-05-07T09:50:50Z</time>
    </trkpt>
    <trkpt lat="49.437694" lon="20.6103">
      <ele>1136</ele>
      <time>2026-05-07T09:51:46Z</time>
    </trkpt>
    <trkpt lat="49.437929" lon="20.610484">
      <ele>1139</ele>
      <time>2026-05-07T09:52:35Z</time>
    </trkpt>
    <trkpt lat="49.438065" lon="20.610563">
      <ele>1141</ele>
      <time>2026-05-07T09:53:03Z</time>
    </trkpt>
    <trkpt lat="49.438128" lon="20.610585">
      <ele>1142</ele>
      <time>2026-05-07T09:53:15Z</time>
    </trkpt>
    <trkpt lat="49.438188" lon="20.610539">
      <ele>1142</ele>
      <time>2026-05-07T09:53:22Z</time>
    </trkpt>
    <trkpt lat="49.438445" lon="20.610385">
      <ele>1142</ele>
      <time>2026-05-07T09:53:52Z</time>
    </trkpt>
    <trkpt lat="49.438732" lon="20.61014">
      <ele>1143</ele>
      <time>2026-05-07T09:54:28Z</time>
    </trkpt>
    <trkpt lat="49.438985" lon="20.609944">
      <ele>1146</ele>
      <time>2026-05-07T09:54:58Z</time>
    </trkpt>
    <trkpt lat="49.439081" lon="20.609829">
      <ele>1146</ele>
      <time>2026-05-07T09:55:12Z</time>
    </trkpt>
    <trkpt lat="49.439172" lon="20.609705">
      <ele>1146</ele>
      <time>2026-05-07T09:55:25Z</time>
    </trkpt>
    <trkpt lat="49.439436" lon="20.609257">
      <ele>1142</ele>
      <time>2026-05-07T09:56:07Z</time>
    </trkpt>
    <trkpt lat="49.439557" lon="20.609123">
      <ele>1142</ele>
      <time>2026-05-07T09:56:24Z</time>
    </trkpt>
    <trkpt lat="49.439917" lon="20.608681">
      <ele>1142</ele>
      <time>2026-05-07T09:57:13Z</time>
    </trkpt>
    <trkpt lat="49.440049" lon="20.608503">
      <ele>1141</ele>
      <time>2026-05-07T09:57:32Z</time>
    </trkpt>
    <trkpt lat="49.440185" lon="20.608281">
      <ele>1140</ele>
      <time>2026-05-07T09:57:54Z</time>
    </trkpt>
    <trkpt lat="49.440244" lon="20.608222">
      <ele>1140</ele>
      <time>2026-05-07T09:58:02Z</time>
    </trkpt>
    <trkpt lat="49.440337" lon="20.608208">
      <ele>1140</ele>
      <time>2026-05-07T09:58:12Z</time>
    </trkpt>
    <trkpt lat="49.440612" lon="20.608176">
      <ele>1136</ele>
      <time>2026-05-07T09:58:42Z</time>
    </trkpt>
    <trkpt lat="49.440804" lon="20.608131">
      <ele>1132</ele>
      <time>2026-05-07T09:59:03Z</time>
    </trkpt>
    <trkpt lat="49.441092" lon="20.608093">
      <ele>1129</ele>
      <time>2026-05-07T09:59:35Z</time>
    </trkpt>
    <trkpt lat="49.441193" lon="20.60805">
      <ele>1127</ele>
      <time>2026-05-07T09:59:46Z</time>
    </trkpt>
    <trkpt lat="49.441337" lon="20.608048">
      <ele>1125</ele>
      <time>2026-05-07T10:00:02Z</time>
    </trkpt>
    <trkpt lat="49.44146" lon="20.60801">
      <ele>1123</ele>
      <time>2026-05-07T10:00:16Z</time>
    </trkpt>
    <trkpt lat="49.441552" lon="20.607946">
      <ele>1120</ele>
      <time>2026-05-07T10:00:27Z</time>
    </trkpt>
    <trkpt lat="49.441711" lon="20.607779">
      <ele>1116</ele>
      <time>2026-05-07T10:00:48Z</time>
    </trkpt>
    <trkpt lat="49.441807" lon="20.607688">
      <ele>1113</ele>
      <time>2026-05-07T10:01:00Z</time>
    </trkpt>
    <trkpt lat="49.441889" lon="20.607592">
      <ele>1112</ele>
      <time>2026-05-07T10:01:12Z</time>
    </trkpt>
    <trkpt lat="49.44195" lon="20.607487">
      <ele>1112</ele>
      <time>2026-05-07T10:01:22Z</time>
    </trkpt>
    <trkpt lat="49.441986" lon="20.607358">
      <ele>1111</ele>
      <time>2026-05-07T10:01:32Z</time>
    </trkpt>
    <trkpt lat="49.442004" lon="20.607211">
      <ele>1109</ele>
      <time>2026-05-07T10:01:42Z</time>
    </trkpt>
    <trkpt lat="49.442032" lon="20.607155">
      <ele>1109</ele>
      <time>2026-05-07T10:01:47Z</time>
    </trkpt>
    <trkpt lat="49.442107" lon="20.607034">
      <ele>1109</ele>
      <time>2026-05-07T10:01:59Z</time>
    </trkpt>
    <trkpt lat="49.442265" lon="20.606832">
      <ele>1110</ele>
      <time>2026-05-07T10:02:21Z</time>
    </trkpt>
    <trkpt lat="49.442459" lon="20.60661">
      <ele>1111</ele>
      <time>2026-05-07T10:02:47Z</time>
    </trkpt>
    <trkpt lat="49.442619" lon="20.606451">
      <ele>1113</ele>
      <time>2026-05-07T10:03:08Z</time>
    </trkpt>
    <trkpt lat="49.442671" lon="20.606392">
      <ele>1114</ele>
      <time>2026-05-07T10:03:15Z</time>
    </trkpt>
    <trkpt lat="49.442675" lon="20.60635">
      <ele>1113</ele>
      <time>2026-05-07T10:03:18Z</time>
    </trkpt>
    <trkpt lat="49.442689" lon="20.606305">
      <ele>1113</ele>
      <time>2026-05-07T10:03:23Z</time>
    </trkpt>
    <trkpt lat="49.442711" lon="20.606249">
      <ele>1113</ele>
      <time>2026-05-07T10:03:28Z</time>
    </trkpt>
    <trkpt lat="49.442787" lon="20.606124">
      <ele>1111</ele>
      <time>2026-05-07T10:03:42Z</time>
    </trkpt>
    <trkpt lat="49.442875" lon="20.60599">
      <ele>1109</ele>
      <time>2026-05-07T10:03:58Z</time>
    </trkpt>
    <trkpt lat="49.442973" lon="20.605853">
      <ele>1107</ele>
      <time>2026-05-07T10:04:15Z</time>
    </trkpt>
    <trkpt lat="49.443045" lon="20.605784">
      <ele>1107</ele>
      <time>2026-05-07T10:04:26Z</time>
    </trkpt>
    <trkpt lat="49.443107" lon="20.605741">
      <ele>1106</ele>
      <time>2026-05-07T10:04:34Z</time>
    </trkpt>
    <trkpt lat="49.443242" lon="20.605663">
      <ele>1107</ele>
      <time>2026-05-07T10:04:52Z</time>
    </trkpt>
    <trkpt lat="49.443275" lon="20.605639">
      <ele>1107</ele>
      <time>2026-05-07T10:04:57Z</time>
    </trkpt>
    <trkpt lat="49.443303" lon="20.605612">
      <ele>1107</ele>
      <time>2026-05-07T10:05:01Z</time>
    </trkpt>
    <trkpt lat="49.443323" lon="20.605578">
      <ele>1108</ele>
      <time>2026-05-07T10:05:05Z</time>
    </trkpt>
    <trkpt lat="49.443401" lon="20.605604">
      <ele>1106</ele>
      <time>2026-05-07T10:05:15Z</time>
    </trkpt>
    <trkpt lat="49.443442" lon="20.605569">
      <ele>1108</ele>
      <time>2026-05-07T10:05:27Z</time>
    </trkpt>
    <trkpt lat="49.443514" lon="20.605542">
      <ele>1110</ele>
      <time>2026-05-07T10:05:46Z</time>
    </trkpt>
    <trkpt lat="49.443704" lon="20.605491">
      <ele>1117</ele>
      <time>2026-05-07T10:06:35Z</time>
    </trkpt>
    <trkpt lat="49.443811" lon="20.605494">
      <ele>1121</ele>
      <time>2026-05-07T10:07:02Z</time>
    </trkpt>
    <trkpt lat="49.443896" lon="20.605505">
      <ele>1124</ele>
      <time>2026-05-07T10:07:23Z</time>
    </trkpt>
    <trkpt lat="49.444025" lon="20.605486">
      <ele>1128</ele>
      <time>2026-05-07T10:07:56Z</time>
    </trkpt>
    <trkpt lat="49.4441" lon="20.605457">
      <ele>1130</ele>
      <time>2026-05-07T10:08:15Z</time>
    </trkpt>
    <trkpt lat="49.444182" lon="20.605416">
      <ele>1132</ele>
      <time>2026-05-07T10:08:37Z</time>
    </trkpt>
    <trkpt lat="49.44429" lon="20.605387">
      <ele>1134</ele>
      <time>2026-05-07T10:09:03Z</time>
    </trkpt>
    <trkpt lat="49.444362" lon="20.6054">
      <ele>1134</ele>
      <time>2026-05-07T10:09:21Z</time>
    </trkpt>
    <trkpt lat="49.444458" lon="20.605451">
      <ele>1135</ele>
      <time>2026-05-07T10:09:46Z</time>
    </trkpt>
    <trkpt lat="49.444541" lon="20.605451">
      <ele>1136</ele>
      <time>2026-05-07T10:10:06Z</time>
    </trkpt>
    <trkpt lat="49.444646" lon="20.605406">
      <ele>1137</ele>
      <time>2026-05-07T10:10:32Z</time>
    </trkpt>
    <trkpt lat="49.444789" lon="20.605404">
      <ele>1139</ele>
      <time>2026-05-07T10:11:07Z</time>
    </trkpt>
    <trkpt lat="49.445" lon="20.605408">
      <ele>1142</ele>
      <time>2026-05-07T10:11:59Z</time>
    </trkpt>
    <trkpt lat="49.445275" lon="20.605535">
      <ele>1151</ele>
      <time>2026-05-07T10:13:11Z</time>
    </trkpt>
    <trkpt lat="49.445457" lon="20.60565">
      <ele>1155</ele>
      <time>2026-05-07T10:14:00Z</time>
    </trkpt>
    <trkpt lat="49.445647" lon="20.605741">
      <ele>1159</ele>
      <time>2026-05-07T10:14:49Z</time>
    </trkpt>
    <trkpt lat="49.44575" lon="20.605781">
      <ele>1162</ele>
      <time>2026-05-07T10:15:15Z</time>
    </trkpt>
    <trkpt lat="49.445868" lon="20.60584">
      <ele>1165</ele>
      <time>2026-05-07T10:15:46Z</time>
    </trkpt>
    <trkpt lat="49.445947" lon="20.605867">
      <ele>1167</ele>
      <time>2026-05-07T10:16:06Z</time>
    </trkpt>
    <trkpt lat="49.446032" lon="20.605899">
      <ele>1170</ele>
      <time>2026-05-07T10:16:28Z</time>
    </trkpt>
    <trkpt lat="49.446142" lon="20.605931">
      <ele>1173</ele>
      <time>2026-05-07T10:16:56Z</time>
    </trkpt>
    <trkpt lat="49.446281" lon="20.605962">
      <ele>1179</ele>
      <time>2026-05-07T10:17:32Z</time>
    </trkpt>
    <trkpt lat="49.446398" lon="20.605994">
      <ele>1184</ele>
      <time>2026-05-07T10:18:03Z</time>
    </trkpt>
    <trkpt lat="49.446583" lon="20.606042">
      <ele>1192</ele>
      <time>2026-05-07T10:18:51Z</time>
    </trkpt>
    <trkpt lat="49.446812" lon="20.606129">
      <ele>1201</ele>
      <time>2026-05-07T10:19:52Z</time>
    </trkpt>
    <trkpt lat="49.446944" lon="20.606191">
      <ele>1206</ele>
      <time>2026-05-07T10:20:27Z</time>
    </trkpt>
    <trkpt lat="49.447059" lon="20.606277">
      <ele>1210</ele>
      <time>2026-05-07T10:20:59Z</time>
    </trkpt>
    <trkpt lat="49.447101" lon="20.606342">
      <ele>1212</ele>
      <time>2026-05-07T10:21:15Z</time>
    </trkpt>
    <trkpt lat="49.447159" lon="20.606403">
      <ele>1215</ele>
      <time>2026-05-07T10:21:32Z</time>
    </trkpt>
    <trkpt lat="49.447325" lon="20.606497">
      <ele>1222</ele>
      <time>2026-05-07T10:22:18Z</time>
    </trkpt>
    <trkpt lat="49.447638" lon="20.606663">
      <ele>1232</ele>
      <time>2026-05-07T10:23:41Z</time>
    </trkpt>
    <trkpt lat="49.447804" lon="20.606777">
      <ele>1237</ele>
      <time>2026-05-07T10:24:26Z</time>
    </trkpt>
    <trkpt lat="49.447905" lon="20.606839">
      <ele>1239</ele>
      <time>2026-05-07T10:24:53Z</time>
    </trkpt>
    <trkpt lat="49.448028" lon="20.606861">
      <ele>1242</ele>
      <time>2026-05-07T10:25:24Z</time>
    </trkpt>
    <trkpt lat="49.448144" lon="20.606813">
      <ele>1244</ele>
      <time>2026-05-07T10:25:53Z</time>
    </trkpt>
    <trkpt lat="49.448277" lon="20.60675">
      <ele>1246</ele>
      <time>2026-05-07T10:26:27Z</time>
    </trkpt>
    <trkpt lat="49.448356" lon="20.606643">
      <ele>1247</ele>
      <time>2026-05-07T10:26:53Z</time>
    </trkpt>
    <trkpt lat="49.448466" lon="20.606486">
      <ele>1247</ele>
      <time>2026-05-07T10:27:29Z</time>
    </trkpt>
    <trkpt lat="49.448572" lon="20.606245">
      <ele>1248</ele>
      <time>2026-05-07T10:28:15Z</time>
    </trkpt>
    <trkpt lat="49.448767" lon="20.605768">
      <ele>1252</ele>
      <time>2026-05-07T10:29:44Z</time>
    </trkpt>
    <trkpt lat="49.448864" lon="20.60543">
      <ele>1255</ele>
      <time>2026-05-07T10:30:42Z</time>
    </trkpt>
    <trkpt lat="49.448906" lon="20.605172">
      <ele>1257</ele>
      <time>2026-05-07T10:31:24Z</time>
    </trkpt>
    <trkpt lat="49.449053" lon="20.604693">
      <ele>1260</ele>
      <time>2026-05-07T10:32:48Z</time>
    </trkpt>
    <trkpt lat="49.449191" lon="20.604322">
      <ele>1261</ele>
      <time>2026-05-07T10:33:55Z</time>
    </trkpt>
    <trkpt lat="49.4492388" lon="20.6042217">
      <ele>1261</ele>
      <time>2026-05-07T10:34:15Z</time>
    </trkpt>
    <trkpt lat="49.449191" lon="20.604322">
      <ele>1261</ele>
      <time>2026-05-07T10:34:21Z</time>
    </trkpt>
    <trkpt lat="49.449053" lon="20.604693">
      <ele>1260</ele>
      <time>2026-05-07T10:34:42Z</time>
    </trkpt>
    <trkpt lat="49.448906" lon="20.605172">
      <ele>1257</ele>
      <time>2026-05-07T10:35:08Z</time>
    </trkpt>
    <trkpt lat="49.448864" lon="20.60543">
      <ele>1255</ele>
      <time>2026-05-07T10:35:21Z</time>
    </trkpt>
    <trkpt lat="49.448767" lon="20.605768">
      <ele>1252</ele>
      <time>2026-05-07T10:35:39Z</time>
    </trkpt>
    <trkpt lat="49.448572" lon="20.606245">
      <ele>1248</ele>
      <time>2026-05-07T10:36:07Z</time>
    </trkpt>
    <trkpt lat="49.448466" lon="20.606486">
      <ele>1247</ele>
      <time>2026-05-07T10:36:21Z</time>
    </trkpt>
    <trkpt lat="49.448356" lon="20.606643">
      <ele>1247</ele>
      <time>2026-05-07T10:36:32Z</time>
    </trkpt>
    <trkpt lat="49.448277" lon="20.60675">
      <ele>1246</ele>
      <time>2026-05-07T10:36:40Z</time>
    </trkpt>
    <trkpt lat="49.448144" lon="20.606813">
      <ele>1244</ele>
      <time>2026-05-07T10:36:51Z</time>
    </trkpt>
    <trkpt lat="49.448028" lon="20.606861">
      <ele>1242</ele>
      <time>2026-05-07T10:37:00Z</time>
    </trkpt>
    <trkpt lat="49.447905" lon="20.606839">
      <ele>1239</ele>
      <time>2026-05-07T10:37:09Z</time>
    </trkpt>
    <trkpt lat="49.447804" lon="20.606777">
      <ele>1237</ele>
      <time>2026-05-07T10:37:18Z</time>
    </trkpt>
    <trkpt lat="49.447638" lon="20.606663">
      <ele>1232</ele>
      <time>2026-05-07T10:37:32Z</time>
    </trkpt>
    <trkpt lat="49.447325" lon="20.606497">
      <ele>1222</ele>
      <time>2026-05-07T10:37:58Z</time>
    </trkpt>
    <trkpt lat="49.447159" lon="20.606403">
      <ele>1215</ele>
      <time>2026-05-07T10:38:12Z</time>
    </trkpt>
    <trkpt lat="49.447101" lon="20.606342">
      <ele>1212</ele>
      <time>2026-05-07T10:38:17Z</time>
    </trkpt>
    <trkpt lat="49.447059" lon="20.606277">
      <ele>1210</ele>
      <time>2026-05-07T10:38:22Z</time>
    </trkpt>
    <trkpt lat="49.446944" lon="20.606191">
      <ele>1206</ele>
      <time>2026-05-07T10:38:32Z</time>
    </trkpt>
    <trkpt lat="49.446812" lon="20.606129">
      <ele>1201</ele>
      <time>2026-05-07T10:38:43Z</time>
    </trkpt>
    <trkpt lat="49.446583" lon="20.606042">
      <ele>1192</ele>
      <time>2026-05-07T10:39:02Z</time>
    </trkpt>
    <trkpt lat="49.446398" lon="20.605994">
      <ele>1184</ele>
      <time>2026-05-07T10:39:17Z</time>
    </trkpt>
    <trkpt lat="49.446281" lon="20.605962">
      <ele>1179</ele>
      <time>2026-05-07T10:39:26Z</time>
    </trkpt>
    <trkpt lat="49.446142" lon="20.605931">
      <ele>1173</ele>
      <time>2026-05-07T10:39:37Z</time>
    </trkpt>
    <trkpt lat="49.446032" lon="20.605899">
      <ele>1170</ele>
      <time>2026-05-07T10:39:46Z</time>
    </trkpt>
    <trkpt lat="49.445947" lon="20.605867">
      <ele>1167</ele>
      <time>2026-05-07T10:39:53Z</time>
    </trkpt>
    <trkpt lat="49.445868" lon="20.60584">
      <ele>1165</ele>
      <time>2026-05-07T10:39:59Z</time>
    </trkpt>
    <trkpt lat="49.44575" lon="20.605781">
      <ele>1162</ele>
      <time>2026-05-07T10:40:09Z</time>
    </trkpt>
    <trkpt lat="49.445647" lon="20.605741">
      <ele>1159</ele>
      <time>2026-05-07T10:40:17Z</time>
    </trkpt>
    <trkpt lat="49.445457" lon="20.60565">
      <ele>1155</ele>
      <time>2026-05-07T10:40:32Z</time>
    </trkpt>
    <trkpt lat="49.445275" lon="20.605535">
      <ele>1151</ele>
      <time>2026-05-07T10:40:47Z</time>
    </trkpt>
    <trkpt lat="49.445" lon="20.605408">
      <ele>1142</ele>
      <time>2026-05-07T10:41:10Z</time>
    </trkpt>
    <trkpt lat="49.444789" lon="20.605404">
      <ele>1139</ele>
      <time>2026-05-07T10:41:26Z</time>
    </trkpt>
    <trkpt lat="49.444646" lon="20.605406">
      <ele>1137</ele>
      <time>2026-05-07T10:41:37Z</time>
    </trkpt>
    <trkpt lat="49.444541" lon="20.605451">
      <ele>1136</ele>
      <time>2026-05-07T10:41:45Z</time>
    </trkpt>
    <trkpt lat="49.444458" lon="20.605451">
      <ele>1135</ele>
      <time>2026-05-07T10:41:51Z</time>
    </trkpt>
    <trkpt lat="49.444362" lon="20.6054">
      <ele>1134</ele>
      <time>2026-05-07T10:41:59Z</time>
    </trkpt>
    <trkpt lat="49.44429" lon="20.605387">
      <ele>1134</ele>
      <time>2026-05-07T10:42:04Z</time>
    </trkpt>
    <trkpt lat="49.444182" lon="20.605416">
      <ele>1132</ele>
      <time>2026-05-07T10:42:12Z</time>
    </trkpt>
    <trkpt lat="49.4441" lon="20.605457">
      <ele>1130</ele>
      <time>2026-05-07T10:42:19Z</time>
    </trkpt>
    <trkpt lat="49.444025" lon="20.605486">
      <ele>1128</ele>
      <time>2026-05-07T10:42:25Z</time>
    </trkpt>
    <trkpt lat="49.443896" lon="20.605505">
      <ele>1124</ele>
      <time>2026-05-07T10:42:35Z</time>
    </trkpt>
    <trkpt lat="49.443811" lon="20.605494">
      <ele>1121</ele>
      <time>2026-05-07T10:42:42Z</time>
    </trkpt>
    <trkpt lat="49.443704" lon="20.605491">
      <ele>1117</ele>
      <time>2026-05-07T10:42:50Z</time>
    </trkpt>
    <trkpt lat="49.443514" lon="20.605542">
      <ele>1110</ele>
      <time>2026-05-07T10:43:05Z</time>
    </trkpt>
    <trkpt lat="49.443442" lon="20.605569">
      <ele>1108</ele>
      <time>2026-05-07T10:43:11Z</time>
    </trkpt>
    <trkpt lat="49.443401" lon="20.605604">
      <ele>1106</ele>
      <time>2026-05-07T10:43:15Z</time>
    </trkpt>
    <trkpt lat="49.443323" lon="20.605578">
      <ele>1108</ele>
      <time>2026-05-07T10:43:25Z</time>
    </trkpt>
    <trkpt lat="49.443303" lon="20.605612">
      <ele>1107</ele>
      <time>2026-05-07T10:43:29Z</time>
    </trkpt>
    <trkpt lat="49.443275" lon="20.605639">
      <ele>1107</ele>
      <time>2026-05-07T10:43:33Z</time>
    </trkpt>
    <trkpt lat="49.443242" lon="20.605663">
      <ele>1107</ele>
      <time>2026-05-07T10:43:38Z</time>
    </trkpt>
    <trkpt lat="49.443107" lon="20.605741">
      <ele>1106</ele>
      <time>2026-05-07T10:43:56Z</time>
    </trkpt>
    <trkpt lat="49.443045" lon="20.605784">
      <ele>1107</ele>
      <time>2026-05-07T10:44:04Z</time>
    </trkpt>
    <trkpt lat="49.442973" lon="20.605853">
      <ele>1107</ele>
      <time>2026-05-07T10:44:15Z</time>
    </trkpt>
    <trkpt lat="49.442875" lon="20.60599">
      <ele>1109</ele>
      <time>2026-05-07T10:44:32Z</time>
    </trkpt>
    <trkpt lat="49.442787" lon="20.606124">
      <ele>1111</ele>
      <time>2026-05-07T10:44:48Z</time>
    </trkpt>
    <trkpt lat="49.442711" lon="20.606249">
      <ele>1113</ele>
      <time>2026-05-07T10:45:02Z</time>
    </trkpt>
    <trkpt lat="49.442689" lon="20.606305">
      <ele>1113</ele>
      <time>2026-05-07T10:45:07Z</time>
    </trkpt>
    <trkpt lat="49.442675" lon="20.60635">
      <ele>1113</ele>
      <time>2026-05-07T10:45:12Z</time>
    </trkpt>
    <trkpt lat="49.442671" lon="20.606392">
      <ele>1114</ele>
      <time>2026-05-07T10:45:15Z</time>
    </trkpt>
    <trkpt lat="49.442619" lon="20.606451">
      <ele>1113</ele>
      <time>2026-05-07T10:45:26Z</time>
    </trkpt>
    <trkpt lat="49.442459" lon="20.60661">
      <ele>1111</ele>
      <time>2026-05-07T10:45:57Z</time>
    </trkpt>
    <trkpt lat="49.442265" lon="20.606832">
      <ele>1110</ele>
      <time>2026-05-07T10:46:36Z</time>
    </trkpt>
    <trkpt lat="49.442107" lon="20.607034">
      <ele>1109</ele>
      <time>2026-05-07T10:47:09Z</time>
    </trkpt>
    <trkpt lat="49.442032" lon="20.607155">
      <ele>1109</ele>
      <time>2026-05-07T10:47:27Z</time>
    </trkpt>
    <trkpt lat="49.442004" lon="20.607211">
      <ele>1109</ele>
      <time>2026-05-07T10:47:34Z</time>
    </trkpt>
    <trkpt lat="49.441986" lon="20.607358">
      <ele>1111</ele>
      <time>2026-05-07T10:47:50Z</time>
    </trkpt>
    <trkpt lat="49.44195" lon="20.607487">
      <ele>1112</ele>
      <time>2026-05-07T10:48:05Z</time>
    </trkpt>
    <trkpt lat="49.441889" lon="20.607592">
      <ele>1112</ele>
      <time>2026-05-07T10:48:20Z</time>
    </trkpt>
    <trkpt lat="49.441807" lon="20.607688">
      <ele>1113</ele>
      <time>2026-05-07T10:48:37Z</time>
    </trkpt>
    <trkpt lat="49.441711" lon="20.607779">
      <ele>1116</ele>
      <time>2026-05-07T10:48:55Z</time>
    </trkpt>
    <trkpt lat="49.441552" lon="20.607946">
      <ele>1120</ele>
      <time>2026-05-07T10:49:27Z</time>
    </trkpt>
    <trkpt lat="49.44146" lon="20.60801">
      <ele>1123</ele>
      <time>2026-05-07T10:49:44Z</time>
    </trkpt>
    <trkpt lat="49.441337" lon="20.608048">
      <ele>1125</ele>
      <time>2026-05-07T10:50:05Z</time>
    </trkpt>
    <trkpt lat="49.441193" lon="20.60805">
      <ele>1127</ele>
      <time>2026-05-07T10:50:28Z</time>
    </trkpt>
    <trkpt lat="49.441092" lon="20.608093">
      <ele>1129</ele>
      <time>2026-05-07T10:50:46Z</time>
    </trkpt>
    <trkpt lat="49.440804" lon="20.608131">
      <ele>1132</ele>
      <time>2026-05-07T10:51:33Z</time>
    </trkpt>
    <trkpt lat="49.440612" lon="20.608176">
      <ele>1136</ele>
      <time>2026-05-07T10:52:05Z</time>
    </trkpt>
    <trkpt lat="49.440337" lon="20.608208">
      <ele>1140</ele>
      <time>2026-05-07T10:52:50Z</time>
    </trkpt>
    <trkpt lat="49.440244" lon="20.608222">
      <ele>1140</ele>
      <time>2026-05-07T10:53:05Z</time>
    </trkpt>
    <trkpt lat="49.440185" lon="20.608281">
      <ele>1140</ele>
      <time>2026-05-07T10:53:17Z</time>
    </trkpt>
    <trkpt lat="49.440049" lon="20.608503">
      <ele>1141</ele>
      <time>2026-05-07T10:53:49Z</time>
    </trkpt>
    <trkpt lat="49.439917" lon="20.608681">
      <ele>1142</ele>
      <time>2026-05-07T10:54:17Z</time>
    </trkpt>
    <trkpt lat="49.439557" lon="20.609123">
      <ele>1142</ele>
      <time>2026-05-07T10:55:32Z</time>
    </trkpt>
    <trkpt lat="49.439436" lon="20.609257">
      <ele>1142</ele>
      <time>2026-05-07T10:55:56Z</time>
    </trkpt>
    <trkpt lat="49.439172" lon="20.609705">
      <ele>1146</ele>
      <time>2026-05-07T10:57:00Z</time>
    </trkpt>
    <trkpt lat="49.439081" lon="20.609829">
      <ele>1146</ele>
      <time>2026-05-07T10:57:20Z</time>
    </trkpt>
    <trkpt lat="49.438985" lon="20.609944">
      <ele>1146</ele>
      <time>2026-05-07T10:57:40Z</time>
    </trkpt>
    <trkpt lat="49.438732" lon="20.61014">
      <ele>1143</ele>
      <time>2026-05-07T10:58:26Z</time>
    </trkpt>
    <trkpt lat="49.438445" lon="20.610385">
      <ele>1142</ele>
      <time>2026-05-07T10:59:19Z</time>
    </trkpt>
    <trkpt lat="49.438188" lon="20.610539">
      <ele>1142</ele>
      <time>2026-05-07T11:00:04Z</time>
    </trkpt>
    <trkpt lat="49.438128" lon="20.610585">
      <ele>1142</ele>
      <time>2026-05-07T11:00:15Z</time>
    </trkpt>
    <trkpt lat="49.438065" lon="20.610563">
      <ele>1141</ele>
      <time>2026-05-07T11:00:22Z</time>
    </trkpt>
    <trkpt lat="49.437929" lon="20.610484">
      <ele>1139</ele>
      <time>2026-05-07T11:00:37Z</time>
    </trkpt>
    <trkpt lat="49.437694" lon="20.6103">
      <ele>1136</ele>
      <time>2026-05-07T11:01:04Z</time>
    </trkpt>
    <trkpt lat="49.437428" lon="20.610092">
      <ele>1135</ele>
      <time>2026-05-07T11:01:35Z</time>
    </trkpt>
    <trkpt lat="49.436973" lon="20.609364">
      <ele>1147</ele>
      <time>2026-05-07T11:02:44Z</time>
    </trkpt>
    <trkpt lat="49.436758" lon="20.609149">
      <ele>1150</ele>
      <time>2026-05-07T11:03:11Z</time>
    </trkpt>
    <trkpt lat="49.43664" lon="20.609074">
      <ele>1151</ele>
      <time>2026-05-07T11:03:24Z</time>
    </trkpt>
    <trkpt lat="49.436506" lon="20.608907">
      <ele>1149</ele>
      <time>2026-05-07T11:03:42Z</time>
    </trkpt>
    <trkpt lat="49.436418" lon="20.608801">
      <ele>1149</ele>
      <time>2026-05-07T11:03:54Z</time>
    </trkpt>
    <trkpt lat="49.436338" lon="20.608672">
      <ele>1148</ele>
      <time>2026-05-07T11:04:06Z</time>
    </trkpt>
    <trkpt lat="49.436198" lon="20.60857">
      <ele>1147</ele>
      <time>2026-05-07T11:04:22Z</time>
    </trkpt>
    <trkpt lat="49.436105" lon="20.608526">
      <ele>1148</ele>
      <time>2026-05-07T11:04:32Z</time>
    </trkpt>
    <trkpt lat="49.436008" lon="20.608493">
      <ele>1148</ele>
      <time>2026-05-07T11:04:42Z</time>
    </trkpt>
    <trkpt lat="49.43589" lon="20.608492">
      <ele>1148</ele>
      <time>2026-05-07T11:04:55Z</time>
    </trkpt>
    <trkpt lat="49.435787" lon="20.60852">
      <ele>1149</ele>
      <time>2026-05-07T11:05:05Z</time>
    </trkpt>
    <trkpt lat="49.435566" lon="20.608432">
      <ele>1146</ele>
      <time>2026-05-07T11:05:29Z</time>
    </trkpt>
    <trkpt lat="49.435344" lon="20.608382">
      <ele>1143</ele>
      <time>2026-05-07T11:05:53Z</time>
    </trkpt>
    <trkpt lat="49.4352" lon="20.608314">
      <ele>1140</ele>
      <time>2026-05-07T11:06:09Z</time>
    </trkpt>
    <trkpt lat="49.434995" lon="20.608128">
      <ele>1134</ele>
      <time>2026-05-07T11:06:34Z</time>
    </trkpt>
    <trkpt lat="49.434837" lon="20.608013">
      <ele>1130</ele>
      <time>2026-05-07T11:06:52Z</time>
    </trkpt>
    <trkpt lat="49.434684" lon="20.607871">
      <ele>1124</ele>
      <time>2026-05-07T11:07:12Z</time>
    </trkpt>
    <trkpt lat="49.434628" lon="20.607771">
      <ele>1121</ele>
      <time>2026-05-07T11:07:21Z</time>
    </trkpt>
    <trkpt lat="49.434583" lon="20.607651">
      <ele>1118</ele>
      <time>2026-05-07T11:07:31Z</time>
    </trkpt>
    <trkpt lat="49.434565" lon="20.60753">
      <ele>1115</ele>
      <time>2026-05-07T11:07:40Z</time>
    </trkpt>
    <trkpt lat="49.434571" lon="20.607318">
      <ele>1110</ele>
      <time>2026-05-07T11:07:54Z</time>
    </trkpt>
    <trkpt lat="49.434601" lon="20.607173">
      <ele>1108</ele>
      <time>2026-05-07T11:08:05Z</time>
    </trkpt>
    <trkpt lat="49.434612" lon="20.607012">
      <ele>1105</ele>
      <time>2026-05-07T11:08:16Z</time>
    </trkpt>
    <trkpt lat="49.434601" lon="20.606941">
      <ele>1103</ele>
      <time>2026-05-07T11:08:21Z</time>
    </trkpt>
    <trkpt lat="49.43455" lon="20.606635">
      <ele>1098</ele>
      <time>2026-05-07T11:08:43Z</time>
    </trkpt>
    <trkpt lat="49.434457" lon="20.606351">
      <ele>1095</ele>
      <time>2026-05-07T11:09:05Z</time>
    </trkpt>
    <trkpt lat="49.434301" lon="20.606129">
      <ele>1093</ele>
      <time>2026-05-07T11:09:27Z</time>
    </trkpt>
    <trkpt lat="49.434139" lon="20.605957">
      <ele>1091</ele>
      <time>2026-05-07T11:09:47Z</time>
    </trkpt>
    <trkpt lat="49.433959" lon="20.605813">
      <ele>1088</ele>
      <time>2026-05-07T11:10:09Z</time>
    </trkpt>
    <trkpt lat="49.433847" lon="20.605629">
      <ele>1087</ele>
      <time>2026-05-07T11:10:26Z</time>
    </trkpt>
    <trkpt lat="49.433759" lon="20.60535">
      <ele>1087</ele>
      <time>2026-05-07T11:10:47Z</time>
    </trkpt>
    <trkpt lat="49.433679" lon="20.605155">
      <ele>1086</ele>
      <time>2026-05-07T11:11:02Z</time>
    </trkpt>
    <trkpt lat="49.433579" lon="20.605031">
      <ele>1085</ele>
      <time>2026-05-07T11:11:15Z</time>
    </trkpt>
    <trkpt lat="49.433503" lon="20.605008">
      <ele>1085</ele>
      <time>2026-05-07T11:11:24Z</time>
    </trkpt>
    <trkpt lat="49.433252" lon="20.605076">
      <ele>1084</ele>
      <time>2026-05-07T11:11:50Z</time>
    </trkpt>
    <trkpt lat="49.433112" lon="20.605103">
      <ele>1083</ele>
      <time>2026-05-07T11:12:05Z</time>
    </trkpt>
    <trkpt lat="49.432779" lon="20.605126">
      <ele>1079</ele>
      <time>2026-05-07T11:12:39Z</time>
    </trkpt>
    <trkpt lat="49.432446" lon="20.605148">
      <ele>1074</ele>
      <time>2026-05-07T11:13:14Z</time>
    </trkpt>
    <trkpt lat="49.432302" lon="20.605181">
      <ele>1072</ele>
      <time>2026-05-07T11:13:29Z</time>
    </trkpt>
    <trkpt lat="49.432157" lon="20.60526">
      <ele>1070</ele>
      <time>2026-05-07T11:13:45Z</time>
    </trkpt>
    <trkpt lat="49.432036" lon="20.605269">
      <ele>1068</ele>
      <time>2026-05-07T11:13:58Z</time>
    </trkpt>
    <trkpt lat="49.431911" lon="20.605288">
      <ele>1065</ele>
      <time>2026-05-07T11:14:11Z</time>
    </trkpt>
    <trkpt lat="49.431739" lon="20.605097">
      <ele>1061</ele>
      <time>2026-05-07T11:14:34Z</time>
    </trkpt>
    <trkpt lat="49.431659" lon="20.605113">
      <ele>1059</ele>
      <time>2026-05-07T11:14:42Z</time>
    </trkpt>
    <trkpt lat="49.431543" lon="20.605148">
      <ele>1057</ele>
      <time>2026-05-07T11:14:55Z</time>
    </trkpt>
    <trkpt lat="49.431434" lon="20.605172">
      <ele>1055</ele>
      <time>2026-05-07T11:15:06Z</time>
    </trkpt>
    <trkpt lat="49.431259" lon="20.605169">
      <ele>1052</ele>
      <time>2026-05-07T11:15:25Z</time>
    </trkpt>
    <trkpt lat="49.431031" lon="20.605102">
      <ele>1047</ele>
      <time>2026-05-07T11:15:49Z</time>
    </trkpt>
    <trkpt lat="49.430853" lon="20.60503">
      <ele>1043</ele>
      <time>2026-05-07T11:16:08Z</time>
    </trkpt>
    <trkpt lat="49.430593" lon="20.604932">
      <ele>1038</ele>
      <time>2026-05-07T11:16:37Z</time>
    </trkpt>
    <trkpt lat="49.430368" lon="20.604888">
      <ele>1033</ele>
      <time>2026-05-07T11:17:01Z</time>
    </trkpt>
    <trkpt lat="49.42982" lon="20.604874">
      <ele>1020</ele>
      <time>2026-05-07T11:17:59Z</time>
    </trkpt>
    <trkpt lat="49.429238" lon="20.604827">
      <ele>1011</ele>
      <time>2026-05-07T11:19:00Z</time>
    </trkpt>
    <trkpt lat="49.428645" lon="20.60483">
      <ele>1005</ele>
      <time>2026-05-07T11:20:01Z</time>
    </trkpt>
    <trkpt lat="49.428507" lon="20.604794">
      <ele>1004</ele>
      <time>2026-05-07T11:20:16Z</time>
    </trkpt>
    <trkpt lat="49.428371" lon="20.604762">
      <ele>1002</ele>
      <time>2026-05-07T11:20:30Z</time>
    </trkpt>
    <trkpt lat="49.42824" lon="20.604754">
      <ele>1001</ele>
      <time>2026-05-07T11:20:44Z</time>
    </trkpt>
    <trkpt lat="49.42789" lon="20.604939">
      <ele>996</ele>
      <time>2026-05-07T11:21:22Z</time>
    </trkpt>
    <trkpt lat="49.427447" lon="20.605289">
      <ele>991</ele>
      <time>2026-05-07T11:22:14Z</time>
    </trkpt>
    <trkpt lat="49.427231" lon="20.605458">
      <ele>990</ele>
      <time>2026-05-07T11:22:39Z</time>
    </trkpt>
    <trkpt lat="49.427118" lon="20.605553">
      <ele>989</ele>
      <time>2026-05-07T11:22:53Z</time>
    </trkpt>
    <trkpt lat="49.42704" lon="20.605653">
      <ele>988</ele>
      <time>2026-05-07T11:23:03Z</time>
    </trkpt>
    <trkpt lat="49.426986" lon="20.605856">
      <ele>986</ele>
      <time>2026-05-07T11:23:18Z</time>
    </trkpt>
    <trkpt lat="49.426912" lon="20.606041">
      <ele>984</ele>
      <time>2026-05-07T11:23:33Z</time>
    </trkpt>
    <trkpt lat="49.426867" lon="20.606225">
      <ele>982</ele>
      <time>2026-05-07T11:23:46Z</time>
    </trkpt>
    <trkpt lat="49.426809" lon="20.606399">
      <ele>980</ele>
      <time>2026-05-07T11:24:00Z</time>
    </trkpt>
    <trkpt lat="49.426767" lon="20.606452">
      <ele>979</ele>
      <time>2026-05-07T11:24:05Z</time>
    </trkpt>
    <trkpt lat="49.426676" lon="20.606478">
      <ele>978</ele>
      <time>2026-05-07T11:24:15Z</time>
    </trkpt>
    <trkpt lat="49.426523" lon="20.606446">
      <ele>975</ele>
      <time>2026-05-07T11:24:31Z</time>
    </trkpt>
    <trkpt lat="49.426384" lon="20.606464">
      <ele>972</ele>
      <time>2026-05-07T11:24:46Z</time>
    </trkpt>
    <trkpt lat="49.426255" lon="20.606446">
      <ele>970</ele>
      <time>2026-05-07T11:25:00Z</time>
    </trkpt>
    <trkpt lat="49.426111" lon="20.606409">
      <ele>967</ele>
      <time>2026-05-07T11:25:15Z</time>
    </trkpt>
    <trkpt lat="49.426057" lon="20.606738">
      <ele>964</ele>
      <time>2026-05-07T11:25:37Z</time>
    </trkpt>
    <trkpt lat="49.42603" lon="20.606875">
      <ele>962</ele>
      <time>2026-05-07T11:25:46Z</time>
    </trkpt>
    <trkpt lat="49.426016" lon="20.606993">
      <ele>961</ele>
      <time>2026-05-07T11:25:54Z</time>
    </trkpt>
    <trkpt lat="49.425986" lon="20.607112">
      <ele>959</ele>
      <time>2026-05-07T11:26:02Z</time>
    </trkpt>
    <trkpt lat="49.42596" lon="20.607203">
      <ele>958</ele>
      <time>2026-05-07T11:26:08Z</time>
    </trkpt>
    <trkpt lat="49.425921" lon="20.607372">
      <ele>956</ele>
      <time>2026-05-07T11:26:20Z</time>
    </trkpt>
    <trkpt lat="49.425873" lon="20.607624">
      <ele>954</ele>
      <time>2026-05-07T11:26:36Z</time>
    </trkpt>
    <trkpt lat="49.425805" lon="20.607852">
      <ele>950</ele>
      <time>2026-05-07T11:26:53Z</time>
    </trkpt>
    <trkpt lat="49.425744" lon="20.60802">
      <ele>946</ele>
      <time>2026-05-07T11:27:05Z</time>
    </trkpt>
    <trkpt lat="49.42567" lon="20.608176">
      <ele>943</ele>
      <time>2026-05-07T11:27:18Z</time>
    </trkpt>
    <trkpt lat="49.425569" lon="20.60831">
      <ele>939</ele>
      <time>2026-05-07T11:27:32Z</time>
    </trkpt>
    <trkpt lat="49.425515" lon="20.608415">
      <ele>938</ele>
      <time>2026-05-07T11:27:40Z</time>
    </trkpt>
    <trkpt lat="49.425466" lon="20.60852">
      <ele>938</ele>
      <time>2026-05-07T11:27:48Z</time>
    </trkpt>
    <trkpt lat="49.425428" lon="20.608683">
      <ele>938</ele>
      <time>2026-05-07T11:27:59Z</time>
    </trkpt>
    <trkpt lat="49.425386" lon="20.608917">
      <ele>940</ele>
      <time>2026-05-07T11:28:15Z</time>
    </trkpt>
    <trkpt lat="49.425345" lon="20.609062">
      <ele>941</ele>
      <time>2026-05-07T11:28:25Z</time>
    </trkpt>
    <trkpt lat="49.425307" lon="20.609182">
      <ele>942</ele>
      <time>2026-05-07T11:28:33Z</time>
    </trkpt>
    <trkpt lat="49.425239" lon="20.609292">
      <ele>942</ele>
      <time>2026-05-07T11:28:43Z</time>
    </trkpt>
    <trkpt lat="49.425176" lon="20.609423">
      <ele>943</ele>
      <time>2026-05-07T11:28:53Z</time>
    </trkpt>
    <trkpt lat="49.425139" lon="20.609511">
      <ele>943</ele>
      <time>2026-05-07T11:29:00Z</time>
    </trkpt>
    <trkpt lat="49.42508" lon="20.609646">
      <ele>943</ele>
      <time>2026-05-07T11:29:10Z</time>
    </trkpt>
    <trkpt lat="49.42494" lon="20.609947">
      <ele>942</ele>
      <time>2026-05-07T11:29:34Z</time>
    </trkpt>
    <trkpt lat="49.424825" lon="20.610147">
      <ele>941</ele>
      <time>2026-05-07T11:29:51Z</time>
    </trkpt>
    <trkpt lat="49.424614" lon="20.610412">
      <ele>940</ele>
      <time>2026-05-07T11:30:17Z</time>
    </trkpt>
    <trkpt lat="49.424416" lon="20.61072">
      <ele>941</ele>
      <time>2026-05-07T11:30:45Z</time>
    </trkpt>
    <trkpt lat="49.424222" lon="20.61096">
      <ele>942</ele>
      <time>2026-05-07T11:31:09Z</time>
    </trkpt>
    <trkpt lat="49.424043" lon="20.611128">
      <ele>942</ele>
      <time>2026-05-07T11:31:30Z</time>
    </trkpt>
    <trkpt lat="49.42386" lon="20.611273">
      <ele>943</ele>
      <time>2026-05-07T11:31:50Z</time>
    </trkpt>
    <trkpt lat="49.423678" lon="20.611446">
      <ele>943</ele>
      <time>2026-05-07T11:32:11Z</time>
    </trkpt>
    <trkpt lat="49.423437" lon="20.611714">
      <ele>943</ele>
      <time>2026-05-07T11:32:40Z</time>
    </trkpt>
    <trkpt lat="49.423261" lon="20.611891">
      <ele>944</ele>
      <time>2026-05-07T11:33:00Z</time>
    </trkpt>
    <trkpt lat="49.423047" lon="20.612316">
      <ele>946</ele>
      <time>2026-05-07T11:33:34Z</time>
    </trkpt>
    <trkpt lat="49.422836" lon="20.612587">
      <ele>944</ele>
      <time>2026-05-07T11:34:01Z</time>
    </trkpt>
    <trkpt lat="49.422668" lon="20.612828">
      <ele>942</ele>
      <time>2026-05-07T11:34:24Z</time>
    </trkpt>
    <trkpt lat="49.422527" lon="20.613031">
      <ele>940</ele>
      <time>2026-05-07T11:34:43Z</time>
    </trkpt>
    <trkpt lat="49.422373" lon="20.61338">
      <ele>939</ele>
      <time>2026-05-07T11:35:09Z</time>
    </trkpt>
    <trkpt lat="49.42223" lon="20.6137">
      <ele>937</ele>
      <time>2026-05-07T11:35:34Z</time>
    </trkpt>
    <trkpt lat="49.422073" lon="20.614004">
      <ele>933</ele>
      <time>2026-05-07T11:35:59Z</time>
    </trkpt>
    <trkpt lat="49.421958" lon="20.614196">
      <ele>932</ele>
      <time>2026-05-07T11:36:15Z</time>
    </trkpt>
    <trkpt lat="49.421845" lon="20.614368">
      <ele>931</ele>
      <time>2026-05-07T11:36:31Z</time>
    </trkpt>
    <trkpt lat="49.421753" lon="20.614505">
      <ele>932</ele>
      <time>2026-05-07T11:36:43Z</time>
    </trkpt>
    <trkpt lat="49.421609" lon="20.61467">
      <ele>932</ele>
      <time>2026-05-07T11:37:01Z</time>
    </trkpt>
    <trkpt lat="49.421559" lon="20.614766">
      <ele>932</ele>
      <time>2026-05-07T11:37:09Z</time>
    </trkpt>
    <trkpt lat="49.421471" lon="20.61493">
      <ele>932</ele>
      <time>2026-05-07T11:37:22Z</time>
    </trkpt>
    <trkpt lat="49.421338" lon="20.615156">
      <ele>932</ele>
      <time>2026-05-07T11:37:42Z</time>
    </trkpt>
    <trkpt lat="49.421194" lon="20.615372">
      <ele>932</ele>
      <time>2026-05-07T11:38:01Z</time>
    </trkpt>
    <trkpt lat="49.421101" lon="20.615518">
      <ele>932</ele>
      <time>2026-05-07T11:38:14Z</time>
    </trkpt>
    <trkpt lat="49.420984" lon="20.615723">
      <ele>931</ele>
      <time>2026-05-07T11:38:32Z</time>
    </trkpt>
    <trkpt lat="49.420898" lon="20.615874">
      <ele>931</ele>
      <time>2026-05-07T11:38:44Z</time>
    </trkpt>
    <trkpt lat="49.420836" lon="20.615955">
      <ele>931</ele>
      <time>2026-05-07T11:38:52Z</time>
    </trkpt>
    <trkpt lat="49.420737" lon="20.616048">
      <ele>931</ele>
      <time>2026-05-07T11:39:04Z</time>
    </trkpt>
    <trkpt lat="49.420639" lon="20.616119">
      <ele>930</ele>
      <time>2026-05-07T11:39:14Z</time>
    </trkpt>
    <trkpt lat="49.420626" lon="20.616129">
      <ele>930</ele>
      <time>2026-05-07T11:39:16Z</time>
    </trkpt>
    <trkpt lat="49.420577" lon="20.616196">
      <ele>930</ele>
      <time>2026-05-07T11:39:22Z</time>
    </trkpt>
    <trkpt lat="49.420509" lon="20.616333">
      <ele>930</ele>
      <time>2026-05-07T11:39:33Z</time>
    </trkpt>
    <trkpt lat="49.420434" lon="20.616547">
      <ele>930</ele>
      <time>2026-05-07T11:39:48Z</time>
    </trkpt>
    <trkpt lat="49.420279" lon="20.616894">
      <ele>929</ele>
      <time>2026-05-07T11:40:15Z</time>
    </trkpt>
    <trkpt lat="49.420291" lon="20.617006">
      <ele>929</ele>
      <time>2026-05-07T11:40:22Z</time>
    </trkpt>
    <trkpt lat="49.420269" lon="20.617125">
      <ele>928</ele>
      <time>2026-05-07T11:40:30Z</time>
    </trkpt>
    <trkpt lat="49.420169" lon="20.617409">
      <ele>925</ele>
      <time>2026-05-07T11:40:50Z</time>
    </trkpt>
    <trkpt lat="49.420089" lon="20.617639">
      <ele>924</ele>
      <time>2026-05-07T11:41:07Z</time>
    </trkpt>
    <trkpt lat="49.420011" lon="20.617865">
      <ele>922</ele>
      <time>2026-05-07T11:41:23Z</time>
    </trkpt>
    <trkpt lat="49.419941" lon="20.618068">
      <ele>921</ele>
      <time>2026-05-07T11:41:37Z</time>
    </trkpt>
    <trkpt lat="49.419806" lon="20.618468">
      <ele>919</ele>
      <time>2026-05-07T11:42:05Z</time>
    </trkpt>
    <trkpt lat="49.419751" lon="20.618638">
      <ele>918</ele>
      <time>2026-05-07T11:42:17Z</time>
    </trkpt>
    <trkpt lat="49.419715" lon="20.618728">
      <ele>917</ele>
      <time>2026-05-07T11:42:24Z</time>
    </trkpt>
    <trkpt lat="49.419686" lon="20.618785">
      <ele>917</ele>
      <time>2026-05-07T11:42:28Z</time>
    </trkpt>
    <trkpt lat="49.419655" lon="20.618836">
      <ele>917</ele>
      <time>2026-05-07T11:42:33Z</time>
    </trkpt>
    <trkpt lat="49.419607" lon="20.618904">
      <ele>917</ele>
      <time>2026-05-07T11:42:39Z</time>
    </trkpt>
    <trkpt lat="49.419534" lon="20.618992">
      <ele>917</ele>
      <time>2026-05-07T11:42:48Z</time>
    </trkpt>
    <trkpt lat="49.419513" lon="20.619033">
      <ele>918</ele>
      <time>2026-05-07T11:42:51Z</time>
    </trkpt>
    <trkpt lat="49.419489" lon="20.619091">
      <ele>918</ele>
      <time>2026-05-07T11:42:56Z</time>
    </trkpt>
    <trkpt lat="49.419464" lon="20.619187">
      <ele>918</ele>
      <time>2026-05-07T11:43:02Z</time>
    </trkpt>
    <trkpt lat="49.419451" lon="20.619316">
      <ele>918</ele>
      <time>2026-05-07T11:43:10Z</time>
    </trkpt>
    <trkpt lat="49.419446" lon="20.619416">
      <ele>918</ele>
      <time>2026-05-07T11:43:16Z</time>
    </trkpt>
    <trkpt lat="49.419436" lon="20.619499">
      <ele>918</ele>
      <time>2026-05-07T11:43:22Z</time>
    </trkpt>
    <trkpt lat="49.419407" lon="20.619631">
      <ele>918</ele>
      <time>2026-05-07T11:43:30Z</time>
    </trkpt>
    <trkpt lat="49.41933" lon="20.619851">
      <ele>917</ele>
      <time>2026-05-07T11:43:46Z</time>
    </trkpt>
    <trkpt lat="49.419263" lon="20.620044">
      <ele>916</ele>
      <time>2026-05-07T11:44:00Z</time>
    </trkpt>
    <trkpt lat="49.419213" lon="20.620217">
      <ele>915</ele>
      <time>2026-05-07T11:44:12Z</time>
    </trkpt>
    <trkpt lat="49.419201" lon="20.620295">
      <ele>915</ele>
      <time>2026-05-07T11:44:17Z</time>
    </trkpt>
    <trkpt lat="49.419191" lon="20.620379">
      <ele>914</ele>
      <time>2026-05-07T11:44:22Z</time>
    </trkpt>
    <trkpt lat="49.419181" lon="20.620428">
      <ele>914</ele>
      <time>2026-05-07T11:44:25Z</time>
    </trkpt>
    <trkpt lat="49.419171" lon="20.62047">
      <ele>914</ele>
      <time>2026-05-07T11:44:28Z</time>
    </trkpt>
    <trkpt lat="49.419114" lon="20.620571">
      <ele>913</ele>
      <time>2026-05-07T11:44:37Z</time>
    </trkpt>
    <trkpt lat="49.418996" lon="20.620746">
      <ele>911</ele>
      <time>2026-05-07T11:44:52Z</time>
    </trkpt>
    <trkpt lat="49.41883" lon="20.620999">
      <ele>908</ele>
      <time>2026-05-07T11:45:15Z</time>
    </trkpt>
  </trkseg>
</trk>
</gpx>