<?xml version="1.0" encoding="UTF-8"?><gpx creator="https://mapa-turystyczna.pl" xmlns="http://www.topografix.com/GPX/1/1" version="1.1" xmlns:xsi="http://www.w3.org/2001/XMLSchema-instance" xsi:schemaLocation="http://www.topografix.com/GPX/1/1 http://www.topografix.com/GPX/1/1/gpx.xsd">
  <metadata>
    <link href="https://mapa-turystyczna.pl">
      <text>mapa-turystyczna.pl</text>
    </link>
    <time>2026-05-07T08:43:17Z</time>
    <bounds maxlat="49.681685" maxlon="20.302203" minlat="49.653383" minlon="20.274896"/>
  </metadata>

<trk>
  <name>Przełęcz E. Rydza-Śmigłego – Przełęcz E. Rydza-Śmigłego</name>
  <link href="https://mapa-turystyczna.pl/route/tbcl">
    <text>Przełęcz E. Rydza-Śmigłego – Przełęcz E. Rydza-Śmigłego</text>
  </link>
  <trkseg>
    <trkpt lat="49.680884" lon="20.281703">
      <ele>696</ele>
      <time>2026-05-07T08:43:17Z</time>
    </trkpt>
    <trkpt lat="49.680761" lon="20.281738">
      <ele>694</ele>
      <time>2026-05-07T08:43:40Z</time>
    </trkpt>
    <trkpt lat="49.680586" lon="20.281766">
      <ele>695</ele>
      <time>2026-05-07T08:44:13Z</time>
    </trkpt>
    <trkpt lat="49.680404" lon="20.281767">
      <ele>696</ele>
      <time>2026-05-07T08:44:46Z</time>
    </trkpt>
    <trkpt lat="49.680317" lon="20.281764">
      <ele>696</ele>
      <time>2026-05-07T08:45:02Z</time>
    </trkpt>
    <trkpt lat="49.680229" lon="20.281714">
      <ele>696</ele>
      <time>2026-05-07T08:45:20Z</time>
    </trkpt>
    <trkpt lat="49.68019" lon="20.281687">
      <ele>695</ele>
      <time>2026-05-07T08:45:27Z</time>
    </trkpt>
    <trkpt lat="49.68014" lon="20.281626">
      <ele>695</ele>
      <time>2026-05-07T08:45:39Z</time>
    </trkpt>
    <trkpt lat="49.680084" lon="20.281553">
      <ele>695</ele>
      <time>2026-05-07T08:45:53Z</time>
    </trkpt>
    <trkpt lat="49.680023" lon="20.281448">
      <ele>695</ele>
      <time>2026-05-07T08:46:09Z</time>
    </trkpt>
    <trkpt lat="49.679952" lon="20.281363">
      <ele>695</ele>
      <time>2026-05-07T08:46:26Z</time>
    </trkpt>
    <trkpt lat="49.679832" lon="20.28126">
      <ele>695</ele>
      <time>2026-05-07T08:46:51Z</time>
    </trkpt>
    <trkpt lat="49.679775" lon="20.281216">
      <ele>695</ele>
      <time>2026-05-07T08:47:03Z</time>
    </trkpt>
    <trkpt lat="49.6797" lon="20.281184">
      <ele>696</ele>
      <time>2026-05-07T08:47:17Z</time>
    </trkpt>
    <trkpt lat="49.679697" lon="20.281186">
      <ele>696</ele>
      <time>2026-05-07T08:47:18Z</time>
    </trkpt>
    <trkpt lat="49.679618" lon="20.281161">
      <ele>698</ele>
      <time>2026-05-07T08:47:33Z</time>
    </trkpt>
    <trkpt lat="49.679594" lon="20.281161">
      <ele>698</ele>
      <time>2026-05-07T08:47:38Z</time>
    </trkpt>
    <trkpt lat="49.679428" lon="20.281128">
      <ele>703</ele>
      <time>2026-05-07T08:48:09Z</time>
    </trkpt>
    <trkpt lat="49.679054" lon="20.281157">
      <ele>716</ele>
      <time>2026-05-07T08:49:22Z</time>
    </trkpt>
    <trkpt lat="49.678816" lon="20.281191">
      <ele>720</ele>
      <time>2026-05-07T08:50:06Z</time>
    </trkpt>
    <trkpt lat="49.678594" lon="20.281191">
      <ele>722</ele>
      <time>2026-05-07T08:50:47Z</time>
    </trkpt>
    <trkpt lat="49.678274" lon="20.28109">
      <ele>729</ele>
      <time>2026-05-07T08:51:48Z</time>
    </trkpt>
    <trkpt lat="49.678087" lon="20.28099">
      <ele>730</ele>
      <time>2026-05-07T08:52:25Z</time>
    </trkpt>
    <trkpt lat="49.67793" lon="20.280923">
      <ele>730</ele>
      <time>2026-05-07T08:52:55Z</time>
    </trkpt>
    <trkpt lat="49.677827" lon="20.280906">
      <ele>730</ele>
      <time>2026-05-07T08:53:14Z</time>
    </trkpt>
    <trkpt lat="49.677698" lon="20.280914">
      <ele>730</ele>
      <time>2026-05-07T08:53:38Z</time>
    </trkpt>
    <trkpt lat="49.677622" lon="20.280977">
      <ele>729</ele>
      <time>2026-05-07T08:53:54Z</time>
    </trkpt>
    <trkpt lat="49.677556" lon="20.28109">
      <ele>729</ele>
      <time>2026-05-07T08:54:12Z</time>
    </trkpt>
    <trkpt lat="49.677493" lon="20.281178">
      <ele>730</ele>
      <time>2026-05-07T08:54:27Z</time>
    </trkpt>
    <trkpt lat="49.67739" lon="20.281291">
      <ele>729</ele>
      <time>2026-05-07T08:54:51Z</time>
    </trkpt>
    <trkpt lat="49.677226" lon="20.281427">
      <ele>730</ele>
      <time>2026-05-07T08:55:25Z</time>
    </trkpt>
    <trkpt lat="49.677142" lon="20.281498">
      <ele>730</ele>
      <time>2026-05-07T08:55:43Z</time>
    </trkpt>
    <trkpt lat="49.677102" lon="20.281521">
      <ele>729</ele>
      <time>2026-05-07T08:55:50Z</time>
    </trkpt>
    <trkpt lat="49.677003" lon="20.281538">
      <ele>728</ele>
      <time>2026-05-07T08:56:09Z</time>
    </trkpt>
    <trkpt lat="49.676888" lon="20.281523">
      <ele>725</ele>
      <time>2026-05-07T08:56:31Z</time>
    </trkpt>
    <trkpt lat="49.676756" lon="20.281484">
      <ele>722</ele>
      <time>2026-05-07T08:56:56Z</time>
    </trkpt>
    <trkpt lat="49.676636" lon="20.281484">
      <ele>721</ele>
      <time>2026-05-07T08:57:18Z</time>
    </trkpt>
    <trkpt lat="49.676497" lon="20.281576">
      <ele>720</ele>
      <time>2026-05-07T08:57:46Z</time>
    </trkpt>
    <trkpt lat="49.676267" lon="20.281758">
      <ele>719</ele>
      <time>2026-05-07T08:58:34Z</time>
    </trkpt>
    <trkpt lat="49.67603" lon="20.28197">
      <ele>720</ele>
      <time>2026-05-07T08:59:24Z</time>
    </trkpt>
    <trkpt lat="49.675623" lon="20.282488">
      <ele>728</ele>
      <time>2026-05-07T09:01:02Z</time>
    </trkpt>
    <trkpt lat="49.675488" lon="20.282559">
      <ele>730</ele>
      <time>2026-05-07T09:01:29Z</time>
    </trkpt>
    <trkpt lat="49.675308" lon="20.282578">
      <ele>732</ele>
      <time>2026-05-07T09:02:02Z</time>
    </trkpt>
    <trkpt lat="49.67504" lon="20.282633">
      <ele>736</ele>
      <time>2026-05-07T09:02:52Z</time>
    </trkpt>
    <trkpt lat="49.674858" lon="20.282797">
      <ele>738</ele>
      <time>2026-05-07T09:03:31Z</time>
    </trkpt>
    <trkpt lat="49.674732" lon="20.283065">
      <ele>741</ele>
      <time>2026-05-07T09:04:11Z</time>
    </trkpt>
    <trkpt lat="49.674617" lon="20.283147">
      <ele>743</ele>
      <time>2026-05-07T09:04:35Z</time>
    </trkpt>
    <trkpt lat="49.674431" lon="20.283095">
      <ele>744</ele>
      <time>2026-05-07T09:05:10Z</time>
    </trkpt>
    <trkpt lat="49.674247" lon="20.283033">
      <ele>745</ele>
      <time>2026-05-07T09:05:44Z</time>
    </trkpt>
    <trkpt lat="49.67412" lon="20.282991">
      <ele>746</ele>
      <time>2026-05-07T09:06:08Z</time>
    </trkpt>
    <trkpt lat="49.674016" lon="20.282959">
      <ele>747</ele>
      <time>2026-05-07T09:06:28Z</time>
    </trkpt>
    <trkpt lat="49.673968" lon="20.282943">
      <ele>747</ele>
      <time>2026-05-07T09:06:37Z</time>
    </trkpt>
    <trkpt lat="49.673916" lon="20.282938">
      <ele>748</ele>
      <time>2026-05-07T09:06:47Z</time>
    </trkpt>
    <trkpt lat="49.67384" lon="20.282925">
      <ele>749</ele>
      <time>2026-05-07T09:07:01Z</time>
    </trkpt>
    <trkpt lat="49.673748" lon="20.282909">
      <ele>751</ele>
      <time>2026-05-07T09:07:18Z</time>
    </trkpt>
    <trkpt lat="49.673673" lon="20.282896">
      <ele>752</ele>
      <time>2026-05-07T09:07:32Z</time>
    </trkpt>
    <trkpt lat="49.67359" lon="20.282874">
      <ele>753</ele>
      <time>2026-05-07T09:07:48Z</time>
    </trkpt>
    <trkpt lat="49.673515" lon="20.282864">
      <ele>754</ele>
      <time>2026-05-07T09:08:02Z</time>
    </trkpt>
    <trkpt lat="49.67346" lon="20.28286">
      <ele>755</ele>
      <time>2026-05-07T09:08:12Z</time>
    </trkpt>
    <trkpt lat="49.673304" lon="20.282843">
      <ele>758</ele>
      <time>2026-05-07T09:08:41Z</time>
    </trkpt>
    <trkpt lat="49.673248" lon="20.282834">
      <ele>759</ele>
      <time>2026-05-07T09:08:52Z</time>
    </trkpt>
    <trkpt lat="49.673147" lon="20.282799">
      <ele>762</ele>
      <time>2026-05-07T09:09:11Z</time>
    </trkpt>
    <trkpt lat="49.67309" lon="20.282786">
      <ele>763</ele>
      <time>2026-05-07T09:09:22Z</time>
    </trkpt>
    <trkpt lat="49.673056" lon="20.282782">
      <ele>764</ele>
      <time>2026-05-07T09:09:29Z</time>
    </trkpt>
    <trkpt lat="49.673012" lon="20.28278">
      <ele>765</ele>
      <time>2026-05-07T09:09:37Z</time>
    </trkpt>
    <trkpt lat="49.672973" lon="20.282777">
      <ele>766</ele>
      <time>2026-05-07T09:09:44Z</time>
    </trkpt>
    <trkpt lat="49.672846" lon="20.282788">
      <ele>770</ele>
      <time>2026-05-07T09:10:09Z</time>
    </trkpt>
    <trkpt lat="49.672722" lon="20.282801">
      <ele>773</ele>
      <time>2026-05-07T09:10:32Z</time>
    </trkpt>
    <trkpt lat="49.672608" lon="20.282823">
      <ele>775</ele>
      <time>2026-05-07T09:10:53Z</time>
    </trkpt>
    <trkpt lat="49.6725" lon="20.282861">
      <ele>777</ele>
      <time>2026-05-07T09:11:14Z</time>
    </trkpt>
    <trkpt lat="49.672388" lon="20.28291">
      <ele>778</ele>
      <time>2026-05-07T09:11:36Z</time>
    </trkpt>
    <trkpt lat="49.672302" lon="20.282959">
      <ele>778</ele>
      <time>2026-05-07T09:11:52Z</time>
    </trkpt>
    <trkpt lat="49.672239" lon="20.282987">
      <ele>779</ele>
      <time>2026-05-07T09:12:05Z</time>
    </trkpt>
    <trkpt lat="49.672197" lon="20.282999">
      <ele>779</ele>
      <time>2026-05-07T09:12:12Z</time>
    </trkpt>
    <trkpt lat="49.672166" lon="20.283003">
      <ele>780</ele>
      <time>2026-05-07T09:12:18Z</time>
    </trkpt>
    <trkpt lat="49.672125" lon="20.283006">
      <ele>780</ele>
      <time>2026-05-07T09:12:26Z</time>
    </trkpt>
    <trkpt lat="49.672086" lon="20.282999">
      <ele>780</ele>
      <time>2026-05-07T09:12:33Z</time>
    </trkpt>
    <trkpt lat="49.672045" lon="20.282984">
      <ele>781</ele>
      <time>2026-05-07T09:12:41Z</time>
    </trkpt>
    <trkpt lat="49.672009" lon="20.282966">
      <ele>781</ele>
      <time>2026-05-07T09:12:48Z</time>
    </trkpt>
    <trkpt lat="49.671959" lon="20.282934">
      <ele>782</ele>
      <time>2026-05-07T09:12:58Z</time>
    </trkpt>
    <trkpt lat="49.671894" lon="20.282866">
      <ele>784</ele>
      <time>2026-05-07T09:13:13Z</time>
    </trkpt>
    <trkpt lat="49.671814" lon="20.28278">
      <ele>786</ele>
      <time>2026-05-07T09:13:31Z</time>
    </trkpt>
    <trkpt lat="49.67173" lon="20.282693">
      <ele>789</ele>
      <time>2026-05-07T09:13:50Z</time>
    </trkpt>
    <trkpt lat="49.671687" lon="20.282637">
      <ele>791</ele>
      <time>2026-05-07T09:14:01Z</time>
    </trkpt>
    <trkpt lat="49.671554" lon="20.282524">
      <ele>794</ele>
      <time>2026-05-07T09:14:29Z</time>
    </trkpt>
    <trkpt lat="49.671446" lon="20.282425">
      <ele>795</ele>
      <time>2026-05-07T09:14:52Z</time>
    </trkpt>
    <trkpt lat="49.671409" lon="20.282391">
      <ele>795</ele>
      <time>2026-05-07T09:15:00Z</time>
    </trkpt>
    <trkpt lat="49.671359" lon="20.282341">
      <ele>795</ele>
      <time>2026-05-07T09:15:11Z</time>
    </trkpt>
    <trkpt lat="49.671332" lon="20.282313">
      <ele>795</ele>
      <time>2026-05-07T09:15:17Z</time>
    </trkpt>
    <trkpt lat="49.671232" lon="20.28223">
      <ele>796</ele>
      <time>2026-05-07T09:15:38Z</time>
    </trkpt>
    <trkpt lat="49.6712" lon="20.282209">
      <ele>796</ele>
      <time>2026-05-07T09:15:45Z</time>
    </trkpt>
    <trkpt lat="49.671169" lon="20.282192">
      <ele>795</ele>
      <time>2026-05-07T09:15:51Z</time>
    </trkpt>
    <trkpt lat="49.671126" lon="20.282177">
      <ele>795</ele>
      <time>2026-05-07T09:15:59Z</time>
    </trkpt>
    <trkpt lat="49.67109" lon="20.282174">
      <ele>796</ele>
      <time>2026-05-07T09:16:06Z</time>
    </trkpt>
    <trkpt lat="49.671055" lon="20.282175">
      <ele>796</ele>
      <time>2026-05-07T09:16:12Z</time>
    </trkpt>
    <trkpt lat="49.671027" lon="20.282178">
      <ele>796</ele>
      <time>2026-05-07T09:16:17Z</time>
    </trkpt>
    <trkpt lat="49.671003" lon="20.282187">
      <ele>796</ele>
      <time>2026-05-07T09:16:22Z</time>
    </trkpt>
    <trkpt lat="49.670944" lon="20.282209">
      <ele>797</ele>
      <time>2026-05-07T09:16:33Z</time>
    </trkpt>
    <trkpt lat="49.670918" lon="20.282218">
      <ele>797</ele>
      <time>2026-05-07T09:16:38Z</time>
    </trkpt>
    <trkpt lat="49.670894" lon="20.282233">
      <ele>798</ele>
      <time>2026-05-07T09:16:43Z</time>
    </trkpt>
    <trkpt lat="49.67081" lon="20.282258">
      <ele>798</ele>
      <time>2026-05-07T09:16:58Z</time>
    </trkpt>
    <trkpt lat="49.670745" lon="20.282297">
      <ele>798</ele>
      <time>2026-05-07T09:17:11Z</time>
    </trkpt>
    <trkpt lat="49.67073" lon="20.28232">
      <ele>799</ele>
      <time>2026-05-07T09:17:15Z</time>
    </trkpt>
    <trkpt lat="49.670668" lon="20.282366">
      <ele>799</ele>
      <time>2026-05-07T09:17:28Z</time>
    </trkpt>
    <trkpt lat="49.670606" lon="20.282409">
      <ele>799</ele>
      <time>2026-05-07T09:17:40Z</time>
    </trkpt>
    <trkpt lat="49.670566" lon="20.282435">
      <ele>800</ele>
      <time>2026-05-07T09:17:48Z</time>
    </trkpt>
    <trkpt lat="49.670518" lon="20.282452">
      <ele>800</ele>
      <time>2026-05-07T09:17:58Z</time>
    </trkpt>
    <trkpt lat="49.670439" lon="20.282475">
      <ele>802</ele>
      <time>2026-05-07T09:18:13Z</time>
    </trkpt>
    <trkpt lat="49.67038" lon="20.282486">
      <ele>803</ele>
      <time>2026-05-07T09:18:24Z</time>
    </trkpt>
    <trkpt lat="49.670253" lon="20.282476">
      <ele>805</ele>
      <time>2026-05-07T09:18:47Z</time>
    </trkpt>
    <trkpt lat="49.670157" lon="20.282468">
      <ele>806</ele>
      <time>2026-05-07T09:19:05Z</time>
    </trkpt>
    <trkpt lat="49.670045" lon="20.282469">
      <ele>807</ele>
      <time>2026-05-07T09:19:26Z</time>
    </trkpt>
    <trkpt lat="49.669979" lon="20.282469">
      <ele>807</ele>
      <time>2026-05-07T09:19:38Z</time>
    </trkpt>
    <trkpt lat="49.669931" lon="20.282465">
      <ele>807</ele>
      <time>2026-05-07T09:19:47Z</time>
    </trkpt>
    <trkpt lat="49.66988" lon="20.282455">
      <ele>807</ele>
      <time>2026-05-07T09:19:56Z</time>
    </trkpt>
    <trkpt lat="49.66982" lon="20.282436">
      <ele>807</ele>
      <time>2026-05-07T09:20:08Z</time>
    </trkpt>
    <trkpt lat="49.669763" lon="20.282409">
      <ele>807</ele>
      <time>2026-05-07T09:20:19Z</time>
    </trkpt>
    <trkpt lat="49.669668" lon="20.282349">
      <ele>806</ele>
      <time>2026-05-07T09:20:37Z</time>
    </trkpt>
    <trkpt lat="49.669574" lon="20.282289">
      <ele>806</ele>
      <time>2026-05-07T09:20:56Z</time>
    </trkpt>
    <trkpt lat="49.669514" lon="20.282256">
      <ele>806</ele>
      <time>2026-05-07T09:21:08Z</time>
    </trkpt>
    <trkpt lat="49.669447" lon="20.282228">
      <ele>806</ele>
      <time>2026-05-07T09:21:21Z</time>
    </trkpt>
    <trkpt lat="49.669381" lon="20.282208">
      <ele>807</ele>
      <time>2026-05-07T09:21:33Z</time>
    </trkpt>
    <trkpt lat="49.669322" lon="20.282205">
      <ele>807</ele>
      <time>2026-05-07T09:21:44Z</time>
    </trkpt>
    <trkpt lat="49.669282" lon="20.282208">
      <ele>807</ele>
      <time>2026-05-07T09:21:51Z</time>
    </trkpt>
    <trkpt lat="49.669205" lon="20.282226">
      <ele>808</ele>
      <time>2026-05-07T09:22:06Z</time>
    </trkpt>
    <trkpt lat="49.669141" lon="20.282253">
      <ele>808</ele>
      <time>2026-05-07T09:22:18Z</time>
    </trkpt>
    <trkpt lat="49.669089" lon="20.282281">
      <ele>807</ele>
      <time>2026-05-07T09:22:28Z</time>
    </trkpt>
    <trkpt lat="49.669035" lon="20.282308">
      <ele>807</ele>
      <time>2026-05-07T09:22:39Z</time>
    </trkpt>
    <trkpt lat="49.669003" lon="20.282312">
      <ele>807</ele>
      <time>2026-05-07T09:22:45Z</time>
    </trkpt>
    <trkpt lat="49.668944" lon="20.282317">
      <ele>807</ele>
      <time>2026-05-07T09:22:55Z</time>
    </trkpt>
    <trkpt lat="49.668874" lon="20.282304">
      <ele>807</ele>
      <time>2026-05-07T09:23:08Z</time>
    </trkpt>
    <trkpt lat="49.668765" lon="20.28228">
      <ele>807</ele>
      <time>2026-05-07T09:23:29Z</time>
    </trkpt>
    <trkpt lat="49.668604" lon="20.282261">
      <ele>807</ele>
      <time>2026-05-07T09:23:58Z</time>
    </trkpt>
    <trkpt lat="49.668416" lon="20.282227">
      <ele>807</ele>
      <time>2026-05-07T09:24:33Z</time>
    </trkpt>
    <trkpt lat="49.66834" lon="20.282216">
      <ele>807</ele>
      <time>2026-05-07T09:24:47Z</time>
    </trkpt>
    <trkpt lat="49.66824" lon="20.282181">
      <ele>809</ele>
      <time>2026-05-07T09:25:07Z</time>
    </trkpt>
    <trkpt lat="49.668154" lon="20.282136">
      <ele>811</ele>
      <time>2026-05-07T09:25:24Z</time>
    </trkpt>
    <trkpt lat="49.668024" lon="20.282041">
      <ele>813</ele>
      <time>2026-05-07T09:25:50Z</time>
    </trkpt>
    <trkpt lat="49.667891" lon="20.281945">
      <ele>816</ele>
      <time>2026-05-07T09:26:18Z</time>
    </trkpt>
    <trkpt lat="49.66748" lon="20.28168">
      <ele>827</ele>
      <time>2026-05-07T09:27:42Z</time>
    </trkpt>
    <trkpt lat="49.667268" lon="20.281512">
      <ele>831</ele>
      <time>2026-05-07T09:28:26Z</time>
    </trkpt>
    <trkpt lat="49.667039" lon="20.28134">
      <ele>833</ele>
      <time>2026-05-07T09:29:13Z</time>
    </trkpt>
    <trkpt lat="49.666867" lon="20.281195">
      <ele>835</ele>
      <time>2026-05-07T09:29:49Z</time>
    </trkpt>
    <trkpt lat="49.666816" lon="20.281181">
      <ele>835</ele>
      <time>2026-05-07T09:29:59Z</time>
    </trkpt>
    <trkpt lat="49.666737" lon="20.281181">
      <ele>836</ele>
      <time>2026-05-07T09:30:14Z</time>
    </trkpt>
    <trkpt lat="49.666642" lon="20.281173">
      <ele>837</ele>
      <time>2026-05-07T09:30:31Z</time>
    </trkpt>
    <trkpt lat="49.666554" lon="20.281147">
      <ele>839</ele>
      <time>2026-05-07T09:30:48Z</time>
    </trkpt>
    <trkpt lat="49.666381" lon="20.281085">
      <ele>842</ele>
      <time>2026-05-07T09:31:21Z</time>
    </trkpt>
    <trkpt lat="49.66614" lon="20.280916">
      <ele>845</ele>
      <time>2026-05-07T09:32:10Z</time>
    </trkpt>
    <trkpt lat="49.666083" lon="20.280893">
      <ele>846</ele>
      <time>2026-05-07T09:32:21Z</time>
    </trkpt>
    <trkpt lat="49.666049" lon="20.280884">
      <ele>848</ele>
      <time>2026-05-07T09:32:28Z</time>
    </trkpt>
    <trkpt lat="49.665978" lon="20.280891">
      <ele>850</ele>
      <time>2026-05-07T09:32:41Z</time>
    </trkpt>
    <trkpt lat="49.66591" lon="20.280912">
      <ele>851</ele>
      <time>2026-05-07T09:32:54Z</time>
    </trkpt>
    <trkpt lat="49.66583" lon="20.28096">
      <ele>854</ele>
      <time>2026-05-07T09:33:11Z</time>
    </trkpt>
    <trkpt lat="49.665764" lon="20.281055">
      <ele>856</ele>
      <time>2026-05-07T09:33:28Z</time>
    </trkpt>
    <trkpt lat="49.665698" lon="20.281182">
      <ele>858</ele>
      <time>2026-05-07T09:33:48Z</time>
    </trkpt>
    <trkpt lat="49.665651" lon="20.281244">
      <ele>860</ele>
      <time>2026-05-07T09:33:59Z</time>
    </trkpt>
    <trkpt lat="49.665569" lon="20.28128">
      <ele>863</ele>
      <time>2026-05-07T09:34:16Z</time>
    </trkpt>
    <trkpt lat="49.665341" lon="20.281409">
      <ele>869</ele>
      <time>2026-05-07T09:35:02Z</time>
    </trkpt>
    <trkpt lat="49.665031" lon="20.281588">
      <ele>876</ele>
      <time>2026-05-07T09:36:04Z</time>
    </trkpt>
    <trkpt lat="49.664701" lon="20.281702">
      <ele>885</ele>
      <time>2026-05-07T09:37:08Z</time>
    </trkpt>
    <trkpt lat="49.664603" lon="20.281772">
      <ele>886</ele>
      <time>2026-05-07T09:37:27Z</time>
    </trkpt>
    <trkpt lat="49.664527" lon="20.281774">
      <ele>887</ele>
      <time>2026-05-07T09:37:42Z</time>
    </trkpt>
    <trkpt lat="49.66426" lon="20.281774">
      <ele>891</ele>
      <time>2026-05-07T09:38:31Z</time>
    </trkpt>
    <trkpt lat="49.664189" lon="20.281805">
      <ele>891</ele>
      <time>2026-05-07T09:38:45Z</time>
    </trkpt>
    <trkpt lat="49.664114" lon="20.281878">
      <ele>891</ele>
      <time>2026-05-07T09:39:01Z</time>
    </trkpt>
    <trkpt lat="49.663994" lon="20.28206">
      <ele>891</ele>
      <time>2026-05-07T09:39:32Z</time>
    </trkpt>
    <trkpt lat="49.663681" lon="20.28254">
      <ele>900</ele>
      <time>2026-05-07T09:40:55Z</time>
    </trkpt>
    <trkpt lat="49.663511" lon="20.282834">
      <ele>908</ele>
      <time>2026-05-07T09:41:44Z</time>
    </trkpt>
    <trkpt lat="49.663417" lon="20.282971">
      <ele>914</ele>
      <time>2026-05-07T09:42:09Z</time>
    </trkpt>
    <trkpt lat="49.663339" lon="20.283143">
      <ele>918</ele>
      <time>2026-05-07T09:42:35Z</time>
    </trkpt>
    <trkpt lat="49.663287" lon="20.283281">
      <ele>919</ele>
      <time>2026-05-07T09:42:54Z</time>
    </trkpt>
    <trkpt lat="49.663206" lon="20.283468">
      <ele>919</ele>
      <time>2026-05-07T09:43:21Z</time>
    </trkpt>
    <trkpt lat="49.663137" lon="20.283556">
      <ele>920</ele>
      <time>2026-05-07T09:43:38Z</time>
    </trkpt>
    <trkpt lat="49.663075" lon="20.283626">
      <ele>920</ele>
      <time>2026-05-07T09:43:52Z</time>
    </trkpt>
    <trkpt lat="49.663023" lon="20.283644">
      <ele>921</ele>
      <time>2026-05-07T09:44:02Z</time>
    </trkpt>
    <trkpt lat="49.662959" lon="20.283611">
      <ele>922</ele>
      <time>2026-05-07T09:44:14Z</time>
    </trkpt>
    <trkpt lat="49.662912" lon="20.283547">
      <ele>923</ele>
      <time>2026-05-07T09:44:26Z</time>
    </trkpt>
    <trkpt lat="49.662856" lon="20.283439">
      <ele>925</ele>
      <time>2026-05-07T09:44:43Z</time>
    </trkpt>
    <trkpt lat="49.66281" lon="20.283332">
      <ele>927</ele>
      <time>2026-05-07T09:44:58Z</time>
    </trkpt>
    <trkpt lat="49.662736" lon="20.283109">
      <ele>930</ele>
      <time>2026-05-07T09:45:29Z</time>
    </trkpt>
    <trkpt lat="49.662643" lon="20.282776">
      <ele>934</ele>
      <time>2026-05-07T09:46:13Z</time>
    </trkpt>
    <trkpt lat="49.66264" lon="20.282679">
      <ele>935</ele>
      <time>2026-05-07T09:46:24Z</time>
    </trkpt>
    <trkpt lat="49.662634" lon="20.28243">
      <ele>939</ele>
      <time>2026-05-07T09:46:55Z</time>
    </trkpt>
    <trkpt lat="49.662611" lon="20.282234">
      <ele>943</ele>
      <time>2026-05-07T09:47:19Z</time>
    </trkpt>
    <trkpt lat="49.662573" lon="20.282073">
      <ele>946</ele>
      <time>2026-05-07T09:47:40Z</time>
    </trkpt>
    <trkpt lat="49.662502" lon="20.28188">
      <ele>949</ele>
      <time>2026-05-07T09:48:07Z</time>
    </trkpt>
    <trkpt lat="49.662481" lon="20.281693">
      <ele>952</ele>
      <time>2026-05-07T09:48:30Z</time>
    </trkpt>
    <trkpt lat="49.662421" lon="20.281411">
      <ele>955</ele>
      <time>2026-05-07T09:49:06Z</time>
    </trkpt>
    <trkpt lat="49.662349" lon="20.280988">
      <ele>965</ele>
      <time>2026-05-07T09:50:01Z</time>
    </trkpt>
    <trkpt lat="49.662295" lon="20.280582">
      <ele>975</ele>
      <time>2026-05-07T09:50:53Z</time>
    </trkpt>
    <trkpt lat="49.662223" lon="20.280245">
      <ele>987</ele>
      <time>2026-05-07T09:51:40Z</time>
    </trkpt>
    <trkpt lat="49.662154" lon="20.279981">
      <ele>996</ele>
      <time>2026-05-07T09:52:17Z</time>
    </trkpt>
    <trkpt lat="49.662093" lon="20.279776">
      <ele>1003</ele>
      <time>2026-05-07T09:52:46Z</time>
    </trkpt>
    <trkpt lat="49.662039" lon="20.279596">
      <ele>1007</ele>
      <time>2026-05-07T09:53:11Z</time>
    </trkpt>
    <trkpt lat="49.662005" lon="20.279426">
      <ele>1010</ele>
      <time>2026-05-07T09:53:32Z</time>
    </trkpt>
    <trkpt lat="49.662008" lon="20.27928">
      <ele>1013</ele>
      <time>2026-05-07T09:53:51Z</time>
    </trkpt>
    <trkpt lat="49.662018" lon="20.279111">
      <ele>1017</ele>
      <time>2026-05-07T09:54:12Z</time>
    </trkpt>
    <trkpt lat="49.662008" lon="20.278977">
      <ele>1020</ele>
      <time>2026-05-07T09:54:28Z</time>
    </trkpt>
    <trkpt lat="49.661951" lon="20.278747">
      <ele>1025</ele>
      <time>2026-05-07T09:54:59Z</time>
    </trkpt>
    <trkpt lat="49.661908" lon="20.278565">
      <ele>1029</ele>
      <time>2026-05-07T09:55:23Z</time>
    </trkpt>
    <trkpt lat="49.661893" lon="20.278462">
      <ele>1031</ele>
      <time>2026-05-07T09:55:36Z</time>
    </trkpt>
    <trkpt lat="49.661858" lon="20.278395">
      <ele>1033</ele>
      <time>2026-05-07T09:55:47Z</time>
    </trkpt>
    <trkpt lat="49.661807" lon="20.278315">
      <ele>1035</ele>
      <time>2026-05-07T09:56:01Z</time>
    </trkpt>
    <trkpt lat="49.661793" lon="20.278245">
      <ele>1037</ele>
      <time>2026-05-07T09:56:10Z</time>
    </trkpt>
    <trkpt lat="49.661789" lon="20.278153">
      <ele>1039</ele>
      <time>2026-05-07T09:56:21Z</time>
    </trkpt>
    <trkpt lat="49.661798" lon="20.277957">
      <ele>1041</ele>
      <time>2026-05-07T09:56:45Z</time>
    </trkpt>
    <trkpt lat="49.661755" lon="20.277766">
      <ele>1043</ele>
      <time>2026-05-07T09:57:09Z</time>
    </trkpt>
    <trkpt lat="49.661755" lon="20.277593">
      <ele>1043</ele>
      <time>2026-05-07T09:57:30Z</time>
    </trkpt>
    <trkpt lat="49.661756" lon="20.277482">
      <ele>1043</ele>
      <time>2026-05-07T09:57:43Z</time>
    </trkpt>
    <trkpt lat="49.661712" lon="20.27734">
      <ele>1045</ele>
      <time>2026-05-07T09:58:02Z</time>
    </trkpt>
    <trkpt lat="49.661622" lon="20.277196">
      <ele>1047</ele>
      <time>2026-05-07T09:58:26Z</time>
    </trkpt>
    <trkpt lat="49.661514" lon="20.277054">
      <ele>1051</ele>
      <time>2026-05-07T09:58:53Z</time>
    </trkpt>
    <trkpt lat="49.661444" lon="20.276897">
      <ele>1054</ele>
      <time>2026-05-07T09:59:17Z</time>
    </trkpt>
    <trkpt lat="49.661393" lon="20.27676">
      <ele>1056</ele>
      <time>2026-05-07T09:59:36Z</time>
    </trkpt>
    <trkpt lat="49.66135" lon="20.27664">
      <ele>1057</ele>
      <time>2026-05-07T09:59:52Z</time>
    </trkpt>
    <trkpt lat="49.661304" lon="20.276526">
      <ele>1058</ele>
      <time>2026-05-07T10:00:08Z</time>
    </trkpt>
    <trkpt lat="49.66122" lon="20.276401">
      <ele>1060</ele>
      <time>2026-05-07T10:00:30Z</time>
    </trkpt>
    <trkpt lat="49.661134" lon="20.276266">
      <ele>1063</ele>
      <time>2026-05-07T10:00:53Z</time>
    </trkpt>
    <trkpt lat="49.661077" lon="20.276148">
      <ele>1064</ele>
      <time>2026-05-07T10:01:11Z</time>
    </trkpt>
    <trkpt lat="49.660983" lon="20.275933">
      <ele>1067</ele>
      <time>2026-05-07T10:01:42Z</time>
    </trkpt>
    <trkpt lat="49.660877" lon="20.275814">
      <ele>1070</ele>
      <time>2026-05-07T10:02:07Z</time>
    </trkpt>
    <trkpt lat="49.660758" lon="20.275761">
      <ele>1072</ele>
      <time>2026-05-07T10:02:30Z</time>
    </trkpt>
    <trkpt lat="49.66053" lon="20.275721">
      <ele>1075</ele>
      <time>2026-05-07T10:03:12Z</time>
    </trkpt>
    <trkpt lat="49.660483" lon="20.275713">
      <ele>1076</ele>
      <time>2026-05-07T10:03:21Z</time>
    </trkpt>
    <trkpt lat="49.660347" lon="20.275655">
      <ele>1078</ele>
      <time>2026-05-07T10:03:47Z</time>
    </trkpt>
    <trkpt lat="49.660221" lon="20.275561">
      <ele>1079</ele>
      <time>2026-05-07T10:04:13Z</time>
    </trkpt>
    <trkpt lat="49.660169" lon="20.275524">
      <ele>1080</ele>
      <time>2026-05-07T10:04:24Z</time>
    </trkpt>
    <trkpt lat="49.660107" lon="20.275464">
      <ele>1081</ele>
      <time>2026-05-07T10:04:37Z</time>
    </trkpt>
    <trkpt lat="49.660048" lon="20.275383">
      <ele>1082</ele>
      <time>2026-05-07T10:04:52Z</time>
    </trkpt>
    <trkpt lat="49.659994" lon="20.275249">
      <ele>1082</ele>
      <time>2026-05-07T10:05:11Z</time>
    </trkpt>
    <trkpt lat="49.659914" lon="20.275075">
      <ele>1083</ele>
      <time>2026-05-07T10:05:36Z</time>
    </trkpt>
    <trkpt lat="49.659831" lon="20.274956">
      <ele>1083</ele>
      <time>2026-05-07T10:05:57Z</time>
    </trkpt>
    <trkpt lat="49.659747" lon="20.274908">
      <ele>1082</ele>
      <time>2026-05-07T10:06:14Z</time>
    </trkpt>
    <trkpt lat="49.659678" lon="20.274896">
      <ele>1082</ele>
      <time>2026-05-07T10:06:26Z</time>
    </trkpt>
    <trkpt lat="49.659634" lon="20.274901">
      <ele>1082</ele>
      <time>2026-05-07T10:06:34Z</time>
    </trkpt>
    <trkpt lat="49.659565" lon="20.274925">
      <ele>1082</ele>
      <time>2026-05-07T10:06:48Z</time>
    </trkpt>
    <trkpt lat="49.659468" lon="20.274973">
      <ele>1083</ele>
      <time>2026-05-07T10:07:06Z</time>
    </trkpt>
    <trkpt lat="49.659217" lon="20.275067">
      <ele>1086</ele>
      <time>2026-05-07T10:07:54Z</time>
    </trkpt>
    <trkpt lat="49.659156" lon="20.275101">
      <ele>1087</ele>
      <time>2026-05-07T10:08:06Z</time>
    </trkpt>
    <trkpt lat="49.659098" lon="20.275104">
      <ele>1088</ele>
      <time>2026-05-07T10:08:17Z</time>
    </trkpt>
    <trkpt lat="49.659025" lon="20.275118">
      <ele>1089</ele>
      <time>2026-05-07T10:08:31Z</time>
    </trkpt>
    <trkpt lat="49.658966" lon="20.275118">
      <ele>1090</ele>
      <time>2026-05-07T10:08:42Z</time>
    </trkpt>
    <trkpt lat="49.658669" lon="20.275079">
      <ele>1095</ele>
      <time>2026-05-07T10:09:38Z</time>
    </trkpt>
    <trkpt lat="49.658442" lon="20.275108">
      <ele>1097</ele>
      <time>2026-05-07T10:10:20Z</time>
    </trkpt>
    <trkpt lat="49.658173" lon="20.275188">
      <ele>1098</ele>
      <time>2026-05-07T10:11:11Z</time>
    </trkpt>
    <trkpt lat="49.657999" lon="20.275183">
      <ele>1100</ele>
      <time>2026-05-07T10:11:43Z</time>
    </trkpt>
    <trkpt lat="49.657857" lon="20.275204">
      <ele>1102</ele>
      <time>2026-05-07T10:12:10Z</time>
    </trkpt>
    <trkpt lat="49.657669" lon="20.275279">
      <ele>1106</ele>
      <time>2026-05-07T10:12:46Z</time>
    </trkpt>
    <trkpt lat="49.657503" lon="20.275317">
      <ele>1108</ele>
      <time>2026-05-07T10:13:18Z</time>
    </trkpt>
    <trkpt lat="49.657325" lon="20.27537">
      <ele>1110</ele>
      <time>2026-05-07T10:13:52Z</time>
    </trkpt>
    <trkpt lat="49.657134" lon="20.275478">
      <ele>1115</ele>
      <time>2026-05-07T10:14:30Z</time>
    </trkpt>
    <trkpt lat="49.656933" lon="20.275499">
      <ele>1119</ele>
      <time>2026-05-07T10:15:08Z</time>
    </trkpt>
    <trkpt lat="49.656784" lon="20.275531">
      <ele>1123</ele>
      <time>2026-05-07T10:15:37Z</time>
    </trkpt>
    <trkpt lat="49.656572" lon="20.275601">
      <ele>1127</ele>
      <time>2026-05-07T10:16:17Z</time>
    </trkpt>
    <trkpt lat="49.656433" lon="20.275751">
      <ele>1130</ele>
      <time>2026-05-07T10:16:49Z</time>
    </trkpt>
    <trkpt lat="49.656301" lon="20.27588">
      <ele>1134</ele>
      <time>2026-05-07T10:17:19Z</time>
    </trkpt>
    <trkpt lat="49.656173" lon="20.275944">
      <ele>1138</ele>
      <time>2026-05-07T10:17:45Z</time>
    </trkpt>
    <trkpt lat="49.656013" lon="20.276025">
      <ele>1143</ele>
      <time>2026-05-07T10:18:17Z</time>
    </trkpt>
    <trkpt lat="49.655938" lon="20.276175">
      <ele>1147</ele>
      <time>2026-05-07T10:18:57Z</time>
    </trkpt>
    <trkpt lat="49.65586" lon="20.27625">
      <ele>1149</ele>
      <time>2026-05-07T10:19:27Z</time>
    </trkpt>
    <trkpt lat="49.655759" lon="20.276282">
      <ele>1151</ele>
      <time>2026-05-07T10:20:00Z</time>
    </trkpt>
    <trkpt lat="49.655672" lon="20.276331">
      <ele>1153</ele>
      <time>2026-05-07T10:20:30Z</time>
    </trkpt>
    <trkpt lat="49.655572" lon="20.27647">
      <ele>1156</ele>
      <time>2026-05-07T10:21:14Z</time>
    </trkpt>
    <trkpt lat="49.655443" lon="20.276612">
      <ele>1160</ele>
      <time>2026-05-07T10:22:05Z</time>
    </trkpt>
    <trkpt lat="49.65533" lon="20.276669">
      <ele>1166</ele>
      <time>2026-05-07T10:22:47Z</time>
    </trkpt>
    <trkpt lat="49.65525" lon="20.276728">
      <ele>1170</ele>
      <time>2026-05-07T10:23:17Z</time>
    </trkpt>
    <trkpt lat="49.655192" lon="20.276807">
      <ele>1168</ele>
      <time>2026-05-07T10:23:26Z</time>
    </trkpt>
    <trkpt lat="49.655091" lon="20.276899">
      <ele>1165</ele>
      <time>2026-05-07T10:23:40Z</time>
    </trkpt>
    <trkpt lat="49.655033" lon="20.276982">
      <ele>1165</ele>
      <time>2026-05-07T10:23:49Z</time>
    </trkpt>
    <trkpt lat="49.654905" lon="20.277312">
      <ele>1164</ele>
      <time>2026-05-07T10:24:17Z</time>
    </trkpt>
    <trkpt lat="49.65479" lon="20.277632">
      <ele>1161</ele>
      <time>2026-05-07T10:24:41Z</time>
    </trkpt>
    <trkpt lat="49.654761" lon="20.277776">
      <ele>1159</ele>
      <time>2026-05-07T10:24:51Z</time>
    </trkpt>
    <trkpt lat="49.654757" lon="20.278055">
      <ele>1153</ele>
      <time>2026-05-07T10:25:10Z</time>
    </trkpt>
    <trkpt lat="49.654768" lon="20.27814">
      <ele>1151</ele>
      <time>2026-05-07T10:25:16Z</time>
    </trkpt>
    <trkpt lat="49.654785" lon="20.278207">
      <ele>1150</ele>
      <time>2026-05-07T10:25:20Z</time>
    </trkpt>
    <trkpt lat="49.654783" lon="20.278275">
      <ele>1148</ele>
      <time>2026-05-07T10:25:25Z</time>
    </trkpt>
    <trkpt lat="49.654771" lon="20.278348">
      <ele>1147</ele>
      <time>2026-05-07T10:25:30Z</time>
    </trkpt>
    <trkpt lat="49.654736" lon="20.278484">
      <ele>1146</ele>
      <time>2026-05-07T10:25:39Z</time>
    </trkpt>
    <trkpt lat="49.654674" lon="20.278705">
      <ele>1142</ele>
      <time>2026-05-07T10:25:55Z</time>
    </trkpt>
    <trkpt lat="49.65465" lon="20.278871">
      <ele>1139</ele>
      <time>2026-05-07T10:26:07Z</time>
    </trkpt>
    <trkpt lat="49.654517" lon="20.27919">
      <ele>1132</ele>
      <time>2026-05-07T10:26:32Z</time>
    </trkpt>
    <trkpt lat="49.654383" lon="20.279666">
      <ele>1124</ele>
      <time>2026-05-07T10:27:07Z</time>
    </trkpt>
    <trkpt lat="49.654291" lon="20.280031">
      <ele>1116</ele>
      <time>2026-05-07T10:27:33Z</time>
    </trkpt>
    <trkpt lat="49.654271" lon="20.280411">
      <ele>1111</ele>
      <time>2026-05-07T10:27:58Z</time>
    </trkpt>
    <trkpt lat="49.654199" lon="20.28084">
      <ele>1106</ele>
      <time>2026-05-07T10:28:27Z</time>
    </trkpt>
    <trkpt lat="49.654116" lon="20.281093">
      <ele>1104</ele>
      <time>2026-05-07T10:28:45Z</time>
    </trkpt>
    <trkpt lat="49.654086" lon="20.281411">
      <ele>1103</ele>
      <time>2026-05-07T10:29:06Z</time>
    </trkpt>
    <trkpt lat="49.653952" lon="20.281903">
      <ele>1099</ele>
      <time>2026-05-07T10:29:41Z</time>
    </trkpt>
    <trkpt lat="49.653891" lon="20.28241">
      <ele>1100</ele>
      <time>2026-05-07T10:30:14Z</time>
    </trkpt>
    <trkpt lat="49.653839" lon="20.282934">
      <ele>1101</ele>
      <time>2026-05-07T10:30:49Z</time>
    </trkpt>
    <trkpt lat="49.653778" lon="20.283473">
      <ele>1102</ele>
      <time>2026-05-07T10:31:24Z</time>
    </trkpt>
    <trkpt lat="49.653716" lon="20.284028">
      <ele>1101</ele>
      <time>2026-05-07T10:32:01Z</time>
    </trkpt>
    <trkpt lat="49.653679" lon="20.284562">
      <ele>1097</ele>
      <time>2026-05-07T10:32:36Z</time>
    </trkpt>
    <trkpt lat="49.653616" lon="20.284904">
      <ele>1095</ele>
      <time>2026-05-07T10:32:59Z</time>
    </trkpt>
    <trkpt lat="49.653593" lon="20.285028">
      <ele>1095</ele>
      <time>2026-05-07T10:33:07Z</time>
    </trkpt>
    <trkpt lat="49.653547" lon="20.28548">
      <ele>1092</ele>
      <time>2026-05-07T10:33:37Z</time>
    </trkpt>
    <trkpt lat="49.653507" lon="20.285659">
      <ele>1091</ele>
      <time>2026-05-07T10:33:49Z</time>
    </trkpt>
    <trkpt lat="49.653383" lon="20.286046">
      <ele>1089</ele>
      <time>2026-05-07T10:34:17Z</time>
    </trkpt>
    <trkpt lat="49.65357" lon="20.28644">
      <ele>1086</ele>
      <time>2026-05-07T10:34:53Z</time>
    </trkpt>
    <trkpt lat="49.653627" lon="20.286577">
      <ele>1084</ele>
      <time>2026-05-07T10:35:05Z</time>
    </trkpt>
    <trkpt lat="49.653675" lon="20.286748">
      <ele>1081</ele>
      <time>2026-05-07T10:35:19Z</time>
    </trkpt>
    <trkpt lat="49.653691" lon="20.286877">
      <ele>1080</ele>
      <time>2026-05-07T10:35:29Z</time>
    </trkpt>
    <trkpt lat="49.653689" lon="20.286984">
      <ele>1078</ele>
      <time>2026-05-07T10:35:37Z</time>
    </trkpt>
    <trkpt lat="49.653672" lon="20.287068">
      <ele>1077</ele>
      <time>2026-05-07T10:35:44Z</time>
    </trkpt>
    <trkpt lat="49.653608" lon="20.287279">
      <ele>1074</ele>
      <time>2026-05-07T10:36:01Z</time>
    </trkpt>
    <trkpt lat="49.653575" lon="20.287405">
      <ele>1071</ele>
      <time>2026-05-07T10:36:11Z</time>
    </trkpt>
    <trkpt lat="49.65357" lon="20.287521">
      <ele>1068</ele>
      <time>2026-05-07T10:36:20Z</time>
    </trkpt>
    <trkpt lat="49.653618" lon="20.287658">
      <ele>1065</ele>
      <time>2026-05-07T10:36:32Z</time>
    </trkpt>
    <trkpt lat="49.653701" lon="20.287805">
      <ele>1061</ele>
      <time>2026-05-07T10:36:47Z</time>
    </trkpt>
    <trkpt lat="49.653785" lon="20.287864">
      <ele>1059</ele>
      <time>2026-05-07T10:36:58Z</time>
    </trkpt>
    <trkpt lat="49.653903" lon="20.287942">
      <ele>1057</ele>
      <time>2026-05-07T10:37:13Z</time>
    </trkpt>
    <trkpt lat="49.654007" lon="20.288028">
      <ele>1055</ele>
      <time>2026-05-07T10:37:26Z</time>
    </trkpt>
    <trkpt lat="49.654106" lon="20.28813">
      <ele>1052</ele>
      <time>2026-05-07T10:37:40Z</time>
    </trkpt>
    <trkpt lat="49.65424" lon="20.288183">
      <ele>1050</ele>
      <time>2026-05-07T10:37:56Z</time>
    </trkpt>
    <trkpt lat="49.654408" lon="20.288232">
      <ele>1048</ele>
      <time>2026-05-07T10:38:16Z</time>
    </trkpt>
    <trkpt lat="49.654486" lon="20.288296">
      <ele>1046</ele>
      <time>2026-05-07T10:38:26Z</time>
    </trkpt>
    <trkpt lat="49.654561" lon="20.288406">
      <ele>1043</ele>
      <time>2026-05-07T10:38:38Z</time>
    </trkpt>
    <trkpt lat="49.654707" lon="20.288602">
      <ele>1037</ele>
      <time>2026-05-07T10:39:01Z</time>
    </trkpt>
    <trkpt lat="49.654842" lon="20.288747">
      <ele>1032</ele>
      <time>2026-05-07T10:39:20Z</time>
    </trkpt>
    <trkpt lat="49.65499" lon="20.28886">
      <ele>1027</ele>
      <time>2026-05-07T10:39:39Z</time>
    </trkpt>
    <trkpt lat="49.655613" lon="20.289318">
      <ele>1014</ele>
      <time>2026-05-07T10:40:59Z</time>
    </trkpt>
    <trkpt lat="49.65591" lon="20.28956">
      <ele>1012</ele>
      <time>2026-05-07T10:41:37Z</time>
    </trkpt>
    <trkpt lat="49.656047" lon="20.289673">
      <ele>1011</ele>
      <time>2026-05-07T10:41:55Z</time>
    </trkpt>
    <trkpt lat="49.656245" lon="20.289836">
      <ele>1011</ele>
      <time>2026-05-07T10:42:20Z</time>
    </trkpt>
    <trkpt lat="49.65637" lon="20.289991">
      <ele>1011</ele>
      <time>2026-05-07T10:42:39Z</time>
    </trkpt>
    <trkpt lat="49.656445" lon="20.290182">
      <ele>1012</ele>
      <time>2026-05-07T10:42:55Z</time>
    </trkpt>
    <trkpt lat="49.6566" lon="20.29057">
      <ele>1012</ele>
      <time>2026-05-07T10:43:29Z</time>
    </trkpt>
    <trkpt lat="49.656652" lon="20.290774">
      <ele>1011</ele>
      <time>2026-05-07T10:43:45Z</time>
    </trkpt>
    <trkpt lat="49.656674" lon="20.290994">
      <ele>1011</ele>
      <time>2026-05-07T10:44:01Z</time>
    </trkpt>
    <trkpt lat="49.65673" lon="20.29119">
      <ele>1011</ele>
      <time>2026-05-07T10:44:17Z</time>
    </trkpt>
    <trkpt lat="49.656837" lon="20.291431">
      <ele>1011</ele>
      <time>2026-05-07T10:44:30Z</time>
    </trkpt>
    <trkpt lat="49.656958" lon="20.2916">
      <ele>1011</ele>
      <time>2026-05-07T10:44:42Z</time>
    </trkpt>
    <trkpt lat="49.65706" lon="20.291694">
      <ele>1010</ele>
      <time>2026-05-07T10:44:50Z</time>
    </trkpt>
    <trkpt lat="49.657176" lon="20.291759">
      <ele>1009</ele>
      <time>2026-05-07T10:44:59Z</time>
    </trkpt>
    <trkpt lat="49.65732" lon="20.29187">
      <ele>1008</ele>
      <time>2026-05-07T10:45:11Z</time>
    </trkpt>
    <trkpt lat="49.65746" lon="20.292023">
      <ele>1006</ele>
      <time>2026-05-07T10:45:23Z</time>
    </trkpt>
    <trkpt lat="49.657714" lon="20.292333">
      <ele>999</ele>
      <time>2026-05-07T10:45:46Z</time>
    </trkpt>
    <trkpt lat="49.657843" lon="20.292445">
      <ele>994</ele>
      <time>2026-05-07T10:45:57Z</time>
    </trkpt>
    <trkpt lat="49.65797" lon="20.292577">
      <ele>988</ele>
      <time>2026-05-07T10:46:09Z</time>
    </trkpt>
    <trkpt lat="49.65804" lon="20.29266">
      <ele>985</ele>
      <time>2026-05-07T10:46:15Z</time>
    </trkpt>
    <trkpt lat="49.658128" lon="20.292754">
      <ele>980</ele>
      <time>2026-05-07T10:46:23Z</time>
    </trkpt>
    <trkpt lat="49.658232" lon="20.292923">
      <ele>973</ele>
      <time>2026-05-07T10:46:35Z</time>
    </trkpt>
    <trkpt lat="49.658305" lon="20.293054">
      <ele>968</ele>
      <time>2026-05-07T10:46:43Z</time>
    </trkpt>
    <trkpt lat="49.658405" lon="20.29317">
      <ele>964</ele>
      <time>2026-05-07T10:46:53Z</time>
    </trkpt>
    <trkpt lat="49.658572" lon="20.293255">
      <ele>958</ele>
      <time>2026-05-07T10:47:06Z</time>
    </trkpt>
    <trkpt lat="49.658723" lon="20.293339">
      <ele>952</ele>
      <time>2026-05-07T10:47:18Z</time>
    </trkpt>
    <trkpt lat="49.65931" lon="20.293572">
      <ele>940</ele>
      <time>2026-05-07T10:48:01Z</time>
    </trkpt>
    <trkpt lat="49.659527" lon="20.293666">
      <ele>936</ele>
      <time>2026-05-07T10:48:17Z</time>
    </trkpt>
    <trkpt lat="49.659754" lon="20.293698">
      <ele>932</ele>
      <time>2026-05-07T10:48:34Z</time>
    </trkpt>
    <trkpt lat="49.66003" lon="20.29379">
      <ele>925</ele>
      <time>2026-05-07T10:48:54Z</time>
    </trkpt>
    <trkpt lat="49.660323" lon="20.293981">
      <ele>919</ele>
      <time>2026-05-07T10:49:17Z</time>
    </trkpt>
    <trkpt lat="49.6606" lon="20.29431">
      <ele>913</ele>
      <time>2026-05-07T10:50:02Z</time>
    </trkpt>
    <trkpt lat="49.660933" lon="20.294806">
      <ele>895</ele>
      <time>2026-05-07T10:51:04Z</time>
    </trkpt>
    <trkpt lat="49.6612" lon="20.29496">
      <ele>887</ele>
      <time>2026-05-07T10:51:42Z</time>
    </trkpt>
    <trkpt lat="49.661433" lon="20.294951">
      <ele>882</ele>
      <time>2026-05-07T10:52:12Z</time>
    </trkpt>
    <trkpt lat="49.66165" lon="20.29484">
      <ele>876</ele>
      <time>2026-05-07T10:52:42Z</time>
    </trkpt>
    <trkpt lat="49.662149" lon="20.294398">
      <ele>865</ele>
      <time>2026-05-07T10:53:56Z</time>
    </trkpt>
    <trkpt lat="49.66238" lon="20.2943">
      <ele>856</ele>
      <time>2026-05-07T10:54:29Z</time>
    </trkpt>
    <trkpt lat="49.662666" lon="20.294157">
      <ele>845</ele>
      <time>2026-05-07T10:55:09Z</time>
    </trkpt>
    <trkpt lat="49.662895" lon="20.293985">
      <ele>838</ele>
      <time>2026-05-07T10:55:42Z</time>
    </trkpt>
    <trkpt lat="49.663156" lon="20.293888">
      <ele>829</ele>
      <time>2026-05-07T10:56:18Z</time>
    </trkpt>
    <trkpt lat="49.663524" lon="20.293824">
      <ele>816</ele>
      <time>2026-05-07T10:57:07Z</time>
    </trkpt>
    <trkpt lat="49.66389" lon="20.29373">
      <ele>806</ele>
      <time>2026-05-07T10:57:56Z</time>
    </trkpt>
    <trkpt lat="49.664506" lon="20.293813">
      <ele>789</ele>
      <time>2026-05-07T10:59:17Z</time>
    </trkpt>
    <trkpt lat="49.664905" lon="20.293919">
      <ele>775</ele>
      <time>2026-05-07T11:00:01Z</time>
    </trkpt>
    <trkpt lat="49.665129" lon="20.29399">
      <ele>771</ele>
      <time>2026-05-07T11:00:26Z</time>
    </trkpt>
    <trkpt lat="49.665305" lon="20.294051">
      <ele>770</ele>
      <time>2026-05-07T11:00:45Z</time>
    </trkpt>
    <trkpt lat="49.665503" lon="20.294058">
      <ele>770</ele>
      <time>2026-05-07T11:01:05Z</time>
    </trkpt>
    <trkpt lat="49.66559" lon="20.29415">
      <ele>771</ele>
      <time>2026-05-07T11:01:17Z</time>
    </trkpt>
    <trkpt lat="49.665629" lon="20.294207">
      <ele>771</ele>
      <time>2026-05-07T11:01:22Z</time>
    </trkpt>
    <trkpt lat="49.665669" lon="20.294264">
      <ele>771</ele>
      <time>2026-05-07T11:01:28Z</time>
    </trkpt>
    <trkpt lat="49.665742" lon="20.294371">
      <ele>771</ele>
      <time>2026-05-07T11:01:38Z</time>
    </trkpt>
    <trkpt lat="49.66592" lon="20.29457">
      <ele>770</ele>
      <time>2026-05-07T11:02:02Z</time>
    </trkpt>
    <trkpt lat="49.666042" lon="20.294651">
      <ele>769</ele>
      <time>2026-05-07T11:02:16Z</time>
    </trkpt>
    <trkpt lat="49.666206" lon="20.294662">
      <ele>767</ele>
      <time>2026-05-07T11:02:33Z</time>
    </trkpt>
    <trkpt lat="49.666368" lon="20.294609">
      <ele>767</ele>
      <time>2026-05-07T11:02:50Z</time>
    </trkpt>
    <trkpt lat="49.666508" lon="20.294538">
      <ele>764</ele>
      <time>2026-05-07T11:03:06Z</time>
    </trkpt>
    <trkpt lat="49.666597" lon="20.294445">
      <ele>763</ele>
      <time>2026-05-07T11:03:17Z</time>
    </trkpt>
    <trkpt lat="49.666682" lon="20.294333">
      <ele>762</ele>
      <time>2026-05-07T11:03:29Z</time>
    </trkpt>
    <trkpt lat="49.66677" lon="20.294306">
      <ele>759</ele>
      <time>2026-05-07T11:03:39Z</time>
    </trkpt>
    <trkpt lat="49.666994" lon="20.294373">
      <ele>752</ele>
      <time>2026-05-07T11:04:04Z</time>
    </trkpt>
    <trkpt lat="49.667045" lon="20.294398">
      <ele>750</ele>
      <time>2026-05-07T11:04:10Z</time>
    </trkpt>
    <trkpt lat="49.667117" lon="20.29438">
      <ele>748</ele>
      <time>2026-05-07T11:04:17Z</time>
    </trkpt>
    <trkpt lat="49.667238" lon="20.294286">
      <ele>745</ele>
      <time>2026-05-07T11:04:32Z</time>
    </trkpt>
    <trkpt lat="49.667406" lon="20.294186">
      <ele>740</ele>
      <time>2026-05-07T11:04:51Z</time>
    </trkpt>
    <trkpt lat="49.667507" lon="20.294136">
      <ele>737</ele>
      <time>2026-05-07T11:05:03Z</time>
    </trkpt>
    <trkpt lat="49.667647" lon="20.294134">
      <ele>733</ele>
      <time>2026-05-07T11:05:18Z</time>
    </trkpt>
    <trkpt lat="49.667814" lon="20.294174">
      <ele>729</ele>
      <time>2026-05-07T11:05:36Z</time>
    </trkpt>
    <trkpt lat="49.66811" lon="20.294291">
      <ele>727</ele>
      <time>2026-05-07T11:06:08Z</time>
    </trkpt>
    <trkpt lat="49.668183" lon="20.2942">
      <ele>726</ele>
      <time>2026-05-07T11:06:18Z</time>
    </trkpt>
    <trkpt lat="49.668242" lon="20.294055">
      <ele>725</ele>
      <time>2026-05-07T11:06:30Z</time>
    </trkpt>
    <trkpt lat="49.668253" lon="20.293937">
      <ele>724</ele>
      <time>2026-05-07T11:06:38Z</time>
    </trkpt>
    <trkpt lat="49.668256" lon="20.293835">
      <ele>723</ele>
      <time>2026-05-07T11:06:45Z</time>
    </trkpt>
    <trkpt lat="49.668298" lon="20.293685">
      <ele>721</ele>
      <time>2026-05-07T11:06:56Z</time>
    </trkpt>
    <trkpt lat="49.668392" lon="20.293545">
      <ele>719</ele>
      <time>2026-05-07T11:07:10Z</time>
    </trkpt>
    <trkpt lat="49.668537" lon="20.2934">
      <ele>716</ele>
      <time>2026-05-07T11:07:28Z</time>
    </trkpt>
    <trkpt lat="49.668704" lon="20.293304">
      <ele>714</ele>
      <time>2026-05-07T11:07:47Z</time>
    </trkpt>
    <trkpt lat="49.668888" lon="20.293239">
      <ele>711</ele>
      <time>2026-05-07T11:08:07Z</time>
    </trkpt>
    <trkpt lat="49.669138" lon="20.293226">
      <ele>708</ele>
      <time>2026-05-07T11:08:34Z</time>
    </trkpt>
    <trkpt lat="49.669291" lon="20.293218">
      <ele>706</ele>
      <time>2026-05-07T11:08:50Z</time>
    </trkpt>
    <trkpt lat="49.669603" lon="20.29318">
      <ele>700</ele>
      <time>2026-05-07T11:09:23Z</time>
    </trkpt>
    <trkpt lat="49.669784" lon="20.293143">
      <ele>697</ele>
      <time>2026-05-07T11:09:43Z</time>
    </trkpt>
    <trkpt lat="49.669918" lon="20.29306">
      <ele>694</ele>
      <time>2026-05-07T11:09:58Z</time>
    </trkpt>
    <trkpt lat="49.670117" lon="20.293052">
      <ele>692</ele>
      <time>2026-05-07T11:10:19Z</time>
    </trkpt>
    <trkpt lat="49.670301" lon="20.2931">
      <ele>691</ele>
      <time>2026-05-07T11:10:39Z</time>
    </trkpt>
    <trkpt lat="49.670447" lon="20.293111">
      <ele>690</ele>
      <time>2026-05-07T11:10:54Z</time>
    </trkpt>
    <trkpt lat="49.670614" lon="20.293025">
      <ele>689</ele>
      <time>2026-05-07T11:11:13Z</time>
    </trkpt>
    <trkpt lat="49.670745" lon="20.292917">
      <ele>687</ele>
      <time>2026-05-07T11:11:28Z</time>
    </trkpt>
    <trkpt lat="49.670871" lon="20.292848">
      <ele>686</ele>
      <time>2026-05-07T11:11:42Z</time>
    </trkpt>
    <trkpt lat="49.671041" lon="20.292826">
      <ele>685</ele>
      <time>2026-05-07T11:12:00Z</time>
    </trkpt>
    <trkpt lat="49.67168" lon="20.29292">
      <ele>679</ele>
      <time>2026-05-07T11:13:08Z</time>
    </trkpt>
    <trkpt lat="49.672141" lon="20.293105">
      <ele>677</ele>
      <time>2026-05-07T11:13:58Z</time>
    </trkpt>
    <trkpt lat="49.672346" lon="20.293245">
      <ele>675</ele>
      <time>2026-05-07T11:14:21Z</time>
    </trkpt>
    <trkpt lat="49.672558" lon="20.293422">
      <ele>673</ele>
      <time>2026-05-07T11:14:47Z</time>
    </trkpt>
    <trkpt lat="49.67269" lon="20.293663">
      <ele>673</ele>
      <time>2026-05-07T11:15:08Z</time>
    </trkpt>
    <trkpt lat="49.672808" lon="20.293872">
      <ele>672</ele>
      <time>2026-05-07T11:15:27Z</time>
    </trkpt>
    <trkpt lat="49.672879" lon="20.294035">
      <ele>672</ele>
      <time>2026-05-07T11:15:40Z</time>
    </trkpt>
    <trkpt lat="49.672919" lon="20.294124">
      <ele>673</ele>
      <time>2026-05-07T11:15:48Z</time>
    </trkpt>
    <trkpt lat="49.673092" lon="20.294344">
      <ele>673</ele>
      <time>2026-05-07T11:16:11Z</time>
    </trkpt>
    <trkpt lat="49.673259" lon="20.294564">
      <ele>672</ele>
      <time>2026-05-07T11:16:34Z</time>
    </trkpt>
    <trkpt lat="49.673353" lon="20.294709">
      <ele>672</ele>
      <time>2026-05-07T11:16:48Z</time>
    </trkpt>
    <trkpt lat="49.673502" lon="20.295063">
      <ele>671</ele>
      <time>2026-05-07T11:17:17Z</time>
    </trkpt>
    <trkpt lat="49.67362" lon="20.29526">
      <ele>670</ele>
      <time>2026-05-07T11:17:35Z</time>
    </trkpt>
    <trkpt lat="49.6744" lon="20.29611">
      <ele>657</ele>
      <time>2026-05-07T11:19:16Z</time>
    </trkpt>
    <trkpt lat="49.674525" lon="20.296306">
      <ele>658</ele>
      <time>2026-05-07T11:19:35Z</time>
    </trkpt>
    <trkpt lat="49.674748" lon="20.296656">
      <ele>657</ele>
      <time>2026-05-07T11:20:08Z</time>
    </trkpt>
    <trkpt lat="49.674932" lon="20.296882">
      <ele>656</ele>
      <time>2026-05-07T11:20:33Z</time>
    </trkpt>
    <trkpt lat="49.67502" lon="20.29707">
      <ele>655</ele>
      <time>2026-05-07T11:20:49Z</time>
    </trkpt>
    <trkpt lat="49.675113" lon="20.297327">
      <ele>657</ele>
      <time>2026-05-07T11:21:09Z</time>
    </trkpt>
    <trkpt lat="49.675231" lon="20.297456">
      <ele>656</ele>
      <time>2026-05-07T11:21:24Z</time>
    </trkpt>
    <trkpt lat="49.67538" lon="20.297574">
      <ele>655</ele>
      <time>2026-05-07T11:21:42Z</time>
    </trkpt>
    <trkpt lat="49.675647" lon="20.297649">
      <ele>650</ele>
      <time>2026-05-07T11:22:11Z</time>
    </trkpt>
    <trkpt lat="49.675873" lon="20.297697">
      <ele>646</ele>
      <time>2026-05-07T11:22:35Z</time>
    </trkpt>
    <trkpt lat="49.67615" lon="20.29771">
      <ele>642</ele>
      <time>2026-05-07T11:23:04Z</time>
    </trkpt>
    <trkpt lat="49.676366" lon="20.297815">
      <ele>641</ele>
      <time>2026-05-07T11:23:28Z</time>
    </trkpt>
    <trkpt lat="49.676498" lon="20.297901">
      <ele>639</ele>
      <time>2026-05-07T11:23:43Z</time>
    </trkpt>
    <trkpt lat="49.67669" lon="20.29807">
      <ele>637</ele>
      <time>2026-05-07T11:24:06Z</time>
    </trkpt>
    <trkpt lat="49.67698" lon="20.298228">
      <ele>634</ele>
      <time>2026-05-07T11:24:39Z</time>
    </trkpt>
    <trkpt lat="49.67715" lon="20.298293">
      <ele>633</ele>
      <time>2026-05-07T11:24:57Z</time>
    </trkpt>
    <trkpt lat="49.67735" lon="20.29844">
      <ele>633</ele>
      <time>2026-05-07T11:25:20Z</time>
    </trkpt>
    <trkpt lat="49.67747" lon="20.29862">
      <ele>632</ele>
      <time>2026-05-07T11:25:38Z</time>
    </trkpt>
    <trkpt lat="49.677532" lon="20.298781">
      <ele>632</ele>
      <time>2026-05-07T11:25:51Z</time>
    </trkpt>
    <trkpt lat="49.677623" lon="20.299017">
      <ele>631</ele>
      <time>2026-05-07T11:26:09Z</time>
    </trkpt>
    <trkpt lat="49.677956" lon="20.299226">
      <ele>628</ele>
      <time>2026-05-07T11:26:47Z</time>
    </trkpt>
    <trkpt lat="49.678265" lon="20.29943">
      <ele>626</ele>
      <time>2026-05-07T11:27:23Z</time>
    </trkpt>
    <trkpt lat="49.67899" lon="20.300009">
      <ele>623</ele>
      <time>2026-05-07T11:28:48Z</time>
    </trkpt>
    <trkpt lat="49.679171" lon="20.300181">
      <ele>621</ele>
      <time>2026-05-07T11:29:11Z</time>
    </trkpt>
    <trkpt lat="49.679306" lon="20.30032">
      <ele>619</ele>
      <time>2026-05-07T11:29:28Z</time>
    </trkpt>
    <trkpt lat="49.679518" lon="20.300444">
      <ele>617</ele>
      <time>2026-05-07T11:29:52Z</time>
    </trkpt>
    <trkpt lat="49.679688" lon="20.300546">
      <ele>614</ele>
      <time>2026-05-07T11:30:11Z</time>
    </trkpt>
    <trkpt lat="49.67978" lon="20.300623">
      <ele>613</ele>
      <time>2026-05-07T11:30:22Z</time>
    </trkpt>
    <trkpt lat="49.67995" lon="20.30087">
      <ele>610</ele>
      <time>2026-05-07T11:30:47Z</time>
    </trkpt>
    <trkpt lat="49.680071" lon="20.301062">
      <ele>610</ele>
      <time>2026-05-07T11:31:05Z</time>
    </trkpt>
    <trkpt lat="49.680137" lon="20.301208">
      <ele>609</ele>
      <time>2026-05-07T11:31:17Z</time>
    </trkpt>
    <trkpt lat="49.680056" lon="20.301448">
      <ele>609</ele>
      <time>2026-05-07T11:31:59Z</time>
    </trkpt>
    <trkpt lat="49.680022" lon="20.301553">
      <ele>608</ele>
      <time>2026-05-07T11:32:17Z</time>
    </trkpt>
    <trkpt lat="49.680056" lon="20.301448">
      <ele>609</ele>
      <time>2026-05-07T11:32:35Z</time>
    </trkpt>
    <trkpt lat="49.680137" lon="20.301208">
      <ele>609</ele>
      <time>2026-05-07T11:33:17Z</time>
    </trkpt>
    <trkpt lat="49.680187" lon="20.301317">
      <ele>609</ele>
      <time>2026-05-07T11:33:26Z</time>
    </trkpt>
    <trkpt lat="49.68026" lon="20.301416">
      <ele>609</ele>
      <time>2026-05-07T11:33:36Z</time>
    </trkpt>
    <trkpt lat="49.680413" lon="20.301512">
      <ele>608</ele>
      <time>2026-05-07T11:33:53Z</time>
    </trkpt>
    <trkpt lat="49.680904" lon="20.301746">
      <ele>606</ele>
      <time>2026-05-07T11:34:46Z</time>
    </trkpt>
    <trkpt lat="49.681064" lon="20.301979">
      <ele>605</ele>
      <time>2026-05-07T11:35:08Z</time>
    </trkpt>
    <trkpt lat="49.681104" lon="20.302073">
      <ele>605</ele>
      <time>2026-05-07T11:35:16Z</time>
    </trkpt>
    <trkpt lat="49.681183" lon="20.302132">
      <ele>604</ele>
      <time>2026-05-07T11:35:25Z</time>
    </trkpt>
    <trkpt lat="49.681606" lon="20.302203">
      <ele>602</ele>
      <time>2026-05-07T11:36:08Z</time>
    </trkpt>
    <trkpt lat="49.681685" lon="20.302183">
      <ele>599</ele>
      <time>2026-05-07T11:36:17Z</time>
    </trkpt>
    <trkpt lat="49.681654" lon="20.302095">
      <ele>601</ele>
      <time>2026-05-07T11:36:27Z</time>
    </trkpt>
    <trkpt lat="49.681566" lon="20.301818">
      <ele>602</ele>
      <time>2026-05-07T11:36:57Z</time>
    </trkpt>
    <trkpt lat="49.6814" lon="20.301512">
      <ele>602</ele>
      <time>2026-05-07T11:37:36Z</time>
    </trkpt>
    <trkpt lat="49.681216" lon="20.301062">
      <ele>603</ele>
      <time>2026-05-07T11:38:27Z</time>
    </trkpt>
    <trkpt lat="49.681029" lon="20.300233">
      <ele>608</ele>
      <time>2026-05-07T11:39:53Z</time>
    </trkpt>
    <trkpt lat="49.680923" lon="20.299593">
      <ele>610</ele>
      <time>2026-05-07T11:40:57Z</time>
    </trkpt>
    <trkpt lat="49.680876" lon="20.299211">
      <ele>610</ele>
      <time>2026-05-07T11:41:34Z</time>
    </trkpt>
    <trkpt lat="49.680872" lon="20.299029">
      <ele>610</ele>
      <time>2026-05-07T11:41:52Z</time>
    </trkpt>
    <trkpt lat="49.680944" lon="20.29811">
      <ele>611</ele>
      <time>2026-05-07T11:43:22Z</time>
    </trkpt>
    <trkpt lat="49.680921" lon="20.296388">
      <ele>618</ele>
      <time>2026-05-07T11:46:09Z</time>
    </trkpt>
    <trkpt lat="49.680891" lon="20.296187">
      <ele>619</ele>
      <time>2026-05-07T11:46:29Z</time>
    </trkpt>
    <trkpt lat="49.680815" lon="20.295896">
      <ele>621</ele>
      <time>2026-05-07T11:47:00Z</time>
    </trkpt>
    <trkpt lat="49.680707" lon="20.295432">
      <ele>624</ele>
      <time>2026-05-07T11:47:48Z</time>
    </trkpt>
    <trkpt lat="49.680685" lon="20.29522">
      <ele>626</ele>
      <time>2026-05-07T11:48:09Z</time>
    </trkpt>
    <trkpt lat="49.680693" lon="20.295055">
      <ele>628</ele>
      <time>2026-05-07T11:48:25Z</time>
    </trkpt>
    <trkpt lat="49.680709" lon="20.294964">
      <ele>628</ele>
      <time>2026-05-07T11:48:34Z</time>
    </trkpt>
    <trkpt lat="49.680725" lon="20.294872">
      <ele>629</ele>
      <time>2026-05-07T11:48:43Z</time>
    </trkpt>
    <trkpt lat="49.680785" lon="20.29458">
      <ele>629</ele>
      <time>2026-05-07T11:49:13Z</time>
    </trkpt>
    <trkpt lat="49.681244" lon="20.292864">
      <ele>632</ele>
      <time>2026-05-07T11:52:13Z</time>
    </trkpt>
    <trkpt lat="49.681397" lon="20.292337">
      <ele>630</ele>
      <time>2026-05-07T11:53:09Z</time>
    </trkpt>
    <trkpt lat="49.681493" lon="20.291898">
      <ele>630</ele>
      <time>2026-05-07T11:53:54Z</time>
    </trkpt>
    <trkpt lat="49.681572" lon="20.291352">
      <ele>630</ele>
      <time>2026-05-07T11:54:48Z</time>
    </trkpt>
    <trkpt lat="49.681583" lon="20.291126">
      <ele>631</ele>
      <time>2026-05-07T11:55:10Z</time>
    </trkpt>
    <trkpt lat="49.68158" lon="20.290981">
      <ele>632</ele>
      <time>2026-05-07T11:55:24Z</time>
    </trkpt>
    <trkpt lat="49.681568" lon="20.290818">
      <ele>633</ele>
      <time>2026-05-07T11:55:40Z</time>
    </trkpt>
    <trkpt lat="49.681528" lon="20.290652">
      <ele>634</ele>
      <time>2026-05-07T11:55:57Z</time>
    </trkpt>
    <trkpt lat="49.681472" lon="20.290514">
      <ele>634</ele>
      <time>2026-05-07T11:56:13Z</time>
    </trkpt>
    <trkpt lat="49.681104" lon="20.289849">
      <ele>640</ele>
      <time>2026-05-07T11:57:38Z</time>
    </trkpt>
    <trkpt lat="49.68082" lon="20.289344">
      <ele>647</ele>
      <time>2026-05-07T11:58:44Z</time>
    </trkpt>
    <trkpt lat="49.680724" lon="20.28908">
      <ele>651</ele>
      <time>2026-05-07T11:59:14Z</time>
    </trkpt>
    <trkpt lat="49.68067" lon="20.288856">
      <ele>653</ele>
      <time>2026-05-07T11:59:37Z</time>
    </trkpt>
    <trkpt lat="49.680625" lon="20.288553">
      <ele>654</ele>
      <time>2026-05-07T12:00:07Z</time>
    </trkpt>
    <trkpt lat="49.680596" lon="20.288216">
      <ele>655</ele>
      <time>2026-05-07T12:00:40Z</time>
    </trkpt>
    <trkpt lat="49.680595" lon="20.287738">
      <ele>658</ele>
      <time>2026-05-07T12:01:27Z</time>
    </trkpt>
    <trkpt lat="49.680595" lon="20.287671">
      <ele>658</ele>
      <time>2026-05-07T12:01:33Z</time>
    </trkpt>
    <trkpt lat="49.680598" lon="20.287375">
      <ele>660</ele>
      <time>2026-05-07T12:02:02Z</time>
    </trkpt>
    <trkpt lat="49.680631" lon="20.285505">
      <ele>668</ele>
      <time>2026-05-07T12:05:03Z</time>
    </trkpt>
    <trkpt lat="49.680648" lon="20.285058">
      <ele>670</ele>
      <time>2026-05-07T12:05:47Z</time>
    </trkpt>
    <trkpt lat="49.6807" lon="20.28428">
      <ele>676</ele>
      <time>2026-05-07T12:07:03Z</time>
    </trkpt>
    <trkpt lat="49.680748" lon="20.282843">
      <ele>683</ele>
      <time>2026-05-07T12:09:23Z</time>
    </trkpt>
    <trkpt lat="49.680776" lon="20.282538">
      <ele>686</ele>
      <time>2026-05-07T12:09:53Z</time>
    </trkpt>
    <trkpt lat="49.680873" lon="20.281946">
      <ele>692</ele>
      <time>2026-05-07T12:10:53Z</time>
    </trkpt>
    <trkpt lat="49.680884" lon="20.281703">
      <ele>696</ele>
      <time>2026-05-07T12:11:17Z</time>
    </trkpt>
  </trkseg>
</trk>
</gpx>