<?xml version="1.0" encoding="UTF-8"?><gpx creator="https://mapa-turystyczna.pl" xmlns="http://www.topografix.com/GPX/1/1" version="1.1" xmlns:xsi="http://www.w3.org/2001/XMLSchema-instance" xsi:schemaLocation="http://www.topografix.com/GPX/1/1 http://www.topografix.com/GPX/1/1/gpx.xsd">
  <metadata>
    <link href="https://mapa-turystyczna.pl">
      <text>mapa-turystyczna.pl</text>
    </link>
    <time>2026-05-07T08:43:18Z</time>
    <bounds maxlat="49.6812877" maxlon="20.276728" minlat="49.65525" minlon="20.2335157"/>
  </metadata>

<trk>
  <name>Trasa przez: Mogielica</name>
  <link href="https://mapa-turystyczna.pl/route/d7r">
    <text>Trasa przez: Mogielica</text>
  </link>
  <trkseg>
    <trkpt lat="49.6812877" lon="20.2335157">
      <ele>526</ele>
      <time>2026-05-07T08:43:18Z</time>
    </trkpt>
    <trkpt lat="49.681274" lon="20.23355">
      <ele>526</ele>
      <time>2026-05-07T08:43:23Z</time>
    </trkpt>
    <trkpt lat="49.681235" lon="20.233731">
      <ele>526</ele>
      <time>2026-05-07T08:43:44Z</time>
    </trkpt>
    <trkpt lat="49.681232" lon="20.233773">
      <ele>525</ele>
      <time>2026-05-07T08:43:49Z</time>
    </trkpt>
    <trkpt lat="49.68118" lon="20.234502">
      <ele>524</ele>
      <time>2026-05-07T08:45:11Z</time>
    </trkpt>
    <trkpt lat="49.681162" lon="20.23476">
      <ele>524</ele>
      <time>2026-05-07T08:45:40Z</time>
    </trkpt>
    <trkpt lat="49.68113" lon="20.235188">
      <ele>524</ele>
      <time>2026-05-07T08:46:29Z</time>
    </trkpt>
    <trkpt lat="49.681003" lon="20.235144">
      <ele>525</ele>
      <time>2026-05-07T08:46:51Z</time>
    </trkpt>
    <trkpt lat="49.680744" lon="20.235018">
      <ele>524</ele>
      <time>2026-05-07T08:47:39Z</time>
    </trkpt>
    <trkpt lat="49.680556" lon="20.235025">
      <ele>523</ele>
      <time>2026-05-07T08:48:11Z</time>
    </trkpt>
    <trkpt lat="49.680417" lon="20.234991">
      <ele>522</ele>
      <time>2026-05-07T08:48:36Z</time>
    </trkpt>
    <trkpt lat="49.680342" lon="20.234905">
      <ele>521</ele>
      <time>2026-05-07T08:48:52Z</time>
    </trkpt>
    <trkpt lat="49.680274" lon="20.23488">
      <ele>521</ele>
      <time>2026-05-07T08:49:04Z</time>
    </trkpt>
    <trkpt lat="49.68012" lon="20.234907">
      <ele>523</ele>
      <time>2026-05-07T08:49:31Z</time>
    </trkpt>
    <trkpt lat="49.679919" lon="20.234891">
      <ele>526</ele>
      <time>2026-05-07T08:50:07Z</time>
    </trkpt>
    <trkpt lat="49.679764" lon="20.234864">
      <ele>528</ele>
      <time>2026-05-07T08:50:34Z</time>
    </trkpt>
    <trkpt lat="49.67957" lon="20.234762">
      <ele>530</ele>
      <time>2026-05-07T08:51:10Z</time>
    </trkpt>
    <trkpt lat="49.679383" lon="20.234628">
      <ele>531</ele>
      <time>2026-05-07T08:51:45Z</time>
    </trkpt>
    <trkpt lat="49.679186" lon="20.234432">
      <ele>532</ele>
      <time>2026-05-07T08:52:26Z</time>
    </trkpt>
    <trkpt lat="49.679084" lon="20.234343">
      <ele>532</ele>
      <time>2026-05-07T08:52:47Z</time>
    </trkpt>
    <trkpt lat="49.678945" lon="20.23431">
      <ele>533</ele>
      <time>2026-05-07T08:53:11Z</time>
    </trkpt>
    <trkpt lat="49.678844" lon="20.234308">
      <ele>534</ele>
      <time>2026-05-07T08:53:29Z</time>
    </trkpt>
    <trkpt lat="49.678789" lon="20.234373">
      <ele>536</ele>
      <time>2026-05-07T08:53:41Z</time>
    </trkpt>
    <trkpt lat="49.678692" lon="20.23492">
      <ele>541</ele>
      <time>2026-05-07T08:54:45Z</time>
    </trkpt>
    <trkpt lat="49.678648" lon="20.235279">
      <ele>544</ele>
      <time>2026-05-07T08:55:26Z</time>
    </trkpt>
    <trkpt lat="49.678643" lon="20.235467">
      <ele>546</ele>
      <time>2026-05-07T08:55:48Z</time>
    </trkpt>
    <trkpt lat="49.678653" lon="20.23565">
      <ele>548</ele>
      <time>2026-05-07T08:56:09Z</time>
    </trkpt>
    <trkpt lat="49.678661" lon="20.235792">
      <ele>549</ele>
      <time>2026-05-07T08:56:25Z</time>
    </trkpt>
    <trkpt lat="49.678667" lon="20.235977">
      <ele>550</ele>
      <time>2026-05-07T08:56:46Z</time>
    </trkpt>
    <trkpt lat="49.67865" lon="20.236143">
      <ele>551</ele>
      <time>2026-05-07T08:57:05Z</time>
    </trkpt>
    <trkpt lat="49.678633" lon="20.236277">
      <ele>551</ele>
      <time>2026-05-07T08:57:20Z</time>
    </trkpt>
    <trkpt lat="49.678581" lon="20.236387">
      <ele>552</ele>
      <time>2026-05-07T08:57:35Z</time>
    </trkpt>
    <trkpt lat="49.678489" lon="20.236497">
      <ele>554</ele>
      <time>2026-05-07T08:57:56Z</time>
    </trkpt>
    <trkpt lat="49.678395" lon="20.236548">
      <ele>555</ele>
      <time>2026-05-07T08:58:13Z</time>
    </trkpt>
    <trkpt lat="49.678267" lon="20.236605">
      <ele>559</ele>
      <time>2026-05-07T08:58:37Z</time>
    </trkpt>
    <trkpt lat="49.678107" lon="20.236685">
      <ele>564</ele>
      <time>2026-05-07T08:59:07Z</time>
    </trkpt>
    <trkpt lat="49.677992" lon="20.236781">
      <ele>566</ele>
      <time>2026-05-07T08:59:30Z</time>
    </trkpt>
    <trkpt lat="49.677845" lon="20.236918">
      <ele>569</ele>
      <time>2026-05-07T09:00:00Z</time>
    </trkpt>
    <trkpt lat="49.677572" lon="20.237114">
      <ele>574</ele>
      <time>2026-05-07T09:00:53Z</time>
    </trkpt>
    <trkpt lat="49.6774" lon="20.237208">
      <ele>577</ele>
      <time>2026-05-07T09:01:25Z</time>
    </trkpt>
    <trkpt lat="49.677256" lon="20.237264">
      <ele>579</ele>
      <time>2026-05-07T09:01:51Z</time>
    </trkpt>
    <trkpt lat="49.676923" lon="20.237342">
      <ele>589</ele>
      <time>2026-05-07T09:02:52Z</time>
    </trkpt>
    <trkpt lat="49.676758" lon="20.237409">
      <ele>596</ele>
      <time>2026-05-07T09:03:23Z</time>
    </trkpt>
    <trkpt lat="49.676625" lon="20.237468">
      <ele>601</ele>
      <time>2026-05-07T09:03:48Z</time>
    </trkpt>
    <trkpt lat="49.676604" lon="20.237471">
      <ele>601</ele>
      <time>2026-05-07T09:03:52Z</time>
    </trkpt>
    <trkpt lat="49.676517" lon="20.237482">
      <ele>604</ele>
      <time>2026-05-07T09:04:08Z</time>
    </trkpt>
    <trkpt lat="49.676395" lon="20.237465">
      <ele>607</ele>
      <time>2026-05-07T09:04:29Z</time>
    </trkpt>
    <trkpt lat="49.676251" lon="20.237417">
      <ele>609</ele>
      <time>2026-05-07T09:04:55Z</time>
    </trkpt>
    <trkpt lat="49.676066" lon="20.237256">
      <ele>613</ele>
      <time>2026-05-07T09:05:33Z</time>
    </trkpt>
    <trkpt lat="49.675486" lon="20.236798">
      <ele>629</ele>
      <time>2026-05-07T09:07:29Z</time>
    </trkpt>
    <trkpt lat="49.675337" lon="20.23668">
      <ele>632</ele>
      <time>2026-05-07T09:07:58Z</time>
    </trkpt>
    <trkpt lat="49.675207" lon="20.236645">
      <ele>635</ele>
      <time>2026-05-07T09:08:21Z</time>
    </trkpt>
    <trkpt lat="49.675064" lon="20.236647">
      <ele>638</ele>
      <time>2026-05-07T09:08:47Z</time>
    </trkpt>
    <trkpt lat="49.674875" lon="20.236677">
      <ele>642</ele>
      <time>2026-05-07T09:09:20Z</time>
    </trkpt>
    <trkpt lat="49.674799" lon="20.236725">
      <ele>644</ele>
      <time>2026-05-07T09:09:35Z</time>
    </trkpt>
    <trkpt lat="49.674675" lon="20.236832">
      <ele>647</ele>
      <time>2026-05-07T09:10:00Z</time>
    </trkpt>
    <trkpt lat="49.674548" lon="20.236961">
      <ele>650</ele>
      <time>2026-05-07T09:10:27Z</time>
    </trkpt>
    <trkpt lat="49.674288" lon="20.237085">
      <ele>658</ele>
      <time>2026-05-07T09:11:15Z</time>
    </trkpt>
    <trkpt lat="49.674044" lon="20.237227">
      <ele>664</ele>
      <time>2026-05-07T09:12:02Z</time>
    </trkpt>
    <trkpt lat="49.673917" lon="20.237318">
      <ele>667</ele>
      <time>2026-05-07T09:12:27Z</time>
    </trkpt>
    <trkpt lat="49.673818" lon="20.237345">
      <ele>668</ele>
      <time>2026-05-07T09:12:44Z</time>
    </trkpt>
    <trkpt lat="49.673766" lon="20.237339">
      <ele>668</ele>
      <time>2026-05-07T09:12:53Z</time>
    </trkpt>
    <trkpt lat="49.673647" lon="20.237288">
      <ele>668</ele>
      <time>2026-05-07T09:13:15Z</time>
    </trkpt>
    <trkpt lat="49.673512" lon="20.23728">
      <ele>670</ele>
      <time>2026-05-07T09:13:38Z</time>
    </trkpt>
    <trkpt lat="49.67343" lon="20.237288">
      <ele>671</ele>
      <time>2026-05-07T09:13:53Z</time>
    </trkpt>
    <trkpt lat="49.673353" lon="20.237348">
      <ele>673</ele>
      <time>2026-05-07T09:14:08Z</time>
    </trkpt>
    <trkpt lat="49.673299" lon="20.237425">
      <ele>675</ele>
      <time>2026-05-07T09:14:21Z</time>
    </trkpt>
    <trkpt lat="49.673231" lon="20.237538">
      <ele>678</ele>
      <time>2026-05-07T09:14:39Z</time>
    </trkpt>
    <trkpt lat="49.673214" lon="20.23764">
      <ele>681</ele>
      <time>2026-05-07T09:14:52Z</time>
    </trkpt>
    <trkpt lat="49.673382" lon="20.238238">
      <ele>693</ele>
      <time>2026-05-07T09:16:07Z</time>
    </trkpt>
    <trkpt lat="49.673405" lon="20.238436">
      <ele>697</ele>
      <time>2026-05-07T09:16:31Z</time>
    </trkpt>
    <trkpt lat="49.673414" lon="20.238654">
      <ele>701</ele>
      <time>2026-05-07T09:16:56Z</time>
    </trkpt>
    <trkpt lat="49.673479" lon="20.23889">
      <ele>704</ele>
      <time>2026-05-07T09:17:25Z</time>
    </trkpt>
    <trkpt lat="49.67353" lon="20.238992">
      <ele>705</ele>
      <time>2026-05-07T09:17:40Z</time>
    </trkpt>
    <trkpt lat="49.673559" lon="20.239112">
      <ele>706</ele>
      <time>2026-05-07T09:17:54Z</time>
    </trkpt>
    <trkpt lat="49.673552" lon="20.239185">
      <ele>707</ele>
      <time>2026-05-07T09:18:03Z</time>
    </trkpt>
    <trkpt lat="49.673512" lon="20.239273">
      <ele>710</ele>
      <time>2026-05-07T09:18:16Z</time>
    </trkpt>
    <trkpt lat="49.673464" lon="20.23937">
      <ele>712</ele>
      <time>2026-05-07T09:18:30Z</time>
    </trkpt>
    <trkpt lat="49.673387" lon="20.239466">
      <ele>716</ele>
      <time>2026-05-07T09:18:48Z</time>
    </trkpt>
    <trkpt lat="49.673283" lon="20.239595">
      <ele>720</ele>
      <time>2026-05-07T09:19:12Z</time>
    </trkpt>
    <trkpt lat="49.673196" lon="20.239719">
      <ele>723</ele>
      <time>2026-05-07T09:19:33Z</time>
    </trkpt>
    <trkpt lat="49.673079" lon="20.239799">
      <ele>725</ele>
      <time>2026-05-07T09:19:55Z</time>
    </trkpt>
    <trkpt lat="49.672884" lon="20.239858">
      <ele>728</ele>
      <time>2026-05-07T09:20:30Z</time>
    </trkpt>
    <trkpt lat="49.672617" lon="20.239901">
      <ele>730</ele>
      <time>2026-05-07T09:21:17Z</time>
    </trkpt>
    <trkpt lat="49.672096" lon="20.239866">
      <ele>736</ele>
      <time>2026-05-07T09:22:48Z</time>
    </trkpt>
    <trkpt lat="49.671825" lon="20.239922">
      <ele>741</ele>
      <time>2026-05-07T09:23:36Z</time>
    </trkpt>
    <trkpt lat="49.671645" lon="20.239906">
      <ele>743</ele>
      <time>2026-05-07T09:24:08Z</time>
    </trkpt>
    <trkpt lat="49.67136" lon="20.23996">
      <ele>745</ele>
      <time>2026-05-07T09:24:58Z</time>
    </trkpt>
    <trkpt lat="49.671152" lon="20.239944">
      <ele>747</ele>
      <time>2026-05-07T09:25:34Z</time>
    </trkpt>
    <trkpt lat="49.671006" lon="20.239955">
      <ele>749</ele>
      <time>2026-05-07T09:25:59Z</time>
    </trkpt>
    <trkpt lat="49.670846" lon="20.24004">
      <ele>751</ele>
      <time>2026-05-07T09:26:29Z</time>
    </trkpt>
    <trkpt lat="49.670678" lon="20.240209">
      <ele>753</ele>
      <time>2026-05-07T09:27:04Z</time>
    </trkpt>
    <trkpt lat="49.670321" lon="20.240659">
      <ele>754</ele>
      <time>2026-05-07T09:28:24Z</time>
    </trkpt>
    <trkpt lat="49.670263" lon="20.240732">
      <ele>754</ele>
      <time>2026-05-07T09:28:37Z</time>
    </trkpt>
    <trkpt lat="49.670062" lon="20.241103">
      <ele>755</ele>
      <time>2026-05-07T09:29:31Z</time>
    </trkpt>
    <trkpt lat="49.669947" lon="20.241398">
      <ele>755</ele>
      <time>2026-05-07T09:30:10Z</time>
    </trkpt>
    <trkpt lat="49.669766" lon="20.241805">
      <ele>759</ele>
      <time>2026-05-07T09:31:06Z</time>
    </trkpt>
    <trkpt lat="49.669538" lon="20.242203">
      <ele>766</ele>
      <time>2026-05-07T09:32:07Z</time>
    </trkpt>
    <trkpt lat="49.669353" lon="20.242479">
      <ele>771</ele>
      <time>2026-05-07T09:32:52Z</time>
    </trkpt>
    <trkpt lat="49.669187" lon="20.242727">
      <ele>774</ele>
      <time>2026-05-07T09:33:32Z</time>
    </trkpt>
    <trkpt lat="49.668982" lon="20.24326">
      <ele>777</ele>
      <time>2026-05-07T09:34:42Z</time>
    </trkpt>
    <trkpt lat="49.668637" lon="20.244007">
      <ele>783</ele>
      <time>2026-05-07T09:36:26Z</time>
    </trkpt>
    <trkpt lat="49.668253" lon="20.244385">
      <ele>788</ele>
      <time>2026-05-07T09:37:45Z</time>
    </trkpt>
    <trkpt lat="49.667847" lon="20.244738">
      <ele>796</ele>
      <time>2026-05-07T09:39:07Z</time>
    </trkpt>
    <trkpt lat="49.667725" lon="20.244961">
      <ele>800</ele>
      <time>2026-05-07T09:39:40Z</time>
    </trkpt>
    <trkpt lat="49.667603" lon="20.24534">
      <ele>807</ele>
      <time>2026-05-07T09:40:29Z</time>
    </trkpt>
    <trkpt lat="49.66753" lon="20.245683">
      <ele>812</ele>
      <time>2026-05-07T09:41:11Z</time>
    </trkpt>
    <trkpt lat="49.6674" lon="20.246314">
      <ele>819</ele>
      <time>2026-05-07T09:42:26Z</time>
    </trkpt>
    <trkpt lat="49.667282" lon="20.246808">
      <ele>824</ele>
      <time>2026-05-07T09:43:26Z</time>
    </trkpt>
    <trkpt lat="49.667135" lon="20.247379">
      <ele>825</ele>
      <time>2026-05-07T09:44:35Z</time>
    </trkpt>
    <trkpt lat="49.667013" lon="20.247746">
      <ele>823</ele>
      <time>2026-05-07T09:45:21Z</time>
    </trkpt>
    <trkpt lat="49.666991" lon="20.247854">
      <ele>823</ele>
      <time>2026-05-07T09:45:34Z</time>
    </trkpt>
    <trkpt lat="49.666937" lon="20.248122">
      <ele>824</ele>
      <time>2026-05-07T09:46:05Z</time>
    </trkpt>
    <trkpt lat="49.666864" lon="20.248326">
      <ele>824</ele>
      <time>2026-05-07T09:46:32Z</time>
    </trkpt>
    <trkpt lat="49.666724" lon="20.248527">
      <ele>825</ele>
      <time>2026-05-07T09:47:05Z</time>
    </trkpt>
    <trkpt lat="49.666562" lon="20.248827">
      <ele>825</ele>
      <time>2026-05-07T09:47:49Z</time>
    </trkpt>
    <trkpt lat="49.666462" lon="20.249086">
      <ele>825</ele>
      <time>2026-05-07T09:48:23Z</time>
    </trkpt>
    <trkpt lat="49.66639" lon="20.249307">
      <ele>824</ele>
      <time>2026-05-07T09:48:50Z</time>
    </trkpt>
    <trkpt lat="49.666319" lon="20.24949">
      <ele>823</ele>
      <time>2026-05-07T09:49:14Z</time>
    </trkpt>
    <trkpt lat="49.666014" lon="20.250026">
      <ele>820</ele>
      <time>2026-05-07T09:50:35Z</time>
    </trkpt>
    <trkpt lat="49.665969" lon="20.250159">
      <ele>819</ele>
      <time>2026-05-07T09:50:52Z</time>
    </trkpt>
    <trkpt lat="49.665895" lon="20.250375">
      <ele>819</ele>
      <time>2026-05-07T09:51:19Z</time>
    </trkpt>
    <trkpt lat="49.665822" lon="20.250638">
      <ele>820</ele>
      <time>2026-05-07T09:51:51Z</time>
    </trkpt>
    <trkpt lat="49.665777" lon="20.250925">
      <ele>822</ele>
      <time>2026-05-07T09:52:25Z</time>
    </trkpt>
    <trkpt lat="49.665698" lon="20.251234">
      <ele>825</ele>
      <time>2026-05-07T09:53:02Z</time>
    </trkpt>
    <trkpt lat="49.665675" lon="20.251321">
      <ele>827</ele>
      <time>2026-05-07T09:53:13Z</time>
    </trkpt>
    <trkpt lat="49.66566" lon="20.25138">
      <ele>828</ele>
      <time>2026-05-07T09:53:21Z</time>
    </trkpt>
    <trkpt lat="49.665663" lon="20.251775">
      <ele>838</ele>
      <time>2026-05-07T09:54:07Z</time>
    </trkpt>
    <trkpt lat="49.665694" lon="20.251925">
      <ele>841</ele>
      <time>2026-05-07T09:54:26Z</time>
    </trkpt>
    <trkpt lat="49.665697" lon="20.252148">
      <ele>845</ele>
      <time>2026-05-07T09:54:51Z</time>
    </trkpt>
    <trkpt lat="49.665678" lon="20.252456">
      <ele>850</ele>
      <time>2026-05-07T09:55:27Z</time>
    </trkpt>
    <trkpt lat="49.665675" lon="20.252582">
      <ele>851</ele>
      <time>2026-05-07T09:55:42Z</time>
    </trkpt>
    <trkpt lat="49.665675" lon="20.252749">
      <ele>853</ele>
      <time>2026-05-07T09:56:01Z</time>
    </trkpt>
    <trkpt lat="49.665626" lon="20.252859">
      <ele>855</ele>
      <time>2026-05-07T09:56:16Z</time>
    </trkpt>
    <trkpt lat="49.665574" lon="20.252902">
      <ele>857</ele>
      <time>2026-05-07T09:56:26Z</time>
    </trkpt>
    <trkpt lat="49.665466" lon="20.252896">
      <ele>858</ele>
      <time>2026-05-07T09:56:45Z</time>
    </trkpt>
    <trkpt lat="49.665352" lon="20.252915">
      <ele>860</ele>
      <time>2026-05-07T09:57:05Z</time>
    </trkpt>
    <trkpt lat="49.665282" lon="20.252958">
      <ele>862</ele>
      <time>2026-05-07T09:57:19Z</time>
    </trkpt>
    <trkpt lat="49.66505" lon="20.253213">
      <ele>864</ele>
      <time>2026-05-07T09:58:08Z</time>
    </trkpt>
    <trkpt lat="49.664966" lon="20.253347">
      <ele>865</ele>
      <time>2026-05-07T09:58:29Z</time>
    </trkpt>
    <trkpt lat="49.664909" lon="20.253529">
      <ele>864</ele>
      <time>2026-05-07T09:58:52Z</time>
    </trkpt>
    <trkpt lat="49.664892" lon="20.253685">
      <ele>864</ele>
      <time>2026-05-07T09:59:10Z</time>
    </trkpt>
    <trkpt lat="49.664857" lon="20.253819">
      <ele>864</ele>
      <time>2026-05-07T09:59:26Z</time>
    </trkpt>
    <trkpt lat="49.664805" lon="20.25398">
      <ele>864</ele>
      <time>2026-05-07T09:59:46Z</time>
    </trkpt>
    <trkpt lat="49.664641" lon="20.254194">
      <ele>863</ele>
      <time>2026-05-07T10:00:24Z</time>
    </trkpt>
    <trkpt lat="49.664476" lon="20.254394">
      <ele>862</ele>
      <time>2026-05-07T10:01:00Z</time>
    </trkpt>
    <trkpt lat="49.664326" lon="20.254575">
      <ele>863</ele>
      <time>2026-05-07T10:01:33Z</time>
    </trkpt>
    <trkpt lat="49.664139" lon="20.254738">
      <ele>866</ele>
      <time>2026-05-07T10:02:11Z</time>
    </trkpt>
    <trkpt lat="49.663894" lon="20.254916">
      <ele>876</ele>
      <time>2026-05-07T10:03:00Z</time>
    </trkpt>
    <trkpt lat="49.663824" lon="20.255012">
      <ele>878</ele>
      <time>2026-05-07T10:03:17Z</time>
    </trkpt>
    <trkpt lat="49.663766" lon="20.255154">
      <ele>882</ele>
      <time>2026-05-07T10:03:37Z</time>
    </trkpt>
    <trkpt lat="49.663502" lon="20.255431">
      <ele>891</ele>
      <time>2026-05-07T10:04:34Z</time>
    </trkpt>
    <trkpt lat="49.663254" lon="20.25602">
      <ele>902</ele>
      <time>2026-05-07T10:05:54Z</time>
    </trkpt>
    <trkpt lat="49.662928" lon="20.256519">
      <ele>907</ele>
      <time>2026-05-07T10:07:15Z</time>
    </trkpt>
    <trkpt lat="49.662836" lon="20.256895">
      <ele>911</ele>
      <time>2026-05-07T10:08:00Z</time>
    </trkpt>
    <trkpt lat="49.662751" lon="20.257126">
      <ele>912</ele>
      <time>2026-05-07T10:08:30Z</time>
    </trkpt>
    <trkpt lat="49.662224" lon="20.258032">
      <ele>915</ele>
      <time>2026-05-07T10:10:47Z</time>
    </trkpt>
    <trkpt lat="49.661902" lon="20.258542">
      <ele>919</ele>
      <time>2026-05-07T10:12:07Z</time>
    </trkpt>
    <trkpt lat="49.661801" lon="20.258762">
      <ele>921</ele>
      <time>2026-05-07T10:12:38Z</time>
    </trkpt>
    <trkpt lat="49.661565" lon="20.259089">
      <ele>927</ele>
      <time>2026-05-07T10:13:34Z</time>
    </trkpt>
    <trkpt lat="49.66149" lon="20.259227">
      <ele>930</ele>
      <time>2026-05-07T10:13:54Z</time>
    </trkpt>
    <trkpt lat="49.661374" lon="20.259441">
      <ele>933</ele>
      <time>2026-05-07T10:14:26Z</time>
    </trkpt>
    <trkpt lat="49.661204" lon="20.259835">
      <ele>938</ele>
      <time>2026-05-07T10:15:20Z</time>
    </trkpt>
    <trkpt lat="49.661075" lon="20.260031">
      <ele>943</ele>
      <time>2026-05-07T10:15:52Z</time>
    </trkpt>
    <trkpt lat="49.660843" lon="20.260549">
      <ele>954</ele>
      <time>2026-05-07T10:17:05Z</time>
    </trkpt>
    <trkpt lat="49.660749" lon="20.260828">
      <ele>957</ele>
      <time>2026-05-07T10:17:41Z</time>
    </trkpt>
    <trkpt lat="49.660656" lon="20.261021">
      <ele>961</ele>
      <time>2026-05-07T10:18:09Z</time>
    </trkpt>
    <trkpt lat="49.660593" lon="20.261251">
      <ele>965</ele>
      <time>2026-05-07T10:18:37Z</time>
    </trkpt>
    <trkpt lat="49.660482" lon="20.26155">
      <ele>970</ele>
      <time>2026-05-07T10:19:17Z</time>
    </trkpt>
    <trkpt lat="49.660368" lon="20.26209">
      <ele>973</ele>
      <time>2026-05-07T10:20:21Z</time>
    </trkpt>
    <trkpt lat="49.660176" lon="20.262501">
      <ele>976</ele>
      <time>2026-05-07T10:21:18Z</time>
    </trkpt>
    <trkpt lat="49.659941" lon="20.262972">
      <ele>980</ele>
      <time>2026-05-07T10:22:25Z</time>
    </trkpt>
    <trkpt lat="49.65992" lon="20.26307">
      <ele>981</ele>
      <time>2026-05-07T10:22:37Z</time>
    </trkpt>
    <trkpt lat="49.65992" lon="20.263258">
      <ele>982</ele>
      <time>2026-05-07T10:22:58Z</time>
    </trkpt>
    <trkpt lat="49.659874" lon="20.26351">
      <ele>984</ele>
      <time>2026-05-07T10:23:28Z</time>
    </trkpt>
    <trkpt lat="49.659857" lon="20.263885">
      <ele>987</ele>
      <time>2026-05-07T10:24:10Z</time>
    </trkpt>
    <trkpt lat="49.659813" lon="20.264223">
      <ele>990</ele>
      <time>2026-05-07T10:24:49Z</time>
    </trkpt>
    <trkpt lat="49.659479" lon="20.264861">
      <ele>993</ele>
      <time>2026-05-07T10:26:21Z</time>
    </trkpt>
    <trkpt lat="49.659231" lon="20.265317">
      <ele>994</ele>
      <time>2026-05-07T10:27:28Z</time>
    </trkpt>
    <trkpt lat="49.658928" lon="20.265797">
      <ele>993</ele>
      <time>2026-05-07T10:28:44Z</time>
    </trkpt>
    <trkpt lat="49.65882" lon="20.266099">
      <ele>995</ele>
      <time>2026-05-07T10:29:23Z</time>
    </trkpt>
    <trkpt lat="49.658582" lon="20.266763">
      <ele>998</ele>
      <time>2026-05-07T10:30:48Z</time>
    </trkpt>
    <trkpt lat="49.658548" lon="20.267099">
      <ele>996</ele>
      <time>2026-05-07T10:31:27Z</time>
    </trkpt>
    <trkpt lat="49.658593" lon="20.267394">
      <ele>993</ele>
      <time>2026-05-07T10:32:01Z</time>
    </trkpt>
    <trkpt lat="49.658645" lon="20.267689">
      <ele>990</ele>
      <time>2026-05-07T10:32:36Z</time>
    </trkpt>
    <trkpt lat="49.65874" lon="20.268011">
      <ele>987</ele>
      <time>2026-05-07T10:33:16Z</time>
    </trkpt>
    <trkpt lat="49.658791" lon="20.268182">
      <ele>987</ele>
      <time>2026-05-07T10:33:37Z</time>
    </trkpt>
    <trkpt lat="49.658826" lon="20.268456">
      <ele>986</ele>
      <time>2026-05-07T10:34:08Z</time>
    </trkpt>
    <trkpt lat="49.658904" lon="20.268762">
      <ele>986</ele>
      <time>2026-05-07T10:34:45Z</time>
    </trkpt>
    <trkpt lat="49.658972" lon="20.269078">
      <ele>986</ele>
      <time>2026-05-07T10:35:23Z</time>
    </trkpt>
    <trkpt lat="49.658985" lon="20.269325">
      <ele>987</ele>
      <time>2026-05-07T10:35:50Z</time>
    </trkpt>
    <trkpt lat="49.659048" lon="20.269566">
      <ele>988</ele>
      <time>2026-05-07T10:36:20Z</time>
    </trkpt>
    <trkpt lat="49.659187" lon="20.270022">
      <ele>991</ele>
      <time>2026-05-07T10:37:17Z</time>
    </trkpt>
    <trkpt lat="49.659232" lon="20.270408">
      <ele>994</ele>
      <time>2026-05-07T10:38:01Z</time>
    </trkpt>
    <trkpt lat="49.659241" lon="20.270477">
      <ele>995</ele>
      <time>2026-05-07T10:38:09Z</time>
    </trkpt>
    <trkpt lat="49.659277" lon="20.270743">
      <ele>1000</ele>
      <time>2026-05-07T10:38:41Z</time>
    </trkpt>
    <trkpt lat="49.659291" lon="20.270844">
      <ele>1002</ele>
      <time>2026-05-07T10:38:53Z</time>
    </trkpt>
    <trkpt lat="49.659295" lon="20.271091">
      <ele>1009</ele>
      <time>2026-05-07T10:39:22Z</time>
    </trkpt>
    <trkpt lat="49.659286" lon="20.271378">
      <ele>1016</ele>
      <time>2026-05-07T10:39:56Z</time>
    </trkpt>
    <trkpt lat="49.659273" lon="20.2715">
      <ele>1019</ele>
      <time>2026-05-07T10:40:11Z</time>
    </trkpt>
    <trkpt lat="49.6591" lon="20.271763">
      <ele>1025</ele>
      <time>2026-05-07T10:40:54Z</time>
    </trkpt>
    <trkpt lat="49.658989" lon="20.271879">
      <ele>1027</ele>
      <time>2026-05-07T10:41:18Z</time>
    </trkpt>
    <trkpt lat="49.658899" lon="20.271999">
      <ele>1030</ele>
      <time>2026-05-07T10:41:39Z</time>
    </trkpt>
    <trkpt lat="49.658793" lon="20.2722">
      <ele>1036</ele>
      <time>2026-05-07T10:42:09Z</time>
    </trkpt>
    <trkpt lat="49.658763" lon="20.27233">
      <ele>1039</ele>
      <time>2026-05-07T10:42:26Z</time>
    </trkpt>
    <trkpt lat="49.658746" lon="20.272405">
      <ele>1041</ele>
      <time>2026-05-07T10:42:35Z</time>
    </trkpt>
    <trkpt lat="49.65872" lon="20.272519">
      <ele>1044</ele>
      <time>2026-05-07T10:42:50Z</time>
    </trkpt>
    <trkpt lat="49.658676" lon="20.272633">
      <ele>1047</ele>
      <time>2026-05-07T10:43:05Z</time>
    </trkpt>
    <trkpt lat="49.658635" lon="20.272768">
      <ele>1051</ele>
      <time>2026-05-07T10:43:23Z</time>
    </trkpt>
    <trkpt lat="49.658598" lon="20.272904">
      <ele>1053</ele>
      <time>2026-05-07T10:43:40Z</time>
    </trkpt>
    <trkpt lat="49.658574" lon="20.273053">
      <ele>1056</ele>
      <time>2026-05-07T10:43:58Z</time>
    </trkpt>
    <trkpt lat="49.658501" lon="20.273267">
      <ele>1057</ele>
      <time>2026-05-07T10:44:25Z</time>
    </trkpt>
    <trkpt lat="49.658359" lon="20.273528">
      <ele>1060</ele>
      <time>2026-05-07T10:45:04Z</time>
    </trkpt>
    <trkpt lat="49.65824" lon="20.273648">
      <ele>1062</ele>
      <time>2026-05-07T10:45:29Z</time>
    </trkpt>
    <trkpt lat="49.658068" lon="20.273841">
      <ele>1067</ele>
      <time>2026-05-07T10:46:06Z</time>
    </trkpt>
    <trkpt lat="49.657872" lon="20.274035">
      <ele>1072</ele>
      <time>2026-05-07T10:46:48Z</time>
    </trkpt>
    <trkpt lat="49.657754" lon="20.274132">
      <ele>1075</ele>
      <time>2026-05-07T10:47:11Z</time>
    </trkpt>
    <trkpt lat="49.657633" lon="20.27419">
      <ele>1076</ele>
      <time>2026-05-07T10:47:33Z</time>
    </trkpt>
    <trkpt lat="49.657508" lon="20.274205">
      <ele>1077</ele>
      <time>2026-05-07T10:47:55Z</time>
    </trkpt>
    <trkpt lat="49.657388" lon="20.274182">
      <ele>1078</ele>
      <time>2026-05-07T10:48:16Z</time>
    </trkpt>
    <trkpt lat="49.657256" lon="20.274122">
      <ele>1078</ele>
      <time>2026-05-07T10:48:40Z</time>
    </trkpt>
    <trkpt lat="49.657027" lon="20.274054">
      <ele>1079</ele>
      <time>2026-05-07T10:49:21Z</time>
    </trkpt>
    <trkpt lat="49.656827" lon="20.274002">
      <ele>1079</ele>
      <time>2026-05-07T10:49:56Z</time>
    </trkpt>
    <trkpt lat="49.656621" lon="20.273946">
      <ele>1079</ele>
      <time>2026-05-07T10:50:32Z</time>
    </trkpt>
    <trkpt lat="49.656471" lon="20.273923">
      <ele>1081</ele>
      <time>2026-05-07T10:50:58Z</time>
    </trkpt>
    <trkpt lat="49.656254" lon="20.273895">
      <ele>1084</ele>
      <time>2026-05-07T10:51:36Z</time>
    </trkpt>
    <trkpt lat="49.656016" lon="20.273855">
      <ele>1084</ele>
      <time>2026-05-07T10:52:18Z</time>
    </trkpt>
    <trkpt lat="49.655984" lon="20.274041">
      <ele>1091</ele>
      <time>2026-05-07T10:53:11Z</time>
    </trkpt>
    <trkpt lat="49.655938" lon="20.274169">
      <ele>1096</ele>
      <time>2026-05-07T10:53:51Z</time>
    </trkpt>
    <trkpt lat="49.655924" lon="20.274242">
      <ele>1099</ele>
      <time>2026-05-07T10:54:12Z</time>
    </trkpt>
    <trkpt lat="49.655883" lon="20.274401">
      <ele>1106</ele>
      <time>2026-05-07T10:54:59Z</time>
    </trkpt>
    <trkpt lat="49.655832" lon="20.274601">
      <ele>1112</ele>
      <time>2026-05-07T10:55:55Z</time>
    </trkpt>
    <trkpt lat="49.655791" lon="20.274773">
      <ele>1117</ele>
      <time>2026-05-07T10:56:43Z</time>
    </trkpt>
    <trkpt lat="49.655791" lon="20.274947">
      <ele>1121</ele>
      <time>2026-05-07T10:57:28Z</time>
    </trkpt>
    <trkpt lat="49.655813" lon="20.275094">
      <ele>1125</ele>
      <time>2026-05-07T10:58:06Z</time>
    </trkpt>
    <trkpt lat="49.655886" lon="20.275234">
      <ele>1128</ele>
      <time>2026-05-07T10:58:51Z</time>
    </trkpt>
    <trkpt lat="49.655921" lon="20.275393">
      <ele>1131</ele>
      <time>2026-05-07T10:59:34Z</time>
    </trkpt>
    <trkpt lat="49.655959" lon="20.275613">
      <ele>1136</ele>
      <time>2026-05-07T11:00:32Z</time>
    </trkpt>
    <trkpt lat="49.655986" lon="20.2759">
      <ele>1142</ele>
      <time>2026-05-07T11:01:45Z</time>
    </trkpt>
    <trkpt lat="49.656013" lon="20.276025">
      <ele>1143</ele>
      <time>2026-05-07T11:02:18Z</time>
    </trkpt>
    <trkpt lat="49.655938" lon="20.276175">
      <ele>1147</ele>
      <time>2026-05-07T11:02:58Z</time>
    </trkpt>
    <trkpt lat="49.65586" lon="20.27625">
      <ele>1149</ele>
      <time>2026-05-07T11:03:28Z</time>
    </trkpt>
    <trkpt lat="49.655759" lon="20.276282">
      <ele>1151</ele>
      <time>2026-05-07T11:04:01Z</time>
    </trkpt>
    <trkpt lat="49.655672" lon="20.276331">
      <ele>1153</ele>
      <time>2026-05-07T11:04:31Z</time>
    </trkpt>
    <trkpt lat="49.655572" lon="20.27647">
      <ele>1157</ele>
      <time>2026-05-07T11:05:15Z</time>
    </trkpt>
    <trkpt lat="49.655443" lon="20.276612">
      <ele>1160</ele>
      <time>2026-05-07T11:06:06Z</time>
    </trkpt>
    <trkpt lat="49.65533" lon="20.276669">
      <ele>1166</ele>
      <time>2026-05-07T11:06:48Z</time>
    </trkpt>
    <trkpt lat="49.65525" lon="20.276728">
      <ele>1170</ele>
      <time>2026-05-07T11:07:18Z</time>
    </trkpt>
    <trkpt lat="49.65533" lon="20.276669">
      <ele>1166</ele>
      <time>2026-05-07T11:07:30Z</time>
    </trkpt>
    <trkpt lat="49.655443" lon="20.276612">
      <ele>1160</ele>
      <time>2026-05-07T11:07:47Z</time>
    </trkpt>
    <trkpt lat="49.655572" lon="20.27647">
      <ele>1157</ele>
      <time>2026-05-07T11:08:07Z</time>
    </trkpt>
    <trkpt lat="49.655672" lon="20.276331">
      <ele>1153</ele>
      <time>2026-05-07T11:08:25Z</time>
    </trkpt>
    <trkpt lat="49.655759" lon="20.276282">
      <ele>1151</ele>
      <time>2026-05-07T11:08:37Z</time>
    </trkpt>
    <trkpt lat="49.65586" lon="20.27625">
      <ele>1149</ele>
      <time>2026-05-07T11:08:50Z</time>
    </trkpt>
    <trkpt lat="49.655938" lon="20.276175">
      <ele>1147</ele>
      <time>2026-05-07T11:09:02Z</time>
    </trkpt>
    <trkpt lat="49.656013" lon="20.276025">
      <ele>1143</ele>
      <time>2026-05-07T11:09:18Z</time>
    </trkpt>
    <trkpt lat="49.655986" lon="20.2759">
      <ele>1142</ele>
      <time>2026-05-07T11:09:28Z</time>
    </trkpt>
    <trkpt lat="49.655959" lon="20.275613">
      <ele>1136</ele>
      <time>2026-05-07T11:09:50Z</time>
    </trkpt>
    <trkpt lat="49.655921" lon="20.275393">
      <ele>1131</ele>
      <time>2026-05-07T11:10:07Z</time>
    </trkpt>
    <trkpt lat="49.655886" lon="20.275234">
      <ele>1128</ele>
      <time>2026-05-07T11:10:20Z</time>
    </trkpt>
    <trkpt lat="49.655813" lon="20.275094">
      <ele>1125</ele>
      <time>2026-05-07T11:10:33Z</time>
    </trkpt>
    <trkpt lat="49.655791" lon="20.274947">
      <ele>1121</ele>
      <time>2026-05-07T11:10:45Z</time>
    </trkpt>
    <trkpt lat="49.655791" lon="20.274773">
      <ele>1117</ele>
      <time>2026-05-07T11:10:59Z</time>
    </trkpt>
    <trkpt lat="49.655832" lon="20.274601">
      <ele>1112</ele>
      <time>2026-05-07T11:11:13Z</time>
    </trkpt>
    <trkpt lat="49.655883" lon="20.274401">
      <ele>1106</ele>
      <time>2026-05-07T11:11:30Z</time>
    </trkpt>
    <trkpt lat="49.655924" lon="20.274242">
      <ele>1099</ele>
      <time>2026-05-07T11:11:44Z</time>
    </trkpt>
    <trkpt lat="49.655938" lon="20.274169">
      <ele>1096</ele>
      <time>2026-05-07T11:11:50Z</time>
    </trkpt>
    <trkpt lat="49.655984" lon="20.274041">
      <ele>1091</ele>
      <time>2026-05-07T11:12:02Z</time>
    </trkpt>
    <trkpt lat="49.656016" lon="20.273855">
      <ele>1084</ele>
      <time>2026-05-07T11:12:18Z</time>
    </trkpt>
    <trkpt lat="49.656254" lon="20.273895">
      <ele>1084</ele>
      <time>2026-05-07T11:12:42Z</time>
    </trkpt>
    <trkpt lat="49.656471" lon="20.273923">
      <ele>1081</ele>
      <time>2026-05-07T11:13:04Z</time>
    </trkpt>
    <trkpt lat="49.656621" lon="20.273946">
      <ele>1079</ele>
      <time>2026-05-07T11:13:19Z</time>
    </trkpt>
    <trkpt lat="49.656827" lon="20.274002">
      <ele>1079</ele>
      <time>2026-05-07T11:13:40Z</time>
    </trkpt>
    <trkpt lat="49.657027" lon="20.274054">
      <ele>1079</ele>
      <time>2026-05-07T11:14:00Z</time>
    </trkpt>
    <trkpt lat="49.657256" lon="20.274122">
      <ele>1078</ele>
      <time>2026-05-07T11:14:23Z</time>
    </trkpt>
    <trkpt lat="49.657388" lon="20.274182">
      <ele>1078</ele>
      <time>2026-05-07T11:14:37Z</time>
    </trkpt>
    <trkpt lat="49.657508" lon="20.274205">
      <ele>1077</ele>
      <time>2026-05-07T11:14:49Z</time>
    </trkpt>
    <trkpt lat="49.657633" lon="20.27419">
      <ele>1076</ele>
      <time>2026-05-07T11:15:01Z</time>
    </trkpt>
    <trkpt lat="49.657754" lon="20.274132">
      <ele>1075</ele>
      <time>2026-05-07T11:15:14Z</time>
    </trkpt>
    <trkpt lat="49.657872" lon="20.274035">
      <ele>1072</ele>
      <time>2026-05-07T11:15:28Z</time>
    </trkpt>
    <trkpt lat="49.658068" lon="20.273841">
      <ele>1067</ele>
      <time>2026-05-07T11:15:51Z</time>
    </trkpt>
    <trkpt lat="49.65824" lon="20.273648">
      <ele>1062</ele>
      <time>2026-05-07T11:16:13Z</time>
    </trkpt>
    <trkpt lat="49.658359" lon="20.273528">
      <ele>1060</ele>
      <time>2026-05-07T11:16:27Z</time>
    </trkpt>
    <trkpt lat="49.658501" lon="20.273267">
      <ele>1057</ele>
      <time>2026-05-07T11:16:49Z</time>
    </trkpt>
    <trkpt lat="49.658574" lon="20.273053">
      <ele>1056</ele>
      <time>2026-05-07T11:17:05Z</time>
    </trkpt>
    <trkpt lat="49.658598" lon="20.272904">
      <ele>1053</ele>
      <time>2026-05-07T11:17:15Z</time>
    </trkpt>
    <trkpt lat="49.658635" lon="20.272768">
      <ele>1051</ele>
      <time>2026-05-07T11:17:25Z</time>
    </trkpt>
    <trkpt lat="49.658676" lon="20.272633">
      <ele>1047</ele>
      <time>2026-05-07T11:17:35Z</time>
    </trkpt>
    <trkpt lat="49.65872" lon="20.272519">
      <ele>1044</ele>
      <time>2026-05-07T11:17:44Z</time>
    </trkpt>
    <trkpt lat="49.658746" lon="20.272405">
      <ele>1041</ele>
      <time>2026-05-07T11:17:52Z</time>
    </trkpt>
    <trkpt lat="49.658763" lon="20.27233">
      <ele>1039</ele>
      <time>2026-05-07T11:17:58Z</time>
    </trkpt>
    <trkpt lat="49.658793" lon="20.2722">
      <ele>1036</ele>
      <time>2026-05-07T11:18:07Z</time>
    </trkpt>
    <trkpt lat="49.658899" lon="20.271999">
      <ele>1030</ele>
      <time>2026-05-07T11:18:25Z</time>
    </trkpt>
    <trkpt lat="49.658989" lon="20.271879">
      <ele>1027</ele>
      <time>2026-05-07T11:18:37Z</time>
    </trkpt>
    <trkpt lat="49.6591" lon="20.271763">
      <ele>1025</ele>
      <time>2026-05-07T11:18:50Z</time>
    </trkpt>
    <trkpt lat="49.659273" lon="20.2715">
      <ele>1019</ele>
      <time>2026-05-07T11:19:15Z</time>
    </trkpt>
    <trkpt lat="49.659286" lon="20.271378">
      <ele>1016</ele>
      <time>2026-05-07T11:19:23Z</time>
    </trkpt>
    <trkpt lat="49.659295" lon="20.271091">
      <ele>1009</ele>
      <time>2026-05-07T11:19:43Z</time>
    </trkpt>
    <trkpt lat="49.659291" lon="20.270844">
      <ele>1002</ele>
      <time>2026-05-07T11:20:00Z</time>
    </trkpt>
    <trkpt lat="49.659277" lon="20.270743">
      <ele>1000</ele>
      <time>2026-05-07T11:20:07Z</time>
    </trkpt>
    <trkpt lat="49.659241" lon="20.270477">
      <ele>995</ele>
      <time>2026-05-07T11:20:25Z</time>
    </trkpt>
    <trkpt lat="49.659232" lon="20.270408">
      <ele>994</ele>
      <time>2026-05-07T11:20:30Z</time>
    </trkpt>
    <trkpt lat="49.659187" lon="20.270022">
      <ele>991</ele>
      <time>2026-05-07T11:20:55Z</time>
    </trkpt>
    <trkpt lat="49.659048" lon="20.269566">
      <ele>988</ele>
      <time>2026-05-07T11:21:28Z</time>
    </trkpt>
    <trkpt lat="49.658985" lon="20.269325">
      <ele>987</ele>
      <time>2026-05-07T11:21:44Z</time>
    </trkpt>
    <trkpt lat="49.658972" lon="20.269078">
      <ele>986</ele>
      <time>2026-05-07T11:22:00Z</time>
    </trkpt>
    <trkpt lat="49.658904" lon="20.268762">
      <ele>986</ele>
      <time>2026-05-07T11:22:22Z</time>
    </trkpt>
    <trkpt lat="49.658826" lon="20.268456">
      <ele>986</ele>
      <time>2026-05-07T11:22:43Z</time>
    </trkpt>
    <trkpt lat="49.658791" lon="20.268182">
      <ele>987</ele>
      <time>2026-05-07T11:23:01Z</time>
    </trkpt>
    <trkpt lat="49.65874" lon="20.268011">
      <ele>987</ele>
      <time>2026-05-07T11:23:13Z</time>
    </trkpt>
    <trkpt lat="49.658645" lon="20.267689">
      <ele>990</ele>
      <time>2026-05-07T11:23:36Z</time>
    </trkpt>
    <trkpt lat="49.658593" lon="20.267394">
      <ele>993</ele>
      <time>2026-05-07T11:23:56Z</time>
    </trkpt>
    <trkpt lat="49.658548" lon="20.267099">
      <ele>996</ele>
      <time>2026-05-07T11:24:16Z</time>
    </trkpt>
    <trkpt lat="49.658582" lon="20.266763">
      <ele>998</ele>
      <time>2026-05-07T11:24:38Z</time>
    </trkpt>
    <trkpt lat="49.65882" lon="20.266099">
      <ele>995</ele>
      <time>2026-05-07T11:25:27Z</time>
    </trkpt>
    <trkpt lat="49.658928" lon="20.265797">
      <ele>993</ele>
      <time>2026-05-07T11:25:49Z</time>
    </trkpt>
    <trkpt lat="49.659231" lon="20.265317">
      <ele>994</ele>
      <time>2026-05-07T11:26:32Z</time>
    </trkpt>
    <trkpt lat="49.659479" lon="20.264861">
      <ele>993</ele>
      <time>2026-05-07T11:27:11Z</time>
    </trkpt>
    <trkpt lat="49.659813" lon="20.264223">
      <ele>990</ele>
      <time>2026-05-07T11:28:04Z</time>
    </trkpt>
    <trkpt lat="49.659857" lon="20.263885">
      <ele>987</ele>
      <time>2026-05-07T11:28:26Z</time>
    </trkpt>
    <trkpt lat="49.659874" lon="20.26351">
      <ele>984</ele>
      <time>2026-05-07T11:28:51Z</time>
    </trkpt>
    <trkpt lat="49.65992" lon="20.263258">
      <ele>982</ele>
      <time>2026-05-07T11:29:08Z</time>
    </trkpt>
    <trkpt lat="49.65992" lon="20.26307">
      <ele>981</ele>
      <time>2026-05-07T11:29:20Z</time>
    </trkpt>
    <trkpt lat="49.659941" lon="20.262972">
      <ele>980</ele>
      <time>2026-05-07T11:29:26Z</time>
    </trkpt>
    <trkpt lat="49.660176" lon="20.262501">
      <ele>976</ele>
      <time>2026-05-07T11:30:05Z</time>
    </trkpt>
    <trkpt lat="49.660368" lon="20.26209">
      <ele>973</ele>
      <time>2026-05-07T11:30:38Z</time>
    </trkpt>
    <trkpt lat="49.660482" lon="20.26155">
      <ele>970</ele>
      <time>2026-05-07T11:31:15Z</time>
    </trkpt>
    <trkpt lat="49.660593" lon="20.261251">
      <ele>965</ele>
      <time>2026-05-07T11:31:37Z</time>
    </trkpt>
    <trkpt lat="49.660656" lon="20.261021">
      <ele>961</ele>
      <time>2026-05-07T11:31:54Z</time>
    </trkpt>
    <trkpt lat="49.660749" lon="20.260828">
      <ele>957</ele>
      <time>2026-05-07T11:32:10Z</time>
    </trkpt>
    <trkpt lat="49.660843" lon="20.260549">
      <ele>954</ele>
      <time>2026-05-07T11:32:30Z</time>
    </trkpt>
    <trkpt lat="49.661075" lon="20.260031">
      <ele>943</ele>
      <time>2026-05-07T11:33:12Z</time>
    </trkpt>
    <trkpt lat="49.661204" lon="20.259835">
      <ele>938</ele>
      <time>2026-05-07T11:33:30Z</time>
    </trkpt>
    <trkpt lat="49.661374" lon="20.259441">
      <ele>933</ele>
      <time>2026-05-07T11:34:01Z</time>
    </trkpt>
    <trkpt lat="49.66149" lon="20.259227">
      <ele>930</ele>
      <time>2026-05-07T11:34:19Z</time>
    </trkpt>
    <trkpt lat="49.661565" lon="20.259089">
      <ele>927</ele>
      <time>2026-05-07T11:34:31Z</time>
    </trkpt>
    <trkpt lat="49.661801" lon="20.258762">
      <ele>921</ele>
      <time>2026-05-07T11:35:03Z</time>
    </trkpt>
    <trkpt lat="49.661902" lon="20.258542">
      <ele>919</ele>
      <time>2026-05-07T11:35:21Z</time>
    </trkpt>
    <trkpt lat="49.662224" lon="20.258032">
      <ele>915</ele>
      <time>2026-05-07T11:36:07Z</time>
    </trkpt>
    <trkpt lat="49.662751" lon="20.257126">
      <ele>912</ele>
      <time>2026-05-07T11:37:26Z</time>
    </trkpt>
    <trkpt lat="49.662836" lon="20.256895">
      <ele>911</ele>
      <time>2026-05-07T11:37:43Z</time>
    </trkpt>
    <trkpt lat="49.662928" lon="20.256519">
      <ele>907</ele>
      <time>2026-05-07T11:38:09Z</time>
    </trkpt>
    <trkpt lat="49.663254" lon="20.25602">
      <ele>902</ele>
      <time>2026-05-07T11:38:55Z</time>
    </trkpt>
    <trkpt lat="49.663502" lon="20.255431">
      <ele>891</ele>
      <time>2026-05-07T11:39:41Z</time>
    </trkpt>
    <trkpt lat="49.663766" lon="20.255154">
      <ele>882</ele>
      <time>2026-05-07T11:40:14Z</time>
    </trkpt>
    <trkpt lat="49.663824" lon="20.255012">
      <ele>878</ele>
      <time>2026-05-07T11:40:25Z</time>
    </trkpt>
    <trkpt lat="49.663894" lon="20.254916">
      <ele>876</ele>
      <time>2026-05-07T11:40:35Z</time>
    </trkpt>
    <trkpt lat="49.664139" lon="20.254738">
      <ele>866</ele>
      <time>2026-05-07T11:41:03Z</time>
    </trkpt>
    <trkpt lat="49.664326" lon="20.254575">
      <ele>863</ele>
      <time>2026-05-07T11:41:25Z</time>
    </trkpt>
    <trkpt lat="49.664476" lon="20.254394">
      <ele>862</ele>
      <time>2026-05-07T11:41:44Z</time>
    </trkpt>
    <trkpt lat="49.664641" lon="20.254194">
      <ele>863</ele>
      <time>2026-05-07T11:42:05Z</time>
    </trkpt>
    <trkpt lat="49.664805" lon="20.25398">
      <ele>864</ele>
      <time>2026-05-07T11:42:26Z</time>
    </trkpt>
    <trkpt lat="49.664857" lon="20.253819">
      <ele>864</ele>
      <time>2026-05-07T11:42:38Z</time>
    </trkpt>
    <trkpt lat="49.664892" lon="20.253685">
      <ele>864</ele>
      <time>2026-05-07T11:42:47Z</time>
    </trkpt>
    <trkpt lat="49.664909" lon="20.253529">
      <ele>864</ele>
      <time>2026-05-07T11:42:57Z</time>
    </trkpt>
    <trkpt lat="49.664966" lon="20.253347">
      <ele>865</ele>
      <time>2026-05-07T11:43:10Z</time>
    </trkpt>
    <trkpt lat="49.66505" lon="20.253213">
      <ele>864</ele>
      <time>2026-05-07T11:43:22Z</time>
    </trkpt>
    <trkpt lat="49.665282" lon="20.252958">
      <ele>862</ele>
      <time>2026-05-07T11:43:51Z</time>
    </trkpt>
    <trkpt lat="49.665352" lon="20.252915">
      <ele>860</ele>
      <time>2026-05-07T11:43:58Z</time>
    </trkpt>
    <trkpt lat="49.665466" lon="20.252896">
      <ele>858</ele>
      <time>2026-05-07T11:44:10Z</time>
    </trkpt>
    <trkpt lat="49.665574" lon="20.252902">
      <ele>857</ele>
      <time>2026-05-07T11:44:21Z</time>
    </trkpt>
    <trkpt lat="49.665626" lon="20.252859">
      <ele>855</ele>
      <time>2026-05-07T11:44:27Z</time>
    </trkpt>
    <trkpt lat="49.665675" lon="20.252749">
      <ele>853</ele>
      <time>2026-05-07T11:44:35Z</time>
    </trkpt>
    <trkpt lat="49.665675" lon="20.252582">
      <ele>851</ele>
      <time>2026-05-07T11:44:46Z</time>
    </trkpt>
    <trkpt lat="49.665678" lon="20.252456">
      <ele>850</ele>
      <time>2026-05-07T11:44:55Z</time>
    </trkpt>
    <trkpt lat="49.665697" lon="20.252148">
      <ele>845</ele>
      <time>2026-05-07T11:45:15Z</time>
    </trkpt>
    <trkpt lat="49.665694" lon="20.251925">
      <ele>841</ele>
      <time>2026-05-07T11:45:30Z</time>
    </trkpt>
    <trkpt lat="49.665663" lon="20.251775">
      <ele>838</ele>
      <time>2026-05-07T11:45:40Z</time>
    </trkpt>
    <trkpt lat="49.66566" lon="20.25138">
      <ele>828</ele>
      <time>2026-05-07T11:46:07Z</time>
    </trkpt>
    <trkpt lat="49.665675" lon="20.251321">
      <ele>827</ele>
      <time>2026-05-07T11:46:11Z</time>
    </trkpt>
    <trkpt lat="49.665698" lon="20.251234">
      <ele>825</ele>
      <time>2026-05-07T11:46:18Z</time>
    </trkpt>
    <trkpt lat="49.665777" lon="20.250925">
      <ele>822</ele>
      <time>2026-05-07T11:46:39Z</time>
    </trkpt>
    <trkpt lat="49.665822" lon="20.250638">
      <ele>820</ele>
      <time>2026-05-07T11:46:58Z</time>
    </trkpt>
    <trkpt lat="49.665895" lon="20.250375">
      <ele>819</ele>
      <time>2026-05-07T11:47:17Z</time>
    </trkpt>
    <trkpt lat="49.665969" lon="20.250159">
      <ele>819</ele>
      <time>2026-05-07T11:47:33Z</time>
    </trkpt>
    <trkpt lat="49.666014" lon="20.250026">
      <ele>820</ele>
      <time>2026-05-07T11:47:42Z</time>
    </trkpt>
    <trkpt lat="49.666319" lon="20.24949">
      <ele>823</ele>
      <time>2026-05-07T11:48:28Z</time>
    </trkpt>
    <trkpt lat="49.66639" lon="20.249307">
      <ele>824</ele>
      <time>2026-05-07T11:48:42Z</time>
    </trkpt>
    <trkpt lat="49.666462" lon="20.249086">
      <ele>825</ele>
      <time>2026-05-07T11:48:58Z</time>
    </trkpt>
    <trkpt lat="49.666562" lon="20.248827">
      <ele>825</ele>
      <time>2026-05-07T11:49:18Z</time>
    </trkpt>
    <trkpt lat="49.666724" lon="20.248527">
      <ele>825</ele>
      <time>2026-05-07T11:49:43Z</time>
    </trkpt>
    <trkpt lat="49.666864" lon="20.248326">
      <ele>824</ele>
      <time>2026-05-07T11:50:02Z</time>
    </trkpt>
    <trkpt lat="49.666937" lon="20.248122">
      <ele>824</ele>
      <time>2026-05-07T11:50:17Z</time>
    </trkpt>
    <trkpt lat="49.666991" lon="20.247854">
      <ele>823</ele>
      <time>2026-05-07T11:50:35Z</time>
    </trkpt>
    <trkpt lat="49.667013" lon="20.247746">
      <ele>823</ele>
      <time>2026-05-07T11:50:42Z</time>
    </trkpt>
    <trkpt lat="49.667135" lon="20.247379">
      <ele>825</ele>
      <time>2026-05-07T11:51:09Z</time>
    </trkpt>
    <trkpt lat="49.667282" lon="20.246808">
      <ele>824</ele>
      <time>2026-05-07T11:51:49Z</time>
    </trkpt>
    <trkpt lat="49.6674" lon="20.246314">
      <ele>819</ele>
      <time>2026-05-07T11:52:23Z</time>
    </trkpt>
    <trkpt lat="49.66753" lon="20.245683">
      <ele>812</ele>
      <time>2026-05-07T11:53:06Z</time>
    </trkpt>
    <trkpt lat="49.667603" lon="20.24534">
      <ele>807</ele>
      <time>2026-05-07T11:53:30Z</time>
    </trkpt>
    <trkpt lat="49.667725" lon="20.244961">
      <ele>800</ele>
      <time>2026-05-07T11:53:58Z</time>
    </trkpt>
    <trkpt lat="49.667847" lon="20.244738">
      <ele>796</ele>
      <time>2026-05-07T11:54:17Z</time>
    </trkpt>
    <trkpt lat="49.668253" lon="20.244385">
      <ele>788</ele>
      <time>2026-05-07T11:55:04Z</time>
    </trkpt>
    <trkpt lat="49.668637" lon="20.244007">
      <ele>783</ele>
      <time>2026-05-07T11:55:49Z</time>
    </trkpt>
    <trkpt lat="49.668982" lon="20.24326">
      <ele>777</ele>
      <time>2026-05-07T11:56:49Z</time>
    </trkpt>
    <trkpt lat="49.669187" lon="20.242727">
      <ele>774</ele>
      <time>2026-05-07T11:57:29Z</time>
    </trkpt>
    <trkpt lat="49.669353" lon="20.242479">
      <ele>771</ele>
      <time>2026-05-07T11:57:52Z</time>
    </trkpt>
    <trkpt lat="49.669538" lon="20.242203">
      <ele>766</ele>
      <time>2026-05-07T11:58:18Z</time>
    </trkpt>
    <trkpt lat="49.669766" lon="20.241805">
      <ele>759</ele>
      <time>2026-05-07T11:58:53Z</time>
    </trkpt>
    <trkpt lat="49.669947" lon="20.241398">
      <ele>755</ele>
      <time>2026-05-07T11:59:25Z</time>
    </trkpt>
    <trkpt lat="49.670062" lon="20.241103">
      <ele>755</ele>
      <time>2026-05-07T11:59:47Z</time>
    </trkpt>
    <trkpt lat="49.670263" lon="20.240732">
      <ele>754</ele>
      <time>2026-05-07T12:00:18Z</time>
    </trkpt>
    <trkpt lat="49.670321" lon="20.240659">
      <ele>754</ele>
      <time>2026-05-07T12:00:26Z</time>
    </trkpt>
    <trkpt lat="49.670678" lon="20.240209">
      <ele>753</ele>
      <time>2026-05-07T12:01:12Z</time>
    </trkpt>
    <trkpt lat="49.670846" lon="20.24004">
      <ele>751</ele>
      <time>2026-05-07T12:01:32Z</time>
    </trkpt>
    <trkpt lat="49.671006" lon="20.239955">
      <ele>749</ele>
      <time>2026-05-07T12:01:49Z</time>
    </trkpt>
    <trkpt lat="49.671152" lon="20.239944">
      <ele>747</ele>
      <time>2026-05-07T12:02:03Z</time>
    </trkpt>
    <trkpt lat="49.67136" lon="20.23996">
      <ele>745</ele>
      <time>2026-05-07T12:02:24Z</time>
    </trkpt>
    <trkpt lat="49.671645" lon="20.239906">
      <ele>743</ele>
      <time>2026-05-07T12:02:53Z</time>
    </trkpt>
    <trkpt lat="49.671825" lon="20.239922">
      <ele>741</ele>
      <time>2026-05-07T12:03:11Z</time>
    </trkpt>
    <trkpt lat="49.672096" lon="20.239866">
      <ele>736</ele>
      <time>2026-05-07T12:03:38Z</time>
    </trkpt>
    <trkpt lat="49.672617" lon="20.239901">
      <ele>730</ele>
      <time>2026-05-07T12:04:31Z</time>
    </trkpt>
    <trkpt lat="49.672884" lon="20.239858">
      <ele>728</ele>
      <time>2026-05-07T12:04:57Z</time>
    </trkpt>
    <trkpt lat="49.673079" lon="20.239799">
      <ele>725</ele>
      <time>2026-05-07T12:05:17Z</time>
    </trkpt>
    <trkpt lat="49.673196" lon="20.239719">
      <ele>723</ele>
      <time>2026-05-07T12:05:30Z</time>
    </trkpt>
    <trkpt lat="49.673283" lon="20.239595">
      <ele>720</ele>
      <time>2026-05-07T12:05:42Z</time>
    </trkpt>
    <trkpt lat="49.673387" lon="20.239466">
      <ele>716</ele>
      <time>2026-05-07T12:05:56Z</time>
    </trkpt>
    <trkpt lat="49.673464" lon="20.23937">
      <ele>712</ele>
      <time>2026-05-07T12:06:07Z</time>
    </trkpt>
    <trkpt lat="49.673512" lon="20.239273">
      <ele>710</ele>
      <time>2026-05-07T12:06:15Z</time>
    </trkpt>
    <trkpt lat="49.673552" lon="20.239185">
      <ele>707</ele>
      <time>2026-05-07T12:06:22Z</time>
    </trkpt>
    <trkpt lat="49.673559" lon="20.239112">
      <ele>706</ele>
      <time>2026-05-07T12:06:27Z</time>
    </trkpt>
    <trkpt lat="49.67353" lon="20.238992">
      <ele>705</ele>
      <time>2026-05-07T12:06:35Z</time>
    </trkpt>
    <trkpt lat="49.673479" lon="20.23889">
      <ele>704</ele>
      <time>2026-05-07T12:06:44Z</time>
    </trkpt>
    <trkpt lat="49.673414" lon="20.238654">
      <ele>701</ele>
      <time>2026-05-07T12:07:00Z</time>
    </trkpt>
    <trkpt lat="49.673405" lon="20.238436">
      <ele>697</ele>
      <time>2026-05-07T12:07:15Z</time>
    </trkpt>
    <trkpt lat="49.673382" lon="20.238238">
      <ele>693</ele>
      <time>2026-05-07T12:07:28Z</time>
    </trkpt>
    <trkpt lat="49.673214" lon="20.23764">
      <ele>681</ele>
      <time>2026-05-07T12:08:12Z</time>
    </trkpt>
    <trkpt lat="49.673231" lon="20.237538">
      <ele>678</ele>
      <time>2026-05-07T12:08:19Z</time>
    </trkpt>
    <trkpt lat="49.673299" lon="20.237425">
      <ele>675</ele>
      <time>2026-05-07T12:08:29Z</time>
    </trkpt>
    <trkpt lat="49.673353" lon="20.237348">
      <ele>673</ele>
      <time>2026-05-07T12:08:37Z</time>
    </trkpt>
    <trkpt lat="49.67343" lon="20.237288">
      <ele>671</ele>
      <time>2026-05-07T12:08:46Z</time>
    </trkpt>
    <trkpt lat="49.673512" lon="20.23728">
      <ele>670</ele>
      <time>2026-05-07T12:08:54Z</time>
    </trkpt>
    <trkpt lat="49.673647" lon="20.237288">
      <ele>668</ele>
      <time>2026-05-07T12:09:07Z</time>
    </trkpt>
    <trkpt lat="49.673766" lon="20.237339">
      <ele>668</ele>
      <time>2026-05-07T12:09:20Z</time>
    </trkpt>
    <trkpt lat="49.673818" lon="20.237345">
      <ele>668</ele>
      <time>2026-05-07T12:09:25Z</time>
    </trkpt>
    <trkpt lat="49.673917" lon="20.237318">
      <ele>667</ele>
      <time>2026-05-07T12:09:35Z</time>
    </trkpt>
    <trkpt lat="49.674044" lon="20.237227">
      <ele>664</ele>
      <time>2026-05-07T12:09:49Z</time>
    </trkpt>
    <trkpt lat="49.674288" lon="20.237085">
      <ele>658</ele>
      <time>2026-05-07T12:10:16Z</time>
    </trkpt>
    <trkpt lat="49.674548" lon="20.236961">
      <ele>650</ele>
      <time>2026-05-07T12:10:44Z</time>
    </trkpt>
    <trkpt lat="49.674675" lon="20.236832">
      <ele>647</ele>
      <time>2026-05-07T12:10:59Z</time>
    </trkpt>
    <trkpt lat="49.674799" lon="20.236725">
      <ele>644</ele>
      <time>2026-05-07T12:11:14Z</time>
    </trkpt>
    <trkpt lat="49.674875" lon="20.236677">
      <ele>642</ele>
      <time>2026-05-07T12:11:22Z</time>
    </trkpt>
    <trkpt lat="49.675064" lon="20.236647">
      <ele>638</ele>
      <time>2026-05-07T12:11:41Z</time>
    </trkpt>
    <trkpt lat="49.675207" lon="20.236645">
      <ele>635</ele>
      <time>2026-05-07T12:11:56Z</time>
    </trkpt>
    <trkpt lat="49.675337" lon="20.23668">
      <ele>632</ele>
      <time>2026-05-07T12:12:09Z</time>
    </trkpt>
    <trkpt lat="49.675486" lon="20.236798">
      <ele>629</ele>
      <time>2026-05-07T12:12:26Z</time>
    </trkpt>
    <trkpt lat="49.676066" lon="20.237256">
      <ele>613</ele>
      <time>2026-05-07T12:13:32Z</time>
    </trkpt>
    <trkpt lat="49.676251" lon="20.237417">
      <ele>609</ele>
      <time>2026-05-07T12:13:54Z</time>
    </trkpt>
    <trkpt lat="49.676395" lon="20.237465">
      <ele>607</ele>
      <time>2026-05-07T12:14:09Z</time>
    </trkpt>
    <trkpt lat="49.676517" lon="20.237482">
      <ele>604</ele>
      <time>2026-05-07T12:14:21Z</time>
    </trkpt>
    <trkpt lat="49.676604" lon="20.237471">
      <ele>601</ele>
      <time>2026-05-07T12:14:30Z</time>
    </trkpt>
    <trkpt lat="49.676625" lon="20.237468">
      <ele>601</ele>
      <time>2026-05-07T12:14:32Z</time>
    </trkpt>
    <trkpt lat="49.676758" lon="20.237409">
      <ele>596</ele>
      <time>2026-05-07T12:14:47Z</time>
    </trkpt>
    <trkpt lat="49.676923" lon="20.237342">
      <ele>589</ele>
      <time>2026-05-07T12:15:05Z</time>
    </trkpt>
    <trkpt lat="49.677256" lon="20.237264">
      <ele>579</ele>
      <time>2026-05-07T12:15:39Z</time>
    </trkpt>
    <trkpt lat="49.6774" lon="20.237208">
      <ele>577</ele>
      <time>2026-05-07T12:15:54Z</time>
    </trkpt>
    <trkpt lat="49.677572" lon="20.237114">
      <ele>574</ele>
      <time>2026-05-07T12:16:13Z</time>
    </trkpt>
    <trkpt lat="49.677845" lon="20.236918">
      <ele>569</ele>
      <time>2026-05-07T12:16:43Z</time>
    </trkpt>
    <trkpt lat="49.677992" lon="20.236781">
      <ele>566</ele>
      <time>2026-05-07T12:17:00Z</time>
    </trkpt>
    <trkpt lat="49.678107" lon="20.236685">
      <ele>564</ele>
      <time>2026-05-07T12:17:14Z</time>
    </trkpt>
    <trkpt lat="49.678267" lon="20.236605">
      <ele>559</ele>
      <time>2026-05-07T12:17:31Z</time>
    </trkpt>
    <trkpt lat="49.678395" lon="20.236548">
      <ele>555</ele>
      <time>2026-05-07T12:17:44Z</time>
    </trkpt>
    <trkpt lat="49.678489" lon="20.236497">
      <ele>554</ele>
      <time>2026-05-07T12:17:55Z</time>
    </trkpt>
    <trkpt lat="49.678581" lon="20.236387">
      <ele>552</ele>
      <time>2026-05-07T12:18:06Z</time>
    </trkpt>
    <trkpt lat="49.678633" lon="20.236277">
      <ele>551</ele>
      <time>2026-05-07T12:18:15Z</time>
    </trkpt>
    <trkpt lat="49.67865" lon="20.236143">
      <ele>551</ele>
      <time>2026-05-07T12:18:24Z</time>
    </trkpt>
    <trkpt lat="49.678667" lon="20.235977">
      <ele>550</ele>
      <time>2026-05-07T12:18:35Z</time>
    </trkpt>
    <trkpt lat="49.678661" lon="20.235792">
      <ele>549</ele>
      <time>2026-05-07T12:18:47Z</time>
    </trkpt>
    <trkpt lat="49.678653" lon="20.23565">
      <ele>548</ele>
      <time>2026-05-07T12:18:56Z</time>
    </trkpt>
    <trkpt lat="49.678643" lon="20.235467">
      <ele>546</ele>
      <time>2026-05-07T12:19:08Z</time>
    </trkpt>
    <trkpt lat="49.678648" lon="20.235279">
      <ele>544</ele>
      <time>2026-05-07T12:19:20Z</time>
    </trkpt>
    <trkpt lat="49.678692" lon="20.23492">
      <ele>541</ele>
      <time>2026-05-07T12:19:44Z</time>
    </trkpt>
    <trkpt lat="49.678789" lon="20.234373">
      <ele>536</ele>
      <time>2026-05-07T12:20:21Z</time>
    </trkpt>
    <trkpt lat="49.678844" lon="20.234308">
      <ele>534</ele>
      <time>2026-05-07T12:20:28Z</time>
    </trkpt>
    <trkpt lat="49.678945" lon="20.23431">
      <ele>533</ele>
      <time>2026-05-07T12:20:38Z</time>
    </trkpt>
    <trkpt lat="49.679084" lon="20.234343">
      <ele>532</ele>
      <time>2026-05-07T12:20:52Z</time>
    </trkpt>
    <trkpt lat="49.679186" lon="20.234432">
      <ele>532</ele>
      <time>2026-05-07T12:21:04Z</time>
    </trkpt>
    <trkpt lat="49.679383" lon="20.234628">
      <ele>531</ele>
      <time>2026-05-07T12:21:27Z</time>
    </trkpt>
    <trkpt lat="49.67957" lon="20.234762">
      <ele>530</ele>
      <time>2026-05-07T12:21:47Z</time>
    </trkpt>
    <trkpt lat="49.679764" lon="20.234864">
      <ele>528</ele>
      <time>2026-05-07T12:22:08Z</time>
    </trkpt>
    <trkpt lat="49.679919" lon="20.234891">
      <ele>526</ele>
      <time>2026-05-07T12:22:24Z</time>
    </trkpt>
    <trkpt lat="49.68012" lon="20.234907">
      <ele>523</ele>
      <time>2026-05-07T12:22:44Z</time>
    </trkpt>
    <trkpt lat="49.680274" lon="20.23488">
      <ele>521</ele>
      <time>2026-05-07T12:22:59Z</time>
    </trkpt>
    <trkpt lat="49.680342" lon="20.234905">
      <ele>521</ele>
      <time>2026-05-07T12:23:06Z</time>
    </trkpt>
    <trkpt lat="49.680417" lon="20.234991">
      <ele>522</ele>
      <time>2026-05-07T12:23:16Z</time>
    </trkpt>
    <trkpt lat="49.680556" lon="20.235025">
      <ele>523</ele>
      <time>2026-05-07T12:23:30Z</time>
    </trkpt>
    <trkpt lat="49.680744" lon="20.235018">
      <ele>524</ele>
      <time>2026-05-07T12:23:49Z</time>
    </trkpt>
    <trkpt lat="49.681003" lon="20.235144">
      <ele>525</ele>
      <time>2026-05-07T12:24:16Z</time>
    </trkpt>
    <trkpt lat="49.68113" lon="20.235188">
      <ele>524</ele>
      <time>2026-05-07T12:24:29Z</time>
    </trkpt>
    <trkpt lat="49.681162" lon="20.23476">
      <ele>524</ele>
      <time>2026-05-07T12:24:56Z</time>
    </trkpt>
    <trkpt lat="49.68118" lon="20.234502">
      <ele>524</ele>
      <time>2026-05-07T12:25:13Z</time>
    </trkpt>
    <trkpt lat="49.681232" lon="20.233773">
      <ele>525</ele>
      <time>2026-05-07T12:26:00Z</time>
    </trkpt>
    <trkpt lat="49.681235" lon="20.233731">
      <ele>526</ele>
      <time>2026-05-07T12:26:03Z</time>
    </trkpt>
    <trkpt lat="49.681274" lon="20.23355">
      <ele>526</ele>
      <time>2026-05-07T12:26:15Z</time>
    </trkpt>
    <trkpt lat="49.6812877" lon="20.2335157">
      <ele>526</ele>
      <time>2026-05-07T12:26:18Z</time>
    </trkpt>
  </trkseg>
</trk>
</gpx>