<?xml version="1.0" encoding="UTF-8"?><gpx creator="https://mapa-turystyczna.pl" xmlns="http://www.topografix.com/GPX/1/1" version="1.1" xmlns:xsi="http://www.w3.org/2001/XMLSchema-instance" xsi:schemaLocation="http://www.topografix.com/GPX/1/1 http://www.topografix.com/GPX/1/1/gpx.xsd">
  <metadata>
    <link href="https://mapa-turystyczna.pl">
      <text>mapa-turystyczna.pl</text>
    </link>
    <time>2026-05-07T08:43:13Z</time>
    <bounds maxlat="49.543379" maxlon="20.117987" minlat="49.503531" minlon="20.052816"/>
  </metadata>

<trk>
  <name>Nowy Targ, Oleksówki – Nowy Targ, Oleksówki</name>
  <link href="https://mapa-turystyczna.pl/route/yew1">
    <text>Nowy Targ, Oleksówki – Nowy Targ, Oleksówki</text>
  </link>
  <trkseg>
    <trkpt lat="49.505951" lon="20.054144">
      <ele>655</ele>
      <time>2026-05-07T08:43:13Z</time>
    </trkpt>
    <trkpt lat="49.505865" lon="20.053934">
      <ele>653</ele>
      <time>2026-05-07T08:43:38Z</time>
    </trkpt>
    <trkpt lat="49.505786" lon="20.053767">
      <ele>652</ele>
      <time>2026-05-07T08:43:59Z</time>
    </trkpt>
    <trkpt lat="49.505719" lon="20.053643">
      <ele>652</ele>
      <time>2026-05-07T08:44:15Z</time>
    </trkpt>
    <trkpt lat="49.505646" lon="20.053532">
      <ele>651</ele>
      <time>2026-05-07T08:44:31Z</time>
    </trkpt>
    <trkpt lat="49.505629" lon="20.053583">
      <ele>651</ele>
      <time>2026-05-07T08:44:37Z</time>
    </trkpt>
    <trkpt lat="49.505614" lon="20.053559">
      <ele>651</ele>
      <time>2026-05-07T08:44:40Z</time>
    </trkpt>
    <trkpt lat="49.505463" lon="20.053341">
      <ele>651</ele>
      <time>2026-05-07T08:45:13Z</time>
    </trkpt>
    <trkpt lat="49.505424" lon="20.053284">
      <ele>651</ele>
      <time>2026-05-07T08:45:21Z</time>
    </trkpt>
    <trkpt lat="49.505338" lon="20.05316">
      <ele>651</ele>
      <time>2026-05-07T08:45:39Z</time>
    </trkpt>
    <trkpt lat="49.505196" lon="20.052956">
      <ele>652</ele>
      <time>2026-05-07T08:46:09Z</time>
    </trkpt>
    <trkpt lat="49.505186" lon="20.052967">
      <ele>652</ele>
      <time>2026-05-07T08:46:11Z</time>
    </trkpt>
    <trkpt lat="49.505123" lon="20.052986">
      <ele>653</ele>
      <time>2026-05-07T08:46:21Z</time>
    </trkpt>
    <trkpt lat="49.504964" lon="20.052991">
      <ele>654</ele>
      <time>2026-05-07T08:46:46Z</time>
    </trkpt>
    <trkpt lat="49.504913" lon="20.052991">
      <ele>655</ele>
      <time>2026-05-07T08:46:54Z</time>
    </trkpt>
    <trkpt lat="49.504904" lon="20.052816">
      <ele>654</ele>
      <time>2026-05-07T08:47:12Z</time>
    </trkpt>
    <trkpt lat="49.504864" lon="20.052821">
      <ele>655</ele>
      <time>2026-05-07T08:47:18Z</time>
    </trkpt>
    <trkpt lat="49.504881" lon="20.052992">
      <ele>655</ele>
      <time>2026-05-07T08:47:36Z</time>
    </trkpt>
    <trkpt lat="49.504905" lon="20.053377">
      <ele>656</ele>
      <time>2026-05-07T08:48:15Z</time>
    </trkpt>
    <trkpt lat="49.504913" lon="20.053506">
      <ele>656</ele>
      <time>2026-05-07T08:48:28Z</time>
    </trkpt>
    <trkpt lat="49.504936" lon="20.05393">
      <ele>657</ele>
      <time>2026-05-07T08:49:11Z</time>
    </trkpt>
    <trkpt lat="49.504968" lon="20.054579">
      <ele>664</ele>
      <time>2026-05-07T08:50:17Z</time>
    </trkpt>
    <trkpt lat="49.505022" lon="20.055558">
      <ele>665</ele>
      <time>2026-05-07T08:51:56Z</time>
    </trkpt>
    <trkpt lat="49.505028" lon="20.055812">
      <ele>666</ele>
      <time>2026-05-07T08:52:22Z</time>
    </trkpt>
    <trkpt lat="49.505028" lon="20.056021">
      <ele>665</ele>
      <time>2026-05-07T08:52:43Z</time>
    </trkpt>
    <trkpt lat="49.50502" lon="20.056228">
      <ele>664</ele>
      <time>2026-05-07T08:53:04Z</time>
    </trkpt>
    <trkpt lat="49.505002" lon="20.056453">
      <ele>663</ele>
      <time>2026-05-07T08:53:27Z</time>
    </trkpt>
    <trkpt lat="49.50495" lon="20.056901">
      <ele>664</ele>
      <time>2026-05-07T08:54:13Z</time>
    </trkpt>
    <trkpt lat="49.50483" lon="20.057913">
      <ele>666</ele>
      <time>2026-05-07T08:55:57Z</time>
    </trkpt>
    <trkpt lat="49.504803" lon="20.058096">
      <ele>665</ele>
      <time>2026-05-07T08:56:16Z</time>
    </trkpt>
    <trkpt lat="49.504765" lon="20.058304">
      <ele>665</ele>
      <time>2026-05-07T08:56:38Z</time>
    </trkpt>
    <trkpt lat="49.504732" lon="20.058467">
      <ele>665</ele>
      <time>2026-05-07T08:56:55Z</time>
    </trkpt>
    <trkpt lat="49.504686" lon="20.058656">
      <ele>666</ele>
      <time>2026-05-07T08:57:15Z</time>
    </trkpt>
    <trkpt lat="49.504482" lon="20.059425">
      <ele>671</ele>
      <time>2026-05-07T08:58:39Z</time>
    </trkpt>
    <trkpt lat="49.504437" lon="20.059609">
      <ele>671</ele>
      <time>2026-05-07T08:58:59Z</time>
    </trkpt>
    <trkpt lat="49.504409" lon="20.05977">
      <ele>671</ele>
      <time>2026-05-07T08:59:16Z</time>
    </trkpt>
    <trkpt lat="49.504381" lon="20.059993">
      <ele>672</ele>
      <time>2026-05-07T08:59:39Z</time>
    </trkpt>
    <trkpt lat="49.504336" lon="20.060523">
      <ele>671</ele>
      <time>2026-05-07T09:00:33Z</time>
    </trkpt>
    <trkpt lat="49.504299" lon="20.060953">
      <ele>671</ele>
      <time>2026-05-07T09:01:17Z</time>
    </trkpt>
    <trkpt lat="49.50428" lon="20.061354">
      <ele>671</ele>
      <time>2026-05-07T09:01:57Z</time>
    </trkpt>
    <trkpt lat="49.504274" lon="20.061662">
      <ele>673</ele>
      <time>2026-05-07T09:02:28Z</time>
    </trkpt>
    <trkpt lat="49.504269" lon="20.061997">
      <ele>674</ele>
      <time>2026-05-07T09:03:02Z</time>
    </trkpt>
    <trkpt lat="49.504273" lon="20.062098">
      <ele>674</ele>
      <time>2026-05-07T09:03:12Z</time>
    </trkpt>
    <trkpt lat="49.504275" lon="20.062137">
      <ele>674</ele>
      <time>2026-05-07T09:03:16Z</time>
    </trkpt>
    <trkpt lat="49.504281" lon="20.06224">
      <ele>674</ele>
      <time>2026-05-07T09:03:27Z</time>
    </trkpt>
    <trkpt lat="49.504331" lon="20.063072">
      <ele>676</ele>
      <time>2026-05-07T09:04:51Z</time>
    </trkpt>
    <trkpt lat="49.50434" lon="20.063336">
      <ele>677</ele>
      <time>2026-05-07T09:05:18Z</time>
    </trkpt>
    <trkpt lat="49.504342" lon="20.063593">
      <ele>679</ele>
      <time>2026-05-07T09:05:44Z</time>
    </trkpt>
    <trkpt lat="49.50432" lon="20.06408">
      <ele>680</ele>
      <time>2026-05-07T09:06:33Z</time>
    </trkpt>
    <trkpt lat="49.504279" lon="20.064747">
      <ele>682</ele>
      <time>2026-05-07T09:07:41Z</time>
    </trkpt>
    <trkpt lat="49.504269" lon="20.064865">
      <ele>682</ele>
      <time>2026-05-07T09:07:53Z</time>
    </trkpt>
    <trkpt lat="49.504229" lon="20.06549">
      <ele>683</ele>
      <time>2026-05-07T09:08:56Z</time>
    </trkpt>
    <trkpt lat="49.504203" lon="20.065716">
      <ele>681</ele>
      <time>2026-05-07T09:09:20Z</time>
    </trkpt>
    <trkpt lat="49.504167" lon="20.065961">
      <ele>680</ele>
      <time>2026-05-07T09:09:45Z</time>
    </trkpt>
    <trkpt lat="49.504123" lon="20.066211">
      <ele>682</ele>
      <time>2026-05-07T09:10:11Z</time>
    </trkpt>
    <trkpt lat="49.504112" lon="20.066271">
      <ele>683</ele>
      <time>2026-05-07T09:10:18Z</time>
    </trkpt>
    <trkpt lat="49.503969" lon="20.06688">
      <ele>688</ele>
      <time>2026-05-07T09:11:23Z</time>
    </trkpt>
    <trkpt lat="49.50358" lon="20.06853">
      <ele>704</ele>
      <time>2026-05-07T09:14:22Z</time>
    </trkpt>
    <trkpt lat="49.503531" lon="20.068776">
      <ele>707</ele>
      <time>2026-05-07T09:14:48Z</time>
    </trkpt>
    <trkpt lat="49.503531" lon="20.06898">
      <ele>706</ele>
      <time>2026-05-07T09:15:09Z</time>
    </trkpt>
    <trkpt lat="49.503555" lon="20.069178">
      <ele>705</ele>
      <time>2026-05-07T09:15:29Z</time>
    </trkpt>
    <trkpt lat="49.503823" lon="20.070459">
      <ele>705</ele>
      <time>2026-05-07T09:17:45Z</time>
    </trkpt>
    <trkpt lat="49.503967" lon="20.070986">
      <ele>705</ele>
      <time>2026-05-07T09:18:42Z</time>
    </trkpt>
    <trkpt lat="49.504042" lon="20.071377">
      <ele>701</ele>
      <time>2026-05-07T09:19:24Z</time>
    </trkpt>
    <trkpt lat="49.504055" lon="20.071487">
      <ele>701</ele>
      <time>2026-05-07T09:19:35Z</time>
    </trkpt>
    <trkpt lat="49.504058" lon="20.071609">
      <ele>701</ele>
      <time>2026-05-07T09:19:48Z</time>
    </trkpt>
    <trkpt lat="49.504046" lon="20.071754">
      <ele>701</ele>
      <time>2026-05-07T09:20:02Z</time>
    </trkpt>
    <trkpt lat="49.503979" lon="20.072117">
      <ele>702</ele>
      <time>2026-05-07T09:20:40Z</time>
    </trkpt>
    <trkpt lat="49.503939" lon="20.072317">
      <ele>702</ele>
      <time>2026-05-07T09:21:01Z</time>
    </trkpt>
    <trkpt lat="49.503876" lon="20.07263">
      <ele>703</ele>
      <time>2026-05-07T09:21:35Z</time>
    </trkpt>
    <trkpt lat="49.503861" lon="20.072743">
      <ele>703</ele>
      <time>2026-05-07T09:21:46Z</time>
    </trkpt>
    <trkpt lat="49.503865" lon="20.07285">
      <ele>704</ele>
      <time>2026-05-07T09:21:57Z</time>
    </trkpt>
    <trkpt lat="49.503883" lon="20.072921">
      <ele>704</ele>
      <time>2026-05-07T09:22:05Z</time>
    </trkpt>
    <trkpt lat="49.503942" lon="20.073046">
      <ele>705</ele>
      <time>2026-05-07T09:22:20Z</time>
    </trkpt>
    <trkpt lat="49.503954" lon="20.073094">
      <ele>706</ele>
      <time>2026-05-07T09:22:26Z</time>
    </trkpt>
    <trkpt lat="49.503994" lon="20.073287">
      <ele>707</ele>
      <time>2026-05-07T09:22:46Z</time>
    </trkpt>
    <trkpt lat="49.504043" lon="20.073463">
      <ele>709</ele>
      <time>2026-05-07T09:23:06Z</time>
    </trkpt>
    <trkpt lat="49.504125" lon="20.073686">
      <ele>711</ele>
      <time>2026-05-07T09:23:32Z</time>
    </trkpt>
    <trkpt lat="49.50416" lon="20.073785">
      <ele>711</ele>
      <time>2026-05-07T09:23:43Z</time>
    </trkpt>
    <trkpt lat="49.504191" lon="20.073888">
      <ele>711</ele>
      <time>2026-05-07T09:23:55Z</time>
    </trkpt>
    <trkpt lat="49.50422" lon="20.074014">
      <ele>711</ele>
      <time>2026-05-07T09:24:08Z</time>
    </trkpt>
    <trkpt lat="49.504267" lon="20.074323">
      <ele>710</ele>
      <time>2026-05-07T09:24:40Z</time>
    </trkpt>
    <trkpt lat="49.504302" lon="20.074543">
      <ele>710</ele>
      <time>2026-05-07T09:25:03Z</time>
    </trkpt>
    <trkpt lat="49.504338" lon="20.074807">
      <ele>710</ele>
      <time>2026-05-07T09:25:30Z</time>
    </trkpt>
    <trkpt lat="49.504367" lon="20.074945">
      <ele>711</ele>
      <time>2026-05-07T09:25:45Z</time>
    </trkpt>
    <trkpt lat="49.504396" lon="20.075028">
      <ele>711</ele>
      <time>2026-05-07T09:25:54Z</time>
    </trkpt>
    <trkpt lat="49.50443" lon="20.075073">
      <ele>711</ele>
      <time>2026-05-07T09:26:01Z</time>
    </trkpt>
    <trkpt lat="49.504512" lon="20.075162">
      <ele>713</ele>
      <time>2026-05-07T09:26:17Z</time>
    </trkpt>
    <trkpt lat="49.504654" lon="20.075316">
      <ele>717</ele>
      <time>2026-05-07T09:26:45Z</time>
    </trkpt>
    <trkpt lat="49.504621" lon="20.075485">
      <ele>717</ele>
      <time>2026-05-07T09:27:02Z</time>
    </trkpt>
    <trkpt lat="49.504641" lon="20.075593">
      <ele>718</ele>
      <time>2026-05-07T09:27:14Z</time>
    </trkpt>
    <trkpt lat="49.504651" lon="20.075863">
      <ele>719</ele>
      <time>2026-05-07T09:27:41Z</time>
    </trkpt>
    <trkpt lat="49.504662" lon="20.075998">
      <ele>719</ele>
      <time>2026-05-07T09:27:55Z</time>
    </trkpt>
    <trkpt lat="49.504701" lon="20.076178">
      <ele>719</ele>
      <time>2026-05-07T09:28:14Z</time>
    </trkpt>
    <trkpt lat="49.504732" lon="20.076247">
      <ele>719</ele>
      <time>2026-05-07T09:28:22Z</time>
    </trkpt>
    <trkpt lat="49.504844" lon="20.076459">
      <ele>719</ele>
      <time>2026-05-07T09:28:50Z</time>
    </trkpt>
    <trkpt lat="49.504859" lon="20.076544">
      <ele>719</ele>
      <time>2026-05-07T09:28:59Z</time>
    </trkpt>
    <trkpt lat="49.504881" lon="20.076649">
      <ele>719</ele>
      <time>2026-05-07T09:29:10Z</time>
    </trkpt>
    <trkpt lat="49.504941" lon="20.076784">
      <ele>720</ele>
      <time>2026-05-07T09:29:27Z</time>
    </trkpt>
    <trkpt lat="49.50519" lon="20.076978">
      <ele>726</ele>
      <time>2026-05-07T09:30:11Z</time>
    </trkpt>
    <trkpt lat="49.505267" lon="20.077091">
      <ele>729</ele>
      <time>2026-05-07T09:30:28Z</time>
    </trkpt>
    <trkpt lat="49.505369" lon="20.077296">
      <ele>733</ele>
      <time>2026-05-07T09:30:54Z</time>
    </trkpt>
    <trkpt lat="49.505442" lon="20.077539">
      <ele>737</ele>
      <time>2026-05-07T09:31:22Z</time>
    </trkpt>
    <trkpt lat="49.50546" lon="20.077756">
      <ele>740</ele>
      <time>2026-05-07T09:31:45Z</time>
    </trkpt>
    <trkpt lat="49.50547" lon="20.078363">
      <ele>748</ele>
      <time>2026-05-07T09:32:47Z</time>
    </trkpt>
    <trkpt lat="49.505527" lon="20.078659">
      <ele>753</ele>
      <time>2026-05-07T09:33:19Z</time>
    </trkpt>
    <trkpt lat="49.505582" lon="20.079224">
      <ele>759</ele>
      <time>2026-05-07T09:34:17Z</time>
    </trkpt>
    <trkpt lat="49.505637" lon="20.079408">
      <ele>762</ele>
      <time>2026-05-07T09:34:38Z</time>
    </trkpt>
    <trkpt lat="49.505686" lon="20.079484">
      <ele>764</ele>
      <time>2026-05-07T09:34:49Z</time>
    </trkpt>
    <trkpt lat="49.505797" lon="20.079553">
      <ele>769</ele>
      <time>2026-05-07T09:35:09Z</time>
    </trkpt>
    <trkpt lat="49.506028" lon="20.079622">
      <ele>778</ele>
      <time>2026-05-07T09:35:48Z</time>
    </trkpt>
    <trkpt lat="49.506476" lon="20.079631">
      <ele>792</ele>
      <time>2026-05-07T09:37:00Z</time>
    </trkpt>
    <trkpt lat="49.506589" lon="20.079655">
      <ele>795</ele>
      <time>2026-05-07T09:37:18Z</time>
    </trkpt>
    <trkpt lat="49.506716" lon="20.079714">
      <ele>798</ele>
      <time>2026-05-07T09:37:39Z</time>
    </trkpt>
    <trkpt lat="49.506785" lon="20.079773">
      <ele>800</ele>
      <time>2026-05-07T09:37:52Z</time>
    </trkpt>
    <trkpt lat="49.506886" lon="20.079938">
      <ele>803</ele>
      <time>2026-05-07T09:38:15Z</time>
    </trkpt>
    <trkpt lat="49.507175" lon="20.080603">
      <ele>809</ele>
      <time>2026-05-07T09:39:36Z</time>
    </trkpt>
    <trkpt lat="49.507375" lon="20.08093">
      <ele>816</ele>
      <time>2026-05-07T09:40:22Z</time>
    </trkpt>
    <trkpt lat="49.507448" lon="20.08108">
      <ele>823</ele>
      <time>2026-05-07T09:40:43Z</time>
    </trkpt>
    <trkpt lat="49.507544" lon="20.081355">
      <ele>832</ele>
      <time>2026-05-07T09:41:18Z</time>
    </trkpt>
    <trkpt lat="49.507628" lon="20.081707">
      <ele>839</ele>
      <time>2026-05-07T09:41:57Z</time>
    </trkpt>
    <trkpt lat="49.507719" lon="20.082089">
      <ele>843</ele>
      <time>2026-05-07T09:42:38Z</time>
    </trkpt>
    <trkpt lat="49.507764" lon="20.082219">
      <ele>844</ele>
      <time>2026-05-07T09:42:53Z</time>
    </trkpt>
    <trkpt lat="49.507829" lon="20.082331">
      <ele>845</ele>
      <time>2026-05-07T09:43:08Z</time>
    </trkpt>
    <trkpt lat="49.50794" lon="20.08247">
      <ele>846</ele>
      <time>2026-05-07T09:43:31Z</time>
    </trkpt>
    <trkpt lat="49.508091" lon="20.082612">
      <ele>848</ele>
      <time>2026-05-07T09:43:58Z</time>
    </trkpt>
    <trkpt lat="49.508188" lon="20.082733">
      <ele>850</ele>
      <time>2026-05-07T09:44:18Z</time>
    </trkpt>
    <trkpt lat="49.508244" lon="20.082865">
      <ele>852</ele>
      <time>2026-05-07T09:44:34Z</time>
    </trkpt>
    <trkpt lat="49.508301" lon="20.083072">
      <ele>855</ele>
      <time>2026-05-07T09:44:57Z</time>
    </trkpt>
    <trkpt lat="49.508429" lon="20.083422">
      <ele>860</ele>
      <time>2026-05-07T09:45:38Z</time>
    </trkpt>
    <trkpt lat="49.508565" lon="20.083736">
      <ele>866</ele>
      <time>2026-05-07T09:46:17Z</time>
    </trkpt>
    <trkpt lat="49.508614" lon="20.08385">
      <ele>868</ele>
      <time>2026-05-07T09:46:31Z</time>
    </trkpt>
    <trkpt lat="49.508676" lon="20.084056">
      <ele>871</ele>
      <time>2026-05-07T09:46:55Z</time>
    </trkpt>
    <trkpt lat="49.50872" lon="20.084398">
      <ele>876</ele>
      <time>2026-05-07T09:47:30Z</time>
    </trkpt>
    <trkpt lat="49.508763" lon="20.084531">
      <ele>878</ele>
      <time>2026-05-07T09:47:46Z</time>
    </trkpt>
    <trkpt lat="49.508856" lon="20.084761">
      <ele>881</ele>
      <time>2026-05-07T09:48:13Z</time>
    </trkpt>
    <trkpt lat="49.509005" lon="20.08505">
      <ele>884</ele>
      <time>2026-05-07T09:48:51Z</time>
    </trkpt>
    <trkpt lat="49.509101" lon="20.085173">
      <ele>885</ele>
      <time>2026-05-07T09:49:10Z</time>
    </trkpt>
    <trkpt lat="49.509239" lon="20.085292">
      <ele>887</ele>
      <time>2026-05-07T09:49:35Z</time>
    </trkpt>
    <trkpt lat="49.509359" lon="20.085361">
      <ele>888</ele>
      <time>2026-05-07T09:49:55Z</time>
    </trkpt>
    <trkpt lat="49.509524" lon="20.085526">
      <ele>890</ele>
      <time>2026-05-07T09:50:26Z</time>
    </trkpt>
    <trkpt lat="49.509726" lon="20.085814">
      <ele>896</ele>
      <time>2026-05-07T09:51:09Z</time>
    </trkpt>
    <trkpt lat="49.509843" lon="20.085935">
      <ele>899</ele>
      <time>2026-05-07T09:51:31Z</time>
    </trkpt>
    <trkpt lat="49.510198" lon="20.086188">
      <ele>904</ele>
      <time>2026-05-07T09:52:32Z</time>
    </trkpt>
    <trkpt lat="49.51053" lon="20.086552">
      <ele>905</ele>
      <time>2026-05-07T09:53:36Z</time>
    </trkpt>
    <trkpt lat="49.511128" lon="20.08708">
      <ele>909</ele>
      <time>2026-05-07T09:55:23Z</time>
    </trkpt>
    <trkpt lat="49.511376" lon="20.087396">
      <ele>909</ele>
      <time>2026-05-07T09:56:13Z</time>
    </trkpt>
    <trkpt lat="49.511551" lon="20.087594">
      <ele>912</ele>
      <time>2026-05-07T09:56:47Z</time>
    </trkpt>
    <trkpt lat="49.511633" lon="20.087686">
      <ele>913</ele>
      <time>2026-05-07T09:57:03Z</time>
    </trkpt>
    <trkpt lat="49.511751" lon="20.087853">
      <ele>916</ele>
      <time>2026-05-07T09:57:28Z</time>
    </trkpt>
    <trkpt lat="49.511989" lon="20.08826">
      <ele>920</ele>
      <time>2026-05-07T09:58:24Z</time>
    </trkpt>
    <trkpt lat="49.512421" lon="20.088932">
      <ele>931</ele>
      <time>2026-05-07T10:00:00Z</time>
    </trkpt>
    <trkpt lat="49.512446" lon="20.088971">
      <ele>931</ele>
      <time>2026-05-07T10:00:06Z</time>
    </trkpt>
    <trkpt lat="49.512563" lon="20.089092">
      <ele>933</ele>
      <time>2026-05-07T10:00:28Z</time>
    </trkpt>
    <trkpt lat="49.512826" lon="20.089313">
      <ele>936</ele>
      <time>2026-05-07T10:01:15Z</time>
    </trkpt>
    <trkpt lat="49.512968" lon="20.089475">
      <ele>937</ele>
      <time>2026-05-07T10:01:42Z</time>
    </trkpt>
    <trkpt lat="49.513061" lon="20.0896">
      <ele>938</ele>
      <time>2026-05-07T10:02:01Z</time>
    </trkpt>
    <trkpt lat="49.513198" lon="20.089827">
      <ele>940</ele>
      <time>2026-05-07T10:02:33Z</time>
    </trkpt>
    <trkpt lat="49.513345" lon="20.090071">
      <ele>941</ele>
      <time>2026-05-07T10:03:06Z</time>
    </trkpt>
    <trkpt lat="49.513422" lon="20.090169">
      <ele>943</ele>
      <time>2026-05-07T10:03:22Z</time>
    </trkpt>
    <trkpt lat="49.513684" lon="20.090388">
      <ele>948</ele>
      <time>2026-05-07T10:04:09Z</time>
    </trkpt>
    <trkpt lat="49.51413" lon="20.090812">
      <ele>956</ele>
      <time>2026-05-07T10:05:31Z</time>
    </trkpt>
    <trkpt lat="49.514274" lon="20.090916">
      <ele>959</ele>
      <time>2026-05-07T10:05:56Z</time>
    </trkpt>
    <trkpt lat="49.514673" lon="20.091108">
      <ele>964</ele>
      <time>2026-05-07T10:07:01Z</time>
    </trkpt>
    <trkpt lat="49.514904" lon="20.09118">
      <ele>965</ele>
      <time>2026-05-07T10:07:38Z</time>
    </trkpt>
    <trkpt lat="49.51528" lon="20.091213">
      <ele>965</ele>
      <time>2026-05-07T10:08:37Z</time>
    </trkpt>
    <trkpt lat="49.515826" lon="20.091486">
      <ele>971</ele>
      <time>2026-05-07T10:10:06Z</time>
    </trkpt>
    <trkpt lat="49.516135" lon="20.091742">
      <ele>972</ele>
      <time>2026-05-07T10:11:01Z</time>
    </trkpt>
    <trkpt lat="49.51666" lon="20.092118">
      <ele>970</ele>
      <time>2026-05-07T10:12:31Z</time>
    </trkpt>
    <trkpt lat="49.516791" lon="20.092188">
      <ele>970</ele>
      <time>2026-05-07T10:12:52Z</time>
    </trkpt>
    <trkpt lat="49.517009" lon="20.092232">
      <ele>971</ele>
      <time>2026-05-07T10:13:27Z</time>
    </trkpt>
    <trkpt lat="49.517323" lon="20.092394">
      <ele>976</ele>
      <time>2026-05-07T10:14:18Z</time>
    </trkpt>
    <trkpt lat="49.517601" lon="20.09251">
      <ele>979</ele>
      <time>2026-05-07T10:15:04Z</time>
    </trkpt>
    <trkpt lat="49.517794" lon="20.092668">
      <ele>981</ele>
      <time>2026-05-07T10:15:38Z</time>
    </trkpt>
    <trkpt lat="49.517916" lon="20.092828">
      <ele>982</ele>
      <time>2026-05-07T10:16:02Z</time>
    </trkpt>
    <trkpt lat="49.518111" lon="20.093243">
      <ele>983</ele>
      <time>2026-05-07T10:16:54Z</time>
    </trkpt>
    <trkpt lat="49.518453" lon="20.093875">
      <ele>986</ele>
      <time>2026-05-07T10:18:17Z</time>
    </trkpt>
    <trkpt lat="49.518747" lon="20.094645">
      <ele>996</ele>
      <time>2026-05-07T10:19:48Z</time>
    </trkpt>
    <trkpt lat="49.51902" lon="20.095233">
      <ele>1003</ele>
      <time>2026-05-07T10:21:02Z</time>
    </trkpt>
    <trkpt lat="49.51914" lon="20.095549">
      <ele>1004</ele>
      <time>2026-05-07T10:21:39Z</time>
    </trkpt>
    <trkpt lat="49.519274" lon="20.095823">
      <ele>1005</ele>
      <time>2026-05-07T10:22:14Z</time>
    </trkpt>
    <trkpt lat="49.519441" lon="20.096092">
      <ele>1005</ele>
      <time>2026-05-07T10:22:51Z</time>
    </trkpt>
    <trkpt lat="49.519553" lon="20.096225">
      <ele>1006</ele>
      <time>2026-05-07T10:23:13Z</time>
    </trkpt>
    <trkpt lat="49.519712" lon="20.096338">
      <ele>1007</ele>
      <time>2026-05-07T10:23:40Z</time>
    </trkpt>
    <trkpt lat="49.520234" lon="20.096578">
      <ele>1014</ele>
      <time>2026-05-07T10:25:06Z</time>
    </trkpt>
    <trkpt lat="49.520499" lon="20.096741">
      <ele>1017</ele>
      <time>2026-05-07T10:25:50Z</time>
    </trkpt>
    <trkpt lat="49.520538" lon="20.096782">
      <ele>1018</ele>
      <time>2026-05-07T10:25:58Z</time>
    </trkpt>
    <trkpt lat="49.5206" lon="20.096847">
      <ele>1018</ele>
      <time>2026-05-07T10:26:09Z</time>
    </trkpt>
    <trkpt lat="49.520656" lon="20.096937">
      <ele>1018</ele>
      <time>2026-05-07T10:26:22Z</time>
    </trkpt>
    <trkpt lat="49.52068" lon="20.096976">
      <ele>1018</ele>
      <time>2026-05-07T10:26:27Z</time>
    </trkpt>
    <trkpt lat="49.520978" lon="20.09754">
      <ele>1025</ele>
      <time>2026-05-07T10:27:41Z</time>
    </trkpt>
    <trkpt lat="49.521177" lon="20.097983">
      <ele>1030</ele>
      <time>2026-05-07T10:28:36Z</time>
    </trkpt>
    <trkpt lat="49.521334" lon="20.098331">
      <ele>1036</ele>
      <time>2026-05-07T10:29:19Z</time>
    </trkpt>
    <trkpt lat="49.521481" lon="20.098716">
      <ele>1041</ele>
      <time>2026-05-07T10:30:05Z</time>
    </trkpt>
    <trkpt lat="49.521696" lon="20.099147">
      <ele>1046</ele>
      <time>2026-05-07T10:31:00Z</time>
    </trkpt>
    <trkpt lat="49.521951" lon="20.099833">
      <ele>1051</ele>
      <time>2026-05-07T10:32:20Z</time>
    </trkpt>
    <trkpt lat="49.522101" lon="20.10032">
      <ele>1055</ele>
      <time>2026-05-07T10:33:15Z</time>
    </trkpt>
    <trkpt lat="49.522251" lon="20.101004">
      <ele>1060</ele>
      <time>2026-05-07T10:34:28Z</time>
    </trkpt>
    <trkpt lat="49.522361" lon="20.101426">
      <ele>1062</ele>
      <time>2026-05-07T10:35:14Z</time>
    </trkpt>
    <trkpt lat="49.522443" lon="20.10162">
      <ele>1064</ele>
      <time>2026-05-07T10:35:38Z</time>
    </trkpt>
    <trkpt lat="49.522545" lon="20.101769">
      <ele>1065</ele>
      <time>2026-05-07T10:35:59Z</time>
    </trkpt>
    <trkpt lat="49.522798" lon="20.101883">
      <ele>1068</ele>
      <time>2026-05-07T10:36:41Z</time>
    </trkpt>
    <trkpt lat="49.52287" lon="20.101915">
      <ele>1068</ele>
      <time>2026-05-07T10:36:52Z</time>
    </trkpt>
    <trkpt lat="49.523022" lon="20.102007">
      <ele>1069</ele>
      <time>2026-05-07T10:37:18Z</time>
    </trkpt>
    <trkpt lat="49.523527" lon="20.102417">
      <ele>1073</ele>
      <time>2026-05-07T10:38:47Z</time>
    </trkpt>
    <trkpt lat="49.523764" lon="20.102651">
      <ele>1075</ele>
      <time>2026-05-07T10:39:30Z</time>
    </trkpt>
    <trkpt lat="49.523856" lon="20.102733">
      <ele>1076</ele>
      <time>2026-05-07T10:39:47Z</time>
    </trkpt>
    <trkpt lat="49.524239" lon="20.10295">
      <ele>1078</ele>
      <time>2026-05-07T10:40:50Z</time>
    </trkpt>
    <trkpt lat="49.524422" lon="20.103049">
      <ele>1078</ele>
      <time>2026-05-07T10:41:21Z</time>
    </trkpt>
    <trkpt lat="49.524607" lon="20.103172">
      <ele>1082</ele>
      <time>2026-05-07T10:41:52Z</time>
    </trkpt>
    <trkpt lat="49.525376" lon="20.103661">
      <ele>1086</ele>
      <time>2026-05-07T10:44:02Z</time>
    </trkpt>
    <trkpt lat="49.525745" lon="20.104009">
      <ele>1089</ele>
      <time>2026-05-07T10:45:09Z</time>
    </trkpt>
    <trkpt lat="49.525907" lon="20.1042">
      <ele>1089</ele>
      <time>2026-05-07T10:45:41Z</time>
    </trkpt>
    <trkpt lat="49.525984" lon="20.104254">
      <ele>1089</ele>
      <time>2026-05-07T10:45:54Z</time>
    </trkpt>
    <trkpt lat="49.526088" lon="20.104308">
      <ele>1088</ele>
      <time>2026-05-07T10:46:11Z</time>
    </trkpt>
    <trkpt lat="49.526194" lon="20.104407">
      <ele>1088</ele>
      <time>2026-05-07T10:46:30Z</time>
    </trkpt>
    <trkpt lat="49.526288" lon="20.104508">
      <ele>1088</ele>
      <time>2026-05-07T10:46:48Z</time>
    </trkpt>
    <trkpt lat="49.526478" lon="20.104732">
      <ele>1093</ele>
      <time>2026-05-07T10:47:26Z</time>
    </trkpt>
    <trkpt lat="49.526576" lon="20.104863">
      <ele>1097</ele>
      <time>2026-05-07T10:47:47Z</time>
    </trkpt>
    <trkpt lat="49.526622" lon="20.104964">
      <ele>1100</ele>
      <time>2026-05-07T10:48:00Z</time>
    </trkpt>
    <trkpt lat="49.526648" lon="20.105079">
      <ele>1103</ele>
      <time>2026-05-07T10:48:13Z</time>
    </trkpt>
    <trkpt lat="49.526805" lon="20.105088">
      <ele>1097</ele>
      <time>2026-05-07T10:48:38Z</time>
    </trkpt>
    <trkpt lat="49.527124" lon="20.105216">
      <ele>1089</ele>
      <time>2026-05-07T10:49:30Z</time>
    </trkpt>
    <trkpt lat="49.527337" lon="20.105221">
      <ele>1090</ele>
      <time>2026-05-07T10:50:03Z</time>
    </trkpt>
    <trkpt lat="49.527542" lon="20.105255">
      <ele>1094</ele>
      <time>2026-05-07T10:50:35Z</time>
    </trkpt>
    <trkpt lat="49.527718" lon="20.105374">
      <ele>1098</ele>
      <time>2026-05-07T10:51:05Z</time>
    </trkpt>
    <trkpt lat="49.52784" lon="20.105387">
      <ele>1100</ele>
      <time>2026-05-07T10:51:24Z</time>
    </trkpt>
    <trkpt lat="49.527945" lon="20.105341">
      <ele>1102</ele>
      <time>2026-05-07T10:51:40Z</time>
    </trkpt>
    <trkpt lat="49.528053" lon="20.10533">
      <ele>1104</ele>
      <time>2026-05-07T10:51:57Z</time>
    </trkpt>
    <trkpt lat="49.528305" lon="20.105353">
      <ele>1105</ele>
      <time>2026-05-07T10:52:36Z</time>
    </trkpt>
    <trkpt lat="49.528556" lon="20.105323">
      <ele>1108</ele>
      <time>2026-05-07T10:53:15Z</time>
    </trkpt>
    <trkpt lat="49.52866" lon="20.105276">
      <ele>1109</ele>
      <time>2026-05-07T10:53:31Z</time>
    </trkpt>
    <trkpt lat="49.52891" lon="20.105054">
      <ele>1108</ele>
      <time>2026-05-07T10:54:15Z</time>
    </trkpt>
    <trkpt lat="49.529155" lon="20.104966">
      <ele>1108</ele>
      <time>2026-05-07T10:54:54Z</time>
    </trkpt>
    <trkpt lat="49.529437" lon="20.105068">
      <ele>1108</ele>
      <time>2026-05-07T10:55:38Z</time>
    </trkpt>
    <trkpt lat="49.529558" lon="20.105164">
      <ele>1110</ele>
      <time>2026-05-07T10:55:59Z</time>
    </trkpt>
    <trkpt lat="49.529791" lon="20.10527">
      <ele>1113</ele>
      <time>2026-05-07T10:56:36Z</time>
    </trkpt>
    <trkpt lat="49.529985" lon="20.105234">
      <ele>1118</ele>
      <time>2026-05-07T10:57:07Z</time>
    </trkpt>
    <trkpt lat="49.530021" lon="20.105244">
      <ele>1118</ele>
      <time>2026-05-07T10:57:13Z</time>
    </trkpt>
    <trkpt lat="49.530048" lon="20.105253">
      <ele>1119</ele>
      <time>2026-05-07T10:57:17Z</time>
    </trkpt>
    <trkpt lat="49.53011" lon="20.105296">
      <ele>1120</ele>
      <time>2026-05-07T10:57:27Z</time>
    </trkpt>
    <trkpt lat="49.530233" lon="20.105398">
      <ele>1121</ele>
      <time>2026-05-07T10:57:49Z</time>
    </trkpt>
    <trkpt lat="49.530271" lon="20.105477">
      <ele>1121</ele>
      <time>2026-05-07T10:57:59Z</time>
    </trkpt>
    <trkpt lat="49.530316" lon="20.105541">
      <ele>1122</ele>
      <time>2026-05-07T10:58:08Z</time>
    </trkpt>
    <trkpt lat="49.530372" lon="20.105611">
      <ele>1122</ele>
      <time>2026-05-07T10:58:19Z</time>
    </trkpt>
    <trkpt lat="49.530456" lon="20.105691">
      <ele>1123</ele>
      <time>2026-05-07T10:58:34Z</time>
    </trkpt>
    <trkpt lat="49.530635" lon="20.105796">
      <ele>1126</ele>
      <time>2026-05-07T10:59:04Z</time>
    </trkpt>
    <trkpt lat="49.531051" lon="20.105975">
      <ele>1135</ele>
      <time>2026-05-07T11:00:11Z</time>
    </trkpt>
    <trkpt lat="49.531284" lon="20.106142">
      <ele>1140</ele>
      <time>2026-05-07T11:00:51Z</time>
    </trkpt>
    <trkpt lat="49.531527" lon="20.106361">
      <ele>1147</ele>
      <time>2026-05-07T11:01:35Z</time>
    </trkpt>
    <trkpt lat="49.531793" lon="20.106533">
      <ele>1156</ele>
      <time>2026-05-07T11:02:21Z</time>
    </trkpt>
    <trkpt lat="49.531853" lon="20.106559">
      <ele>1158</ele>
      <time>2026-05-07T11:02:31Z</time>
    </trkpt>
    <trkpt lat="49.532011" lon="20.106824">
      <ele>1161</ele>
      <time>2026-05-07T11:03:07Z</time>
    </trkpt>
    <trkpt lat="49.532337" lon="20.107419">
      <ele>1163</ele>
      <time>2026-05-07T11:04:24Z</time>
    </trkpt>
    <trkpt lat="49.532501" lon="20.107635">
      <ele>1165</ele>
      <time>2026-05-07T11:04:57Z</time>
    </trkpt>
    <trkpt lat="49.532705" lon="20.107746">
      <ele>1166</ele>
      <time>2026-05-07T11:05:30Z</time>
    </trkpt>
    <trkpt lat="49.532745" lon="20.107781">
      <ele>1166</ele>
      <time>2026-05-07T11:05:37Z</time>
    </trkpt>
    <trkpt lat="49.53295" lon="20.107922">
      <ele>1167</ele>
      <time>2026-05-07T11:06:11Z</time>
    </trkpt>
    <trkpt lat="49.533072" lon="20.107969">
      <ele>1168</ele>
      <time>2026-05-07T11:06:31Z</time>
    </trkpt>
    <trkpt lat="49.533288" lon="20.107993">
      <ele>1166</ele>
      <time>2026-05-07T11:07:04Z</time>
    </trkpt>
    <trkpt lat="49.533702" lon="20.107839">
      <ele>1172</ele>
      <time>2026-05-07T11:08:09Z</time>
    </trkpt>
    <trkpt lat="49.533813" lon="20.107798">
      <ele>1174</ele>
      <time>2026-05-07T11:08:27Z</time>
    </trkpt>
    <trkpt lat="49.533888" lon="20.107762">
      <ele>1175</ele>
      <time>2026-05-07T11:08:39Z</time>
    </trkpt>
    <trkpt lat="49.533988" lon="20.10777">
      <ele>1175</ele>
      <time>2026-05-07T11:08:55Z</time>
    </trkpt>
    <trkpt lat="49.534301" lon="20.107913">
      <ele>1176</ele>
      <time>2026-05-07T11:09:45Z</time>
    </trkpt>
    <trkpt lat="49.534364" lon="20.107934">
      <ele>1176</ele>
      <time>2026-05-07T11:09:54Z</time>
    </trkpt>
    <trkpt lat="49.534653" lon="20.10803">
      <ele>1175</ele>
      <time>2026-05-07T11:10:40Z</time>
    </trkpt>
    <trkpt lat="49.535227" lon="20.10812">
      <ele>1184</ele>
      <time>2026-05-07T11:12:09Z</time>
    </trkpt>
    <trkpt lat="49.535605" lon="20.108437">
      <ele>1189</ele>
      <time>2026-05-07T11:13:15Z</time>
    </trkpt>
    <trkpt lat="49.536331" lon="20.108761">
      <ele>1194</ele>
      <time>2026-05-07T11:15:11Z</time>
    </trkpt>
    <trkpt lat="49.53703" lon="20.109211">
      <ele>1200</ele>
      <time>2026-05-07T11:17:07Z</time>
    </trkpt>
    <trkpt lat="49.537328" lon="20.109436">
      <ele>1207</ele>
      <time>2026-05-07T11:17:58Z</time>
    </trkpt>
    <trkpt lat="49.537418" lon="20.109478">
      <ele>1209</ele>
      <time>2026-05-07T11:18:13Z</time>
    </trkpt>
    <trkpt lat="49.537619" lon="20.109789">
      <ele>1211</ele>
      <time>2026-05-07T11:18:53Z</time>
    </trkpt>
    <trkpt lat="49.537984" lon="20.109949">
      <ele>1214</ele>
      <time>2026-05-07T11:19:46Z</time>
    </trkpt>
    <trkpt lat="49.538491" lon="20.110098">
      <ele>1216</ele>
      <time>2026-05-07T11:20:57Z</time>
    </trkpt>
    <trkpt lat="49.538998" lon="20.110138">
      <ele>1220</ele>
      <time>2026-05-07T11:22:08Z</time>
    </trkpt>
    <trkpt lat="49.539302" lon="20.11029">
      <ele>1222</ele>
      <time>2026-05-07T11:22:53Z</time>
    </trkpt>
    <trkpt lat="49.539609" lon="20.110543">
      <ele>1226</ele>
      <time>2026-05-07T11:23:41Z</time>
    </trkpt>
    <trkpt lat="49.539772" lon="20.11071">
      <ele>1229</ele>
      <time>2026-05-07T11:24:09Z</time>
    </trkpt>
    <trkpt lat="49.540017" lon="20.111012">
      <ele>1231</ele>
      <time>2026-05-07T11:24:53Z</time>
    </trkpt>
    <trkpt lat="49.54027" lon="20.111269">
      <ele>1234</ele>
      <time>2026-05-07T11:25:35Z</time>
    </trkpt>
    <trkpt lat="49.540378" lon="20.111471">
      <ele>1234</ele>
      <time>2026-05-07T11:25:58Z</time>
    </trkpt>
    <trkpt lat="49.540567" lon="20.11192">
      <ele>1233</ele>
      <time>2026-05-07T11:26:47Z</time>
    </trkpt>
    <trkpt lat="49.540705" lon="20.1122">
      <ele>1234</ele>
      <time>2026-05-07T11:27:19Z</time>
    </trkpt>
    <trkpt lat="49.540812" lon="20.112367">
      <ele>1236</ele>
      <time>2026-05-07T11:27:40Z</time>
    </trkpt>
    <trkpt lat="49.541018" lon="20.11261">
      <ele>1241</ele>
      <time>2026-05-07T11:28:16Z</time>
    </trkpt>
    <trkpt lat="49.541251" lon="20.112932">
      <ele>1243</ele>
      <time>2026-05-07T11:29:00Z</time>
    </trkpt>
    <trkpt lat="49.541884" lon="20.114">
      <ele>1249</ele>
      <time>2026-05-07T11:31:11Z</time>
    </trkpt>
    <trkpt lat="49.542011" lon="20.114243">
      <ele>1252</ele>
      <time>2026-05-07T11:31:39Z</time>
    </trkpt>
    <trkpt lat="49.542097" lon="20.114467">
      <ele>1253</ele>
      <time>2026-05-07T11:32:03Z</time>
    </trkpt>
    <trkpt lat="49.542183" lon="20.114688">
      <ele>1255</ele>
      <time>2026-05-07T11:32:26Z</time>
    </trkpt>
    <trkpt lat="49.542272" lon="20.114806">
      <ele>1258</ele>
      <time>2026-05-07T11:32:43Z</time>
    </trkpt>
    <trkpt lat="49.54251" lon="20.115531">
      <ele>1263</ele>
      <time>2026-05-07T11:33:56Z</time>
    </trkpt>
    <trkpt lat="49.542586" lon="20.115746">
      <ele>1265</ele>
      <time>2026-05-07T11:34:19Z</time>
    </trkpt>
    <trkpt lat="49.542765" lon="20.116125">
      <ele>1272</ele>
      <time>2026-05-07T11:35:02Z</time>
    </trkpt>
    <trkpt lat="49.542812" lon="20.116257">
      <ele>1274</ele>
      <time>2026-05-07T11:35:16Z</time>
    </trkpt>
    <trkpt lat="49.542872" lon="20.116515">
      <ele>1276</ele>
      <time>2026-05-07T11:35:40Z</time>
    </trkpt>
    <trkpt lat="49.543134" lon="20.117428">
      <ele>1280</ele>
      <time>2026-05-07T11:37:11Z</time>
    </trkpt>
    <trkpt lat="49.543168" lon="20.117576">
      <ele>1280</ele>
      <time>2026-05-07T11:37:25Z</time>
    </trkpt>
    <trkpt lat="49.543263" lon="20.117823">
      <ele>1280</ele>
      <time>2026-05-07T11:37:51Z</time>
    </trkpt>
    <trkpt lat="49.543379" lon="20.117987">
      <ele>1283</ele>
      <time>2026-05-07T11:38:13Z</time>
    </trkpt>
    <trkpt lat="49.543338" lon="20.117316">
      <ele>1286</ele>
      <time>2026-05-07T11:39:12Z</time>
    </trkpt>
    <trkpt lat="49.543256" lon="20.116754">
      <ele>1286</ele>
      <time>2026-05-07T11:40:02Z</time>
    </trkpt>
    <trkpt lat="49.543296" lon="20.116589">
      <ele>1287</ele>
      <time>2026-05-07T11:40:17Z</time>
    </trkpt>
    <trkpt lat="49.543312" lon="20.116458">
      <ele>1288</ele>
      <time>2026-05-07T11:40:29Z</time>
    </trkpt>
    <trkpt lat="49.543326" lon="20.116239">
      <ele>1289</ele>
      <time>2026-05-07T11:40:48Z</time>
    </trkpt>
    <trkpt lat="49.543296" lon="20.116069">
      <ele>1288</ele>
      <time>2026-05-07T11:41:04Z</time>
    </trkpt>
    <trkpt lat="49.543279" lon="20.115728">
      <ele>1288</ele>
      <time>2026-05-07T11:41:34Z</time>
    </trkpt>
    <trkpt lat="49.54326" lon="20.115363">
      <ele>1291</ele>
      <time>2026-05-07T11:42:06Z</time>
    </trkpt>
    <trkpt lat="49.543263" lon="20.115194">
      <ele>1292</ele>
      <time>2026-05-07T11:42:20Z</time>
    </trkpt>
    <trkpt lat="49.543242" lon="20.115004">
      <ele>1293</ele>
      <time>2026-05-07T11:42:37Z</time>
    </trkpt>
    <trkpt lat="49.543216" lon="20.114781">
      <ele>1294</ele>
      <time>2026-05-07T11:42:57Z</time>
    </trkpt>
    <trkpt lat="49.54315" lon="20.114604">
      <ele>1294</ele>
      <time>2026-05-07T11:43:15Z</time>
    </trkpt>
    <trkpt lat="49.543103" lon="20.114481">
      <ele>1294</ele>
      <time>2026-05-07T11:43:27Z</time>
    </trkpt>
    <trkpt lat="49.543107" lon="20.114357">
      <ele>1295</ele>
      <time>2026-05-07T11:43:38Z</time>
    </trkpt>
    <trkpt lat="49.543094" lon="20.114207">
      <ele>1296</ele>
      <time>2026-05-07T11:43:51Z</time>
    </trkpt>
    <trkpt lat="49.543079" lon="20.114079">
      <ele>1297</ele>
      <time>2026-05-07T11:44:03Z</time>
    </trkpt>
    <trkpt lat="49.543114" lon="20.113727">
      <ele>1301</ele>
      <time>2026-05-07T11:44:34Z</time>
    </trkpt>
    <trkpt lat="49.543111" lon="20.113635">
      <ele>1301</ele>
      <time>2026-05-07T11:44:42Z</time>
    </trkpt>
    <trkpt lat="49.543095" lon="20.113524">
      <ele>1302</ele>
      <time>2026-05-07T11:44:52Z</time>
    </trkpt>
    <trkpt lat="49.543089" lon="20.113362">
      <ele>1303</ele>
      <time>2026-05-07T11:45:06Z</time>
    </trkpt>
    <trkpt lat="49.543095" lon="20.113184">
      <ele>1302</ele>
      <time>2026-05-07T11:45:22Z</time>
    </trkpt>
    <trkpt lat="49.543076" lon="20.113035">
      <ele>1302</ele>
      <time>2026-05-07T11:45:35Z</time>
    </trkpt>
    <trkpt lat="49.543037" lon="20.112823">
      <ele>1301</ele>
      <time>2026-05-07T11:45:54Z</time>
    </trkpt>
    <trkpt lat="49.543006" lon="20.112708">
      <ele>1301</ele>
      <time>2026-05-07T11:46:05Z</time>
    </trkpt>
    <trkpt lat="49.54295" lon="20.112593">
      <ele>1302</ele>
      <time>2026-05-07T11:46:18Z</time>
    </trkpt>
    <trkpt lat="49.542933" lon="20.112499">
      <ele>1303</ele>
      <time>2026-05-07T11:46:26Z</time>
    </trkpt>
    <trkpt lat="49.542922" lon="20.112351">
      <ele>1304</ele>
      <time>2026-05-07T11:46:39Z</time>
    </trkpt>
    <trkpt lat="49.542891" lon="20.112268">
      <ele>1305</ele>
      <time>2026-05-07T11:46:48Z</time>
    </trkpt>
    <trkpt lat="49.542892" lon="20.112213">
      <ele>1305</ele>
      <time>2026-05-07T11:46:53Z</time>
    </trkpt>
    <trkpt lat="49.542903" lon="20.112069">
      <ele>1307</ele>
      <time>2026-05-07T11:47:05Z</time>
    </trkpt>
    <trkpt lat="49.542896" lon="20.111996">
      <ele>1308</ele>
      <time>2026-05-07T11:47:12Z</time>
    </trkpt>
    <trkpt lat="49.542882" lon="20.111922">
      <ele>1308</ele>
      <time>2026-05-07T11:47:19Z</time>
    </trkpt>
    <trkpt lat="49.542885" lon="20.111873">
      <ele>1308</ele>
      <time>2026-05-07T11:47:23Z</time>
    </trkpt>
    <trkpt lat="49.542879" lon="20.111842">
      <ele>1308</ele>
      <time>2026-05-07T11:47:26Z</time>
    </trkpt>
    <trkpt lat="49.542859" lon="20.111829">
      <ele>1308</ele>
      <time>2026-05-07T11:47:29Z</time>
    </trkpt>
    <trkpt lat="49.542846" lon="20.111791">
      <ele>1308</ele>
      <time>2026-05-07T11:47:32Z</time>
    </trkpt>
    <trkpt lat="49.542849" lon="20.11174">
      <ele>1308</ele>
      <time>2026-05-07T11:47:37Z</time>
    </trkpt>
    <trkpt lat="49.542851" lon="20.111659">
      <ele>1308</ele>
      <time>2026-05-07T11:47:44Z</time>
    </trkpt>
    <trkpt lat="49.542844" lon="20.111591">
      <ele>1308</ele>
      <time>2026-05-07T11:47:50Z</time>
    </trkpt>
    <trkpt lat="49.542823" lon="20.111521">
      <ele>1308</ele>
      <time>2026-05-07T11:47:57Z</time>
    </trkpt>
    <trkpt lat="49.542825" lon="20.111481">
      <ele>1308</ele>
      <time>2026-05-07T11:48:00Z</time>
    </trkpt>
    <trkpt lat="49.54283" lon="20.111408">
      <ele>1309</ele>
      <time>2026-05-07T11:48:07Z</time>
    </trkpt>
    <trkpt lat="49.542847" lon="20.111341">
      <ele>1310</ele>
      <time>2026-05-07T11:48:13Z</time>
    </trkpt>
    <trkpt lat="49.54283" lon="20.111408">
      <ele>1309</ele>
      <time>2026-05-07T11:48:16Z</time>
    </trkpt>
    <trkpt lat="49.542825" lon="20.111481">
      <ele>1308</ele>
      <time>2026-05-07T11:48:19Z</time>
    </trkpt>
    <trkpt lat="49.542823" lon="20.111521">
      <ele>1308</ele>
      <time>2026-05-07T11:48:21Z</time>
    </trkpt>
    <trkpt lat="49.542844" lon="20.111591">
      <ele>1308</ele>
      <time>2026-05-07T11:48:25Z</time>
    </trkpt>
    <trkpt lat="49.542851" lon="20.111659">
      <ele>1308</ele>
      <time>2026-05-07T11:48:28Z</time>
    </trkpt>
    <trkpt lat="49.542849" lon="20.11174">
      <ele>1308</ele>
      <time>2026-05-07T11:48:31Z</time>
    </trkpt>
    <trkpt lat="49.542846" lon="20.111791">
      <ele>1308</ele>
      <time>2026-05-07T11:48:33Z</time>
    </trkpt>
    <trkpt lat="49.542859" lon="20.111829">
      <ele>1308</ele>
      <time>2026-05-07T11:48:35Z</time>
    </trkpt>
    <trkpt lat="49.542879" lon="20.111842">
      <ele>1308</ele>
      <time>2026-05-07T11:48:37Z</time>
    </trkpt>
    <trkpt lat="49.542885" lon="20.111873">
      <ele>1308</ele>
      <time>2026-05-07T11:48:38Z</time>
    </trkpt>
    <trkpt lat="49.542882" lon="20.111922">
      <ele>1308</ele>
      <time>2026-05-07T11:48:40Z</time>
    </trkpt>
    <trkpt lat="49.542896" lon="20.111996">
      <ele>1308</ele>
      <time>2026-05-07T11:48:44Z</time>
    </trkpt>
    <trkpt lat="49.542903" lon="20.112069">
      <ele>1307</ele>
      <time>2026-05-07T11:48:47Z</time>
    </trkpt>
    <trkpt lat="49.542892" lon="20.112213">
      <ele>1305</ele>
      <time>2026-05-07T11:48:53Z</time>
    </trkpt>
    <trkpt lat="49.542891" lon="20.112268">
      <ele>1305</ele>
      <time>2026-05-07T11:48:56Z</time>
    </trkpt>
    <trkpt lat="49.542922" lon="20.112351">
      <ele>1304</ele>
      <time>2026-05-07T11:49:00Z</time>
    </trkpt>
    <trkpt lat="49.542933" lon="20.112499">
      <ele>1303</ele>
      <time>2026-05-07T11:49:06Z</time>
    </trkpt>
    <trkpt lat="49.54295" lon="20.112593">
      <ele>1302</ele>
      <time>2026-05-07T11:49:11Z</time>
    </trkpt>
    <trkpt lat="49.543006" lon="20.112708">
      <ele>1301</ele>
      <time>2026-05-07T11:49:17Z</time>
    </trkpt>
    <trkpt lat="49.543037" lon="20.112823">
      <ele>1301</ele>
      <time>2026-05-07T11:49:22Z</time>
    </trkpt>
    <trkpt lat="49.543076" lon="20.113035">
      <ele>1302</ele>
      <time>2026-05-07T11:49:32Z</time>
    </trkpt>
    <trkpt lat="49.543095" lon="20.113184">
      <ele>1302</ele>
      <time>2026-05-07T11:49:39Z</time>
    </trkpt>
    <trkpt lat="49.543089" lon="20.113362">
      <ele>1303</ele>
      <time>2026-05-07T11:49:46Z</time>
    </trkpt>
    <trkpt lat="49.543095" lon="20.113524">
      <ele>1302</ele>
      <time>2026-05-07T11:49:53Z</time>
    </trkpt>
    <trkpt lat="49.543111" lon="20.113635">
      <ele>1301</ele>
      <time>2026-05-07T11:49:58Z</time>
    </trkpt>
    <trkpt lat="49.543114" lon="20.113727">
      <ele>1301</ele>
      <time>2026-05-07T11:50:02Z</time>
    </trkpt>
    <trkpt lat="49.543079" lon="20.114079">
      <ele>1297</ele>
      <time>2026-05-07T11:50:18Z</time>
    </trkpt>
    <trkpt lat="49.543094" lon="20.114207">
      <ele>1296</ele>
      <time>2026-05-07T11:50:24Z</time>
    </trkpt>
    <trkpt lat="49.543107" lon="20.114357">
      <ele>1295</ele>
      <time>2026-05-07T11:50:30Z</time>
    </trkpt>
    <trkpt lat="49.543103" lon="20.114481">
      <ele>1294</ele>
      <time>2026-05-07T11:50:36Z</time>
    </trkpt>
    <trkpt lat="49.54315" lon="20.114604">
      <ele>1294</ele>
      <time>2026-05-07T11:50:42Z</time>
    </trkpt>
    <trkpt lat="49.543216" lon="20.114781">
      <ele>1294</ele>
      <time>2026-05-07T11:50:51Z</time>
    </trkpt>
    <trkpt lat="49.543242" lon="20.115004">
      <ele>1293</ele>
      <time>2026-05-07T11:51:01Z</time>
    </trkpt>
    <trkpt lat="49.543263" lon="20.115194">
      <ele>1292</ele>
      <time>2026-05-07T11:51:09Z</time>
    </trkpt>
    <trkpt lat="49.54326" lon="20.115363">
      <ele>1291</ele>
      <time>2026-05-07T11:51:17Z</time>
    </trkpt>
    <trkpt lat="49.543279" lon="20.115728">
      <ele>1288</ele>
      <time>2026-05-07T11:51:33Z</time>
    </trkpt>
    <trkpt lat="49.543296" lon="20.116069">
      <ele>1288</ele>
      <time>2026-05-07T11:51:48Z</time>
    </trkpt>
    <trkpt lat="49.543326" lon="20.116239">
      <ele>1289</ele>
      <time>2026-05-07T11:51:55Z</time>
    </trkpt>
    <trkpt lat="49.543312" lon="20.116458">
      <ele>1288</ele>
      <time>2026-05-07T11:52:05Z</time>
    </trkpt>
    <trkpt lat="49.543296" lon="20.116589">
      <ele>1287</ele>
      <time>2026-05-07T11:52:11Z</time>
    </trkpt>
    <trkpt lat="49.543256" lon="20.116754">
      <ele>1286</ele>
      <time>2026-05-07T11:52:18Z</time>
    </trkpt>
    <trkpt lat="49.543338" lon="20.117316">
      <ele>1286</ele>
      <time>2026-05-07T11:52:44Z</time>
    </trkpt>
    <trkpt lat="49.543379" lon="20.117987">
      <ele>1283</ele>
      <time>2026-05-07T11:53:13Z</time>
    </trkpt>
    <trkpt lat="49.543263" lon="20.117823">
      <ele>1280</ele>
      <time>2026-05-07T11:53:30Z</time>
    </trkpt>
    <trkpt lat="49.543168" lon="20.117576">
      <ele>1280</ele>
      <time>2026-05-07T11:53:49Z</time>
    </trkpt>
    <trkpt lat="49.543134" lon="20.117428">
      <ele>1280</ele>
      <time>2026-05-07T11:54:00Z</time>
    </trkpt>
    <trkpt lat="49.542872" lon="20.116515">
      <ele>1276</ele>
      <time>2026-05-07T11:55:07Z</time>
    </trkpt>
    <trkpt lat="49.542812" lon="20.116257">
      <ele>1274</ele>
      <time>2026-05-07T11:55:26Z</time>
    </trkpt>
    <trkpt lat="49.542765" lon="20.116125">
      <ele>1272</ele>
      <time>2026-05-07T11:55:36Z</time>
    </trkpt>
    <trkpt lat="49.542586" lon="20.115746">
      <ele>1265</ele>
      <time>2026-05-07T11:56:09Z</time>
    </trkpt>
    <trkpt lat="49.54251" lon="20.115531">
      <ele>1263</ele>
      <time>2026-05-07T11:56:26Z</time>
    </trkpt>
    <trkpt lat="49.542272" lon="20.114806">
      <ele>1258</ele>
      <time>2026-05-07T11:57:21Z</time>
    </trkpt>
    <trkpt lat="49.542183" lon="20.114688">
      <ele>1255</ele>
      <time>2026-05-07T11:57:33Z</time>
    </trkpt>
    <trkpt lat="49.542097" lon="20.114467">
      <ele>1253</ele>
      <time>2026-05-07T11:57:51Z</time>
    </trkpt>
    <trkpt lat="49.542011" lon="20.114243">
      <ele>1252</ele>
      <time>2026-05-07T11:58:08Z</time>
    </trkpt>
    <trkpt lat="49.541884" lon="20.114">
      <ele>1249</ele>
      <time>2026-05-07T11:58:30Z</time>
    </trkpt>
    <trkpt lat="49.541251" lon="20.112932">
      <ele>1243</ele>
      <time>2026-05-07T12:00:08Z</time>
    </trkpt>
    <trkpt lat="49.541018" lon="20.11261">
      <ele>1241</ele>
      <time>2026-05-07T12:00:40Z</time>
    </trkpt>
    <trkpt lat="49.540812" lon="20.112367">
      <ele>1236</ele>
      <time>2026-05-07T12:01:08Z</time>
    </trkpt>
    <trkpt lat="49.540705" lon="20.1122">
      <ele>1234</ele>
      <time>2026-05-07T12:01:24Z</time>
    </trkpt>
    <trkpt lat="49.540567" lon="20.11192">
      <ele>1233</ele>
      <time>2026-05-07T12:01:48Z</time>
    </trkpt>
    <trkpt lat="49.540378" lon="20.111471">
      <ele>1234</ele>
      <time>2026-05-07T12:02:24Z</time>
    </trkpt>
    <trkpt lat="49.54027" lon="20.111269">
      <ele>1234</ele>
      <time>2026-05-07T12:02:42Z</time>
    </trkpt>
    <trkpt lat="49.540017" lon="20.111012">
      <ele>1231</ele>
      <time>2026-05-07T12:03:13Z</time>
    </trkpt>
    <trkpt lat="49.539772" lon="20.11071">
      <ele>1229</ele>
      <time>2026-05-07T12:03:46Z</time>
    </trkpt>
    <trkpt lat="49.539609" lon="20.110543">
      <ele>1226</ele>
      <time>2026-05-07T12:04:07Z</time>
    </trkpt>
    <trkpt lat="49.539302" lon="20.11029">
      <ele>1222</ele>
      <time>2026-05-07T12:04:43Z</time>
    </trkpt>
    <trkpt lat="49.538998" lon="20.110138">
      <ele>1220</ele>
      <time>2026-05-07T12:05:17Z</time>
    </trkpt>
    <trkpt lat="49.538491" lon="20.110098">
      <ele>1216</ele>
      <time>2026-05-07T12:06:10Z</time>
    </trkpt>
    <trkpt lat="49.537984" lon="20.109949">
      <ele>1214</ele>
      <time>2026-05-07T12:07:04Z</time>
    </trkpt>
    <trkpt lat="49.537619" lon="20.109789">
      <ele>1211</ele>
      <time>2026-05-07T12:07:43Z</time>
    </trkpt>
    <trkpt lat="49.537418" lon="20.109478">
      <ele>1209</ele>
      <time>2026-05-07T12:08:13Z</time>
    </trkpt>
    <trkpt lat="49.537366" lon="20.109242">
      <ele>1208</ele>
      <time>2026-05-07T12:08:32Z</time>
    </trkpt>
    <trkpt lat="49.537302" lon="20.109047">
      <ele>1207</ele>
      <time>2026-05-07T12:08:48Z</time>
    </trkpt>
    <trkpt lat="49.537218" lon="20.108896">
      <ele>1206</ele>
      <time>2026-05-07T12:09:03Z</time>
    </trkpt>
    <trkpt lat="49.537095" lon="20.108703">
      <ele>1207</ele>
      <time>2026-05-07T12:09:23Z</time>
    </trkpt>
    <trkpt lat="49.53694" lon="20.108483">
      <ele>1210</ele>
      <time>2026-05-07T12:09:47Z</time>
    </trkpt>
    <trkpt lat="49.536816" lon="20.108258">
      <ele>1211</ele>
      <time>2026-05-07T12:10:09Z</time>
    </trkpt>
    <trkpt lat="49.536694" lon="20.108043">
      <ele>1210</ele>
      <time>2026-05-07T12:10:30Z</time>
    </trkpt>
    <trkpt lat="49.53652" lon="20.107848">
      <ele>1211</ele>
      <time>2026-05-07T12:10:55Z</time>
    </trkpt>
    <trkpt lat="49.536346" lon="20.107711">
      <ele>1211</ele>
      <time>2026-05-07T12:11:17Z</time>
    </trkpt>
    <trkpt lat="49.53619" lon="20.107633">
      <ele>1210</ele>
      <time>2026-05-07T12:11:36Z</time>
    </trkpt>
    <trkpt lat="49.536082" lon="20.10754">
      <ele>1210</ele>
      <time>2026-05-07T12:11:50Z</time>
    </trkpt>
    <trkpt lat="49.535857" lon="20.10718">
      <ele>1212</ele>
      <time>2026-05-07T12:12:27Z</time>
    </trkpt>
    <trkpt lat="49.535767" lon="20.107087">
      <ele>1212</ele>
      <time>2026-05-07T12:12:40Z</time>
    </trkpt>
    <trkpt lat="49.535607" lon="20.106959">
      <ele>1211</ele>
      <time>2026-05-07T12:13:00Z</time>
    </trkpt>
    <trkpt lat="49.535503" lon="20.106909">
      <ele>1209</ele>
      <time>2026-05-07T12:13:13Z</time>
    </trkpt>
    <trkpt lat="49.535147" lon="20.106821">
      <ele>1205</ele>
      <time>2026-05-07T12:13:54Z</time>
    </trkpt>
    <trkpt lat="49.534957" lon="20.106809">
      <ele>1202</ele>
      <time>2026-05-07T12:14:16Z</time>
    </trkpt>
    <trkpt lat="49.534895" lon="20.106805">
      <ele>1201</ele>
      <time>2026-05-07T12:14:23Z</time>
    </trkpt>
    <trkpt lat="49.534685" lon="20.106722">
      <ele>1199</ele>
      <time>2026-05-07T12:14:48Z</time>
    </trkpt>
    <trkpt lat="49.534378" lon="20.106549">
      <ele>1196</ele>
      <time>2026-05-07T12:15:26Z</time>
    </trkpt>
    <trkpt lat="49.534165" lon="20.106372">
      <ele>1194</ele>
      <time>2026-05-07T12:15:54Z</time>
    </trkpt>
    <trkpt lat="49.533999" lon="20.1062">
      <ele>1192</ele>
      <time>2026-05-07T12:16:17Z</time>
    </trkpt>
    <trkpt lat="49.53396" lon="20.106043">
      <ele>1191</ele>
      <time>2026-05-07T12:16:29Z</time>
    </trkpt>
    <trkpt lat="49.533954" lon="20.1059">
      <ele>1191</ele>
      <time>2026-05-07T12:16:40Z</time>
    </trkpt>
    <trkpt lat="49.533935" lon="20.105618">
      <ele>1189</ele>
      <time>2026-05-07T12:17:01Z</time>
    </trkpt>
    <trkpt lat="49.533931" lon="20.105346">
      <ele>1186</ele>
      <time>2026-05-07T12:17:21Z</time>
    </trkpt>
    <trkpt lat="49.533907" lon="20.105241">
      <ele>1184</ele>
      <time>2026-05-07T12:17:30Z</time>
    </trkpt>
    <trkpt lat="49.533828" lon="20.105055">
      <ele>1181</ele>
      <time>2026-05-07T12:17:47Z</time>
    </trkpt>
    <trkpt lat="49.533738" lon="20.10488">
      <ele>1177</ele>
      <time>2026-05-07T12:18:04Z</time>
    </trkpt>
    <trkpt lat="49.53315" lon="20.103973">
      <ele>1165</ele>
      <time>2026-05-07T12:19:40Z</time>
    </trkpt>
    <trkpt lat="49.532738" lon="20.103435">
      <ele>1159</ele>
      <time>2026-05-07T12:20:42Z</time>
    </trkpt>
    <trkpt lat="49.532406" lon="20.102918">
      <ele>1154</ele>
      <time>2026-05-07T12:21:36Z</time>
    </trkpt>
    <trkpt lat="49.53224" lon="20.102623">
      <ele>1153</ele>
      <time>2026-05-07T12:22:05Z</time>
    </trkpt>
    <trkpt lat="49.532208" lon="20.102524">
      <ele>1153</ele>
      <time>2026-05-07T12:22:13Z</time>
    </trkpt>
    <trkpt lat="49.532159" lon="20.102314">
      <ele>1152</ele>
      <time>2026-05-07T12:22:30Z</time>
    </trkpt>
    <trkpt lat="49.532013" lon="20.101338">
      <ele>1149</ele>
      <time>2026-05-07T12:23:44Z</time>
    </trkpt>
    <trkpt lat="49.532001" lon="20.101116">
      <ele>1149</ele>
      <time>2026-05-07T12:24:01Z</time>
    </trkpt>
    <trkpt lat="49.532025" lon="20.100671">
      <ele>1143</ele>
      <time>2026-05-07T12:24:34Z</time>
    </trkpt>
    <trkpt lat="49.532017" lon="20.10052">
      <ele>1141</ele>
      <time>2026-05-07T12:24:46Z</time>
    </trkpt>
    <trkpt lat="49.531974" lon="20.100252">
      <ele>1140</ele>
      <time>2026-05-07T12:25:06Z</time>
    </trkpt>
    <trkpt lat="49.531963" lon="20.099914">
      <ele>1137</ele>
      <time>2026-05-07T12:25:32Z</time>
    </trkpt>
    <trkpt lat="49.531989" lon="20.099471">
      <ele>1137</ele>
      <time>2026-05-07T12:26:05Z</time>
    </trkpt>
    <trkpt lat="49.532017" lon="20.099096">
      <ele>1138</ele>
      <time>2026-05-07T12:26:33Z</time>
    </trkpt>
    <trkpt lat="49.532102" lon="20.098704">
      <ele>1136</ele>
      <time>2026-05-07T12:27:03Z</time>
    </trkpt>
    <trkpt lat="49.532238" lon="20.098412">
      <ele>1133</ele>
      <time>2026-05-07T12:27:30Z</time>
    </trkpt>
    <trkpt lat="49.532364" lon="20.098169">
      <ele>1126</ele>
      <time>2026-05-07T12:27:54Z</time>
    </trkpt>
    <trkpt lat="49.532552" lon="20.097579">
      <ele>1118</ele>
      <time>2026-05-07T12:28:44Z</time>
    </trkpt>
    <trkpt lat="49.532773" lon="20.097036">
      <ele>1110</ele>
      <time>2026-05-07T12:29:32Z</time>
    </trkpt>
    <trkpt lat="49.532887" lon="20.096572">
      <ele>1109</ele>
      <time>2026-05-07T12:30:09Z</time>
    </trkpt>
    <trkpt lat="49.532976" lon="20.095842">
      <ele>1108</ele>
      <time>2026-05-07T12:31:04Z</time>
    </trkpt>
    <trkpt lat="49.533016" lon="20.095418">
      <ele>1106</ele>
      <time>2026-05-07T12:31:36Z</time>
    </trkpt>
    <trkpt lat="49.533095" lon="20.094992">
      <ele>1104</ele>
      <time>2026-05-07T12:32:09Z</time>
    </trkpt>
    <trkpt lat="49.533189" lon="20.094715">
      <ele>1100</ele>
      <time>2026-05-07T12:32:33Z</time>
    </trkpt>
    <trkpt lat="49.533255" lon="20.094521">
      <ele>1098</ele>
      <time>2026-05-07T12:32:49Z</time>
    </trkpt>
    <trkpt lat="49.533335" lon="20.093983">
      <ele>1097</ele>
      <time>2026-05-07T12:33:30Z</time>
    </trkpt>
    <trkpt lat="49.533337" lon="20.093777">
      <ele>1097</ele>
      <time>2026-05-07T12:33:45Z</time>
    </trkpt>
    <trkpt lat="49.533394" lon="20.093224">
      <ele>1096</ele>
      <time>2026-05-07T12:34:27Z</time>
    </trkpt>
    <trkpt lat="49.533481" lon="20.092849">
      <ele>1097</ele>
      <time>2026-05-07T12:34:56Z</time>
    </trkpt>
    <trkpt lat="49.533582" lon="20.092514">
      <ele>1098</ele>
      <time>2026-05-07T12:35:24Z</time>
    </trkpt>
    <trkpt lat="49.53365" lon="20.092284">
      <ele>1099</ele>
      <time>2026-05-07T12:35:43Z</time>
    </trkpt>
    <trkpt lat="49.533697" lon="20.092076">
      <ele>1098</ele>
      <time>2026-05-07T12:35:59Z</time>
    </trkpt>
    <trkpt lat="49.533808" lon="20.091701">
      <ele>1100</ele>
      <time>2026-05-07T12:36:30Z</time>
    </trkpt>
    <trkpt lat="49.533833" lon="20.091473">
      <ele>1101</ele>
      <time>2026-05-07T12:36:47Z</time>
    </trkpt>
    <trkpt lat="49.533839" lon="20.091085">
      <ele>1103</ele>
      <time>2026-05-07T12:37:16Z</time>
    </trkpt>
    <trkpt lat="49.533819" lon="20.090939">
      <ele>1103</ele>
      <time>2026-05-07T12:37:27Z</time>
    </trkpt>
    <trkpt lat="49.533843" lon="20.09044">
      <ele>1102</ele>
      <time>2026-05-07T12:38:04Z</time>
    </trkpt>
    <trkpt lat="49.533814" lon="20.089978">
      <ele>1104</ele>
      <time>2026-05-07T12:38:38Z</time>
    </trkpt>
    <trkpt lat="49.533753" lon="20.089544">
      <ele>1106</ele>
      <time>2026-05-07T12:39:11Z</time>
    </trkpt>
    <trkpt lat="49.533669" lon="20.088522">
      <ele>1112</ele>
      <time>2026-05-07T12:40:28Z</time>
    </trkpt>
    <trkpt lat="49.533655" lon="20.088209">
      <ele>1112</ele>
      <time>2026-05-07T12:40:52Z</time>
    </trkpt>
    <trkpt lat="49.533606" lon="20.087951">
      <ele>1112</ele>
      <time>2026-05-07T12:41:11Z</time>
    </trkpt>
    <trkpt lat="49.533559" lon="20.087621">
      <ele>1112</ele>
      <time>2026-05-07T12:41:37Z</time>
    </trkpt>
    <trkpt lat="49.533523" lon="20.087451">
      <ele>1113</ele>
      <time>2026-05-07T12:41:50Z</time>
    </trkpt>
    <trkpt lat="49.533504" lon="20.087311">
      <ele>1113</ele>
      <time>2026-05-07T12:42:00Z</time>
    </trkpt>
    <trkpt lat="49.533414" lon="20.086949">
      <ele>1114</ele>
      <time>2026-05-07T12:42:29Z</time>
    </trkpt>
    <trkpt lat="49.533363" lon="20.086802">
      <ele>1114</ele>
      <time>2026-05-07T12:42:42Z</time>
    </trkpt>
    <trkpt lat="49.53319" lon="20.086447">
      <ele>1114</ele>
      <time>2026-05-07T12:43:15Z</time>
    </trkpt>
    <trkpt lat="49.533115" lon="20.086258">
      <ele>1114</ele>
      <time>2026-05-07T12:43:31Z</time>
    </trkpt>
    <trkpt lat="49.533096" lon="20.08621">
      <ele>1114</ele>
      <time>2026-05-07T12:43:35Z</time>
    </trkpt>
    <trkpt lat="49.53299" lon="20.085859">
      <ele>1116</ele>
      <time>2026-05-07T12:44:04Z</time>
    </trkpt>
    <trkpt lat="49.532795" lon="20.085328">
      <ele>1123</ele>
      <time>2026-05-07T12:44:50Z</time>
    </trkpt>
    <trkpt lat="49.53271" lon="20.08506">
      <ele>1125</ele>
      <time>2026-05-07T12:45:12Z</time>
    </trkpt>
    <trkpt lat="49.532663" lon="20.08469">
      <ele>1128</ele>
      <time>2026-05-07T12:45:40Z</time>
    </trkpt>
    <trkpt lat="49.532653" lon="20.084218">
      <ele>1129</ele>
      <time>2026-05-07T12:46:15Z</time>
    </trkpt>
    <trkpt lat="49.532453" lon="20.083956">
      <ele>1133</ele>
      <time>2026-05-07T12:46:46Z</time>
    </trkpt>
    <trkpt lat="49.532356" lon="20.083516">
      <ele>1137</ele>
      <time>2026-05-07T12:47:20Z</time>
    </trkpt>
    <trkpt lat="49.532314" lon="20.083076">
      <ele>1135</ele>
      <time>2026-05-07T12:47:53Z</time>
    </trkpt>
    <trkpt lat="49.532244" lon="20.08247">
      <ele>1134</ele>
      <time>2026-05-07T12:48:39Z</time>
    </trkpt>
    <trkpt lat="49.532258" lon="20.082132">
      <ele>1134</ele>
      <time>2026-05-07T12:49:04Z</time>
    </trkpt>
    <trkpt lat="49.532271" lon="20.081857">
      <ele>1134</ele>
      <time>2026-05-07T12:49:25Z</time>
    </trkpt>
    <trkpt lat="49.532287" lon="20.081538">
      <ele>1133</ele>
      <time>2026-05-07T12:49:48Z</time>
    </trkpt>
    <trkpt lat="49.532304" lon="20.081224">
      <ele>1133</ele>
      <time>2026-05-07T12:50:12Z</time>
    </trkpt>
    <trkpt lat="49.532336" lon="20.080972">
      <ele>1132</ele>
      <time>2026-05-07T12:50:31Z</time>
    </trkpt>
    <trkpt lat="49.532372" lon="20.080741">
      <ele>1131</ele>
      <time>2026-05-07T12:50:49Z</time>
    </trkpt>
    <trkpt lat="49.532409" lon="20.080634">
      <ele>1130</ele>
      <time>2026-05-07T12:50:58Z</time>
    </trkpt>
    <trkpt lat="49.532446" lon="20.080543">
      <ele>1128</ele>
      <time>2026-05-07T12:51:06Z</time>
    </trkpt>
    <trkpt lat="49.532454" lon="20.080363">
      <ele>1127</ele>
      <time>2026-05-07T12:51:19Z</time>
    </trkpt>
    <trkpt lat="49.532422" lon="20.080204">
      <ele>1127</ele>
      <time>2026-05-07T12:51:32Z</time>
    </trkpt>
    <trkpt lat="49.532311" lon="20.079919">
      <ele>1126</ele>
      <time>2026-05-07T12:51:56Z</time>
    </trkpt>
    <trkpt lat="49.532207" lon="20.079671">
      <ele>1124</ele>
      <time>2026-05-07T12:52:18Z</time>
    </trkpt>
    <trkpt lat="49.532111" lon="20.079513">
      <ele>1123</ele>
      <time>2026-05-07T12:52:34Z</time>
    </trkpt>
    <trkpt lat="49.531998" lon="20.079371">
      <ele>1121</ele>
      <time>2026-05-07T12:52:51Z</time>
    </trkpt>
    <trkpt lat="49.531829" lon="20.079239">
      <ele>1119</ele>
      <time>2026-05-07T12:53:13Z</time>
    </trkpt>
    <trkpt lat="49.531592" lon="20.07916">
      <ele>1120</ele>
      <time>2026-05-07T12:53:38Z</time>
    </trkpt>
    <trkpt lat="49.531401" lon="20.079004">
      <ele>1120</ele>
      <time>2026-05-07T12:53:59Z</time>
    </trkpt>
    <trkpt lat="49.531137" lon="20.078831">
      <ele>1118</ele>
      <time>2026-05-07T12:54:28Z</time>
    </trkpt>
    <trkpt lat="49.530998" lon="20.078787">
      <ele>1116</ele>
      <time>2026-05-07T12:54:43Z</time>
    </trkpt>
    <trkpt lat="49.530604" lon="20.078714">
      <ele>1110</ele>
      <time>2026-05-07T12:55:23Z</time>
    </trkpt>
    <trkpt lat="49.530461" lon="20.078673">
      <ele>1108</ele>
      <time>2026-05-07T12:55:38Z</time>
    </trkpt>
    <trkpt lat="49.530163" lon="20.078532">
      <ele>1105</ele>
      <time>2026-05-07T12:56:10Z</time>
    </trkpt>
    <trkpt lat="49.529947" lon="20.078517">
      <ele>1100</ele>
      <time>2026-05-07T12:56:32Z</time>
    </trkpt>
    <trkpt lat="49.529655" lon="20.078464">
      <ele>1094</ele>
      <time>2026-05-07T12:57:02Z</time>
    </trkpt>
    <trkpt lat="49.529513" lon="20.078406">
      <ele>1093</ele>
      <time>2026-05-07T12:57:17Z</time>
    </trkpt>
    <trkpt lat="49.52939" lon="20.078446">
      <ele>1091</ele>
      <time>2026-05-07T12:57:30Z</time>
    </trkpt>
    <trkpt lat="49.529331" lon="20.078514">
      <ele>1090</ele>
      <time>2026-05-07T12:57:38Z</time>
    </trkpt>
    <trkpt lat="49.529068" lon="20.078818">
      <ele>1086</ele>
      <time>2026-05-07T12:58:11Z</time>
    </trkpt>
    <trkpt lat="49.528993" lon="20.078842">
      <ele>1084</ele>
      <time>2026-05-07T12:58:19Z</time>
    </trkpt>
    <trkpt lat="49.52888" lon="20.078829">
      <ele>1083</ele>
      <time>2026-05-07T12:58:31Z</time>
    </trkpt>
    <trkpt lat="49.528755" lon="20.078781">
      <ele>1081</ele>
      <time>2026-05-07T12:58:44Z</time>
    </trkpt>
    <trkpt lat="49.528438" lon="20.078676">
      <ele>1073</ele>
      <time>2026-05-07T12:59:17Z</time>
    </trkpt>
    <trkpt lat="49.528314" lon="20.078684">
      <ele>1068</ele>
      <time>2026-05-07T12:59:31Z</time>
    </trkpt>
    <trkpt lat="49.528006" lon="20.078767">
      <ele>1057</ele>
      <time>2026-05-07T13:00:04Z</time>
    </trkpt>
    <trkpt lat="49.52787" lon="20.078764">
      <ele>1055</ele>
      <time>2026-05-07T13:00:18Z</time>
    </trkpt>
    <trkpt lat="49.527761" lon="20.078751">
      <ele>1053</ele>
      <time>2026-05-07T13:00:29Z</time>
    </trkpt>
    <trkpt lat="49.527672" lon="20.078705">
      <ele>1051</ele>
      <time>2026-05-07T13:00:38Z</time>
    </trkpt>
    <trkpt lat="49.527613" lon="20.0787">
      <ele>1050</ele>
      <time>2026-05-07T13:00:44Z</time>
    </trkpt>
    <trkpt lat="49.527541" lon="20.078677">
      <ele>1049</ele>
      <time>2026-05-07T13:00:52Z</time>
    </trkpt>
    <trkpt lat="49.527241" lon="20.078573">
      <ele>1045</ele>
      <time>2026-05-07T13:01:23Z</time>
    </trkpt>
    <trkpt lat="49.527025" lon="20.078559">
      <ele>1041</ele>
      <time>2026-05-07T13:01:45Z</time>
    </trkpt>
    <trkpt lat="49.526927" lon="20.078563">
      <ele>1039</ele>
      <time>2026-05-07T13:01:56Z</time>
    </trkpt>
    <trkpt lat="49.526849" lon="20.078514">
      <ele>1038</ele>
      <time>2026-05-07T13:02:04Z</time>
    </trkpt>
    <trkpt lat="49.526339" lon="20.078103">
      <ele>1029</ele>
      <time>2026-05-07T13:03:03Z</time>
    </trkpt>
    <trkpt lat="49.526234" lon="20.078063">
      <ele>1027</ele>
      <time>2026-05-07T13:03:14Z</time>
    </trkpt>
    <trkpt lat="49.526127" lon="20.078056">
      <ele>1025</ele>
      <time>2026-05-07T13:03:25Z</time>
    </trkpt>
    <trkpt lat="49.525805" lon="20.078091">
      <ele>1020</ele>
      <time>2026-05-07T13:03:58Z</time>
    </trkpt>
    <trkpt lat="49.525589" lon="20.078086">
      <ele>1017</ele>
      <time>2026-05-07T13:04:20Z</time>
    </trkpt>
    <trkpt lat="49.525483" lon="20.078056">
      <ele>1016</ele>
      <time>2026-05-07T13:04:31Z</time>
    </trkpt>
    <trkpt lat="49.525162" lon="20.078032">
      <ele>1019</ele>
      <time>2026-05-07T13:05:04Z</time>
    </trkpt>
    <trkpt lat="49.524614" lon="20.078279">
      <ele>1024</ele>
      <time>2026-05-07T13:06:01Z</time>
    </trkpt>
    <trkpt lat="49.524451" lon="20.078417">
      <ele>1025</ele>
      <time>2026-05-07T13:06:20Z</time>
    </trkpt>
    <trkpt lat="49.524078" lon="20.078853">
      <ele>1024</ele>
      <time>2026-05-07T13:07:08Z</time>
    </trkpt>
    <trkpt lat="49.523849" lon="20.079005">
      <ele>1023</ele>
      <time>2026-05-07T13:07:33Z</time>
    </trkpt>
    <trkpt lat="49.523423" lon="20.07942">
      <ele>1012</ele>
      <time>2026-05-07T13:08:25Z</time>
    </trkpt>
    <trkpt lat="49.523356" lon="20.079458">
      <ele>1010</ele>
      <time>2026-05-07T13:08:32Z</time>
    </trkpt>
    <trkpt lat="49.523212" lon="20.079448">
      <ele>1008</ele>
      <time>2026-05-07T13:08:47Z</time>
    </trkpt>
    <trkpt lat="49.523115" lon="20.079394">
      <ele>1007</ele>
      <time>2026-05-07T13:08:57Z</time>
    </trkpt>
    <trkpt lat="49.523025" lon="20.079304">
      <ele>1006</ele>
      <time>2026-05-07T13:09:08Z</time>
    </trkpt>
    <trkpt lat="49.522525" lon="20.078674">
      <ele>997</ele>
      <time>2026-05-07T13:10:14Z</time>
    </trkpt>
    <trkpt lat="49.522398" lon="20.078572">
      <ele>996</ele>
      <time>2026-05-07T13:10:29Z</time>
    </trkpt>
    <trkpt lat="49.52206" lon="20.078391">
      <ele>992</ele>
      <time>2026-05-07T13:11:05Z</time>
    </trkpt>
    <trkpt lat="49.521901" lon="20.078263">
      <ele>991</ele>
      <time>2026-05-07T13:11:23Z</time>
    </trkpt>
    <trkpt lat="49.521775" lon="20.078137">
      <ele>990</ele>
      <time>2026-05-07T13:11:38Z</time>
    </trkpt>
    <trkpt lat="49.521507" lon="20.077779">
      <ele>987</ele>
      <time>2026-05-07T13:12:14Z</time>
    </trkpt>
    <trkpt lat="49.52106" lon="20.076984">
      <ele>981</ele>
      <time>2026-05-07T13:13:24Z</time>
    </trkpt>
    <trkpt lat="49.520712" lon="20.076422">
      <ele>975</ele>
      <time>2026-05-07T13:14:15Z</time>
    </trkpt>
    <trkpt lat="49.52058" lon="20.076159">
      <ele>975</ele>
      <time>2026-05-07T13:14:37Z</time>
    </trkpt>
    <trkpt lat="49.520466" lon="20.075877">
      <ele>973</ele>
      <time>2026-05-07T13:14:59Z</time>
    </trkpt>
    <trkpt lat="49.520325" lon="20.075427">
      <ele>971</ele>
      <time>2026-05-07T13:15:32Z</time>
    </trkpt>
    <trkpt lat="49.520269" lon="20.075164">
      <ele>970</ele>
      <time>2026-05-07T13:15:50Z</time>
    </trkpt>
    <trkpt lat="49.52016" lon="20.074878">
      <ele>968</ele>
      <time>2026-05-07T13:16:12Z</time>
    </trkpt>
    <trkpt lat="49.520001" lon="20.074658">
      <ele>964</ele>
      <time>2026-05-07T13:16:34Z</time>
    </trkpt>
    <trkpt lat="49.5198" lon="20.074424">
      <ele>958</ele>
      <time>2026-05-07T13:17:00Z</time>
    </trkpt>
    <trkpt lat="49.519452" lon="20.074138">
      <ele>949</ele>
      <time>2026-05-07T13:17:40Z</time>
    </trkpt>
    <trkpt lat="49.518962" lon="20.073675">
      <ele>940</ele>
      <time>2026-05-07T13:18:39Z</time>
    </trkpt>
    <trkpt lat="49.518686" lon="20.073398">
      <ele>935</ele>
      <time>2026-05-07T13:19:13Z</time>
    </trkpt>
    <trkpt lat="49.518585" lon="20.073274">
      <ele>934</ele>
      <time>2026-05-07T13:19:26Z</time>
    </trkpt>
    <trkpt lat="49.518406" lon="20.073278">
      <ele>931</ele>
      <time>2026-05-07T13:19:44Z</time>
    </trkpt>
    <trkpt lat="49.517714" lon="20.073218">
      <ele>922</ele>
      <time>2026-05-07T13:20:55Z</time>
    </trkpt>
    <trkpt lat="49.517614" lon="20.073175">
      <ele>919</ele>
      <time>2026-05-07T13:21:05Z</time>
    </trkpt>
    <trkpt lat="49.517493" lon="20.073087">
      <ele>917</ele>
      <time>2026-05-07T13:21:19Z</time>
    </trkpt>
    <trkpt lat="49.51726" lon="20.072827">
      <ele>914</ele>
      <time>2026-05-07T13:21:48Z</time>
    </trkpt>
    <trkpt lat="49.517138" lon="20.072708">
      <ele>914</ele>
      <time>2026-05-07T13:22:03Z</time>
    </trkpt>
    <trkpt lat="49.516927" lon="20.072553">
      <ele>913</ele>
      <time>2026-05-07T13:22:27Z</time>
    </trkpt>
    <trkpt lat="49.516791" lon="20.072423">
      <ele>913</ele>
      <time>2026-05-07T13:22:43Z</time>
    </trkpt>
    <trkpt lat="49.516633" lon="20.072197">
      <ele>913</ele>
      <time>2026-05-07T13:23:05Z</time>
    </trkpt>
    <trkpt lat="49.516417" lon="20.072002">
      <ele>916</ele>
      <time>2026-05-07T13:23:30Z</time>
    </trkpt>
    <trkpt lat="49.516304" lon="20.071893">
      <ele>917</ele>
      <time>2026-05-07T13:23:43Z</time>
    </trkpt>
    <trkpt lat="49.516131" lon="20.071648">
      <ele>919</ele>
      <time>2026-05-07T13:24:07Z</time>
    </trkpt>
    <trkpt lat="49.516027" lon="20.071512">
      <ele>918</ele>
      <time>2026-05-07T13:24:21Z</time>
    </trkpt>
    <trkpt lat="49.515825" lon="20.071357">
      <ele>915</ele>
      <time>2026-05-07T13:24:44Z</time>
    </trkpt>
    <trkpt lat="49.51559" lon="20.071193">
      <ele>911</ele>
      <time>2026-05-07T13:25:11Z</time>
    </trkpt>
    <trkpt lat="49.515308" lon="20.070973">
      <ele>905</ele>
      <time>2026-05-07T13:25:43Z</time>
    </trkpt>
    <trkpt lat="49.515008" lon="20.070731">
      <ele>902</ele>
      <time>2026-05-07T13:26:17Z</time>
    </trkpt>
    <trkpt lat="49.514778" lon="20.070512">
      <ele>899</ele>
      <time>2026-05-07T13:26:45Z</time>
    </trkpt>
    <trkpt lat="49.514682" lon="20.070364">
      <ele>898</ele>
      <time>2026-05-07T13:26:59Z</time>
    </trkpt>
    <trkpt lat="49.514592" lon="20.070219">
      <ele>897</ele>
      <time>2026-05-07T13:27:12Z</time>
    </trkpt>
    <trkpt lat="49.514492" lon="20.069981">
      <ele>894</ele>
      <time>2026-05-07T13:27:31Z</time>
    </trkpt>
    <trkpt lat="49.514432" lon="20.06982">
      <ele>892</ele>
      <time>2026-05-07T13:27:43Z</time>
    </trkpt>
    <trkpt lat="49.51436" lon="20.069666">
      <ele>892</ele>
      <time>2026-05-07T13:27:55Z</time>
    </trkpt>
    <trkpt lat="49.514242" lon="20.06954">
      <ele>893</ele>
      <time>2026-05-07T13:28:10Z</time>
    </trkpt>
    <trkpt lat="49.514056" lon="20.069323">
      <ele>893</ele>
      <time>2026-05-07T13:28:34Z</time>
    </trkpt>
    <trkpt lat="49.513984" lon="20.069196">
      <ele>892</ele>
      <time>2026-05-07T13:28:45Z</time>
    </trkpt>
    <trkpt lat="49.51385" lon="20.068772">
      <ele>888</ele>
      <time>2026-05-07T13:29:16Z</time>
    </trkpt>
    <trkpt lat="49.513735" lon="20.068602">
      <ele>887</ele>
      <time>2026-05-07T13:29:32Z</time>
    </trkpt>
    <trkpt lat="49.513554" lon="20.068221">
      <ele>886</ele>
      <time>2026-05-07T13:30:03Z</time>
    </trkpt>
    <trkpt lat="49.51343" lon="20.067808">
      <ele>882</ele>
      <time>2026-05-07T13:30:33Z</time>
    </trkpt>
    <trkpt lat="49.513349" lon="20.067607">
      <ele>879</ele>
      <time>2026-05-07T13:30:49Z</time>
    </trkpt>
    <trkpt lat="49.513272" lon="20.067368">
      <ele>875</ele>
      <time>2026-05-07T13:31:07Z</time>
    </trkpt>
    <trkpt lat="49.513204" lon="20.067191">
      <ele>872</ele>
      <time>2026-05-07T13:31:21Z</time>
    </trkpt>
    <trkpt lat="49.513138" lon="20.067011">
      <ele>869</ele>
      <time>2026-05-07T13:31:35Z</time>
    </trkpt>
    <trkpt lat="49.513022" lon="20.066764">
      <ele>864</ele>
      <time>2026-05-07T13:31:55Z</time>
    </trkpt>
    <trkpt lat="49.512986" lon="20.066512">
      <ele>860</ele>
      <time>2026-05-07T13:32:12Z</time>
    </trkpt>
    <trkpt lat="49.512979" lon="20.066311">
      <ele>858</ele>
      <time>2026-05-07T13:32:26Z</time>
    </trkpt>
    <trkpt lat="49.512942" lon="20.066056">
      <ele>854</ele>
      <time>2026-05-07T13:32:43Z</time>
    </trkpt>
    <trkpt lat="49.512907" lon="20.065961">
      <ele>852</ele>
      <time>2026-05-07T13:32:51Z</time>
    </trkpt>
    <trkpt lat="49.512882" lon="20.065921">
      <ele>850</ele>
      <time>2026-05-07T13:32:55Z</time>
    </trkpt>
    <trkpt lat="49.512783" lon="20.065863">
      <ele>847</ele>
      <time>2026-05-07T13:33:06Z</time>
    </trkpt>
    <trkpt lat="49.512617" lon="20.065871">
      <ele>843</ele>
      <time>2026-05-07T13:33:23Z</time>
    </trkpt>
    <trkpt lat="49.51257" lon="20.065837">
      <ele>842</ele>
      <time>2026-05-07T13:33:28Z</time>
    </trkpt>
    <trkpt lat="49.512494" lon="20.065721">
      <ele>838</ele>
      <time>2026-05-07T13:33:39Z</time>
    </trkpt>
    <trkpt lat="49.512435" lon="20.065462">
      <ele>833</ele>
      <time>2026-05-07T13:33:58Z</time>
    </trkpt>
    <trkpt lat="49.512396" lon="20.065135">
      <ele>830</ele>
      <time>2026-05-07T13:34:20Z</time>
    </trkpt>
    <trkpt lat="49.512347" lon="20.064926">
      <ele>829</ele>
      <time>2026-05-07T13:34:35Z</time>
    </trkpt>
    <trkpt lat="49.512198" lon="20.064364">
      <ele>824</ele>
      <time>2026-05-07T13:35:15Z</time>
    </trkpt>
    <trkpt lat="49.512052" lon="20.063985">
      <ele>818</ele>
      <time>2026-05-07T13:35:44Z</time>
    </trkpt>
    <trkpt lat="49.511893" lon="20.063691">
      <ele>813</ele>
      <time>2026-05-07T13:36:10Z</time>
    </trkpt>
    <trkpt lat="49.511846" lon="20.063542">
      <ele>812</ele>
      <time>2026-05-07T13:36:21Z</time>
    </trkpt>
    <trkpt lat="49.511709" lon="20.063218">
      <ele>808</ele>
      <time>2026-05-07T13:36:46Z</time>
    </trkpt>
    <trkpt lat="49.511602" lon="20.063069">
      <ele>805</ele>
      <time>2026-05-07T13:37:01Z</time>
    </trkpt>
    <trkpt lat="49.511392" lon="20.062858">
      <ele>799</ele>
      <time>2026-05-07T13:37:27Z</time>
    </trkpt>
    <trkpt lat="49.511285" lon="20.062711">
      <ele>796</ele>
      <time>2026-05-07T13:37:42Z</time>
    </trkpt>
    <trkpt lat="49.511159" lon="20.062378">
      <ele>791</ele>
      <time>2026-05-07T13:38:08Z</time>
    </trkpt>
    <trkpt lat="49.51112" lon="20.062167">
      <ele>789</ele>
      <time>2026-05-07T13:38:22Z</time>
    </trkpt>
    <trkpt lat="49.511045" lon="20.061978">
      <ele>785</ele>
      <time>2026-05-07T13:38:37Z</time>
    </trkpt>
    <trkpt lat="49.510919" lon="20.061779">
      <ele>779</ele>
      <time>2026-05-07T13:38:56Z</time>
    </trkpt>
    <trkpt lat="49.510881" lon="20.061666">
      <ele>776</ele>
      <time>2026-05-07T13:39:05Z</time>
    </trkpt>
    <trkpt lat="49.510879" lon="20.06156">
      <ele>774</ele>
      <time>2026-05-07T13:39:12Z</time>
    </trkpt>
    <trkpt lat="49.510903" lon="20.061381">
      <ele>772</ele>
      <time>2026-05-07T13:39:24Z</time>
    </trkpt>
    <trkpt lat="49.511003" lon="20.061173">
      <ele>772</ele>
      <time>2026-05-07T13:39:41Z</time>
    </trkpt>
    <trkpt lat="49.511057" lon="20.060984">
      <ele>771</ele>
      <time>2026-05-07T13:39:55Z</time>
    </trkpt>
    <trkpt lat="49.511038" lon="20.060847">
      <ele>769</ele>
      <time>2026-05-07T13:40:04Z</time>
    </trkpt>
    <trkpt lat="49.51097" lon="20.060689">
      <ele>766</ele>
      <time>2026-05-07T13:40:17Z</time>
    </trkpt>
    <trkpt lat="49.510862" lon="20.060616">
      <ele>762</ele>
      <time>2026-05-07T13:40:30Z</time>
    </trkpt>
    <trkpt lat="49.510768" lon="20.060585">
      <ele>759</ele>
      <time>2026-05-07T13:40:40Z</time>
    </trkpt>
    <trkpt lat="49.510609" lon="20.060637">
      <ele>755</ele>
      <time>2026-05-07T13:40:56Z</time>
    </trkpt>
    <trkpt lat="49.51048" lon="20.060687">
      <ele>753</ele>
      <time>2026-05-07T13:41:10Z</time>
    </trkpt>
    <trkpt lat="49.510362" lon="20.060682">
      <ele>750</ele>
      <time>2026-05-07T13:41:22Z</time>
    </trkpt>
    <trkpt lat="49.510209" lon="20.060611">
      <ele>747</ele>
      <time>2026-05-07T13:41:39Z</time>
    </trkpt>
    <trkpt lat="49.510028" lon="20.060458">
      <ele>743</ele>
      <time>2026-05-07T13:42:00Z</time>
    </trkpt>
    <trkpt lat="49.509857" lon="20.060139">
      <ele>738</ele>
      <time>2026-05-07T13:42:28Z</time>
    </trkpt>
    <trkpt lat="49.509813" lon="20.059926">
      <ele>735</ele>
      <time>2026-05-07T13:42:42Z</time>
    </trkpt>
    <trkpt lat="49.509787" lon="20.059802">
      <ele>733</ele>
      <time>2026-05-07T13:42:51Z</time>
    </trkpt>
    <trkpt lat="49.509889" lon="20.058723">
      <ele>721</ele>
      <time>2026-05-07T13:44:04Z</time>
    </trkpt>
    <trkpt lat="49.50986" lon="20.058235">
      <ele>713</ele>
      <time>2026-05-07T13:44:37Z</time>
    </trkpt>
    <trkpt lat="49.509743" lon="20.057885">
      <ele>707</ele>
      <time>2026-05-07T13:45:03Z</time>
    </trkpt>
    <trkpt lat="49.509611" lon="20.057607">
      <ele>703</ele>
      <time>2026-05-07T13:45:26Z</time>
    </trkpt>
    <trkpt lat="49.509406" lon="20.057387">
      <ele>701</ele>
      <time>2026-05-07T13:45:51Z</time>
    </trkpt>
    <trkpt lat="49.509207" lon="20.057272">
      <ele>698</ele>
      <time>2026-05-07T13:46:13Z</time>
    </trkpt>
    <trkpt lat="49.509147" lon="20.057248">
      <ele>697</ele>
      <time>2026-05-07T13:46:19Z</time>
    </trkpt>
    <trkpt lat="49.50907" lon="20.057079">
      <ele>695</ele>
      <time>2026-05-07T13:46:33Z</time>
    </trkpt>
    <trkpt lat="49.509047" lon="20.056983">
      <ele>694</ele>
      <time>2026-05-07T13:46:40Z</time>
    </trkpt>
    <trkpt lat="49.509032" lon="20.056924">
      <ele>693</ele>
      <time>2026-05-07T13:46:44Z</time>
    </trkpt>
    <trkpt lat="49.508958" lon="20.056618">
      <ele>688</ele>
      <time>2026-05-07T13:47:06Z</time>
    </trkpt>
    <trkpt lat="49.508696" lon="20.055886">
      <ele>681</ele>
      <time>2026-05-07T13:48:01Z</time>
    </trkpt>
    <trkpt lat="49.508243" lon="20.055748">
      <ele>678</ele>
      <time>2026-05-07T13:48:48Z</time>
    </trkpt>
    <trkpt lat="49.507506" lon="20.05558">
      <ele>674</ele>
      <time>2026-05-07T13:50:03Z</time>
    </trkpt>
    <trkpt lat="49.507277" lon="20.055497">
      <ele>670</ele>
      <time>2026-05-07T13:50:27Z</time>
    </trkpt>
    <trkpt lat="49.507132" lon="20.05541">
      <ele>668</ele>
      <time>2026-05-07T13:50:43Z</time>
    </trkpt>
    <trkpt lat="49.507045" lon="20.055358">
      <ele>667</ele>
      <time>2026-05-07T13:50:53Z</time>
    </trkpt>
    <trkpt lat="49.506964" lon="20.055313">
      <ele>667</ele>
      <time>2026-05-07T13:51:01Z</time>
    </trkpt>
    <trkpt lat="49.506751" lon="20.055202">
      <ele>665</ele>
      <time>2026-05-07T13:51:24Z</time>
    </trkpt>
    <trkpt lat="49.506647" lon="20.055044">
      <ele>662</ele>
      <time>2026-05-07T13:51:39Z</time>
    </trkpt>
    <trkpt lat="49.506605" lon="20.055008">
      <ele>662</ele>
      <time>2026-05-07T13:51:44Z</time>
    </trkpt>
    <trkpt lat="49.506402" lon="20.05484">
      <ele>659</ele>
      <time>2026-05-07T13:52:08Z</time>
    </trkpt>
    <trkpt lat="49.506286" lon="20.054725">
      <ele>658</ele>
      <time>2026-05-07T13:52:22Z</time>
    </trkpt>
    <trkpt lat="49.506149" lon="20.054549">
      <ele>658</ele>
      <time>2026-05-07T13:52:40Z</time>
    </trkpt>
    <trkpt lat="49.506064" lon="20.054388">
      <ele>657</ele>
      <time>2026-05-07T13:52:53Z</time>
    </trkpt>
    <trkpt lat="49.505951" lon="20.054144">
      <ele>655</ele>
      <time>2026-05-07T13:53:13Z</time>
    </trkpt>
  </trkseg>
</trk>
</gpx>