<?xml version="1.0" encoding="UTF-8"?><gpx creator="https://mapa-turystyczna.pl" xmlns="http://www.topografix.com/GPX/1/1" version="1.1" xmlns:xsi="http://www.w3.org/2001/XMLSchema-instance" xsi:schemaLocation="http://www.topografix.com/GPX/1/1 http://www.topografix.com/GPX/1/1/gpx.xsd">
  <metadata>
    <link href="https://mapa-turystyczna.pl">
      <text>mapa-turystyczna.pl</text>
    </link>
    <time>2026-05-07T08:43:08Z</time>
    <bounds maxlat="49.591129" maxlon="19.581809" minlat="49.57315" minlon="19.521592"/>
  </metadata>

<trk>
  <name>Przełęcz Krowiarki – Przełęcz Krowiarki</name>
  <link href="https://mapa-turystyczna.pl/route/c25d">
    <text>Przełęcz Krowiarki – Przełęcz Krowiarki</text>
  </link>
  <trkseg>
    <trkpt lat="49.587811" lon="19.581809">
      <ele>1012</ele>
      <time>2026-05-07T08:43:08Z</time>
    </trkpt>
    <trkpt lat="49.587806" lon="19.581689">
      <ele>1015</ele>
      <time>2026-05-07T08:43:18Z</time>
    </trkpt>
    <trkpt lat="49.58781" lon="19.581417">
      <ele>1021</ele>
      <time>2026-05-07T08:43:41Z</time>
    </trkpt>
    <trkpt lat="49.587806" lon="19.581222">
      <ele>1023</ele>
      <time>2026-05-07T08:43:57Z</time>
    </trkpt>
    <trkpt lat="49.587788" lon="19.580835">
      <ele>1024</ele>
      <time>2026-05-07T08:44:29Z</time>
    </trkpt>
    <trkpt lat="49.587742" lon="19.580609">
      <ele>1027</ele>
      <time>2026-05-07T08:44:48Z</time>
    </trkpt>
    <trkpt lat="49.587728" lon="19.580319">
      <ele>1029</ele>
      <time>2026-05-07T08:45:12Z</time>
    </trkpt>
    <trkpt lat="49.587739" lon="19.580051">
      <ele>1030</ele>
      <time>2026-05-07T08:45:34Z</time>
    </trkpt>
    <trkpt lat="49.587805" lon="19.579809">
      <ele>1030</ele>
      <time>2026-05-07T08:45:55Z</time>
    </trkpt>
    <trkpt lat="49.587874" lon="19.579412">
      <ele>1035</ele>
      <time>2026-05-07T08:46:29Z</time>
    </trkpt>
    <trkpt lat="49.588021" lon="19.578921">
      <ele>1039</ele>
      <time>2026-05-07T08:47:13Z</time>
    </trkpt>
    <trkpt lat="49.58812" lon="19.578461">
      <ele>1042</ele>
      <time>2026-05-07T08:47:52Z</time>
    </trkpt>
    <trkpt lat="49.588292" lon="19.57792">
      <ele>1041</ele>
      <time>2026-05-07T08:48:41Z</time>
    </trkpt>
    <trkpt lat="49.588442" lon="19.577577">
      <ele>1040</ele>
      <time>2026-05-07T08:49:14Z</time>
    </trkpt>
    <trkpt lat="49.588546" lon="19.577186">
      <ele>1042</ele>
      <time>2026-05-07T08:49:49Z</time>
    </trkpt>
    <trkpt lat="49.588659" lon="19.576616">
      <ele>1043</ele>
      <time>2026-05-07T08:50:37Z</time>
    </trkpt>
    <trkpt lat="49.588615" lon="19.576288">
      <ele>1046</ele>
      <time>2026-05-07T08:51:04Z</time>
    </trkpt>
    <trkpt lat="49.588582" lon="19.575992">
      <ele>1049</ele>
      <time>2026-05-07T08:51:29Z</time>
    </trkpt>
    <trkpt lat="49.588581" lon="19.575694">
      <ele>1050</ele>
      <time>2026-05-07T08:51:53Z</time>
    </trkpt>
    <trkpt lat="49.588649" lon="19.57515">
      <ele>1055</ele>
      <time>2026-05-07T08:52:38Z</time>
    </trkpt>
    <trkpt lat="49.58871" lon="19.574874">
      <ele>1059</ele>
      <time>2026-05-07T08:53:02Z</time>
    </trkpt>
    <trkpt lat="49.58884" lon="19.574687">
      <ele>1059</ele>
      <time>2026-05-07T08:53:24Z</time>
    </trkpt>
    <trkpt lat="49.589367" lon="19.574153">
      <ele>1056</ele>
      <time>2026-05-07T08:54:43Z</time>
    </trkpt>
    <trkpt lat="49.589656" lon="19.573824">
      <ele>1056</ele>
      <time>2026-05-07T08:55:28Z</time>
    </trkpt>
    <trkpt lat="49.590012" lon="19.573454">
      <ele>1054</ele>
      <time>2026-05-07T08:56:21Z</time>
    </trkpt>
    <trkpt lat="49.590306" lon="19.572694">
      <ele>1057</ele>
      <time>2026-05-07T08:57:33Z</time>
    </trkpt>
    <trkpt lat="49.590463" lon="19.57222">
      <ele>1057</ele>
      <time>2026-05-07T08:58:16Z</time>
    </trkpt>
    <trkpt lat="49.590654" lon="19.571487">
      <ele>1057</ele>
      <time>2026-05-07T08:59:20Z</time>
    </trkpt>
    <trkpt lat="49.590747" lon="19.570945">
      <ele>1058</ele>
      <time>2026-05-07T09:00:05Z</time>
    </trkpt>
    <trkpt lat="49.590767" lon="19.570577">
      <ele>1058</ele>
      <time>2026-05-07T09:00:35Z</time>
    </trkpt>
    <trkpt lat="49.590764" lon="19.570164">
      <ele>1059</ele>
      <time>2026-05-07T09:01:09Z</time>
    </trkpt>
    <trkpt lat="49.590792" lon="19.569896">
      <ele>1059</ele>
      <time>2026-05-07T09:01:31Z</time>
    </trkpt>
    <trkpt lat="49.590911" lon="19.569648">
      <ele>1056</ele>
      <time>2026-05-07T09:01:56Z</time>
    </trkpt>
    <trkpt lat="49.591041" lon="19.569332">
      <ele>1055</ele>
      <time>2026-05-07T09:02:26Z</time>
    </trkpt>
    <trkpt lat="49.591077" lon="19.569087">
      <ele>1054</ele>
      <time>2026-05-07T09:02:47Z</time>
    </trkpt>
    <trkpt lat="49.591032" lon="19.568789">
      <ele>1055</ele>
      <time>2026-05-07T09:03:12Z</time>
    </trkpt>
    <trkpt lat="49.590887" lon="19.568379">
      <ele>1057</ele>
      <time>2026-05-07T09:03:49Z</time>
    </trkpt>
    <trkpt lat="49.590775" lon="19.568001">
      <ele>1059</ele>
      <time>2026-05-07T09:04:23Z</time>
    </trkpt>
    <trkpt lat="49.590766" lon="19.56782">
      <ele>1059</ele>
      <time>2026-05-07T09:04:38Z</time>
    </trkpt>
    <trkpt lat="49.590852" lon="19.56739">
      <ele>1058</ele>
      <time>2026-05-07T09:05:14Z</time>
    </trkpt>
    <trkpt lat="49.59085" lon="19.567162">
      <ele>1058</ele>
      <time>2026-05-07T09:05:33Z</time>
    </trkpt>
    <trkpt lat="49.590796" lon="19.566984">
      <ele>1058</ele>
      <time>2026-05-07T09:05:49Z</time>
    </trkpt>
    <trkpt lat="49.590721" lon="19.566765">
      <ele>1059</ele>
      <time>2026-05-07T09:06:09Z</time>
    </trkpt>
    <trkpt lat="49.590624" lon="19.566715">
      <ele>1062</ele>
      <time>2026-05-07T09:06:22Z</time>
    </trkpt>
    <trkpt lat="49.590511" lon="19.56643">
      <ele>1066</ele>
      <time>2026-05-07T09:06:49Z</time>
    </trkpt>
    <trkpt lat="49.590419" lon="19.566268">
      <ele>1069</ele>
      <time>2026-05-07T09:07:07Z</time>
    </trkpt>
    <trkpt lat="49.590387" lon="19.566168">
      <ele>1070</ele>
      <time>2026-05-07T09:07:16Z</time>
    </trkpt>
    <trkpt lat="49.590369" lon="19.56606">
      <ele>1071</ele>
      <time>2026-05-07T09:07:25Z</time>
    </trkpt>
    <trkpt lat="49.590373" lon="19.565923">
      <ele>1071</ele>
      <time>2026-05-07T09:07:36Z</time>
    </trkpt>
    <trkpt lat="49.590411" lon="19.565822">
      <ele>1070</ele>
      <time>2026-05-07T09:07:46Z</time>
    </trkpt>
    <trkpt lat="49.590462" lon="19.565733">
      <ele>1069</ele>
      <time>2026-05-07T09:07:56Z</time>
    </trkpt>
    <trkpt lat="49.590534" lon="19.565732">
      <ele>1067</ele>
      <time>2026-05-07T09:08:05Z</time>
    </trkpt>
    <trkpt lat="49.590557" lon="19.565722">
      <ele>1066</ele>
      <time>2026-05-07T09:08:08Z</time>
    </trkpt>
    <trkpt lat="49.590636" lon="19.565553">
      <ele>1065</ele>
      <time>2026-05-07T09:08:25Z</time>
    </trkpt>
    <trkpt lat="49.590658" lon="19.565339">
      <ele>1066</ele>
      <time>2026-05-07T09:08:42Z</time>
    </trkpt>
    <trkpt lat="49.590708" lon="19.565245">
      <ele>1065</ele>
      <time>2026-05-07T09:08:52Z</time>
    </trkpt>
    <trkpt lat="49.590925" lon="19.565068">
      <ele>1058</ele>
      <time>2026-05-07T09:09:24Z</time>
    </trkpt>
    <trkpt lat="49.590975" lon="19.565004">
      <ele>1057</ele>
      <time>2026-05-07T09:09:32Z</time>
    </trkpt>
    <trkpt lat="49.591001" lon="19.564896">
      <ele>1057</ele>
      <time>2026-05-07T09:09:41Z</time>
    </trkpt>
    <trkpt lat="49.590977" lon="19.564767">
      <ele>1058</ele>
      <time>2026-05-07T09:09:52Z</time>
    </trkpt>
    <trkpt lat="49.590932" lon="19.564695">
      <ele>1059</ele>
      <time>2026-05-07T09:10:00Z</time>
    </trkpt>
    <trkpt lat="49.590853" lon="19.564474">
      <ele>1062</ele>
      <time>2026-05-07T09:10:21Z</time>
    </trkpt>
    <trkpt lat="49.590771" lon="19.564218">
      <ele>1067</ele>
      <time>2026-05-07T09:10:45Z</time>
    </trkpt>
    <trkpt lat="49.590731" lon="19.564057">
      <ele>1069</ele>
      <time>2026-05-07T09:10:59Z</time>
    </trkpt>
    <trkpt lat="49.590724" lon="19.563923">
      <ele>1069</ele>
      <time>2026-05-07T09:11:10Z</time>
    </trkpt>
    <trkpt lat="49.59078" lon="19.563647">
      <ele>1066</ele>
      <time>2026-05-07T09:11:33Z</time>
    </trkpt>
    <trkpt lat="49.590831" lon="19.563553">
      <ele>1065</ele>
      <time>2026-05-07T09:11:43Z</time>
    </trkpt>
    <trkpt lat="49.590884" lon="19.563421">
      <ele>1065</ele>
      <time>2026-05-07T09:11:56Z</time>
    </trkpt>
    <trkpt lat="49.591021" lon="19.563258">
      <ele>1063</ele>
      <time>2026-05-07T09:12:17Z</time>
    </trkpt>
    <trkpt lat="49.591129" lon="19.563028">
      <ele>1061</ele>
      <time>2026-05-07T09:12:40Z</time>
    </trkpt>
    <trkpt lat="49.591082" lon="19.562757">
      <ele>1063</ele>
      <time>2026-05-07T09:13:03Z</time>
    </trkpt>
    <trkpt lat="49.591005" lon="19.562627">
      <ele>1066</ele>
      <time>2026-05-07T09:13:18Z</time>
    </trkpt>
    <trkpt lat="49.590927" lon="19.562383">
      <ele>1068</ele>
      <time>2026-05-07T09:13:40Z</time>
    </trkpt>
    <trkpt lat="49.590792" lon="19.562238">
      <ele>1072</ele>
      <time>2026-05-07T09:14:01Z</time>
    </trkpt>
    <trkpt lat="49.590769" lon="19.562136">
      <ele>1073</ele>
      <time>2026-05-07T09:14:10Z</time>
    </trkpt>
    <trkpt lat="49.59079" lon="19.562018">
      <ele>1071</ele>
      <time>2026-05-07T09:14:20Z</time>
    </trkpt>
    <trkpt lat="49.590859" lon="19.56187">
      <ele>1068</ele>
      <time>2026-05-07T09:14:35Z</time>
    </trkpt>
    <trkpt lat="49.590861" lon="19.56179">
      <ele>1067</ele>
      <time>2026-05-07T09:14:42Z</time>
    </trkpt>
    <trkpt lat="49.59079" lon="19.561693">
      <ele>1070</ele>
      <time>2026-05-07T09:14:54Z</time>
    </trkpt>
    <trkpt lat="49.590769" lon="19.561548">
      <ele>1070</ele>
      <time>2026-05-07T09:15:06Z</time>
    </trkpt>
    <trkpt lat="49.590812" lon="19.561389">
      <ele>1068</ele>
      <time>2026-05-07T09:15:20Z</time>
    </trkpt>
    <trkpt lat="49.590792" lon="19.561287">
      <ele>1068</ele>
      <time>2026-05-07T09:15:29Z</time>
    </trkpt>
    <trkpt lat="49.590753" lon="19.56122">
      <ele>1069</ele>
      <time>2026-05-07T09:15:36Z</time>
    </trkpt>
    <trkpt lat="49.590681" lon="19.561029">
      <ele>1070</ele>
      <time>2026-05-07T09:15:54Z</time>
    </trkpt>
    <trkpt lat="49.590639" lon="19.560704">
      <ele>1068</ele>
      <time>2026-05-07T09:16:21Z</time>
    </trkpt>
    <trkpt lat="49.59052" lon="19.560357">
      <ele>1069</ele>
      <time>2026-05-07T09:16:52Z</time>
    </trkpt>
    <trkpt lat="49.590369" lon="19.560084">
      <ele>1076</ele>
      <time>2026-05-07T09:17:22Z</time>
    </trkpt>
    <trkpt lat="49.590333" lon="19.559911">
      <ele>1078</ele>
      <time>2026-05-07T09:17:37Z</time>
    </trkpt>
    <trkpt lat="49.590321" lon="19.559757">
      <ele>1079</ele>
      <time>2026-05-07T09:17:50Z</time>
    </trkpt>
    <trkpt lat="49.590332" lon="19.55961">
      <ele>1079</ele>
      <time>2026-05-07T09:18:02Z</time>
    </trkpt>
    <trkpt lat="49.590399" lon="19.559341">
      <ele>1076</ele>
      <time>2026-05-07T09:18:25Z</time>
    </trkpt>
    <trkpt lat="49.590498" lon="19.559144">
      <ele>1072</ele>
      <time>2026-05-07T09:18:46Z</time>
    </trkpt>
    <trkpt lat="49.590499" lon="19.558899">
      <ele>1074</ele>
      <time>2026-05-07T09:19:06Z</time>
    </trkpt>
    <trkpt lat="49.590564" lon="19.558716">
      <ele>1072</ele>
      <time>2026-05-07T09:19:23Z</time>
    </trkpt>
    <trkpt lat="49.59064" lon="19.558594">
      <ele>1069</ele>
      <time>2026-05-07T09:19:37Z</time>
    </trkpt>
    <trkpt lat="49.59068" lon="19.558318">
      <ele>1069</ele>
      <time>2026-05-07T09:20:00Z</time>
    </trkpt>
    <trkpt lat="49.590759" lon="19.558173">
      <ele>1067</ele>
      <time>2026-05-07T09:20:15Z</time>
    </trkpt>
    <trkpt lat="49.590821" lon="19.558022">
      <ele>1066</ele>
      <time>2026-05-07T09:20:30Z</time>
    </trkpt>
    <trkpt lat="49.590858" lon="19.557911">
      <ele>1065</ele>
      <time>2026-05-07T09:20:40Z</time>
    </trkpt>
    <trkpt lat="49.590877" lon="19.557534">
      <ele>1069</ele>
      <time>2026-05-07T09:21:10Z</time>
    </trkpt>
    <trkpt lat="49.59087" lon="19.557348">
      <ele>1070</ele>
      <time>2026-05-07T09:21:25Z</time>
    </trkpt>
    <trkpt lat="49.590693" lon="19.556623">
      <ele>1073</ele>
      <time>2026-05-07T09:22:28Z</time>
    </trkpt>
    <trkpt lat="49.590665" lon="19.556391">
      <ele>1073</ele>
      <time>2026-05-07T09:22:47Z</time>
    </trkpt>
    <trkpt lat="49.590605" lon="19.556153">
      <ele>1076</ele>
      <time>2026-05-07T09:23:08Z</time>
    </trkpt>
    <trkpt lat="49.590573" lon="19.555905">
      <ele>1078</ele>
      <time>2026-05-07T09:23:31Z</time>
    </trkpt>
    <trkpt lat="49.590513" lon="19.55572">
      <ele>1079</ele>
      <time>2026-05-07T09:23:49Z</time>
    </trkpt>
    <trkpt lat="49.590424" lon="19.555629">
      <ele>1081</ele>
      <time>2026-05-07T09:24:04Z</time>
    </trkpt>
    <trkpt lat="49.590344" lon="19.55543">
      <ele>1082</ele>
      <time>2026-05-07T09:24:25Z</time>
    </trkpt>
    <trkpt lat="49.590257" lon="19.555404">
      <ele>1084</ele>
      <time>2026-05-07T09:24:38Z</time>
    </trkpt>
    <trkpt lat="49.590182" lon="19.555352">
      <ele>1086</ele>
      <time>2026-05-07T09:24:49Z</time>
    </trkpt>
    <trkpt lat="49.590131" lon="19.555287">
      <ele>1086</ele>
      <time>2026-05-07T09:24:58Z</time>
    </trkpt>
    <trkpt lat="49.590101" lon="19.555218">
      <ele>1086</ele>
      <time>2026-05-07T09:25:05Z</time>
    </trkpt>
    <trkpt lat="49.590077" lon="19.555134">
      <ele>1086</ele>
      <time>2026-05-07T09:25:14Z</time>
    </trkpt>
    <trkpt lat="49.59008" lon="19.555048">
      <ele>1085</ele>
      <time>2026-05-07T09:25:21Z</time>
    </trkpt>
    <trkpt lat="49.590106" lon="19.5549">
      <ele>1083</ele>
      <time>2026-05-07T09:25:35Z</time>
    </trkpt>
    <trkpt lat="49.590111" lon="19.554745">
      <ele>1082</ele>
      <time>2026-05-07T09:25:49Z</time>
    </trkpt>
    <trkpt lat="49.590037" lon="19.554581">
      <ele>1083</ele>
      <time>2026-05-07T09:26:07Z</time>
    </trkpt>
    <trkpt lat="49.590002" lon="19.554393">
      <ele>1082</ele>
      <time>2026-05-07T09:26:25Z</time>
    </trkpt>
    <trkpt lat="49.589932" lon="19.554272">
      <ele>1083</ele>
      <time>2026-05-07T09:26:39Z</time>
    </trkpt>
    <trkpt lat="49.589713" lon="19.554072">
      <ele>1088</ele>
      <time>2026-05-07T09:27:15Z</time>
    </trkpt>
    <trkpt lat="49.589665" lon="19.553998">
      <ele>1088</ele>
      <time>2026-05-07T09:27:24Z</time>
    </trkpt>
    <trkpt lat="49.589656" lon="19.553911">
      <ele>1087</ele>
      <time>2026-05-07T09:27:32Z</time>
    </trkpt>
    <trkpt lat="49.58963" lon="19.553655">
      <ele>1084</ele>
      <time>2026-05-07T09:27:55Z</time>
    </trkpt>
    <trkpt lat="49.589587" lon="19.553588">
      <ele>1085</ele>
      <time>2026-05-07T09:28:04Z</time>
    </trkpt>
    <trkpt lat="49.589468" lon="19.553512">
      <ele>1088</ele>
      <time>2026-05-07T09:28:22Z</time>
    </trkpt>
    <trkpt lat="49.589375" lon="19.55338">
      <ele>1089</ele>
      <time>2026-05-07T09:28:39Z</time>
    </trkpt>
    <trkpt lat="49.589304" lon="19.553226">
      <ele>1089</ele>
      <time>2026-05-07T09:28:56Z</time>
    </trkpt>
    <trkpt lat="49.589225" lon="19.553165">
      <ele>1089</ele>
      <time>2026-05-07T09:29:08Z</time>
    </trkpt>
    <trkpt lat="49.588978" lon="19.553062">
      <ele>1092</ele>
      <time>2026-05-07T09:29:44Z</time>
    </trkpt>
    <trkpt lat="49.588836" lon="19.552854">
      <ele>1091</ele>
      <time>2026-05-07T09:30:11Z</time>
    </trkpt>
    <trkpt lat="49.588697" lon="19.552554">
      <ele>1090</ele>
      <time>2026-05-07T09:30:44Z</time>
    </trkpt>
    <trkpt lat="49.5884" lon="19.552245">
      <ele>1094</ele>
      <time>2026-05-07T09:31:33Z</time>
    </trkpt>
    <trkpt lat="49.588279" lon="19.552083">
      <ele>1094</ele>
      <time>2026-05-07T09:31:55Z</time>
    </trkpt>
    <trkpt lat="49.588166" lon="19.551904">
      <ele>1094</ele>
      <time>2026-05-07T09:32:17Z</time>
    </trkpt>
    <trkpt lat="49.588109" lon="19.551656">
      <ele>1093</ele>
      <time>2026-05-07T09:32:41Z</time>
    </trkpt>
    <trkpt lat="49.58806" lon="19.551461">
      <ele>1092</ele>
      <time>2026-05-07T09:33:00Z</time>
    </trkpt>
    <trkpt lat="49.58805" lon="19.551327">
      <ele>1091</ele>
      <time>2026-05-07T09:33:12Z</time>
    </trkpt>
    <trkpt lat="49.588148" lon="19.551156">
      <ele>1090</ele>
      <time>2026-05-07T09:33:32Z</time>
    </trkpt>
    <trkpt lat="49.58822" lon="19.551059">
      <ele>1089</ele>
      <time>2026-05-07T09:33:45Z</time>
    </trkpt>
    <trkpt lat="49.588222" lon="19.55091">
      <ele>1088</ele>
      <time>2026-05-07T09:33:58Z</time>
    </trkpt>
    <trkpt lat="49.58817" lon="19.55082">
      <ele>1090</ele>
      <time>2026-05-07T09:34:09Z</time>
    </trkpt>
    <trkpt lat="49.588119" lon="19.550742">
      <ele>1091</ele>
      <time>2026-05-07T09:34:19Z</time>
    </trkpt>
    <trkpt lat="49.58809" lon="19.550589">
      <ele>1091</ele>
      <time>2026-05-07T09:34:34Z</time>
    </trkpt>
    <trkpt lat="49.588109" lon="19.550225">
      <ele>1089</ele>
      <time>2026-05-07T09:35:06Z</time>
    </trkpt>
    <trkpt lat="49.58808" lon="19.550156">
      <ele>1090</ele>
      <time>2026-05-07T09:35:13Z</time>
    </trkpt>
    <trkpt lat="49.5879" lon="19.549763">
      <ele>1092</ele>
      <time>2026-05-07T09:35:56Z</time>
    </trkpt>
    <trkpt lat="49.587872" lon="19.549584">
      <ele>1090</ele>
      <time>2026-05-07T09:36:13Z</time>
    </trkpt>
    <trkpt lat="49.587778" lon="19.549423">
      <ele>1090</ele>
      <time>2026-05-07T09:36:32Z</time>
    </trkpt>
    <trkpt lat="49.587635" lon="19.549415">
      <ele>1090</ele>
      <time>2026-05-07T09:36:52Z</time>
    </trkpt>
    <trkpt lat="49.58752" lon="19.549435">
      <ele>1092</ele>
      <time>2026-05-07T09:37:08Z</time>
    </trkpt>
    <trkpt lat="49.587422" lon="19.549415">
      <ele>1092</ele>
      <time>2026-05-07T09:37:22Z</time>
    </trkpt>
    <trkpt lat="49.587285" lon="19.549454">
      <ele>1094</ele>
      <time>2026-05-07T09:37:41Z</time>
    </trkpt>
    <trkpt lat="49.586883" lon="19.549695">
      <ele>1104</ele>
      <time>2026-05-07T09:38:42Z</time>
    </trkpt>
    <trkpt lat="49.586782" lon="19.549769">
      <ele>1107</ele>
      <time>2026-05-07T09:38:57Z</time>
    </trkpt>
    <trkpt lat="49.586692" lon="19.54976">
      <ele>1108</ele>
      <time>2026-05-07T09:39:10Z</time>
    </trkpt>
    <trkpt lat="49.586627" lon="19.549718">
      <ele>1110</ele>
      <time>2026-05-07T09:39:20Z</time>
    </trkpt>
    <trkpt lat="49.586559" lon="19.549637">
      <ele>1112</ele>
      <time>2026-05-07T09:39:32Z</time>
    </trkpt>
    <trkpt lat="49.5865" lon="19.549535">
      <ele>1113</ele>
      <time>2026-05-07T09:39:44Z</time>
    </trkpt>
    <trkpt lat="49.586394" lon="19.549379">
      <ele>1115</ele>
      <time>2026-05-07T09:40:04Z</time>
    </trkpt>
    <trkpt lat="49.586096" lon="19.548752">
      <ele>1119</ele>
      <time>2026-05-07T09:41:14Z</time>
    </trkpt>
    <trkpt lat="49.585974" lon="19.54846">
      <ele>1121</ele>
      <time>2026-05-07T09:41:45Z</time>
    </trkpt>
    <trkpt lat="49.58593" lon="19.548175">
      <ele>1122</ele>
      <time>2026-05-07T09:42:11Z</time>
    </trkpt>
    <trkpt lat="49.585933" lon="19.548052">
      <ele>1121</ele>
      <time>2026-05-07T09:42:22Z</time>
    </trkpt>
    <trkpt lat="49.585984" lon="19.547953">
      <ele>1120</ele>
      <time>2026-05-07T09:42:34Z</time>
    </trkpt>
    <trkpt lat="49.586114" lon="19.547804">
      <ele>1117</ele>
      <time>2026-05-07T09:42:56Z</time>
    </trkpt>
    <trkpt lat="49.586206" lon="19.547677">
      <ele>1116</ele>
      <time>2026-05-07T09:43:13Z</time>
    </trkpt>
    <trkpt lat="49.586251" lon="19.547592">
      <ele>1116</ele>
      <time>2026-05-07T09:43:23Z</time>
    </trkpt>
    <trkpt lat="49.586298" lon="19.54745">
      <ele>1117</ele>
      <time>2026-05-07T09:43:37Z</time>
    </trkpt>
    <trkpt lat="49.586291" lon="19.547318">
      <ele>1117</ele>
      <time>2026-05-07T09:43:49Z</time>
    </trkpt>
    <trkpt lat="49.586231" lon="19.547259">
      <ele>1119</ele>
      <time>2026-05-07T09:43:59Z</time>
    </trkpt>
    <trkpt lat="49.586108" lon="19.547197">
      <ele>1123</ele>
      <time>2026-05-07T09:44:17Z</time>
    </trkpt>
    <trkpt lat="49.585952" lon="19.547033">
      <ele>1125</ele>
      <time>2026-05-07T09:44:44Z</time>
    </trkpt>
    <trkpt lat="49.585851" lon="19.546857">
      <ele>1127</ele>
      <time>2026-05-07T09:45:05Z</time>
    </trkpt>
    <trkpt lat="49.585734" lon="19.546533">
      <ele>1129</ele>
      <time>2026-05-07T09:45:38Z</time>
    </trkpt>
    <trkpt lat="49.585675" lon="19.54619">
      <ele>1126</ele>
      <time>2026-05-07T09:46:10Z</time>
    </trkpt>
    <trkpt lat="49.585596" lon="19.546081">
      <ele>1127</ele>
      <time>2026-05-07T09:46:24Z</time>
    </trkpt>
    <trkpt lat="49.585489" lon="19.546029">
      <ele>1130</ele>
      <time>2026-05-07T09:46:40Z</time>
    </trkpt>
    <trkpt lat="49.585399" lon="19.545977">
      <ele>1133</ele>
      <time>2026-05-07T09:46:54Z</time>
    </trkpt>
    <trkpt lat="49.585376" lon="19.545832">
      <ele>1130</ele>
      <time>2026-05-07T09:47:07Z</time>
    </trkpt>
    <trkpt lat="49.585303" lon="19.545649">
      <ele>1131</ele>
      <time>2026-05-07T09:47:26Z</time>
    </trkpt>
    <trkpt lat="49.585236" lon="19.545464">
      <ele>1133</ele>
      <time>2026-05-07T09:47:45Z</time>
    </trkpt>
    <trkpt lat="49.585145" lon="19.545362">
      <ele>1136</ele>
      <time>2026-05-07T09:48:01Z</time>
    </trkpt>
    <trkpt lat="49.584987" lon="19.545015">
      <ele>1141</ele>
      <time>2026-05-07T09:48:40Z</time>
    </trkpt>
    <trkpt lat="49.584919" lon="19.544901">
      <ele>1143</ele>
      <time>2026-05-07T09:48:54Z</time>
    </trkpt>
    <trkpt lat="49.58487" lon="19.544728">
      <ele>1144</ele>
      <time>2026-05-07T09:49:11Z</time>
    </trkpt>
    <trkpt lat="49.584754" lon="19.544471">
      <ele>1147</ele>
      <time>2026-05-07T09:49:39Z</time>
    </trkpt>
    <trkpt lat="49.584713" lon="19.544221">
      <ele>1148</ele>
      <time>2026-05-07T09:50:02Z</time>
    </trkpt>
    <trkpt lat="49.58461" lon="19.543921">
      <ele>1149</ele>
      <time>2026-05-07T09:50:32Z</time>
    </trkpt>
    <trkpt lat="49.584515" lon="19.54367">
      <ele>1150</ele>
      <time>2026-05-07T09:50:58Z</time>
    </trkpt>
    <trkpt lat="49.584402" lon="19.543424">
      <ele>1151</ele>
      <time>2026-05-07T09:51:25Z</time>
    </trkpt>
    <trkpt lat="49.584263" lon="19.543042">
      <ele>1154</ele>
      <time>2026-05-07T09:52:04Z</time>
    </trkpt>
    <trkpt lat="49.58417" lon="19.542881">
      <ele>1157</ele>
      <time>2026-05-07T09:52:24Z</time>
    </trkpt>
    <trkpt lat="49.584084" lon="19.542612">
      <ele>1160</ele>
      <time>2026-05-07T09:52:51Z</time>
    </trkpt>
    <trkpt lat="49.584037" lon="19.542355">
      <ele>1161</ele>
      <time>2026-05-07T09:53:15Z</time>
    </trkpt>
    <trkpt lat="49.584014" lon="19.542183">
      <ele>1162</ele>
      <time>2026-05-07T09:53:30Z</time>
    </trkpt>
    <trkpt lat="49.584026" lon="19.54198">
      <ele>1162</ele>
      <time>2026-05-07T09:53:49Z</time>
    </trkpt>
    <trkpt lat="49.584076" lon="19.541802">
      <ele>1161</ele>
      <time>2026-05-07T09:54:06Z</time>
    </trkpt>
    <trkpt lat="49.584137" lon="19.541651">
      <ele>1161</ele>
      <time>2026-05-07T09:54:22Z</time>
    </trkpt>
    <trkpt lat="49.584205" lon="19.541489">
      <ele>1160</ele>
      <time>2026-05-07T09:54:39Z</time>
    </trkpt>
    <trkpt lat="49.584179" lon="19.541345">
      <ele>1162</ele>
      <time>2026-05-07T09:54:52Z</time>
    </trkpt>
    <trkpt lat="49.584161" lon="19.541129">
      <ele>1163</ele>
      <time>2026-05-07T09:55:12Z</time>
    </trkpt>
    <trkpt lat="49.584142" lon="19.540967">
      <ele>1164</ele>
      <time>2026-05-07T09:55:27Z</time>
    </trkpt>
    <trkpt lat="49.584058" lon="19.540772">
      <ele>1168</ele>
      <time>2026-05-07T09:55:48Z</time>
    </trkpt>
    <trkpt lat="49.584" lon="19.540609">
      <ele>1171</ele>
      <time>2026-05-07T09:56:05Z</time>
    </trkpt>
    <trkpt lat="49.584026" lon="19.540464">
      <ele>1173</ele>
      <time>2026-05-07T09:56:19Z</time>
    </trkpt>
    <trkpt lat="49.584165" lon="19.540209">
      <ele>1175</ele>
      <time>2026-05-07T09:56:49Z</time>
    </trkpt>
    <trkpt lat="49.584205" lon="19.540137">
      <ele>1175</ele>
      <time>2026-05-07T09:56:57Z</time>
    </trkpt>
    <trkpt lat="49.584262" lon="19.54008">
      <ele>1174</ele>
      <time>2026-05-07T09:57:06Z</time>
    </trkpt>
    <trkpt lat="49.584458" lon="19.539922">
      <ele>1169</ele>
      <time>2026-05-07T09:57:37Z</time>
    </trkpt>
    <trkpt lat="49.584554" lon="19.539781">
      <ele>1166</ele>
      <time>2026-05-07T09:57:56Z</time>
    </trkpt>
    <trkpt lat="49.584553" lon="19.539588">
      <ele>1167</ele>
      <time>2026-05-07T09:58:13Z</time>
    </trkpt>
    <trkpt lat="49.584486" lon="19.539288">
      <ele>1170</ele>
      <time>2026-05-07T09:58:42Z</time>
    </trkpt>
    <trkpt lat="49.584324" lon="19.538887">
      <ele>1178</ele>
      <time>2026-05-07T09:59:25Z</time>
    </trkpt>
    <trkpt lat="49.584277" lon="19.53865">
      <ele>1180</ele>
      <time>2026-05-07T09:59:47Z</time>
    </trkpt>
    <trkpt lat="49.584278" lon="19.538526">
      <ele>1181</ele>
      <time>2026-05-07T09:59:58Z</time>
    </trkpt>
    <trkpt lat="49.58428" lon="19.538393">
      <ele>1182</ele>
      <time>2026-05-07T10:00:10Z</time>
    </trkpt>
    <trkpt lat="49.58432" lon="19.538297">
      <ele>1182</ele>
      <time>2026-05-07T10:00:20Z</time>
    </trkpt>
    <trkpt lat="49.584389" lon="19.538265">
      <ele>1181</ele>
      <time>2026-05-07T10:00:30Z</time>
    </trkpt>
    <trkpt lat="49.58462" lon="19.538235">
      <ele>1176</ele>
      <time>2026-05-07T10:01:03Z</time>
    </trkpt>
    <trkpt lat="49.584744" lon="19.538149">
      <ele>1174</ele>
      <time>2026-05-07T10:01:22Z</time>
    </trkpt>
    <trkpt lat="49.584784" lon="19.537952">
      <ele>1174</ele>
      <time>2026-05-07T10:01:40Z</time>
    </trkpt>
    <trkpt lat="49.584805" lon="19.537807">
      <ele>1174</ele>
      <time>2026-05-07T10:01:53Z</time>
    </trkpt>
    <trkpt lat="49.584827" lon="19.537633">
      <ele>1172</ele>
      <time>2026-05-07T10:02:09Z</time>
    </trkpt>
    <trkpt lat="49.584811" lon="19.537544">
      <ele>1172</ele>
      <time>2026-05-07T10:02:18Z</time>
    </trkpt>
    <trkpt lat="49.584737" lon="19.53749">
      <ele>1174</ele>
      <time>2026-05-07T10:02:29Z</time>
    </trkpt>
    <trkpt lat="49.584552" lon="19.537089">
      <ele>1180</ele>
      <time>2026-05-07T10:03:14Z</time>
    </trkpt>
    <trkpt lat="49.5845" lon="19.536894">
      <ele>1183</ele>
      <time>2026-05-07T10:03:33Z</time>
    </trkpt>
    <trkpt lat="49.584484" lon="19.536693">
      <ele>1185</ele>
      <time>2026-05-07T10:03:51Z</time>
    </trkpt>
    <trkpt lat="49.584469" lon="19.536472">
      <ele>1187</ele>
      <time>2026-05-07T10:04:11Z</time>
    </trkpt>
    <trkpt lat="49.584526" lon="19.53632">
      <ele>1186</ele>
      <time>2026-05-07T10:04:27Z</time>
    </trkpt>
    <trkpt lat="49.584606" lon="19.536212">
      <ele>1183</ele>
      <time>2026-05-07T10:04:42Z</time>
    </trkpt>
    <trkpt lat="49.584615" lon="19.536116">
      <ele>1183</ele>
      <time>2026-05-07T10:04:50Z</time>
    </trkpt>
    <trkpt lat="49.584591" lon="19.536024">
      <ele>1184</ele>
      <time>2026-05-07T10:04:59Z</time>
    </trkpt>
    <trkpt lat="49.584544" lon="19.53583">
      <ele>1185</ele>
      <time>2026-05-07T10:05:18Z</time>
    </trkpt>
    <trkpt lat="49.584515" lon="19.53554">
      <ele>1182</ele>
      <time>2026-05-07T10:05:44Z</time>
    </trkpt>
    <trkpt lat="49.584497" lon="19.535423">
      <ele>1181</ele>
      <time>2026-05-07T10:05:55Z</time>
    </trkpt>
    <trkpt lat="49.584447" lon="19.535287">
      <ele>1181</ele>
      <time>2026-05-07T10:06:09Z</time>
    </trkpt>
    <trkpt lat="49.584342" lon="19.535143">
      <ele>1183</ele>
      <time>2026-05-07T10:06:29Z</time>
    </trkpt>
    <trkpt lat="49.584263" lon="19.535078">
      <ele>1185</ele>
      <time>2026-05-07T10:06:41Z</time>
    </trkpt>
    <trkpt lat="49.584145" lon="19.535027">
      <ele>1189</ele>
      <time>2026-05-07T10:06:59Z</time>
    </trkpt>
    <trkpt lat="49.584081" lon="19.534911">
      <ele>1190</ele>
      <time>2026-05-07T10:07:12Z</time>
    </trkpt>
    <trkpt lat="49.583981" lon="19.534645">
      <ele>1190</ele>
      <time>2026-05-07T10:07:40Z</time>
    </trkpt>
    <trkpt lat="49.583859" lon="19.534419">
      <ele>1190</ele>
      <time>2026-05-07T10:08:06Z</time>
    </trkpt>
    <trkpt lat="49.583584" lon="19.534023">
      <ele>1190</ele>
      <time>2026-05-07T10:08:58Z</time>
    </trkpt>
    <trkpt lat="49.58295" lon="19.533378">
      <ele>1201</ele>
      <time>2026-05-07T10:10:43Z</time>
    </trkpt>
    <trkpt lat="49.582894" lon="19.533254">
      <ele>1199</ele>
      <time>2026-05-07T10:10:57Z</time>
    </trkpt>
    <trkpt lat="49.582878" lon="19.533172">
      <ele>1197</ele>
      <time>2026-05-07T10:11:05Z</time>
    </trkpt>
    <trkpt lat="49.582814" lon="19.533114">
      <ele>1198</ele>
      <time>2026-05-07T10:11:15Z</time>
    </trkpt>
    <trkpt lat="49.582691" lon="19.533111">
      <ele>1203</ele>
      <time>2026-05-07T10:11:33Z</time>
    </trkpt>
    <trkpt lat="49.582631" lon="19.53305">
      <ele>1203</ele>
      <time>2026-05-07T10:11:43Z</time>
    </trkpt>
    <trkpt lat="49.582379" lon="19.53279">
      <ele>1206</ele>
      <time>2026-05-07T10:12:24Z</time>
    </trkpt>
    <trkpt lat="49.582268" lon="19.532593">
      <ele>1206</ele>
      <time>2026-05-07T10:12:48Z</time>
    </trkpt>
    <trkpt lat="49.581961" lon="19.532089">
      <ele>1205</ele>
      <time>2026-05-07T10:13:49Z</time>
    </trkpt>
    <trkpt lat="49.581903" lon="19.531988">
      <ele>1206</ele>
      <time>2026-05-07T10:14:02Z</time>
    </trkpt>
    <trkpt lat="49.581868" lon="19.531886">
      <ele>1207</ele>
      <time>2026-05-07T10:14:12Z</time>
    </trkpt>
    <trkpt lat="49.581871" lon="19.531752">
      <ele>1207</ele>
      <time>2026-05-07T10:14:24Z</time>
    </trkpt>
    <trkpt lat="49.581841" lon="19.531579">
      <ele>1209</ele>
      <time>2026-05-07T10:14:40Z</time>
    </trkpt>
    <trkpt lat="49.581812" lon="19.531275">
      <ele>1213</ele>
      <time>2026-05-07T10:15:08Z</time>
    </trkpt>
    <trkpt lat="49.581856" lon="19.531053">
      <ele>1213</ele>
      <time>2026-05-07T10:15:28Z</time>
    </trkpt>
    <trkpt lat="49.581975" lon="19.53087">
      <ele>1212</ele>
      <time>2026-05-07T10:15:52Z</time>
    </trkpt>
    <trkpt lat="49.582101" lon="19.530735">
      <ele>1211</ele>
      <time>2026-05-07T10:16:13Z</time>
    </trkpt>
    <trkpt lat="49.582118" lon="19.530595">
      <ele>1211</ele>
      <time>2026-05-07T10:16:26Z</time>
    </trkpt>
    <trkpt lat="49.58205" lon="19.530371">
      <ele>1214</ele>
      <time>2026-05-07T10:16:48Z</time>
    </trkpt>
    <trkpt lat="49.582045" lon="19.530286">
      <ele>1214</ele>
      <time>2026-05-07T10:16:56Z</time>
    </trkpt>
    <trkpt lat="49.582103" lon="19.530105">
      <ele>1214</ele>
      <time>2026-05-07T10:17:14Z</time>
    </trkpt>
    <trkpt lat="49.582361" lon="19.529656">
      <ele>1211</ele>
      <time>2026-05-07T10:18:07Z</time>
    </trkpt>
    <trkpt lat="49.582426" lon="19.52948">
      <ele>1210</ele>
      <time>2026-05-07T10:18:25Z</time>
    </trkpt>
    <trkpt lat="49.582422" lon="19.529269">
      <ele>1211</ele>
      <time>2026-05-07T10:18:44Z</time>
    </trkpt>
    <trkpt lat="49.582333" lon="19.529044">
      <ele>1214</ele>
      <time>2026-05-07T10:19:08Z</time>
    </trkpt>
    <trkpt lat="49.582174" lon="19.528575">
      <ele>1213</ele>
      <time>2026-05-07T10:19:55Z</time>
    </trkpt>
    <trkpt lat="49.582122" lon="19.528414">
      <ele>1212</ele>
      <time>2026-05-07T10:20:11Z</time>
    </trkpt>
    <trkpt lat="49.582015" lon="19.528372">
      <ele>1214</ele>
      <time>2026-05-07T10:20:27Z</time>
    </trkpt>
    <trkpt lat="49.581671" lon="19.528403">
      <ele>1220</ele>
      <time>2026-05-07T10:21:15Z</time>
    </trkpt>
    <trkpt lat="49.581478" lon="19.528373">
      <ele>1224</ele>
      <time>2026-05-07T10:21:42Z</time>
    </trkpt>
    <trkpt lat="49.581433" lon="19.528295">
      <ele>1226</ele>
      <time>2026-05-07T10:21:51Z</time>
    </trkpt>
    <trkpt lat="49.581436" lon="19.528179">
      <ele>1227</ele>
      <time>2026-05-07T10:22:02Z</time>
    </trkpt>
    <trkpt lat="49.581515" lon="19.527962">
      <ele>1228</ele>
      <time>2026-05-07T10:22:24Z</time>
    </trkpt>
    <trkpt lat="49.581609" lon="19.527764">
      <ele>1230</ele>
      <time>2026-05-07T10:22:46Z</time>
    </trkpt>
    <trkpt lat="49.581712" lon="19.52761">
      <ele>1231</ele>
      <time>2026-05-07T10:23:06Z</time>
    </trkpt>
    <trkpt lat="49.581787" lon="19.527512">
      <ele>1231</ele>
      <time>2026-05-07T10:23:19Z</time>
    </trkpt>
    <trkpt lat="49.581949" lon="19.527464">
      <ele>1227</ele>
      <time>2026-05-07T10:23:43Z</time>
    </trkpt>
    <trkpt lat="49.582133" lon="19.527153">
      <ele>1227</ele>
      <time>2026-05-07T10:24:20Z</time>
    </trkpt>
    <trkpt lat="49.582293" lon="19.527016">
      <ele>1223</ele>
      <time>2026-05-07T10:24:46Z</time>
    </trkpt>
    <trkpt lat="49.582356" lon="19.526997">
      <ele>1221</ele>
      <time>2026-05-07T10:24:55Z</time>
    </trkpt>
    <trkpt lat="49.582404" lon="19.526898">
      <ele>1219</ele>
      <time>2026-05-07T10:25:06Z</time>
    </trkpt>
    <trkpt lat="49.582393" lon="19.526771">
      <ele>1220</ele>
      <time>2026-05-07T10:25:18Z</time>
    </trkpt>
    <trkpt lat="49.582267" lon="19.526454">
      <ele>1227</ele>
      <time>2026-05-07T10:25:52Z</time>
    </trkpt>
    <trkpt lat="49.582275" lon="19.52621">
      <ele>1228</ele>
      <time>2026-05-07T10:26:14Z</time>
    </trkpt>
    <trkpt lat="49.582296" lon="19.525979">
      <ele>1229</ele>
      <time>2026-05-07T10:26:35Z</time>
    </trkpt>
    <trkpt lat="49.582326" lon="19.525825">
      <ele>1229</ele>
      <time>2026-05-07T10:26:49Z</time>
    </trkpt>
    <trkpt lat="49.582419" lon="19.525637">
      <ele>1227</ele>
      <time>2026-05-07T10:27:10Z</time>
    </trkpt>
    <trkpt lat="49.58258" lon="19.525403">
      <ele>1224</ele>
      <time>2026-05-07T10:27:41Z</time>
    </trkpt>
    <trkpt lat="49.582776" lon="19.525213">
      <ele>1219</ele>
      <time>2026-05-07T10:28:13Z</time>
    </trkpt>
    <trkpt lat="49.582803" lon="19.525084">
      <ele>1219</ele>
      <time>2026-05-07T10:28:25Z</time>
    </trkpt>
    <trkpt lat="49.582791" lon="19.524966">
      <ele>1220</ele>
      <time>2026-05-07T10:28:36Z</time>
    </trkpt>
    <trkpt lat="49.582734" lon="19.524803">
      <ele>1222</ele>
      <time>2026-05-07T10:28:53Z</time>
    </trkpt>
    <trkpt lat="49.582641" lon="19.524544">
      <ele>1227</ele>
      <time>2026-05-07T10:29:20Z</time>
    </trkpt>
    <trkpt lat="49.582635" lon="19.524446">
      <ele>1228</ele>
      <time>2026-05-07T10:29:29Z</time>
    </trkpt>
    <trkpt lat="49.58265" lon="19.524376">
      <ele>1229</ele>
      <time>2026-05-07T10:29:35Z</time>
    </trkpt>
    <trkpt lat="49.582716" lon="19.524371">
      <ele>1227</ele>
      <time>2026-05-07T10:29:44Z</time>
    </trkpt>
    <trkpt lat="49.582863" lon="19.524472">
      <ele>1222</ele>
      <time>2026-05-07T10:30:07Z</time>
    </trkpt>
    <trkpt lat="49.58308" lon="19.524687">
      <ele>1214</ele>
      <time>2026-05-07T10:30:44Z</time>
    </trkpt>
    <trkpt lat="49.583153" lon="19.524714">
      <ele>1211</ele>
      <time>2026-05-07T10:30:55Z</time>
    </trkpt>
    <trkpt lat="49.583201" lon="19.52471">
      <ele>1210</ele>
      <time>2026-05-07T10:31:02Z</time>
    </trkpt>
    <trkpt lat="49.583245" lon="19.524628">
      <ele>1210</ele>
      <time>2026-05-07T10:31:11Z</time>
    </trkpt>
    <trkpt lat="49.583332" lon="19.524349">
      <ele>1212</ele>
      <time>2026-05-07T10:31:39Z</time>
    </trkpt>
    <trkpt lat="49.583421" lon="19.524145">
      <ele>1213</ele>
      <time>2026-05-07T10:32:01Z</time>
    </trkpt>
    <trkpt lat="49.583504" lon="19.523923">
      <ele>1214</ele>
      <time>2026-05-07T10:32:24Z</time>
    </trkpt>
    <trkpt lat="49.583552" lon="19.523753">
      <ele>1214</ele>
      <time>2026-05-07T10:32:41Z</time>
    </trkpt>
    <trkpt lat="49.583617" lon="19.523462">
      <ele>1215</ele>
      <time>2026-05-07T10:33:08Z</time>
    </trkpt>
    <trkpt lat="49.583542" lon="19.523566">
      <ele>1217</ele>
      <time>2026-05-07T10:33:38Z</time>
    </trkpt>
    <trkpt lat="49.583473" lon="19.523663">
      <ele>1219</ele>
      <time>2026-05-07T10:34:06Z</time>
    </trkpt>
    <trkpt lat="49.583391" lon="19.5237">
      <ele>1221</ele>
      <time>2026-05-07T10:34:32Z</time>
    </trkpt>
    <trkpt lat="49.583301" lon="19.523711">
      <ele>1224</ele>
      <time>2026-05-07T10:34:59Z</time>
    </trkpt>
    <trkpt lat="49.583242" lon="19.523781">
      <ele>1225</ele>
      <time>2026-05-07T10:35:21Z</time>
    </trkpt>
    <trkpt lat="49.58316" lon="19.523885">
      <ele>1226</ele>
      <time>2026-05-07T10:35:52Z</time>
    </trkpt>
    <trkpt lat="49.583033" lon="19.523901">
      <ele>1229</ele>
      <time>2026-05-07T10:36:31Z</time>
    </trkpt>
    <trkpt lat="49.58288" lon="19.523917">
      <ele>1233</ele>
      <time>2026-05-07T10:37:17Z</time>
    </trkpt>
    <trkpt lat="49.582722" lon="19.52388">
      <ele>1237</ele>
      <time>2026-05-07T10:38:05Z</time>
    </trkpt>
    <trkpt lat="49.582628" lon="19.523815">
      <ele>1240</ele>
      <time>2026-05-07T10:38:36Z</time>
    </trkpt>
    <trkpt lat="49.582517" lon="19.523767">
      <ele>1242</ele>
      <time>2026-05-07T10:39:10Z</time>
    </trkpt>
    <trkpt lat="49.582445" lon="19.523671">
      <ele>1245</ele>
      <time>2026-05-07T10:39:39Z</time>
    </trkpt>
    <trkpt lat="49.582369" lon="19.523684">
      <ele>1246</ele>
      <time>2026-05-07T10:40:02Z</time>
    </trkpt>
    <trkpt lat="49.582298" lon="19.523646">
      <ele>1248</ele>
      <time>2026-05-07T10:40:24Z</time>
    </trkpt>
    <trkpt lat="49.582171" lon="19.523596">
      <ele>1251</ele>
      <time>2026-05-07T10:41:04Z</time>
    </trkpt>
    <trkpt lat="49.581983" lon="19.523478">
      <ele>1256</ele>
      <time>2026-05-07T10:42:04Z</time>
    </trkpt>
    <trkpt lat="49.581543" lon="19.523092">
      <ele>1269</ele>
      <time>2026-05-07T10:44:37Z</time>
    </trkpt>
    <trkpt lat="49.581499" lon="19.523063">
      <ele>1270</ele>
      <time>2026-05-07T10:44:51Z</time>
    </trkpt>
    <trkpt lat="49.58069" lon="19.522528">
      <ele>1296</ele>
      <time>2026-05-07T10:49:17Z</time>
    </trkpt>
    <trkpt lat="49.580494" lon="19.522445">
      <ele>1299</ele>
      <time>2026-05-07T10:50:18Z</time>
    </trkpt>
    <trkpt lat="49.580366" lon="19.522378">
      <ele>1302</ele>
      <time>2026-05-07T10:50:58Z</time>
    </trkpt>
    <trkpt lat="49.580257" lon="19.522393">
      <ele>1304</ele>
      <time>2026-05-07T10:51:31Z</time>
    </trkpt>
    <trkpt lat="49.579635" lon="19.521944">
      <ele>1322</ele>
      <time>2026-05-07T10:54:57Z</time>
    </trkpt>
    <trkpt lat="49.579535" lon="19.521959">
      <ele>1323</ele>
      <time>2026-05-07T10:55:27Z</time>
    </trkpt>
    <trkpt lat="49.57929" lon="19.522045">
      <ele>1326</ele>
      <time>2026-05-07T10:56:41Z</time>
    </trkpt>
    <trkpt lat="49.578965" lon="19.522048">
      <ele>1330</ele>
      <time>2026-05-07T10:58:17Z</time>
    </trkpt>
    <trkpt lat="49.578667" lon="19.521902">
      <ele>1335</ele>
      <time>2026-05-07T10:59:50Z</time>
    </trkpt>
    <trkpt lat="49.578448" lon="19.521796">
      <ele>1340</ele>
      <time>2026-05-07T11:00:58Z</time>
    </trkpt>
    <trkpt lat="49.578126" lon="19.521787">
      <ele>1345</ele>
      <time>2026-05-07T11:02:33Z</time>
    </trkpt>
    <trkpt lat="49.577815" lon="19.521652">
      <ele>1350</ele>
      <time>2026-05-07T11:04:09Z</time>
    </trkpt>
    <trkpt lat="49.577612" lon="19.521592">
      <ele>1352</ele>
      <time>2026-05-07T11:05:10Z</time>
    </trkpt>
    <trkpt lat="49.577513" lon="19.521608">
      <ele>1353</ele>
      <time>2026-05-07T11:05:39Z</time>
    </trkpt>
    <trkpt lat="49.577452" lon="19.521667">
      <ele>1353</ele>
      <time>2026-05-07T11:06:00Z</time>
    </trkpt>
    <trkpt lat="49.577346" lon="19.52185">
      <ele>1357</ele>
      <time>2026-05-07T11:06:48Z</time>
    </trkpt>
    <trkpt lat="49.577179" lon="19.522007">
      <ele>1362</ele>
      <time>2026-05-07T11:07:47Z</time>
    </trkpt>
    <trkpt lat="49.577059" lon="19.52211">
      <ele>1366</ele>
      <time>2026-05-07T11:08:29Z</time>
    </trkpt>
    <trkpt lat="49.576922" lon="19.522182">
      <ele>1371</ele>
      <time>2026-05-07T11:09:12Z</time>
    </trkpt>
    <trkpt lat="49.57682" lon="19.522236">
      <ele>1374</ele>
      <time>2026-05-07T11:09:45Z</time>
    </trkpt>
    <trkpt lat="49.576678" lon="19.522364">
      <ele>1379</ele>
      <time>2026-05-07T11:10:35Z</time>
    </trkpt>
    <trkpt lat="49.576619" lon="19.522485">
      <ele>1382</ele>
      <time>2026-05-07T11:11:05Z</time>
    </trkpt>
    <trkpt lat="49.576548" lon="19.5226">
      <ele>1385</ele>
      <time>2026-05-07T11:11:36Z</time>
    </trkpt>
    <trkpt lat="49.576496" lon="19.522625">
      <ele>1387</ele>
      <time>2026-05-07T11:11:53Z</time>
    </trkpt>
    <trkpt lat="49.576435" lon="19.52259">
      <ele>1389</ele>
      <time>2026-05-07T11:12:13Z</time>
    </trkpt>
    <trkpt lat="49.576405" lon="19.522533">
      <ele>1390</ele>
      <time>2026-05-07T11:12:27Z</time>
    </trkpt>
    <trkpt lat="49.576349" lon="19.522367">
      <ele>1392</ele>
      <time>2026-05-07T11:13:03Z</time>
    </trkpt>
    <trkpt lat="49.576306" lon="19.522246">
      <ele>1393</ele>
      <time>2026-05-07T11:13:30Z</time>
    </trkpt>
    <trkpt lat="49.57629" lon="19.522193">
      <ele>1394</ele>
      <time>2026-05-07T11:13:41Z</time>
    </trkpt>
    <trkpt lat="49.576242" lon="19.522161">
      <ele>1396</ele>
      <time>2026-05-07T11:13:57Z</time>
    </trkpt>
    <trkpt lat="49.576193" lon="19.522148">
      <ele>1398</ele>
      <time>2026-05-07T11:14:12Z</time>
    </trkpt>
    <trkpt lat="49.576134" lon="19.522179">
      <ele>1400</ele>
      <time>2026-05-07T11:14:32Z</time>
    </trkpt>
    <trkpt lat="49.576087" lon="19.522183">
      <ele>1403</ele>
      <time>2026-05-07T11:14:47Z</time>
    </trkpt>
    <trkpt lat="49.576043" lon="19.522169">
      <ele>1406</ele>
      <time>2026-05-07T11:15:02Z</time>
    </trkpt>
    <trkpt lat="49.575997" lon="19.522162">
      <ele>1409</ele>
      <time>2026-05-07T11:15:18Z</time>
    </trkpt>
    <trkpt lat="49.575964" lon="19.522197">
      <ele>1411</ele>
      <time>2026-05-07T11:15:32Z</time>
    </trkpt>
    <trkpt lat="49.575916" lon="19.522293">
      <ele>1414</ele>
      <time>2026-05-07T11:15:56Z</time>
    </trkpt>
    <trkpt lat="49.575883" lon="19.522319">
      <ele>1417</ele>
      <time>2026-05-07T11:16:09Z</time>
    </trkpt>
    <trkpt lat="49.57584" lon="19.522309">
      <ele>1420</ele>
      <time>2026-05-07T11:16:24Z</time>
    </trkpt>
    <trkpt lat="49.57578" lon="19.522305">
      <ele>1425</ele>
      <time>2026-05-07T11:16:46Z</time>
    </trkpt>
    <trkpt lat="49.575718" lon="19.522313">
      <ele>1430</ele>
      <time>2026-05-07T11:17:09Z</time>
    </trkpt>
    <trkpt lat="49.57568" lon="19.522371">
      <ele>1433</ele>
      <time>2026-05-07T11:17:27Z</time>
    </trkpt>
    <trkpt lat="49.575618" lon="19.522502">
      <ele>1439</ele>
      <time>2026-05-07T11:18:00Z</time>
    </trkpt>
    <trkpt lat="49.575597" lon="19.522558">
      <ele>1440</ele>
      <time>2026-05-07T11:18:14Z</time>
    </trkpt>
    <trkpt lat="49.575578" lon="19.522611">
      <ele>1442</ele>
      <time>2026-05-07T11:18:26Z</time>
    </trkpt>
    <trkpt lat="49.57554" lon="19.522666">
      <ele>1444</ele>
      <time>2026-05-07T11:18:42Z</time>
    </trkpt>
    <trkpt lat="49.575503" lon="19.522759">
      <ele>1446</ele>
      <time>2026-05-07T11:19:04Z</time>
    </trkpt>
    <trkpt lat="49.575467" lon="19.522837">
      <ele>1448</ele>
      <time>2026-05-07T11:19:23Z</time>
    </trkpt>
    <trkpt lat="49.575453" lon="19.522877">
      <ele>1449</ele>
      <time>2026-05-07T11:19:32Z</time>
    </trkpt>
    <trkpt lat="49.575443" lon="19.522969">
      <ele>1450</ele>
      <time>2026-05-07T11:19:49Z</time>
    </trkpt>
    <trkpt lat="49.575431" lon="19.523015">
      <ele>1450</ele>
      <time>2026-05-07T11:19:59Z</time>
    </trkpt>
    <trkpt lat="49.575436" lon="19.523074">
      <ele>1450</ele>
      <time>2026-05-07T11:20:10Z</time>
    </trkpt>
    <trkpt lat="49.575415" lon="19.523158">
      <ele>1451</ele>
      <time>2026-05-07T11:20:28Z</time>
    </trkpt>
    <trkpt lat="49.575415" lon="19.52325">
      <ele>1452</ele>
      <time>2026-05-07T11:20:45Z</time>
    </trkpt>
    <trkpt lat="49.575413" lon="19.523327">
      <ele>1452</ele>
      <time>2026-05-07T11:21:00Z</time>
    </trkpt>
    <trkpt lat="49.575426" lon="19.523447">
      <ele>1452</ele>
      <time>2026-05-07T11:21:23Z</time>
    </trkpt>
    <trkpt lat="49.575438" lon="19.523548">
      <ele>1452</ele>
      <time>2026-05-07T11:21:43Z</time>
    </trkpt>
    <trkpt lat="49.575437" lon="19.52366">
      <ele>1453</ele>
      <time>2026-05-07T11:22:04Z</time>
    </trkpt>
    <trkpt lat="49.575462" lon="19.523782">
      <ele>1452</ele>
      <time>2026-05-07T11:22:28Z</time>
    </trkpt>
    <trkpt lat="49.575481" lon="19.523841">
      <ele>1451</ele>
      <time>2026-05-07T11:22:41Z</time>
    </trkpt>
    <trkpt lat="49.575482" lon="19.523916">
      <ele>1452</ele>
      <time>2026-05-07T11:22:55Z</time>
    </trkpt>
    <trkpt lat="49.575461" lon="19.523964">
      <ele>1454</ele>
      <time>2026-05-07T11:23:07Z</time>
    </trkpt>
    <trkpt lat="49.575449" lon="19.524033">
      <ele>1455</ele>
      <time>2026-05-07T11:23:21Z</time>
    </trkpt>
    <trkpt lat="49.575442" lon="19.524085">
      <ele>1456</ele>
      <time>2026-05-07T11:23:32Z</time>
    </trkpt>
    <trkpt lat="49.575433" lon="19.524174">
      <ele>1457</ele>
      <time>2026-05-07T11:23:49Z</time>
    </trkpt>
    <trkpt lat="49.575412" lon="19.524217">
      <ele>1458</ele>
      <time>2026-05-07T11:24:00Z</time>
    </trkpt>
    <trkpt lat="49.575385" lon="19.524269">
      <ele>1460</ele>
      <time>2026-05-07T11:24:14Z</time>
    </trkpt>
    <trkpt lat="49.575372" lon="19.524322">
      <ele>1461</ele>
      <time>2026-05-07T11:24:25Z</time>
    </trkpt>
    <trkpt lat="49.575348" lon="19.524354">
      <ele>1463</ele>
      <time>2026-05-07T11:24:35Z</time>
    </trkpt>
    <trkpt lat="49.575342" lon="19.52439">
      <ele>1463</ele>
      <time>2026-05-07T11:24:42Z</time>
    </trkpt>
    <trkpt lat="49.575353" lon="19.524454">
      <ele>1463</ele>
      <time>2026-05-07T11:24:55Z</time>
    </trkpt>
    <trkpt lat="49.575347" lon="19.52451">
      <ele>1464</ele>
      <time>2026-05-07T11:25:06Z</time>
    </trkpt>
    <trkpt lat="49.575318" lon="19.524578">
      <ele>1467</ele>
      <time>2026-05-07T11:25:23Z</time>
    </trkpt>
    <trkpt lat="49.575312" lon="19.524774">
      <ele>1470</ele>
      <time>2026-05-07T11:26:02Z</time>
    </trkpt>
    <trkpt lat="49.575328" lon="19.524894">
      <ele>1473</ele>
      <time>2026-05-07T11:26:26Z</time>
    </trkpt>
    <trkpt lat="49.575321" lon="19.524963">
      <ele>1476</ele>
      <time>2026-05-07T11:26:41Z</time>
    </trkpt>
    <trkpt lat="49.575289" lon="19.525022">
      <ele>1480</ele>
      <time>2026-05-07T11:27:00Z</time>
    </trkpt>
    <trkpt lat="49.575275" lon="19.525054">
      <ele>1482</ele>
      <time>2026-05-07T11:27:10Z</time>
    </trkpt>
    <trkpt lat="49.575257" lon="19.525093">
      <ele>1486</ele>
      <time>2026-05-07T11:27:22Z</time>
    </trkpt>
    <trkpt lat="49.575242" lon="19.525124">
      <ele>1488</ele>
      <time>2026-05-07T11:27:32Z</time>
    </trkpt>
    <trkpt lat="49.575247" lon="19.525153">
      <ele>1489</ele>
      <time>2026-05-07T11:27:38Z</time>
    </trkpt>
    <trkpt lat="49.575232" lon="19.525142">
      <ele>1490</ele>
      <time>2026-05-07T11:27:44Z</time>
    </trkpt>
    <trkpt lat="49.575241" lon="19.525189">
      <ele>1491</ele>
      <time>2026-05-07T11:27:53Z</time>
    </trkpt>
    <trkpt lat="49.575231" lon="19.525226">
      <ele>1493</ele>
      <time>2026-05-07T11:28:03Z</time>
    </trkpt>
    <trkpt lat="49.575218" lon="19.525246">
      <ele>1495</ele>
      <time>2026-05-07T11:28:10Z</time>
    </trkpt>
    <trkpt lat="49.5752" lon="19.525249">
      <ele>1497</ele>
      <time>2026-05-07T11:28:17Z</time>
    </trkpt>
    <trkpt lat="49.575184" lon="19.525233">
      <ele>1498</ele>
      <time>2026-05-07T11:28:23Z</time>
    </trkpt>
    <trkpt lat="49.575167" lon="19.525232">
      <ele>1499</ele>
      <time>2026-05-07T11:28:30Z</time>
    </trkpt>
    <trkpt lat="49.575153" lon="19.525212">
      <ele>1500</ele>
      <time>2026-05-07T11:28:35Z</time>
    </trkpt>
    <trkpt lat="49.575136" lon="19.525218">
      <ele>1501</ele>
      <time>2026-05-07T11:28:42Z</time>
    </trkpt>
    <trkpt lat="49.575098" lon="19.525245">
      <ele>1506</ele>
      <time>2026-05-07T11:28:59Z</time>
    </trkpt>
    <trkpt lat="49.575096" lon="19.525275">
      <ele>1507</ele>
      <time>2026-05-07T11:29:05Z</time>
    </trkpt>
    <trkpt lat="49.575116" lon="19.525321">
      <ele>1507</ele>
      <time>2026-05-07T11:29:16Z</time>
    </trkpt>
    <trkpt lat="49.575155" lon="19.525445">
      <ele>1508</ele>
      <time>2026-05-07T11:29:42Z</time>
    </trkpt>
    <trkpt lat="49.575151" lon="19.525523">
      <ele>1511</ele>
      <time>2026-05-07T11:29:59Z</time>
    </trkpt>
    <trkpt lat="49.575112" lon="19.525566">
      <ele>1516</ele>
      <time>2026-05-07T11:30:18Z</time>
    </trkpt>
    <trkpt lat="49.575068" lon="19.525594">
      <ele>1520</ele>
      <time>2026-05-07T11:30:36Z</time>
    </trkpt>
    <trkpt lat="49.575039" lon="19.525591">
      <ele>1522</ele>
      <time>2026-05-07T11:30:46Z</time>
    </trkpt>
    <trkpt lat="49.575013" lon="19.525617">
      <ele>1525</ele>
      <time>2026-05-07T11:30:57Z</time>
    </trkpt>
    <trkpt lat="49.574985" lon="19.525661">
      <ele>1528</ele>
      <time>2026-05-07T11:31:12Z</time>
    </trkpt>
    <trkpt lat="49.574983" lon="19.525729">
      <ele>1530</ele>
      <time>2026-05-07T11:31:25Z</time>
    </trkpt>
    <trkpt lat="49.574999" lon="19.525805">
      <ele>1530</ele>
      <time>2026-05-07T11:31:41Z</time>
    </trkpt>
    <trkpt lat="49.575027" lon="19.52588">
      <ele>1530</ele>
      <time>2026-05-07T11:31:57Z</time>
    </trkpt>
    <trkpt lat="49.575022" lon="19.525913">
      <ele>1531</ele>
      <time>2026-05-07T11:32:04Z</time>
    </trkpt>
    <trkpt lat="49.57501" lon="19.525936">
      <ele>1532</ele>
      <time>2026-05-07T11:32:10Z</time>
    </trkpt>
    <trkpt lat="49.57502" lon="19.525996">
      <ele>1532</ele>
      <time>2026-05-07T11:32:22Z</time>
    </trkpt>
    <trkpt lat="49.575035" lon="19.526003">
      <ele>1532</ele>
      <time>2026-05-07T11:32:27Z</time>
    </trkpt>
    <trkpt lat="49.575059" lon="19.526042">
      <ele>1531</ele>
      <time>2026-05-07T11:32:37Z</time>
    </trkpt>
    <trkpt lat="49.575063" lon="19.526081">
      <ele>1531</ele>
      <time>2026-05-07T11:32:45Z</time>
    </trkpt>
    <trkpt lat="49.575041" lon="19.526104">
      <ele>1533</ele>
      <time>2026-05-07T11:32:54Z</time>
    </trkpt>
    <trkpt lat="49.575016" lon="19.526088">
      <ele>1534</ele>
      <time>2026-05-07T11:33:02Z</time>
    </trkpt>
    <trkpt lat="49.574998" lon="19.526064">
      <ele>1535</ele>
      <time>2026-05-07T11:33:10Z</time>
    </trkpt>
    <trkpt lat="49.574975" lon="19.52604">
      <ele>1536</ele>
      <time>2026-05-07T11:33:19Z</time>
    </trkpt>
    <trkpt lat="49.574955" lon="19.526074">
      <ele>1538</ele>
      <time>2026-05-07T11:33:29Z</time>
    </trkpt>
    <trkpt lat="49.574978" lon="19.526125">
      <ele>1537</ele>
      <time>2026-05-07T11:33:41Z</time>
    </trkpt>
    <trkpt lat="49.574954" lon="19.526159">
      <ele>1539</ele>
      <time>2026-05-07T11:33:52Z</time>
    </trkpt>
    <trkpt lat="49.574968" lon="19.526171">
      <ele>1539</ele>
      <time>2026-05-07T11:33:58Z</time>
    </trkpt>
    <trkpt lat="49.57497" lon="19.526203">
      <ele>1539</ele>
      <time>2026-05-07T11:34:04Z</time>
    </trkpt>
    <trkpt lat="49.574965" lon="19.526236">
      <ele>1540</ele>
      <time>2026-05-07T11:34:11Z</time>
    </trkpt>
    <trkpt lat="49.574932" lon="19.526266">
      <ele>1543</ele>
      <time>2026-05-07T11:34:25Z</time>
    </trkpt>
    <trkpt lat="49.574907" lon="19.526338">
      <ele>1546</ele>
      <time>2026-05-07T11:34:43Z</time>
    </trkpt>
    <trkpt lat="49.574862" lon="19.526562">
      <ele>1556</ele>
      <time>2026-05-07T11:35:34Z</time>
    </trkpt>
    <trkpt lat="49.574859" lon="19.526639">
      <ele>1558</ele>
      <time>2026-05-07T11:35:50Z</time>
    </trkpt>
    <trkpt lat="49.574864" lon="19.526696">
      <ele>1559</ele>
      <time>2026-05-07T11:36:01Z</time>
    </trkpt>
    <trkpt lat="49.574861" lon="19.526774">
      <ele>1561</ele>
      <time>2026-05-07T11:36:17Z</time>
    </trkpt>
    <trkpt lat="49.574851" lon="19.526826">
      <ele>1563</ele>
      <time>2026-05-07T11:36:29Z</time>
    </trkpt>
    <trkpt lat="49.574836" lon="19.526894">
      <ele>1566</ele>
      <time>2026-05-07T11:36:44Z</time>
    </trkpt>
    <trkpt lat="49.574841" lon="19.526926">
      <ele>1567</ele>
      <time>2026-05-07T11:36:51Z</time>
    </trkpt>
    <trkpt lat="49.574849" lon="19.526979">
      <ele>1567</ele>
      <time>2026-05-07T11:37:01Z</time>
    </trkpt>
    <trkpt lat="49.574834" lon="19.527044">
      <ele>1570</ele>
      <time>2026-05-07T11:37:16Z</time>
    </trkpt>
    <trkpt lat="49.574817" lon="19.527109">
      <ele>1573</ele>
      <time>2026-05-07T11:37:32Z</time>
    </trkpt>
    <trkpt lat="49.574805" lon="19.527272">
      <ele>1578</ele>
      <time>2026-05-07T11:38:06Z</time>
    </trkpt>
    <trkpt lat="49.574786" lon="19.527339">
      <ele>1581</ele>
      <time>2026-05-07T11:38:22Z</time>
    </trkpt>
    <trkpt lat="49.574766" lon="19.527374">
      <ele>1583</ele>
      <time>2026-05-07T11:38:32Z</time>
    </trkpt>
    <trkpt lat="49.574748" lon="19.527403">
      <ele>1585</ele>
      <time>2026-05-07T11:38:41Z</time>
    </trkpt>
    <trkpt lat="49.574748" lon="19.527439">
      <ele>1586</ele>
      <time>2026-05-07T11:38:48Z</time>
    </trkpt>
    <trkpt lat="49.574747" lon="19.527501">
      <ele>1587</ele>
      <time>2026-05-07T11:39:01Z</time>
    </trkpt>
    <trkpt lat="49.574715" lon="19.52763">
      <ele>1592</ele>
      <time>2026-05-07T11:39:29Z</time>
    </trkpt>
    <trkpt lat="49.574701" lon="19.527726">
      <ele>1595</ele>
      <time>2026-05-07T11:39:50Z</time>
    </trkpt>
    <trkpt lat="49.57469" lon="19.527796">
      <ele>1597</ele>
      <time>2026-05-07T11:40:04Z</time>
    </trkpt>
    <trkpt lat="49.574681" lon="19.527833">
      <ele>1598</ele>
      <time>2026-05-07T11:40:12Z</time>
    </trkpt>
    <trkpt lat="49.574654" lon="19.527835">
      <ele>1600</ele>
      <time>2026-05-07T11:40:22Z</time>
    </trkpt>
    <trkpt lat="49.574615" lon="19.527824">
      <ele>1603</ele>
      <time>2026-05-07T11:40:36Z</time>
    </trkpt>
    <trkpt lat="49.574576" lon="19.527809">
      <ele>1606</ele>
      <time>2026-05-07T11:40:50Z</time>
    </trkpt>
    <trkpt lat="49.574551" lon="19.527782">
      <ele>1607</ele>
      <time>2026-05-07T11:40:59Z</time>
    </trkpt>
    <trkpt lat="49.574525" lon="19.527778">
      <ele>1609</ele>
      <time>2026-05-07T11:41:09Z</time>
    </trkpt>
    <trkpt lat="49.574493" lon="19.527777">
      <ele>1611</ele>
      <time>2026-05-07T11:41:20Z</time>
    </trkpt>
    <trkpt lat="49.574467" lon="19.527774">
      <ele>1613</ele>
      <time>2026-05-07T11:41:29Z</time>
    </trkpt>
    <trkpt lat="49.574453" lon="19.527796">
      <ele>1615</ele>
      <time>2026-05-07T11:41:36Z</time>
    </trkpt>
    <trkpt lat="49.574453" lon="19.527824">
      <ele>1615</ele>
      <time>2026-05-07T11:41:41Z</time>
    </trkpt>
    <trkpt lat="49.574452" lon="19.527878">
      <ele>1616</ele>
      <time>2026-05-07T11:41:52Z</time>
    </trkpt>
    <trkpt lat="49.574444" lon="19.527934">
      <ele>1617</ele>
      <time>2026-05-07T11:42:03Z</time>
    </trkpt>
    <trkpt lat="49.574433" lon="19.527988">
      <ele>1618</ele>
      <time>2026-05-07T11:42:14Z</time>
    </trkpt>
    <trkpt lat="49.574402" lon="19.528027">
      <ele>1621</ele>
      <time>2026-05-07T11:42:28Z</time>
    </trkpt>
    <trkpt lat="49.574368" lon="19.528059">
      <ele>1623</ele>
      <time>2026-05-07T11:42:42Z</time>
    </trkpt>
    <trkpt lat="49.57435" lon="19.528124">
      <ele>1626</ele>
      <time>2026-05-07T11:42:57Z</time>
    </trkpt>
    <trkpt lat="49.574322" lon="19.528154">
      <ele>1629</ele>
      <time>2026-05-07T11:43:09Z</time>
    </trkpt>
    <trkpt lat="49.574305" lon="19.528164">
      <ele>1631</ele>
      <time>2026-05-07T11:43:16Z</time>
    </trkpt>
    <trkpt lat="49.574275" lon="19.528211">
      <ele>1634</ele>
      <time>2026-05-07T11:43:31Z</time>
    </trkpt>
    <trkpt lat="49.574268" lon="19.52829">
      <ele>1637</ele>
      <time>2026-05-07T11:43:48Z</time>
    </trkpt>
    <trkpt lat="49.574238" lon="19.528341">
      <ele>1640</ele>
      <time>2026-05-07T11:44:04Z</time>
    </trkpt>
    <trkpt lat="49.574231" lon="19.528413">
      <ele>1642</ele>
      <time>2026-05-07T11:44:19Z</time>
    </trkpt>
    <trkpt lat="49.574226" lon="19.528492">
      <ele>1644</ele>
      <time>2026-05-07T11:44:35Z</time>
    </trkpt>
    <trkpt lat="49.574195" lon="19.528587">
      <ele>1649</ele>
      <time>2026-05-07T11:44:58Z</time>
    </trkpt>
    <trkpt lat="49.57417" lon="19.528649">
      <ele>1652</ele>
      <time>2026-05-07T11:45:14Z</time>
    </trkpt>
    <trkpt lat="49.574168" lon="19.528694">
      <ele>1653</ele>
      <time>2026-05-07T11:45:23Z</time>
    </trkpt>
    <trkpt lat="49.574154" lon="19.528709">
      <ele>1654</ele>
      <time>2026-05-07T11:45:29Z</time>
    </trkpt>
    <trkpt lat="49.574134" lon="19.528743">
      <ele>1656</ele>
      <time>2026-05-07T11:45:40Z</time>
    </trkpt>
    <trkpt lat="49.574127" lon="19.528785">
      <ele>1657</ele>
      <time>2026-05-07T11:45:49Z</time>
    </trkpt>
    <trkpt lat="49.574127" lon="19.528826">
      <ele>1658</ele>
      <time>2026-05-07T11:45:57Z</time>
    </trkpt>
    <trkpt lat="49.574129" lon="19.528861">
      <ele>1659</ele>
      <time>2026-05-07T11:46:04Z</time>
    </trkpt>
    <trkpt lat="49.5741" lon="19.52888">
      <ele>1661</ele>
      <time>2026-05-07T11:46:15Z</time>
    </trkpt>
    <trkpt lat="49.574085" lon="19.528924">
      <ele>1663</ele>
      <time>2026-05-07T11:46:25Z</time>
    </trkpt>
    <trkpt lat="49.57403" lon="19.529172">
      <ele>1670</ele>
      <time>2026-05-07T11:47:18Z</time>
    </trkpt>
    <trkpt lat="49.57402" lon="19.529197">
      <ele>1671</ele>
      <time>2026-05-07T11:47:24Z</time>
    </trkpt>
    <trkpt lat="49.574001" lon="19.529194">
      <ele>1672</ele>
      <time>2026-05-07T11:47:31Z</time>
    </trkpt>
    <trkpt lat="49.573973" lon="19.529207">
      <ele>1674</ele>
      <time>2026-05-07T11:47:41Z</time>
    </trkpt>
    <trkpt lat="49.573937" lon="19.529245">
      <ele>1677</ele>
      <time>2026-05-07T11:47:55Z</time>
    </trkpt>
    <trkpt lat="49.573907" lon="19.529278">
      <ele>1679</ele>
      <time>2026-05-07T11:48:08Z</time>
    </trkpt>
    <trkpt lat="49.573875" lon="19.52928">
      <ele>1681</ele>
      <time>2026-05-07T11:48:18Z</time>
    </trkpt>
    <trkpt lat="49.573845" lon="19.529281">
      <ele>1682</ele>
      <time>2026-05-07T11:48:28Z</time>
    </trkpt>
    <trkpt lat="49.573833" lon="19.529303">
      <ele>1683</ele>
      <time>2026-05-07T11:48:33Z</time>
    </trkpt>
    <trkpt lat="49.573818" lon="19.529389">
      <ele>1684</ele>
      <time>2026-05-07T11:48:51Z</time>
    </trkpt>
    <trkpt lat="49.573803" lon="19.529405">
      <ele>1685</ele>
      <time>2026-05-07T11:48:57Z</time>
    </trkpt>
    <trkpt lat="49.573779" lon="19.529408">
      <ele>1687</ele>
      <time>2026-05-07T11:49:05Z</time>
    </trkpt>
    <trkpt lat="49.573747" lon="19.529433">
      <ele>1689</ele>
      <time>2026-05-07T11:49:16Z</time>
    </trkpt>
    <trkpt lat="49.573733" lon="19.529471">
      <ele>1690</ele>
      <time>2026-05-07T11:49:25Z</time>
    </trkpt>
    <trkpt lat="49.573723" lon="19.529545">
      <ele>1692</ele>
      <time>2026-05-07T11:49:41Z</time>
    </trkpt>
    <trkpt lat="49.573708" lon="19.529558">
      <ele>1693</ele>
      <time>2026-05-07T11:49:46Z</time>
    </trkpt>
    <trkpt lat="49.573672" lon="19.529561">
      <ele>1695</ele>
      <time>2026-05-07T11:49:58Z</time>
    </trkpt>
    <trkpt lat="49.573641" lon="19.529613">
      <ele>1698</ele>
      <time>2026-05-07T11:50:13Z</time>
    </trkpt>
    <trkpt lat="49.573594" lon="19.52966">
      <ele>1701</ele>
      <time>2026-05-07T11:50:32Z</time>
    </trkpt>
    <trkpt lat="49.573562" lon="19.529707">
      <ele>1702</ele>
      <time>2026-05-07T11:50:45Z</time>
    </trkpt>
    <trkpt lat="49.573521" lon="19.529718">
      <ele>1704</ele>
      <time>2026-05-07T11:50:58Z</time>
    </trkpt>
    <trkpt lat="49.573509" lon="19.529762">
      <ele>1705</ele>
      <time>2026-05-07T11:51:08Z</time>
    </trkpt>
    <trkpt lat="49.573483" lon="19.529793">
      <ele>1707</ele>
      <time>2026-05-07T11:51:18Z</time>
    </trkpt>
    <trkpt lat="49.573446" lon="19.52983">
      <ele>1709</ele>
      <time>2026-05-07T11:51:33Z</time>
    </trkpt>
    <trkpt lat="49.573425" lon="19.529849">
      <ele>1711</ele>
      <time>2026-05-07T11:51:41Z</time>
    </trkpt>
    <trkpt lat="49.573361" lon="19.529888">
      <ele>1715</ele>
      <time>2026-05-07T11:52:04Z</time>
    </trkpt>
    <trkpt lat="49.573287" lon="19.529952">
      <ele>1719</ele>
      <time>2026-05-07T11:52:31Z</time>
    </trkpt>
    <trkpt lat="49.573245" lon="19.52994">
      <ele>1721</ele>
      <time>2026-05-07T11:52:44Z</time>
    </trkpt>
    <trkpt lat="49.573168" lon="19.529943">
      <ele>1723</ele>
      <time>2026-05-07T11:53:08Z</time>
    </trkpt>
    <trkpt lat="49.57315" lon="19.529657">
      <ele>1722</ele>
      <time>2026-05-07T11:54:08Z</time>
    </trkpt>
    <trkpt lat="49.573168" lon="19.529943">
      <ele>1723</ele>
      <time>2026-05-07T11:55:08Z</time>
    </trkpt>
    <trkpt lat="49.573184" lon="19.53001">
      <ele>1722</ele>
      <time>2026-05-07T11:55:13Z</time>
    </trkpt>
    <trkpt lat="49.573217" lon="19.530119">
      <ele>1720</ele>
      <time>2026-05-07T11:55:21Z</time>
    </trkpt>
    <trkpt lat="49.573332" lon="19.530242">
      <ele>1717</ele>
      <time>2026-05-07T11:55:36Z</time>
    </trkpt>
    <trkpt lat="49.573359" lon="19.530329">
      <ele>1715</ele>
      <time>2026-05-07T11:55:42Z</time>
    </trkpt>
    <trkpt lat="49.573371" lon="19.530383">
      <ele>1713</ele>
      <time>2026-05-07T11:55:46Z</time>
    </trkpt>
    <trkpt lat="49.573359" lon="19.530411">
      <ele>1714</ele>
      <time>2026-05-07T11:55:49Z</time>
    </trkpt>
    <trkpt lat="49.573358" lon="19.530435">
      <ele>1714</ele>
      <time>2026-05-07T11:55:50Z</time>
    </trkpt>
    <trkpt lat="49.573369" lon="19.530453">
      <ele>1714</ele>
      <time>2026-05-07T11:55:52Z</time>
    </trkpt>
    <trkpt lat="49.573379" lon="19.530461">
      <ele>1713</ele>
      <time>2026-05-07T11:55:53Z</time>
    </trkpt>
    <trkpt lat="49.573432" lon="19.530552">
      <ele>1713</ele>
      <time>2026-05-07T11:56:01Z</time>
    </trkpt>
    <trkpt lat="49.57345" lon="19.530582">
      <ele>1713</ele>
      <time>2026-05-07T11:56:04Z</time>
    </trkpt>
    <trkpt lat="49.573458" lon="19.530602">
      <ele>1713</ele>
      <time>2026-05-07T11:56:05Z</time>
    </trkpt>
    <trkpt lat="49.573461" lon="19.530629">
      <ele>1713</ele>
      <time>2026-05-07T11:56:07Z</time>
    </trkpt>
    <trkpt lat="49.573463" lon="19.530661">
      <ele>1713</ele>
      <time>2026-05-07T11:56:09Z</time>
    </trkpt>
    <trkpt lat="49.573492" lon="19.530728">
      <ele>1713</ele>
      <time>2026-05-07T11:56:15Z</time>
    </trkpt>
    <trkpt lat="49.573544" lon="19.530841">
      <ele>1714</ele>
      <time>2026-05-07T11:56:24Z</time>
    </trkpt>
    <trkpt lat="49.573551" lon="19.530908">
      <ele>1714</ele>
      <time>2026-05-07T11:56:29Z</time>
    </trkpt>
    <trkpt lat="49.573551" lon="19.530947">
      <ele>1714</ele>
      <time>2026-05-07T11:56:31Z</time>
    </trkpt>
    <trkpt lat="49.57353" lon="19.531031">
      <ele>1715</ele>
      <time>2026-05-07T11:56:37Z</time>
    </trkpt>
    <trkpt lat="49.573524" lon="19.531154">
      <ele>1715</ele>
      <time>2026-05-07T11:56:45Z</time>
    </trkpt>
    <trkpt lat="49.573576" lon="19.531387">
      <ele>1716</ele>
      <time>2026-05-07T11:57:02Z</time>
    </trkpt>
    <trkpt lat="49.573614" lon="19.531546">
      <ele>1715</ele>
      <time>2026-05-07T11:57:13Z</time>
    </trkpt>
    <trkpt lat="49.573694" lon="19.531931">
      <ele>1713</ele>
      <time>2026-05-07T11:57:40Z</time>
    </trkpt>
    <trkpt lat="49.573785" lon="19.532461">
      <ele>1707</ele>
      <time>2026-05-07T11:58:17Z</time>
    </trkpt>
    <trkpt lat="49.573942" lon="19.533538">
      <ele>1705</ele>
      <time>2026-05-07T11:59:30Z</time>
    </trkpt>
    <trkpt lat="49.573958" lon="19.533945">
      <ele>1700</ele>
      <time>2026-05-07T11:59:58Z</time>
    </trkpt>
    <trkpt lat="49.573948" lon="19.534249">
      <ele>1696</ele>
      <time>2026-05-07T12:00:19Z</time>
    </trkpt>
    <trkpt lat="49.57397" lon="19.534475">
      <ele>1693</ele>
      <time>2026-05-07T12:00:34Z</time>
    </trkpt>
    <trkpt lat="49.574017" lon="19.534807">
      <ele>1689</ele>
      <time>2026-05-07T12:00:57Z</time>
    </trkpt>
    <trkpt lat="49.574055" lon="19.535231">
      <ele>1685</ele>
      <time>2026-05-07T12:01:26Z</time>
    </trkpt>
    <trkpt lat="49.574118" lon="19.535505">
      <ele>1681</ele>
      <time>2026-05-07T12:01:46Z</time>
    </trkpt>
    <trkpt lat="49.57409" lon="19.535746">
      <ele>1678</ele>
      <time>2026-05-07T12:02:02Z</time>
    </trkpt>
    <trkpt lat="49.574101" lon="19.535848">
      <ele>1677</ele>
      <time>2026-05-07T12:02:09Z</time>
    </trkpt>
    <trkpt lat="49.574097" lon="19.536014">
      <ele>1674</ele>
      <time>2026-05-07T12:02:20Z</time>
    </trkpt>
    <trkpt lat="49.574156" lon="19.536218">
      <ele>1672</ele>
      <time>2026-05-07T12:02:35Z</time>
    </trkpt>
    <trkpt lat="49.574306" lon="19.536518">
      <ele>1667</ele>
      <time>2026-05-07T12:03:01Z</time>
    </trkpt>
    <trkpt lat="49.574386" lon="19.536824">
      <ele>1665</ele>
      <time>2026-05-07T12:03:23Z</time>
    </trkpt>
    <trkpt lat="49.574421" lon="19.537167">
      <ele>1665</ele>
      <time>2026-05-07T12:03:46Z</time>
    </trkpt>
    <trkpt lat="49.574522" lon="19.537457">
      <ele>1663</ele>
      <time>2026-05-07T12:04:08Z</time>
    </trkpt>
    <trkpt lat="49.574602" lon="19.537902">
      <ele>1662</ele>
      <time>2026-05-07T12:04:39Z</time>
    </trkpt>
    <trkpt lat="49.574668" lon="19.538095">
      <ele>1662</ele>
      <time>2026-05-07T12:04:53Z</time>
    </trkpt>
    <trkpt lat="49.574747" lon="19.538276">
      <ele>1660</ele>
      <time>2026-05-07T12:05:08Z</time>
    </trkpt>
    <trkpt lat="49.574773" lon="19.538334">
      <ele>1659</ele>
      <time>2026-05-07T12:05:13Z</time>
    </trkpt>
    <trkpt lat="49.574758" lon="19.538444">
      <ele>1659</ele>
      <time>2026-05-07T12:05:20Z</time>
    </trkpt>
    <trkpt lat="49.574751" lon="19.538626">
      <ele>1658</ele>
      <time>2026-05-07T12:05:32Z</time>
    </trkpt>
    <trkpt lat="49.574658" lon="19.538941">
      <ele>1653</ele>
      <time>2026-05-07T12:05:56Z</time>
    </trkpt>
    <trkpt lat="49.574752" lon="19.539183">
      <ele>1652</ele>
      <time>2026-05-07T12:06:15Z</time>
    </trkpt>
    <trkpt lat="49.574897" lon="19.539378">
      <ele>1650</ele>
      <time>2026-05-07T12:06:35Z</time>
    </trkpt>
    <trkpt lat="49.575005" lon="19.539785">
      <ele>1647</ele>
      <time>2026-05-07T12:07:04Z</time>
    </trkpt>
    <trkpt lat="49.575068" lon="19.540284">
      <ele>1644</ele>
      <time>2026-05-07T12:07:38Z</time>
    </trkpt>
    <trkpt lat="49.575189" lon="19.540617">
      <ele>1639</ele>
      <time>2026-05-07T12:08:04Z</time>
    </trkpt>
    <trkpt lat="49.575368" lon="19.541231">
      <ele>1634</ele>
      <time>2026-05-07T12:08:49Z</time>
    </trkpt>
    <trkpt lat="49.575509" lon="19.541995">
      <ele>1627</ele>
      <time>2026-05-07T12:09:42Z</time>
    </trkpt>
    <trkpt lat="49.575576" lon="19.542478">
      <ele>1626</ele>
      <time>2026-05-07T12:10:15Z</time>
    </trkpt>
    <trkpt lat="49.575605" lon="19.542867">
      <ele>1622</ele>
      <time>2026-05-07T12:10:41Z</time>
    </trkpt>
    <trkpt lat="49.575732" lon="19.543245">
      <ele>1617</ele>
      <time>2026-05-07T12:11:10Z</time>
    </trkpt>
    <trkpt lat="49.575941" lon="19.543535">
      <ele>1613</ele>
      <time>2026-05-07T12:11:39Z</time>
    </trkpt>
    <trkpt lat="49.576045" lon="19.543675">
      <ele>1612</ele>
      <time>2026-05-07T12:11:53Z</time>
    </trkpt>
    <trkpt lat="49.576101" lon="19.543809">
      <ele>1611</ele>
      <time>2026-05-07T12:12:04Z</time>
    </trkpt>
    <trkpt lat="49.576104" lon="19.544045">
      <ele>1610</ele>
      <time>2026-05-07T12:12:19Z</time>
    </trkpt>
    <trkpt lat="49.576135" lon="19.544257">
      <ele>1609</ele>
      <time>2026-05-07T12:12:34Z</time>
    </trkpt>
    <trkpt lat="49.576179" lon="19.544557">
      <ele>1607</ele>
      <time>2026-05-07T12:12:54Z</time>
    </trkpt>
    <trkpt lat="49.576289" lon="19.545268">
      <ele>1599</ele>
      <time>2026-05-07T12:13:44Z</time>
    </trkpt>
    <trkpt lat="49.5763" lon="19.545681">
      <ele>1590</ele>
      <time>2026-05-07T12:14:12Z</time>
    </trkpt>
    <trkpt lat="49.576238" lon="19.545925">
      <ele>1585</ele>
      <time>2026-05-07T12:14:30Z</time>
    </trkpt>
    <trkpt lat="49.576205" lon="19.546153">
      <ele>1582</ele>
      <time>2026-05-07T12:14:46Z</time>
    </trkpt>
    <trkpt lat="49.576279" lon="19.546504">
      <ele>1576</ele>
      <time>2026-05-07T12:15:11Z</time>
    </trkpt>
    <trkpt lat="49.576247" lon="19.54692">
      <ele>1571</ele>
      <time>2026-05-07T12:15:40Z</time>
    </trkpt>
    <trkpt lat="49.576293" lon="19.54717">
      <ele>1569</ele>
      <time>2026-05-07T12:15:57Z</time>
    </trkpt>
    <trkpt lat="49.576398" lon="19.547695">
      <ele>1565</ele>
      <time>2026-05-07T12:16:34Z</time>
    </trkpt>
    <trkpt lat="49.576581" lon="19.548363">
      <ele>1566</ele>
      <time>2026-05-07T12:17:22Z</time>
    </trkpt>
    <trkpt lat="49.576627" lon="19.548602">
      <ele>1565</ele>
      <time>2026-05-07T12:17:39Z</time>
    </trkpt>
    <trkpt lat="49.576655" lon="19.548865">
      <ele>1566</ele>
      <time>2026-05-07T12:17:56Z</time>
    </trkpt>
    <trkpt lat="49.576737" lon="19.548985">
      <ele>1565</ele>
      <time>2026-05-07T12:18:08Z</time>
    </trkpt>
    <trkpt lat="49.576853" lon="19.549117">
      <ele>1563</ele>
      <time>2026-05-07T12:18:23Z</time>
    </trkpt>
    <trkpt lat="49.576869" lon="19.549323">
      <ele>1563</ele>
      <time>2026-05-07T12:18:37Z</time>
    </trkpt>
    <trkpt lat="49.576912" lon="19.549584">
      <ele>1562</ele>
      <time>2026-05-07T12:18:55Z</time>
    </trkpt>
    <trkpt lat="49.576981" lon="19.550015">
      <ele>1562</ele>
      <time>2026-05-07T12:19:24Z</time>
    </trkpt>
    <trkpt lat="49.57711" lon="19.550385">
      <ele>1560</ele>
      <time>2026-05-07T12:19:52Z</time>
    </trkpt>
    <trkpt lat="49.577263" lon="19.550552">
      <ele>1558</ele>
      <time>2026-05-07T12:20:11Z</time>
    </trkpt>
    <trkpt lat="49.577351" lon="19.550668">
      <ele>1555</ele>
      <time>2026-05-07T12:20:24Z</time>
    </trkpt>
    <trkpt lat="49.577362" lon="19.55075">
      <ele>1554</ele>
      <time>2026-05-07T12:20:29Z</time>
    </trkpt>
    <trkpt lat="49.577326" lon="19.550927">
      <ele>1553</ele>
      <time>2026-05-07T12:20:42Z</time>
    </trkpt>
    <trkpt lat="49.577388" lon="19.55107">
      <ele>1551</ele>
      <time>2026-05-07T12:20:53Z</time>
    </trkpt>
    <trkpt lat="49.577421" lon="19.551127">
      <ele>1550</ele>
      <time>2026-05-07T12:20:58Z</time>
    </trkpt>
    <trkpt lat="49.577416" lon="19.551179">
      <ele>1550</ele>
      <time>2026-05-07T12:21:02Z</time>
    </trkpt>
    <trkpt lat="49.577427" lon="19.551332">
      <ele>1549</ele>
      <time>2026-05-07T12:21:12Z</time>
    </trkpt>
    <trkpt lat="49.57745" lon="19.551446">
      <ele>1548</ele>
      <time>2026-05-07T12:21:20Z</time>
    </trkpt>
    <trkpt lat="49.577448" lon="19.551577">
      <ele>1547</ele>
      <time>2026-05-07T12:21:29Z</time>
    </trkpt>
    <trkpt lat="49.577476" lon="19.551685">
      <ele>1546</ele>
      <time>2026-05-07T12:21:37Z</time>
    </trkpt>
    <trkpt lat="49.577466" lon="19.551762">
      <ele>1546</ele>
      <time>2026-05-07T12:21:42Z</time>
    </trkpt>
    <trkpt lat="49.577532" lon="19.552217">
      <ele>1541</ele>
      <time>2026-05-07T12:22:13Z</time>
    </trkpt>
    <trkpt lat="49.577607" lon="19.552392">
      <ele>1538</ele>
      <time>2026-05-07T12:22:28Z</time>
    </trkpt>
    <trkpt lat="49.577725" lon="19.552451">
      <ele>1536</ele>
      <time>2026-05-07T12:22:40Z</time>
    </trkpt>
    <trkpt lat="49.57783" lon="19.552595">
      <ele>1534</ele>
      <time>2026-05-07T12:22:55Z</time>
    </trkpt>
    <trkpt lat="49.577868" lon="19.552778">
      <ele>1532</ele>
      <time>2026-05-07T12:23:08Z</time>
    </trkpt>
    <trkpt lat="49.577979" lon="19.552976">
      <ele>1530</ele>
      <time>2026-05-07T12:23:25Z</time>
    </trkpt>
    <trkpt lat="49.578163" lon="19.553293">
      <ele>1527</ele>
      <time>2026-05-07T12:23:54Z</time>
    </trkpt>
    <trkpt lat="49.57831" lon="19.553507">
      <ele>1527</ele>
      <time>2026-05-07T12:24:15Z</time>
    </trkpt>
    <trkpt lat="49.57837" lon="19.553805">
      <ele>1526</ele>
      <time>2026-05-07T12:24:35Z</time>
    </trkpt>
    <trkpt lat="49.578579" lon="19.554106">
      <ele>1521</ele>
      <time>2026-05-07T12:25:05Z</time>
    </trkpt>
    <trkpt lat="49.578595" lon="19.55428">
      <ele>1520</ele>
      <time>2026-05-07T12:25:17Z</time>
    </trkpt>
    <trkpt lat="49.57856" lon="19.554532">
      <ele>1521</ele>
      <time>2026-05-07T12:25:34Z</time>
    </trkpt>
    <trkpt lat="49.578582" lon="19.554712">
      <ele>1521</ele>
      <time>2026-05-07T12:25:46Z</time>
    </trkpt>
    <trkpt lat="49.578668" lon="19.554848">
      <ele>1520</ele>
      <time>2026-05-07T12:25:59Z</time>
    </trkpt>
    <trkpt lat="49.578713" lon="19.554999">
      <ele>1520</ele>
      <time>2026-05-07T12:26:10Z</time>
    </trkpt>
    <trkpt lat="49.578741" lon="19.555165">
      <ele>1519</ele>
      <time>2026-05-07T12:26:21Z</time>
    </trkpt>
    <trkpt lat="49.578835" lon="19.555283">
      <ele>1518</ele>
      <time>2026-05-07T12:26:34Z</time>
    </trkpt>
    <trkpt lat="49.578874" lon="19.555474">
      <ele>1518</ele>
      <time>2026-05-07T12:26:47Z</time>
    </trkpt>
    <trkpt lat="49.578888" lon="19.555629">
      <ele>1518</ele>
      <time>2026-05-07T12:26:58Z</time>
    </trkpt>
    <trkpt lat="49.579005" lon="19.555841">
      <ele>1518</ele>
      <time>2026-05-07T12:27:16Z</time>
    </trkpt>
    <trkpt lat="49.579068" lon="19.556077">
      <ele>1517</ele>
      <time>2026-05-07T12:27:33Z</time>
    </trkpt>
    <trkpt lat="49.579297" lon="19.556249">
      <ele>1516</ele>
      <time>2026-05-07T12:27:59Z</time>
    </trkpt>
    <trkpt lat="49.579409" lon="19.556463">
      <ele>1516</ele>
      <time>2026-05-07T12:28:18Z</time>
    </trkpt>
    <trkpt lat="49.579514" lon="19.556541">
      <ele>1514</ele>
      <time>2026-05-07T12:28:30Z</time>
    </trkpt>
    <trkpt lat="49.579638" lon="19.556629">
      <ele>1512</ele>
      <time>2026-05-07T12:28:44Z</time>
    </trkpt>
    <trkpt lat="49.579694" lon="19.556769">
      <ele>1511</ele>
      <time>2026-05-07T12:28:55Z</time>
    </trkpt>
    <trkpt lat="49.579685" lon="19.556901">
      <ele>1510</ele>
      <time>2026-05-07T12:29:04Z</time>
    </trkpt>
    <trkpt lat="49.579692" lon="19.556997">
      <ele>1509</ele>
      <time>2026-05-07T12:29:10Z</time>
    </trkpt>
    <trkpt lat="49.579666" lon="19.557144">
      <ele>1508</ele>
      <time>2026-05-07T12:29:20Z</time>
    </trkpt>
    <trkpt lat="49.579644" lon="19.557239">
      <ele>1507</ele>
      <time>2026-05-07T12:29:27Z</time>
    </trkpt>
    <trkpt lat="49.579605" lon="19.557292">
      <ele>1508</ele>
      <time>2026-05-07T12:29:32Z</time>
    </trkpt>
    <trkpt lat="49.579584" lon="19.557327">
      <ele>1508</ele>
      <time>2026-05-07T12:29:36Z</time>
    </trkpt>
    <trkpt lat="49.579555" lon="19.55735">
      <ele>1508</ele>
      <time>2026-05-07T12:29:39Z</time>
    </trkpt>
    <trkpt lat="49.579527" lon="19.557533">
      <ele>1507</ele>
      <time>2026-05-07T12:29:51Z</time>
    </trkpt>
    <trkpt lat="49.579516" lon="19.557664">
      <ele>1506</ele>
      <time>2026-05-07T12:30:00Z</time>
    </trkpt>
    <trkpt lat="49.579534" lon="19.55775">
      <ele>1505</ele>
      <time>2026-05-07T12:30:06Z</time>
    </trkpt>
    <trkpt lat="49.579575" lon="19.558143">
      <ele>1499</ele>
      <time>2026-05-07T12:30:33Z</time>
    </trkpt>
    <trkpt lat="49.579612" lon="19.55841">
      <ele>1494</ele>
      <time>2026-05-07T12:30:52Z</time>
    </trkpt>
    <trkpt lat="49.579617" lon="19.558501">
      <ele>1493</ele>
      <time>2026-05-07T12:30:58Z</time>
    </trkpt>
    <trkpt lat="49.579641" lon="19.558608">
      <ele>1490</ele>
      <time>2026-05-07T12:31:06Z</time>
    </trkpt>
    <trkpt lat="49.579637" lon="19.558697">
      <ele>1490</ele>
      <time>2026-05-07T12:31:12Z</time>
    </trkpt>
    <trkpt lat="49.579667" lon="19.558881">
      <ele>1487</ele>
      <time>2026-05-07T12:31:25Z</time>
    </trkpt>
    <trkpt lat="49.579682" lon="19.559">
      <ele>1485</ele>
      <time>2026-05-07T12:31:33Z</time>
    </trkpt>
    <trkpt lat="49.57968" lon="19.559047">
      <ele>1484</ele>
      <time>2026-05-07T12:31:36Z</time>
    </trkpt>
    <trkpt lat="49.57971" lon="19.559165">
      <ele>1482</ele>
      <time>2026-05-07T12:31:45Z</time>
    </trkpt>
    <trkpt lat="49.579715" lon="19.559296">
      <ele>1481</ele>
      <time>2026-05-07T12:31:54Z</time>
    </trkpt>
    <trkpt lat="49.57976" lon="19.559367">
      <ele>1480</ele>
      <time>2026-05-07T12:32:01Z</time>
    </trkpt>
    <trkpt lat="49.579786" lon="19.559367">
      <ele>1479</ele>
      <time>2026-05-07T12:32:03Z</time>
    </trkpt>
    <trkpt lat="49.580191" lon="19.560138">
      <ele>1462</ele>
      <time>2026-05-07T12:33:11Z</time>
    </trkpt>
    <trkpt lat="49.580444" lon="19.560323">
      <ele>1454</ele>
      <time>2026-05-07T12:33:41Z</time>
    </trkpt>
    <trkpt lat="49.580557" lon="19.560454">
      <ele>1452</ele>
      <time>2026-05-07T12:33:56Z</time>
    </trkpt>
    <trkpt lat="49.580705" lon="19.560573">
      <ele>1449</ele>
      <time>2026-05-07T12:34:13Z</time>
    </trkpt>
    <trkpt lat="49.580758" lon="19.560647">
      <ele>1448</ele>
      <time>2026-05-07T12:34:20Z</time>
    </trkpt>
    <trkpt lat="49.58185" lon="19.561302">
      <ele>1417</ele>
      <time>2026-05-07T12:36:24Z</time>
    </trkpt>
    <trkpt lat="49.582031" lon="19.561393">
      <ele>1412</ele>
      <time>2026-05-07T12:36:44Z</time>
    </trkpt>
    <trkpt lat="49.582177" lon="19.561442">
      <ele>1408</ele>
      <time>2026-05-07T12:37:00Z</time>
    </trkpt>
    <trkpt lat="49.582341" lon="19.561565">
      <ele>1403</ele>
      <time>2026-05-07T12:37:19Z</time>
    </trkpt>
    <trkpt lat="49.582609" lon="19.56193">
      <ele>1391</ele>
      <time>2026-05-07T12:37:57Z</time>
    </trkpt>
    <trkpt lat="49.582783" lon="19.562069">
      <ele>1387</ele>
      <time>2026-05-07T12:38:18Z</time>
    </trkpt>
    <trkpt lat="49.582953" lon="19.562262">
      <ele>1384</ele>
      <time>2026-05-07T12:38:40Z</time>
    </trkpt>
    <trkpt lat="49.583217" lon="19.562498">
      <ele>1378</ele>
      <time>2026-05-07T12:39:11Z</time>
    </trkpt>
    <trkpt lat="49.583381" lon="19.562772">
      <ele>1374</ele>
      <time>2026-05-07T12:39:36Z</time>
    </trkpt>
    <trkpt lat="49.58352" lon="19.562916">
      <ele>1372</ele>
      <time>2026-05-07T12:39:54Z</time>
    </trkpt>
    <trkpt lat="49.583635" lon="19.563035">
      <ele>1371</ele>
      <time>2026-05-07T12:40:08Z</time>
    </trkpt>
    <trkpt lat="49.583662" lon="19.563057">
      <ele>1370</ele>
      <time>2026-05-07T12:40:12Z</time>
    </trkpt>
    <trkpt lat="49.583852" lon="19.563066">
      <ele>1367</ele>
      <time>2026-05-07T12:40:38Z</time>
    </trkpt>
    <trkpt lat="49.584149" lon="19.563192">
      <ele>1362</ele>
      <time>2026-05-07T12:41:19Z</time>
    </trkpt>
    <trkpt lat="49.584213" lon="19.563214">
      <ele>1363</ele>
      <time>2026-05-07T12:41:28Z</time>
    </trkpt>
    <trkpt lat="49.584296" lon="19.563276">
      <ele>1365</ele>
      <time>2026-05-07T12:41:40Z</time>
    </trkpt>
    <trkpt lat="49.584502" lon="19.5633">
      <ele>1367</ele>
      <time>2026-05-07T12:42:08Z</time>
    </trkpt>
    <trkpt lat="49.584598" lon="19.563356">
      <ele>1362</ele>
      <time>2026-05-07T12:42:20Z</time>
    </trkpt>
    <trkpt lat="49.584671" lon="19.563488">
      <ele>1359</ele>
      <time>2026-05-07T12:42:32Z</time>
    </trkpt>
    <trkpt lat="49.584824" lon="19.563971">
      <ele>1356</ele>
      <time>2026-05-07T12:43:09Z</time>
    </trkpt>
    <trkpt lat="49.584911" lon="19.564354">
      <ele>1355</ele>
      <time>2026-05-07T12:43:37Z</time>
    </trkpt>
    <trkpt lat="49.584791" lon="19.565079">
      <ele>1350</ele>
      <time>2026-05-07T12:44:29Z</time>
    </trkpt>
    <trkpt lat="49.584775" lon="19.565466">
      <ele>1343</ele>
      <time>2026-05-07T12:44:57Z</time>
    </trkpt>
    <trkpt lat="49.584796" lon="19.565612">
      <ele>1339</ele>
      <time>2026-05-07T12:45:07Z</time>
    </trkpt>
    <trkpt lat="49.584862" lon="19.565788">
      <ele>1334</ele>
      <time>2026-05-07T12:45:23Z</time>
    </trkpt>
    <trkpt lat="49.585016" lon="19.56602">
      <ele>1324</ele>
      <time>2026-05-07T12:45:47Z</time>
    </trkpt>
    <trkpt lat="49.585395" lon="19.56668">
      <ele>1305</ele>
      <time>2026-05-07T12:46:50Z</time>
    </trkpt>
    <trkpt lat="49.58556" lon="19.566894">
      <ele>1299</ele>
      <time>2026-05-07T12:47:14Z</time>
    </trkpt>
    <trkpt lat="49.585816" lon="19.56712">
      <ele>1292</ele>
      <time>2026-05-07T12:47:46Z</time>
    </trkpt>
    <trkpt lat="49.585968" lon="19.567257">
      <ele>1288</ele>
      <time>2026-05-07T12:48:05Z</time>
    </trkpt>
    <trkpt lat="49.586154" lon="19.567307">
      <ele>1282</ele>
      <time>2026-05-07T12:48:26Z</time>
    </trkpt>
    <trkpt lat="49.586264" lon="19.567419">
      <ele>1279</ele>
      <time>2026-05-07T12:48:40Z</time>
    </trkpt>
    <trkpt lat="49.586371" lon="19.567587">
      <ele>1277</ele>
      <time>2026-05-07T12:48:57Z</time>
    </trkpt>
    <trkpt lat="49.586437" lon="19.567763">
      <ele>1274</ele>
      <time>2026-05-07T12:49:11Z</time>
    </trkpt>
    <trkpt lat="49.586498" lon="19.567988">
      <ele>1269</ele>
      <time>2026-05-07T12:49:28Z</time>
    </trkpt>
    <trkpt lat="49.58669" lon="19.569035">
      <ele>1248</ele>
      <time>2026-05-07T12:50:46Z</time>
    </trkpt>
    <trkpt lat="49.586825" lon="19.569589">
      <ele>1240</ele>
      <time>2026-05-07T12:51:27Z</time>
    </trkpt>
    <trkpt lat="49.586844" lon="19.569667">
      <ele>1239</ele>
      <time>2026-05-07T12:51:33Z</time>
    </trkpt>
    <trkpt lat="49.586879" lon="19.569775">
      <ele>1237</ele>
      <time>2026-05-07T12:51:42Z</time>
    </trkpt>
    <trkpt lat="49.587253" lon="19.57026">
      <ele>1222</ele>
      <time>2026-05-07T12:52:36Z</time>
    </trkpt>
    <trkpt lat="49.5873" lon="19.570521">
      <ele>1217</ele>
      <time>2026-05-07T12:52:55Z</time>
    </trkpt>
    <trkpt lat="49.587544" lon="19.57098">
      <ele>1205</ele>
      <time>2026-05-07T12:53:37Z</time>
    </trkpt>
    <trkpt lat="49.587672" lon="19.571512">
      <ele>1197</ele>
      <time>2026-05-07T12:54:17Z</time>
    </trkpt>
    <trkpt lat="49.587787" lon="19.572191">
      <ele>1183</ele>
      <time>2026-05-07T12:55:07Z</time>
    </trkpt>
    <trkpt lat="49.587848" lon="19.572639">
      <ele>1172</ele>
      <time>2026-05-07T12:55:40Z</time>
    </trkpt>
    <trkpt lat="49.587956" lon="19.573286">
      <ele>1154</ele>
      <time>2026-05-07T12:56:29Z</time>
    </trkpt>
    <trkpt lat="49.587835" lon="19.573631">
      <ele>1151</ele>
      <time>2026-05-07T12:56:57Z</time>
    </trkpt>
    <trkpt lat="49.587687" lon="19.573992">
      <ele>1147</ele>
      <time>2026-05-07T12:57:26Z</time>
    </trkpt>
    <trkpt lat="49.587307" lon="19.57529">
      <ele>1125</ele>
      <time>2026-05-07T12:59:06Z</time>
    </trkpt>
    <trkpt lat="49.587253" lon="19.575689">
      <ele>1119</ele>
      <time>2026-05-07T12:59:35Z</time>
    </trkpt>
    <trkpt lat="49.587314" lon="19.576083">
      <ele>1112</ele>
      <time>2026-05-07T13:00:04Z</time>
    </trkpt>
    <trkpt lat="49.58725" lon="19.57736">
      <ele>1094</ele>
      <time>2026-05-07T13:01:33Z</time>
    </trkpt>
    <trkpt lat="49.587297" lon="19.578169">
      <ele>1075</ele>
      <time>2026-05-07T13:02:32Z</time>
    </trkpt>
    <trkpt lat="49.587256" lon="19.578556">
      <ele>1071</ele>
      <time>2026-05-07T13:02:59Z</time>
    </trkpt>
    <trkpt lat="49.587122" lon="19.579316">
      <ele>1061</ele>
      <time>2026-05-07T13:03:55Z</time>
    </trkpt>
    <trkpt lat="49.587189" lon="19.579694">
      <ele>1052</ele>
      <time>2026-05-07T13:04:23Z</time>
    </trkpt>
    <trkpt lat="49.587407" lon="19.580661">
      <ele>1036</ele>
      <time>2026-05-07T13:05:35Z</time>
    </trkpt>
    <trkpt lat="49.58743" lon="19.580741">
      <ele>1035</ele>
      <time>2026-05-07T13:05:41Z</time>
    </trkpt>
    <trkpt lat="49.587527" lon="19.581044">
      <ele>1029</ele>
      <time>2026-05-07T13:06:05Z</time>
    </trkpt>
    <trkpt lat="49.587759" lon="19.581707">
      <ele>1015</ele>
      <time>2026-05-07T13:06:59Z</time>
    </trkpt>
    <trkpt lat="49.587811" lon="19.581809">
      <ele>1012</ele>
      <time>2026-05-07T13:07:08Z</time>
    </trkpt>
  </trkseg>
</trk>
</gpx>