<?xml version="1.0" encoding="UTF-8"?><gpx creator="https://mapa-turystyczna.pl" xmlns="http://www.topografix.com/GPX/1/1" version="1.1" xmlns:xsi="http://www.w3.org/2001/XMLSchema-instance" xsi:schemaLocation="http://www.topografix.com/GPX/1/1 http://www.topografix.com/GPX/1/1/gpx.xsd">
  <metadata>
    <link href="https://mapa-turystyczna.pl">
      <text>mapa-turystyczna.pl</text>
    </link>
    <time>2026-05-07T08:43:25Z</time>
    <bounds maxlat="49.45913" maxlon="21.123966" minlat="49.424002" minlon="21.102555"/>
  </metadata>

<trk>
  <name>Ropki – Ropki</name>
  <link href="https://mapa-turystyczna.pl/route/6zuo">
    <text>Ropki – Ropki</text>
  </link>
  <trkseg>
    <trkpt lat="49.45913" lon="21.122093">
      <ele>553</ele>
      <time>2026-05-07T08:43:25Z</time>
    </trkpt>
    <trkpt lat="49.458972" lon="21.121542">
      <ele>555</ele>
      <time>2026-05-07T08:44:18Z</time>
    </trkpt>
    <trkpt lat="49.458899" lon="21.120999">
      <ele>554</ele>
      <time>2026-05-07T08:45:06Z</time>
    </trkpt>
    <trkpt lat="49.458843" lon="21.120827">
      <ele>556</ele>
      <time>2026-05-07T08:45:23Z</time>
    </trkpt>
    <trkpt lat="49.458782" lon="21.120703">
      <ele>559</ele>
      <time>2026-05-07T08:45:37Z</time>
    </trkpt>
    <trkpt lat="49.458624" lon="21.120426">
      <ele>560</ele>
      <time>2026-05-07T08:46:09Z</time>
    </trkpt>
    <trkpt lat="49.458576" lon="21.120277">
      <ele>561</ele>
      <time>2026-05-07T08:46:24Z</time>
    </trkpt>
    <trkpt lat="49.458501" lon="21.119786">
      <ele>562</ele>
      <time>2026-05-07T08:47:08Z</time>
    </trkpt>
    <trkpt lat="49.458437" lon="21.119133">
      <ele>562</ele>
      <time>2026-05-07T08:48:05Z</time>
    </trkpt>
    <trkpt lat="49.458359" lon="21.11825">
      <ele>561</ele>
      <time>2026-05-07T08:49:23Z</time>
    </trkpt>
    <trkpt lat="49.458344" lon="21.118086">
      <ele>561</ele>
      <time>2026-05-07T08:49:37Z</time>
    </trkpt>
    <trkpt lat="49.458339" lon="21.11782">
      <ele>563</ele>
      <time>2026-05-07T08:50:01Z</time>
    </trkpt>
    <trkpt lat="49.458359" lon="21.117525">
      <ele>564</ele>
      <time>2026-05-07T08:50:26Z</time>
    </trkpt>
    <trkpt lat="49.458378" lon="21.11723">
      <ele>565</ele>
      <time>2026-05-07T08:50:52Z</time>
    </trkpt>
    <trkpt lat="49.458404" lon="21.116761">
      <ele>566</ele>
      <time>2026-05-07T08:51:33Z</time>
    </trkpt>
    <trkpt lat="49.458384" lon="21.116495">
      <ele>567</ele>
      <time>2026-05-07T08:51:57Z</time>
    </trkpt>
    <trkpt lat="49.458341" lon="21.116323">
      <ele>567</ele>
      <time>2026-05-07T08:52:13Z</time>
    </trkpt>
    <trkpt lat="49.458285" lon="21.116181">
      <ele>567</ele>
      <time>2026-05-07T08:52:27Z</time>
    </trkpt>
    <trkpt lat="49.458214" lon="21.115983">
      <ele>568</ele>
      <time>2026-05-07T08:52:47Z</time>
    </trkpt>
    <trkpt lat="49.45814" lon="21.115661">
      <ele>568</ele>
      <time>2026-05-07T08:53:17Z</time>
    </trkpt>
    <trkpt lat="49.458081" lon="21.115411">
      <ele>570</ele>
      <time>2026-05-07T08:53:40Z</time>
    </trkpt>
    <trkpt lat="49.458015" lon="21.1152">
      <ele>571</ele>
      <time>2026-05-07T08:54:01Z</time>
    </trkpt>
    <trkpt lat="49.457872" lon="21.11499">
      <ele>574</ele>
      <time>2026-05-07T08:54:27Z</time>
    </trkpt>
    <trkpt lat="49.457699" lon="21.11487">
      <ele>576</ele>
      <time>2026-05-07T08:54:53Z</time>
    </trkpt>
    <trkpt lat="49.457619" lon="21.114797">
      <ele>577</ele>
      <time>2026-05-07T08:55:06Z</time>
    </trkpt>
    <trkpt lat="49.457556" lon="21.114646">
      <ele>578</ele>
      <time>2026-05-07T08:55:21Z</time>
    </trkpt>
    <trkpt lat="49.457374" lon="21.114203">
      <ele>580</ele>
      <time>2026-05-07T08:56:07Z</time>
    </trkpt>
    <trkpt lat="49.457215" lon="21.11379">
      <ele>581</ele>
      <time>2026-05-07T08:56:49Z</time>
    </trkpt>
    <trkpt lat="49.456852" lon="21.113115">
      <ele>585</ele>
      <time>2026-05-07T08:58:05Z</time>
    </trkpt>
    <trkpt lat="49.456749" lon="21.112958">
      <ele>587</ele>
      <time>2026-05-07T08:58:25Z</time>
    </trkpt>
    <trkpt lat="49.456606" lon="21.112863">
      <ele>589</ele>
      <time>2026-05-07T08:58:52Z</time>
    </trkpt>
    <trkpt lat="49.45639" lon="21.112622">
      <ele>592</ele>
      <time>2026-05-07T08:59:39Z</time>
    </trkpt>
    <trkpt lat="49.456109" lon="21.112442">
      <ele>597</ele>
      <time>2026-05-07T09:00:33Z</time>
    </trkpt>
    <trkpt lat="49.45579" lon="21.112129">
      <ele>600</ele>
      <time>2026-05-07T09:01:39Z</time>
    </trkpt>
    <trkpt lat="49.455689" lon="21.112123">
      <ele>601</ele>
      <time>2026-05-07T09:01:57Z</time>
    </trkpt>
    <trkpt lat="49.45556" lon="21.112217">
      <ele>603</ele>
      <time>2026-05-07T09:02:22Z</time>
    </trkpt>
    <trkpt lat="49.455432" lon="21.112285">
      <ele>605</ele>
      <time>2026-05-07T09:02:46Z</time>
    </trkpt>
    <trkpt lat="49.455314" lon="21.112318">
      <ele>607</ele>
      <time>2026-05-07T09:03:07Z</time>
    </trkpt>
    <trkpt lat="49.455112" lon="21.112327">
      <ele>609</ele>
      <time>2026-05-07T09:03:43Z</time>
    </trkpt>
    <trkpt lat="49.454725" lon="21.112245">
      <ele>616</ele>
      <time>2026-05-07T09:04:52Z</time>
    </trkpt>
    <trkpt lat="49.454334" lon="21.111997">
      <ele>621</ele>
      <time>2026-05-07T09:06:06Z</time>
    </trkpt>
    <trkpt lat="49.454041" lon="21.111935">
      <ele>625</ele>
      <time>2026-05-07T09:06:58Z</time>
    </trkpt>
    <trkpt lat="49.45371" lon="21.111992">
      <ele>632</ele>
      <time>2026-05-07T09:07:57Z</time>
    </trkpt>
    <trkpt lat="49.453576" lon="21.112091">
      <ele>636</ele>
      <time>2026-05-07T09:08:24Z</time>
    </trkpt>
    <trkpt lat="49.453447" lon="21.112115">
      <ele>638</ele>
      <time>2026-05-07T09:08:47Z</time>
    </trkpt>
    <trkpt lat="49.453129" lon="21.112187">
      <ele>643</ele>
      <time>2026-05-07T09:09:43Z</time>
    </trkpt>
    <trkpt lat="49.452791" lon="21.112185">
      <ele>649</ele>
      <time>2026-05-07T09:10:43Z</time>
    </trkpt>
    <trkpt lat="49.452307" lon="21.1123">
      <ele>661</ele>
      <time>2026-05-07T09:12:11Z</time>
    </trkpt>
    <trkpt lat="49.452162" lon="21.112319">
      <ele>664</ele>
      <time>2026-05-07T09:12:37Z</time>
    </trkpt>
    <trkpt lat="49.451993" lon="21.112287">
      <ele>666</ele>
      <time>2026-05-07T09:13:06Z</time>
    </trkpt>
    <trkpt lat="49.45156" lon="21.112209">
      <ele>674</ele>
      <time>2026-05-07T09:14:24Z</time>
    </trkpt>
    <trkpt lat="49.451462" lon="21.112193">
      <ele>676</ele>
      <time>2026-05-07T09:14:41Z</time>
    </trkpt>
    <trkpt lat="49.451384" lon="21.112145">
      <ele>679</ele>
      <time>2026-05-07T09:14:56Z</time>
    </trkpt>
    <trkpt lat="49.45137" lon="21.112029">
      <ele>682</ele>
      <time>2026-05-07T09:15:11Z</time>
    </trkpt>
    <trkpt lat="49.451471" lon="21.111686">
      <ele>686</ele>
      <time>2026-05-07T09:15:54Z</time>
    </trkpt>
    <trkpt lat="49.451539" lon="21.111412">
      <ele>688</ele>
      <time>2026-05-07T09:16:27Z</time>
    </trkpt>
    <trkpt lat="49.451586" lon="21.11104">
      <ele>692</ele>
      <time>2026-05-07T09:17:11Z</time>
    </trkpt>
    <trkpt lat="49.451626" lon="21.110728">
      <ele>697</ele>
      <time>2026-05-07T09:17:48Z</time>
    </trkpt>
    <trkpt lat="49.451606" lon="21.110423">
      <ele>702</ele>
      <time>2026-05-07T09:18:23Z</time>
    </trkpt>
    <trkpt lat="49.451511" lon="21.110069">
      <ele>707</ele>
      <time>2026-05-07T09:19:08Z</time>
    </trkpt>
    <trkpt lat="49.451367" lon="21.109698">
      <ele>713</ele>
      <time>2026-05-07T09:19:57Z</time>
    </trkpt>
    <trkpt lat="49.451245" lon="21.109393">
      <ele>717</ele>
      <time>2026-05-07T09:20:39Z</time>
    </trkpt>
    <trkpt lat="49.451112" lon="21.109197">
      <ele>721</ele>
      <time>2026-05-07T09:21:11Z</time>
    </trkpt>
    <trkpt lat="49.450836" lon="21.108752">
      <ele>730</ele>
      <time>2026-05-07T09:22:23Z</time>
    </trkpt>
    <trkpt lat="49.450659" lon="21.108424">
      <ele>737</ele>
      <time>2026-05-07T09:23:12Z</time>
    </trkpt>
    <trkpt lat="49.450552" lon="21.108215">
      <ele>739</ele>
      <time>2026-05-07T09:23:43Z</time>
    </trkpt>
    <trkpt lat="49.450401" lon="21.107917">
      <ele>743</ele>
      <time>2026-05-07T09:24:26Z</time>
    </trkpt>
    <trkpt lat="49.450118" lon="21.107333">
      <ele>755</ele>
      <time>2026-05-07T09:25:51Z</time>
    </trkpt>
    <trkpt lat="49.449966" lon="21.107005">
      <ele>761</ele>
      <time>2026-05-07T09:26:37Z</time>
    </trkpt>
    <trkpt lat="49.449656" lon="21.106552">
      <ele>773</ele>
      <time>2026-05-07T09:27:54Z</time>
    </trkpt>
    <trkpt lat="49.449584" lon="21.106364">
      <ele>776</ele>
      <time>2026-05-07T09:28:20Z</time>
    </trkpt>
    <trkpt lat="49.449476" lon="21.106032">
      <ele>779</ele>
      <time>2026-05-07T09:29:02Z</time>
    </trkpt>
    <trkpt lat="49.449389" lon="21.105726">
      <ele>781</ele>
      <time>2026-05-07T09:29:40Z</time>
    </trkpt>
    <trkpt lat="49.449252" lon="21.105471">
      <ele>788</ele>
      <time>2026-05-07T09:30:19Z</time>
    </trkpt>
    <trkpt lat="49.449095" lon="21.105259">
      <ele>795</ele>
      <time>2026-05-07T09:30:57Z</time>
    </trkpt>
    <trkpt lat="49.448901" lon="21.105077">
      <ele>803</ele>
      <time>2026-05-07T09:31:39Z</time>
    </trkpt>
    <trkpt lat="49.448763" lon="21.104962">
      <ele>807</ele>
      <time>2026-05-07T09:32:07Z</time>
    </trkpt>
    <trkpt lat="49.448371" lon="21.104586">
      <ele>817</ele>
      <time>2026-05-07T09:33:29Z</time>
    </trkpt>
    <trkpt lat="49.448188" lon="21.104385">
      <ele>820</ele>
      <time>2026-05-07T09:34:09Z</time>
    </trkpt>
    <trkpt lat="49.448017" lon="21.104168">
      <ele>822</ele>
      <time>2026-05-07T09:34:48Z</time>
    </trkpt>
    <trkpt lat="49.447822" lon="21.103948">
      <ele>822</ele>
      <time>2026-05-07T09:35:30Z</time>
    </trkpt>
    <trkpt lat="49.447677" lon="21.104227">
      <ele>824</ele>
      <time>2026-05-07T09:36:11Z</time>
    </trkpt>
    <trkpt lat="49.447558" lon="21.104484">
      <ele>827</ele>
      <time>2026-05-07T09:36:47Z</time>
    </trkpt>
    <trkpt lat="49.447419" lon="21.104956">
      <ele>832</ele>
      <time>2026-05-07T09:37:46Z</time>
    </trkpt>
    <trkpt lat="49.447293" lon="21.105477">
      <ele>842</ele>
      <time>2026-05-07T09:38:51Z</time>
    </trkpt>
    <trkpt lat="49.447216" lon="21.105863">
      <ele>852</ele>
      <time>2026-05-07T09:39:40Z</time>
    </trkpt>
    <trkpt lat="49.447171" lon="21.106265">
      <ele>862</ele>
      <time>2026-05-07T09:40:29Z</time>
    </trkpt>
    <trkpt lat="49.447107" lon="21.106927">
      <ele>877</ele>
      <time>2026-05-07T09:41:48Z</time>
    </trkpt>
    <trkpt lat="49.44707" lon="21.107199">
      <ele>882</ele>
      <time>2026-05-07T09:42:20Z</time>
    </trkpt>
    <trkpt lat="49.447" lon="21.107365">
      <ele>884</ele>
      <time>2026-05-07T09:42:43Z</time>
    </trkpt>
    <trkpt lat="49.446896" lon="21.107585">
      <ele>887</ele>
      <time>2026-05-07T09:43:14Z</time>
    </trkpt>
    <trkpt lat="49.446665" lon="21.107864">
      <ele>892</ele>
      <time>2026-05-07T09:44:06Z</time>
    </trkpt>
    <trkpt lat="49.44647" lon="21.108078">
      <ele>897</ele>
      <time>2026-05-07T09:44:49Z</time>
    </trkpt>
    <trkpt lat="49.446219" lon="21.108502">
      <ele>902</ele>
      <time>2026-05-07T09:45:54Z</time>
    </trkpt>
    <trkpt lat="49.446059" lon="21.108813">
      <ele>902</ele>
      <time>2026-05-07T09:46:39Z</time>
    </trkpt>
    <trkpt lat="49.445863" lon="21.109237">
      <ele>902</ele>
      <time>2026-05-07T09:47:38Z</time>
    </trkpt>
    <trkpt lat="49.445612" lon="21.109677">
      <ele>900</ele>
      <time>2026-05-07T09:48:45Z</time>
    </trkpt>
    <trkpt lat="49.445368" lon="21.110187">
      <ele>896</ele>
      <time>2026-05-07T09:49:57Z</time>
    </trkpt>
    <trkpt lat="49.44511" lon="21.1109">
      <ele>894</ele>
      <time>2026-05-07T09:51:30Z</time>
    </trkpt>
    <trkpt lat="49.444988" lon="21.11112">
      <ele>895</ele>
      <time>2026-05-07T09:52:03Z</time>
    </trkpt>
    <trkpt lat="49.444869" lon="21.111308">
      <ele>893</ele>
      <time>2026-05-07T09:52:33Z</time>
    </trkpt>
    <trkpt lat="49.444806" lon="21.111485">
      <ele>894</ele>
      <time>2026-05-07T09:52:55Z</time>
    </trkpt>
    <trkpt lat="49.444803" lon="21.111694">
      <ele>895</ele>
      <time>2026-05-07T09:53:19Z</time>
    </trkpt>
    <trkpt lat="49.444712" lon="21.111984">
      <ele>898</ele>
      <time>2026-05-07T09:53:56Z</time>
    </trkpt>
    <trkpt lat="49.444625" lon="21.112268">
      <ele>899</ele>
      <time>2026-05-07T09:54:32Z</time>
    </trkpt>
    <trkpt lat="49.444496" lon="21.112649">
      <ele>902</ele>
      <time>2026-05-07T09:55:21Z</time>
    </trkpt>
    <trkpt lat="49.44436" lon="21.113035">
      <ele>906</ele>
      <time>2026-05-07T09:56:11Z</time>
    </trkpt>
    <trkpt lat="49.444168" lon="21.113475">
      <ele>913</ele>
      <time>2026-05-07T09:57:12Z</time>
    </trkpt>
    <trkpt lat="49.443969" lon="21.113877">
      <ele>917</ele>
      <time>2026-05-07T09:58:10Z</time>
    </trkpt>
    <trkpt lat="49.443432" lon="21.114773">
      <ele>916</ele>
      <time>2026-05-07T10:00:28Z</time>
    </trkpt>
    <trkpt lat="49.443233" lon="21.115068">
      <ele>912</ele>
      <time>2026-05-07T10:01:17Z</time>
    </trkpt>
    <trkpt lat="49.443059" lon="21.115272">
      <ele>909</ele>
      <time>2026-05-07T10:01:55Z</time>
    </trkpt>
    <trkpt lat="49.442749" lon="21.115567">
      <ele>904</ele>
      <time>2026-05-07T10:03:00Z</time>
    </trkpt>
    <trkpt lat="49.442511" lon="21.11576">
      <ele>897</ele>
      <time>2026-05-07T10:03:48Z</time>
    </trkpt>
    <trkpt lat="49.442271" lon="21.115948">
      <ele>892</ele>
      <time>2026-05-07T10:04:35Z</time>
    </trkpt>
    <trkpt lat="49.442086" lon="21.116152">
      <ele>888</ele>
      <time>2026-05-07T10:05:16Z</time>
    </trkpt>
    <trkpt lat="49.441915" lon="21.116366">
      <ele>885</ele>
      <time>2026-05-07T10:05:54Z</time>
    </trkpt>
    <trkpt lat="49.441758" lon="21.116484">
      <ele>884</ele>
      <time>2026-05-07T10:06:25Z</time>
    </trkpt>
    <trkpt lat="49.441615" lon="21.116576">
      <ele>883</ele>
      <time>2026-05-07T10:06:52Z</time>
    </trkpt>
    <trkpt lat="49.441423" lon="21.116962">
      <ele>883</ele>
      <time>2026-05-07T10:07:47Z</time>
    </trkpt>
    <trkpt lat="49.441311" lon="21.117128">
      <ele>882</ele>
      <time>2026-05-07T10:08:15Z</time>
    </trkpt>
    <trkpt lat="49.441113" lon="21.117579">
      <ele>883</ele>
      <time>2026-05-07T10:09:16Z</time>
    </trkpt>
    <trkpt lat="49.440952" lon="21.117799">
      <ele>885</ele>
      <time>2026-05-07T10:09:54Z</time>
    </trkpt>
    <trkpt lat="49.44076" lon="21.118002">
      <ele>885</ele>
      <time>2026-05-07T10:10:35Z</time>
    </trkpt>
    <trkpt lat="49.440579" lon="21.118292">
      <ele>886</ele>
      <time>2026-05-07T10:11:20Z</time>
    </trkpt>
    <trkpt lat="49.440223" lon="21.118845">
      <ele>888</ele>
      <time>2026-05-07T10:12:49Z</time>
    </trkpt>
    <trkpt lat="49.440036" lon="21.119131">
      <ele>890</ele>
      <time>2026-05-07T10:13:35Z</time>
    </trkpt>
    <trkpt lat="49.439738" lon="21.119553">
      <ele>894</ele>
      <time>2026-05-07T10:14:46Z</time>
    </trkpt>
    <trkpt lat="49.439571" lon="21.119805">
      <ele>894</ele>
      <time>2026-05-07T10:15:27Z</time>
    </trkpt>
    <trkpt lat="49.439257" lon="21.120341">
      <ele>897</ele>
      <time>2026-05-07T10:16:49Z</time>
    </trkpt>
    <trkpt lat="49.439076" lon="21.120551">
      <ele>899</ele>
      <time>2026-05-07T10:17:29Z</time>
    </trkpt>
    <trkpt lat="49.438995" lon="21.120642">
      <ele>899</ele>
      <time>2026-05-07T10:17:46Z</time>
    </trkpt>
    <trkpt lat="49.438957" lon="21.120819">
      <ele>902</ele>
      <time>2026-05-07T10:18:08Z</time>
    </trkpt>
    <trkpt lat="49.438866" lon="21.121071">
      <ele>904</ele>
      <time>2026-05-07T10:18:41Z</time>
    </trkpt>
    <trkpt lat="49.438755" lon="21.121377">
      <ele>908</ele>
      <time>2026-05-07T10:19:21Z</time>
    </trkpt>
    <trkpt lat="49.438727" lon="21.121618">
      <ele>912</ele>
      <time>2026-05-07T10:19:49Z</time>
    </trkpt>
    <trkpt lat="49.438716" lon="21.121865">
      <ele>916</ele>
      <time>2026-05-07T10:20:18Z</time>
    </trkpt>
    <trkpt lat="49.438723" lon="21.122176">
      <ele>921</ele>
      <time>2026-05-07T10:20:54Z</time>
    </trkpt>
    <trkpt lat="49.438667" lon="21.122455">
      <ele>926</ele>
      <time>2026-05-07T10:21:28Z</time>
    </trkpt>
    <trkpt lat="49.438573" lon="21.122637">
      <ele>927</ele>
      <time>2026-05-07T10:21:55Z</time>
    </trkpt>
    <trkpt lat="49.438462" lon="21.122836">
      <ele>927</ele>
      <time>2026-05-07T10:22:25Z</time>
    </trkpt>
    <trkpt lat="49.438326" lon="21.122948">
      <ele>926</ele>
      <time>2026-05-07T10:22:51Z</time>
    </trkpt>
    <trkpt lat="49.43814" lon="21.12304">
      <ele>922</ele>
      <time>2026-05-07T10:23:26Z</time>
    </trkpt>
    <trkpt lat="49.437851" lon="21.123152">
      <ele>918</ele>
      <time>2026-05-07T10:24:19Z</time>
    </trkpt>
    <trkpt lat="49.43759" lon="21.123329">
      <ele>915</ele>
      <time>2026-05-07T10:25:09Z</time>
    </trkpt>
    <trkpt lat="49.437454" lon="21.123404">
      <ele>914</ele>
      <time>2026-05-07T10:25:34Z</time>
    </trkpt>
    <trkpt lat="49.437112" lon="21.123705">
      <ele>910</ele>
      <time>2026-05-07T10:26:43Z</time>
    </trkpt>
    <trkpt lat="49.436886" lon="21.123832">
      <ele>906</ele>
      <time>2026-05-07T10:27:25Z</time>
    </trkpt>
    <trkpt lat="49.436738" lon="21.123896">
      <ele>904</ele>
      <time>2026-05-07T10:27:53Z</time>
    </trkpt>
    <trkpt lat="49.43656" lon="21.123966">
      <ele>901</ele>
      <time>2026-05-07T10:28:25Z</time>
    </trkpt>
    <trkpt lat="49.436416" lon="21.123681">
      <ele>894</ele>
      <time>2026-05-07T10:29:03Z</time>
    </trkpt>
    <trkpt lat="49.43615" lon="21.123133">
      <ele>879</ele>
      <time>2026-05-07T10:30:16Z</time>
    </trkpt>
    <trkpt lat="49.435997" lon="21.122763">
      <ele>867</ele>
      <time>2026-05-07T10:31:03Z</time>
    </trkpt>
    <trkpt lat="49.435824" lon="21.122189">
      <ele>848</ele>
      <time>2026-05-07T10:32:13Z</time>
    </trkpt>
    <trkpt lat="49.435689" lon="21.121729">
      <ele>835</ele>
      <time>2026-05-07T10:33:08Z</time>
    </trkpt>
    <trkpt lat="49.435435" lon="21.121235">
      <ele>818</ele>
      <time>2026-05-07T10:34:16Z</time>
    </trkpt>
    <trkpt lat="49.435277" lon="21.120894">
      <ele>812</ele>
      <time>2026-05-07T10:35:00Z</time>
    </trkpt>
    <trkpt lat="49.435199" lon="21.120707">
      <ele>809</ele>
      <time>2026-05-07T10:35:23Z</time>
    </trkpt>
    <trkpt lat="49.435077" lon="21.120515">
      <ele>805</ele>
      <time>2026-05-07T10:35:50Z</time>
    </trkpt>
    <trkpt lat="49.434865" lon="21.120215">
      <ele>798</ele>
      <time>2026-05-07T10:36:37Z</time>
    </trkpt>
    <trkpt lat="49.434514" lon="21.119858">
      <ele>790</ele>
      <time>2026-05-07T10:37:43Z</time>
    </trkpt>
    <trkpt lat="49.433744" lon="21.11928">
      <ele>779</ele>
      <time>2026-05-07T10:39:59Z</time>
    </trkpt>
    <trkpt lat="49.433229" lon="21.118855">
      <ele>774</ele>
      <time>2026-05-07T10:41:30Z</time>
    </trkpt>
    <trkpt lat="49.432798" lon="21.118576">
      <ele>768</ele>
      <time>2026-05-07T10:42:44Z</time>
    </trkpt>
    <trkpt lat="49.432552" lon="21.118442">
      <ele>766</ele>
      <time>2026-05-07T10:43:25Z</time>
    </trkpt>
    <trkpt lat="49.431966" lon="21.11826">
      <ele>765</ele>
      <time>2026-05-07T10:44:59Z</time>
    </trkpt>
    <trkpt lat="49.43152" lon="21.118124">
      <ele>769</ele>
      <time>2026-05-07T10:46:10Z</time>
    </trkpt>
    <trkpt lat="49.431263" lon="21.117946">
      <ele>771</ele>
      <time>2026-05-07T10:46:54Z</time>
    </trkpt>
    <trkpt lat="49.430905" lon="21.117646">
      <ele>772</ele>
      <time>2026-05-07T10:47:58Z</time>
    </trkpt>
    <trkpt lat="49.430757" lon="21.117587">
      <ele>772</ele>
      <time>2026-05-07T10:48:22Z</time>
    </trkpt>
    <trkpt lat="49.43059" lon="21.11745">
      <ele>773</ele>
      <time>2026-05-07T10:48:52Z</time>
    </trkpt>
    <trkpt lat="49.430499" lon="21.117391">
      <ele>774</ele>
      <time>2026-05-07T10:49:07Z</time>
    </trkpt>
    <trkpt lat="49.430429" lon="21.117383">
      <ele>775</ele>
      <time>2026-05-07T10:49:18Z</time>
    </trkpt>
    <trkpt lat="49.43014" lon="21.117337">
      <ele>781</ele>
      <time>2026-05-07T10:50:04Z</time>
    </trkpt>
    <trkpt lat="49.429963" lon="21.117248">
      <ele>784</ele>
      <time>2026-05-07T10:50:34Z</time>
    </trkpt>
    <trkpt lat="49.429491" lon="21.11673">
      <ele>790</ele>
      <time>2026-05-07T10:52:05Z</time>
    </trkpt>
    <trkpt lat="49.428606" lon="21.11599">
      <ele>810</ele>
      <time>2026-05-07T10:54:45Z</time>
    </trkpt>
    <trkpt lat="49.427847" lon="21.115306">
      <ele>831</ele>
      <time>2026-05-07T10:57:06Z</time>
    </trkpt>
    <trkpt lat="49.427694" lon="21.115124">
      <ele>837</ele>
      <time>2026-05-07T10:57:38Z</time>
    </trkpt>
    <trkpt lat="49.427431" lon="21.114993">
      <ele>843</ele>
      <time>2026-05-07T10:58:22Z</time>
    </trkpt>
    <trkpt lat="49.427219" lon="21.11499">
      <ele>847</ele>
      <time>2026-05-07T10:58:56Z</time>
    </trkpt>
    <trkpt lat="49.426986" lon="21.114988">
      <ele>856</ele>
      <time>2026-05-07T10:59:34Z</time>
    </trkpt>
    <trkpt lat="49.426673" lon="21.114929">
      <ele>866</ele>
      <time>2026-05-07T11:00:25Z</time>
    </trkpt>
    <trkpt lat="49.426167" lon="21.114864">
      <ele>879</ele>
      <time>2026-05-07T11:01:47Z</time>
    </trkpt>
    <trkpt lat="49.426095" lon="21.114837">
      <ele>881</ele>
      <time>2026-05-07T11:01:59Z</time>
    </trkpt>
    <trkpt lat="49.425909" lon="21.114768">
      <ele>886</ele>
      <time>2026-05-07T11:02:30Z</time>
    </trkpt>
    <trkpt lat="49.425702" lon="21.114628">
      <ele>894</ele>
      <time>2026-05-07T11:03:07Z</time>
    </trkpt>
    <trkpt lat="49.42549" lon="21.11455">
      <ele>902</ele>
      <time>2026-05-07T11:03:43Z</time>
    </trkpt>
    <trkpt lat="49.425178" lon="21.114371">
      <ele>915</ele>
      <time>2026-05-07T11:04:38Z</time>
    </trkpt>
    <trkpt lat="49.425023" lon="21.114296">
      <ele>921</ele>
      <time>2026-05-07T11:05:05Z</time>
    </trkpt>
    <trkpt lat="49.424857" lon="21.114231">
      <ele>929</ele>
      <time>2026-05-07T11:05:34Z</time>
    </trkpt>
    <trkpt lat="49.424646" lon="21.114079">
      <ele>940</ele>
      <time>2026-05-07T11:06:13Z</time>
    </trkpt>
    <trkpt lat="49.424538" lon="21.113993">
      <ele>945</ele>
      <time>2026-05-07T11:06:34Z</time>
    </trkpt>
    <trkpt lat="49.424381" lon="21.113923">
      <ele>950</ele>
      <time>2026-05-07T11:07:00Z</time>
    </trkpt>
    <trkpt lat="49.424255" lon="21.113877">
      <ele>950</ele>
      <time>2026-05-07T11:07:21Z</time>
    </trkpt>
    <trkpt lat="49.424149" lon="21.113816">
      <ele>951</ele>
      <time>2026-05-07T11:07:38Z</time>
    </trkpt>
    <trkpt lat="49.424056" lon="21.113762">
      <ele>949</ele>
      <time>2026-05-07T11:07:54Z</time>
    </trkpt>
    <trkpt lat="49.424002" lon="21.113663">
      <ele>949</ele>
      <time>2026-05-07T11:08:07Z</time>
    </trkpt>
    <trkpt lat="49.424004" lon="21.113545">
      <ele>950</ele>
      <time>2026-05-07T11:08:19Z</time>
    </trkpt>
    <trkpt lat="49.424036" lon="21.113372">
      <ele>951</ele>
      <time>2026-05-07T11:08:38Z</time>
    </trkpt>
    <trkpt lat="49.424137" lon="21.112992">
      <ele>954</ele>
      <time>2026-05-07T11:09:20Z</time>
    </trkpt>
    <trkpt lat="49.424182" lon="21.112769">
      <ele>954</ele>
      <time>2026-05-07T11:09:44Z</time>
    </trkpt>
    <trkpt lat="49.424201" lon="21.112609">
      <ele>955</ele>
      <time>2026-05-07T11:10:00Z</time>
    </trkpt>
    <trkpt lat="49.424297" lon="21.111592">
      <ele>962</ele>
      <time>2026-05-07T11:11:45Z</time>
    </trkpt>
    <trkpt lat="49.424374" lon="21.110967">
      <ele>966</ele>
      <time>2026-05-07T11:12:50Z</time>
    </trkpt>
    <trkpt lat="49.424412" lon="21.110511">
      <ele>969</ele>
      <time>2026-05-07T11:13:37Z</time>
    </trkpt>
    <trkpt lat="49.424449" lon="21.110221">
      <ele>972</ele>
      <time>2026-05-07T11:14:08Z</time>
    </trkpt>
    <trkpt lat="49.424618" lon="21.109714">
      <ele>974</ele>
      <time>2026-05-07T11:15:06Z</time>
    </trkpt>
    <trkpt lat="49.424674" lon="21.109331">
      <ele>973</ele>
      <time>2026-05-07T11:15:46Z</time>
    </trkpt>
    <trkpt lat="49.424765" lon="21.109004">
      <ele>972</ele>
      <time>2026-05-07T11:16:22Z</time>
    </trkpt>
    <trkpt lat="49.425006" lon="21.107768">
      <ele>977</ele>
      <time>2026-05-07T11:18:34Z</time>
    </trkpt>
    <trkpt lat="49.425135" lon="21.10752">
      <ele>976</ele>
      <time>2026-05-07T11:19:06Z</time>
    </trkpt>
    <trkpt lat="49.425229" lon="21.107373">
      <ele>975</ele>
      <time>2026-05-07T11:19:27Z</time>
    </trkpt>
    <trkpt lat="49.425309" lon="21.107148">
      <ele>974</ele>
      <time>2026-05-07T11:19:53Z</time>
    </trkpt>
    <trkpt lat="49.425321" lon="21.106936">
      <ele>972</ele>
      <time>2026-05-07T11:20:15Z</time>
    </trkpt>
    <trkpt lat="49.425347" lon="21.106708">
      <ele>971</ele>
      <time>2026-05-07T11:20:39Z</time>
    </trkpt>
    <trkpt lat="49.425412" lon="21.106525">
      <ele>972</ele>
      <time>2026-05-07T11:21:00Z</time>
    </trkpt>
    <trkpt lat="49.425483" lon="21.106319">
      <ele>973</ele>
      <time>2026-05-07T11:21:24Z</time>
    </trkpt>
    <trkpt lat="49.425515" lon="21.106107">
      <ele>976</ele>
      <time>2026-05-07T11:21:46Z</time>
    </trkpt>
    <trkpt lat="49.425522" lon="21.105868">
      <ele>976</ele>
      <time>2026-05-07T11:22:11Z</time>
    </trkpt>
    <trkpt lat="49.425581" lon="21.105638">
      <ele>978</ele>
      <time>2026-05-07T11:22:36Z</time>
    </trkpt>
    <trkpt lat="49.42574" lon="21.105235">
      <ele>978</ele>
      <time>2026-05-07T11:23:24Z</time>
    </trkpt>
    <trkpt lat="49.425855" lon="21.104983">
      <ele>979</ele>
      <time>2026-05-07T11:23:55Z</time>
    </trkpt>
    <trkpt lat="49.425907" lon="21.104752">
      <ele>979</ele>
      <time>2026-05-07T11:24:20Z</time>
    </trkpt>
    <trkpt lat="49.426046" lon="21.104359">
      <ele>984</ele>
      <time>2026-05-07T11:25:06Z</time>
    </trkpt>
    <trkpt lat="49.426153" lon="21.103966">
      <ele>987</ele>
      <time>2026-05-07T11:25:50Z</time>
    </trkpt>
    <trkpt lat="49.42618" lon="21.103747">
      <ele>987</ele>
      <time>2026-05-07T11:26:12Z</time>
    </trkpt>
    <trkpt lat="49.426314" lon="21.103288">
      <ele>988</ele>
      <time>2026-05-07T11:27:04Z</time>
    </trkpt>
    <trkpt lat="49.426505" lon="21.102555">
      <ele>997</ele>
      <time>2026-05-07T11:28:25Z</time>
    </trkpt>
    <trkpt lat="49.426314" lon="21.103288">
      <ele>988</ele>
      <time>2026-05-07T11:29:33Z</time>
    </trkpt>
    <trkpt lat="49.42618" lon="21.103747">
      <ele>987</ele>
      <time>2026-05-07T11:30:15Z</time>
    </trkpt>
    <trkpt lat="49.426153" lon="21.103966">
      <ele>987</ele>
      <time>2026-05-07T11:30:34Z</time>
    </trkpt>
    <trkpt lat="49.426046" lon="21.104359">
      <ele>984</ele>
      <time>2026-05-07T11:31:11Z</time>
    </trkpt>
    <trkpt lat="49.425907" lon="21.104752">
      <ele>979</ele>
      <time>2026-05-07T11:31:49Z</time>
    </trkpt>
    <trkpt lat="49.425855" lon="21.104983">
      <ele>979</ele>
      <time>2026-05-07T11:32:10Z</time>
    </trkpt>
    <trkpt lat="49.42574" lon="21.105235">
      <ele>978</ele>
      <time>2026-05-07T11:32:36Z</time>
    </trkpt>
    <trkpt lat="49.425581" lon="21.105638">
      <ele>978</ele>
      <time>2026-05-07T11:33:16Z</time>
    </trkpt>
    <trkpt lat="49.425522" lon="21.105868">
      <ele>976</ele>
      <time>2026-05-07T11:33:37Z</time>
    </trkpt>
    <trkpt lat="49.425515" lon="21.106107">
      <ele>976</ele>
      <time>2026-05-07T11:33:57Z</time>
    </trkpt>
    <trkpt lat="49.425483" lon="21.106319">
      <ele>973</ele>
      <time>2026-05-07T11:34:16Z</time>
    </trkpt>
    <trkpt lat="49.425412" lon="21.106525">
      <ele>972</ele>
      <time>2026-05-07T11:34:36Z</time>
    </trkpt>
    <trkpt lat="49.425347" lon="21.106708">
      <ele>971</ele>
      <time>2026-05-07T11:34:54Z</time>
    </trkpt>
    <trkpt lat="49.425321" lon="21.106936">
      <ele>972</ele>
      <time>2026-05-07T11:35:13Z</time>
    </trkpt>
    <trkpt lat="49.425309" lon="21.107148">
      <ele>974</ele>
      <time>2026-05-07T11:35:32Z</time>
    </trkpt>
    <trkpt lat="49.425229" lon="21.107373">
      <ele>975</ele>
      <time>2026-05-07T11:35:53Z</time>
    </trkpt>
    <trkpt lat="49.425135" lon="21.10752">
      <ele>976</ele>
      <time>2026-05-07T11:36:11Z</time>
    </trkpt>
    <trkpt lat="49.425006" lon="21.107768">
      <ele>977</ele>
      <time>2026-05-07T11:36:38Z</time>
    </trkpt>
    <trkpt lat="49.424765" lon="21.109004">
      <ele>972</ele>
      <time>2026-05-07T11:38:27Z</time>
    </trkpt>
    <trkpt lat="49.424674" lon="21.109331">
      <ele>973</ele>
      <time>2026-05-07T11:38:58Z</time>
    </trkpt>
    <trkpt lat="49.424618" lon="21.109714">
      <ele>974</ele>
      <time>2026-05-07T11:39:31Z</time>
    </trkpt>
    <trkpt lat="49.424449" lon="21.110221">
      <ele>972</ele>
      <time>2026-05-07T11:40:19Z</time>
    </trkpt>
    <trkpt lat="49.424412" lon="21.110511">
      <ele>969</ele>
      <time>2026-05-07T11:40:45Z</time>
    </trkpt>
    <trkpt lat="49.424374" lon="21.110967">
      <ele>966</ele>
      <time>2026-05-07T11:41:24Z</time>
    </trkpt>
    <trkpt lat="49.424297" lon="21.111592">
      <ele>962</ele>
      <time>2026-05-07T11:42:18Z</time>
    </trkpt>
    <trkpt lat="49.424201" lon="21.112609">
      <ele>955</ele>
      <time>2026-05-07T11:43:46Z</time>
    </trkpt>
    <trkpt lat="49.424182" lon="21.112769">
      <ele>954</ele>
      <time>2026-05-07T11:44:00Z</time>
    </trkpt>
    <trkpt lat="49.424137" lon="21.112992">
      <ele>954</ele>
      <time>2026-05-07T11:44:19Z</time>
    </trkpt>
    <trkpt lat="49.424036" lon="21.113372">
      <ele>951</ele>
      <time>2026-05-07T11:44:54Z</time>
    </trkpt>
    <trkpt lat="49.424004" lon="21.113545">
      <ele>950</ele>
      <time>2026-05-07T11:45:10Z</time>
    </trkpt>
    <trkpt lat="49.424002" lon="21.113663">
      <ele>949</ele>
      <time>2026-05-07T11:45:20Z</time>
    </trkpt>
    <trkpt lat="49.424056" lon="21.113762">
      <ele>949</ele>
      <time>2026-05-07T11:45:31Z</time>
    </trkpt>
    <trkpt lat="49.424149" lon="21.113816">
      <ele>951</ele>
      <time>2026-05-07T11:45:44Z</time>
    </trkpt>
    <trkpt lat="49.424255" lon="21.113877">
      <ele>950</ele>
      <time>2026-05-07T11:45:59Z</time>
    </trkpt>
    <trkpt lat="49.424381" lon="21.113923">
      <ele>950</ele>
      <time>2026-05-07T11:46:16Z</time>
    </trkpt>
    <trkpt lat="49.424538" lon="21.113993">
      <ele>945</ele>
      <time>2026-05-07T11:46:38Z</time>
    </trkpt>
    <trkpt lat="49.424646" lon="21.114079">
      <ele>940</ele>
      <time>2026-05-07T11:46:55Z</time>
    </trkpt>
    <trkpt lat="49.424857" lon="21.114231">
      <ele>929</ele>
      <time>2026-05-07T11:47:27Z</time>
    </trkpt>
    <trkpt lat="49.425023" lon="21.114296">
      <ele>921</ele>
      <time>2026-05-07T11:47:52Z</time>
    </trkpt>
    <trkpt lat="49.425178" lon="21.114371">
      <ele>915</ele>
      <time>2026-05-07T11:48:14Z</time>
    </trkpt>
    <trkpt lat="49.42549" lon="21.11455">
      <ele>902</ele>
      <time>2026-05-07T11:49:00Z</time>
    </trkpt>
    <trkpt lat="49.425702" lon="21.114628">
      <ele>894</ele>
      <time>2026-05-07T11:49:30Z</time>
    </trkpt>
    <trkpt lat="49.425909" lon="21.114768">
      <ele>886</ele>
      <time>2026-05-07T11:50:01Z</time>
    </trkpt>
    <trkpt lat="49.426095" lon="21.114837">
      <ele>881</ele>
      <time>2026-05-07T11:50:27Z</time>
    </trkpt>
    <trkpt lat="49.426167" lon="21.114864">
      <ele>879</ele>
      <time>2026-05-07T11:50:37Z</time>
    </trkpt>
    <trkpt lat="49.426673" lon="21.114929">
      <ele>866</ele>
      <time>2026-05-07T11:51:45Z</time>
    </trkpt>
    <trkpt lat="49.426986" lon="21.114988">
      <ele>856</ele>
      <time>2026-05-07T11:52:28Z</time>
    </trkpt>
    <trkpt lat="49.427219" lon="21.11499">
      <ele>847</ele>
      <time>2026-05-07T11:53:00Z</time>
    </trkpt>
    <trkpt lat="49.427431" lon="21.114993">
      <ele>843</ele>
      <time>2026-05-07T11:53:28Z</time>
    </trkpt>
    <trkpt lat="49.427694" lon="21.115124">
      <ele>837</ele>
      <time>2026-05-07T11:54:05Z</time>
    </trkpt>
    <trkpt lat="49.427847" lon="21.115306">
      <ele>831</ele>
      <time>2026-05-07T11:54:31Z</time>
    </trkpt>
    <trkpt lat="49.428606" lon="21.11599">
      <ele>810</ele>
      <time>2026-05-07T11:56:28Z</time>
    </trkpt>
    <trkpt lat="49.429491" lon="21.11673">
      <ele>790</ele>
      <time>2026-05-07T11:58:42Z</time>
    </trkpt>
    <trkpt lat="49.429963" lon="21.117248">
      <ele>784</ele>
      <time>2026-05-07T11:59:58Z</time>
    </trkpt>
    <trkpt lat="49.43014" lon="21.117337">
      <ele>781</ele>
      <time>2026-05-07T12:00:22Z</time>
    </trkpt>
    <trkpt lat="49.430429" lon="21.117383">
      <ele>775</ele>
      <time>2026-05-07T12:01:01Z</time>
    </trkpt>
    <trkpt lat="49.430499" lon="21.117391">
      <ele>774</ele>
      <time>2026-05-07T12:01:10Z</time>
    </trkpt>
    <trkpt lat="49.43059" lon="21.11745">
      <ele>773</ele>
      <time>2026-05-07T12:01:23Z</time>
    </trkpt>
    <trkpt lat="49.430757" lon="21.117587">
      <ele>772</ele>
      <time>2026-05-07T12:01:48Z</time>
    </trkpt>
    <trkpt lat="49.430905" lon="21.117646">
      <ele>772</ele>
      <time>2026-05-07T12:02:07Z</time>
    </trkpt>
    <trkpt lat="49.431263" lon="21.117946">
      <ele>771</ele>
      <time>2026-05-07T12:03:01Z</time>
    </trkpt>
    <trkpt lat="49.43152" lon="21.118124">
      <ele>769</ele>
      <time>2026-05-07T12:03:38Z</time>
    </trkpt>
    <trkpt lat="49.431966" lon="21.11826">
      <ele>765</ele>
      <time>2026-05-07T12:04:37Z</time>
    </trkpt>
    <trkpt lat="49.432552" lon="21.118442">
      <ele>766</ele>
      <time>2026-05-07T12:05:55Z</time>
    </trkpt>
    <trkpt lat="49.432798" lon="21.118576">
      <ele>768</ele>
      <time>2026-05-07T12:06:29Z</time>
    </trkpt>
    <trkpt lat="49.433229" lon="21.118855">
      <ele>774</ele>
      <time>2026-05-07T12:07:31Z</time>
    </trkpt>
    <trkpt lat="49.433744" lon="21.11928">
      <ele>779</ele>
      <time>2026-05-07T12:08:47Z</time>
    </trkpt>
    <trkpt lat="49.434514" lon="21.119858">
      <ele>790</ele>
      <time>2026-05-07T12:10:40Z</time>
    </trkpt>
    <trkpt lat="49.434865" lon="21.120215">
      <ele>798</ele>
      <time>2026-05-07T12:11:35Z</time>
    </trkpt>
    <trkpt lat="49.435077" lon="21.120515">
      <ele>805</ele>
      <time>2026-05-07T12:12:14Z</time>
    </trkpt>
    <trkpt lat="49.435199" lon="21.120707">
      <ele>809</ele>
      <time>2026-05-07T12:12:37Z</time>
    </trkpt>
    <trkpt lat="49.435277" lon="21.120894">
      <ele>812</ele>
      <time>2026-05-07T12:12:56Z</time>
    </trkpt>
    <trkpt lat="49.435435" lon="21.121235">
      <ele>818</ele>
      <time>2026-05-07T12:13:33Z</time>
    </trkpt>
    <trkpt lat="49.435689" lon="21.121729">
      <ele>835</ele>
      <time>2026-05-07T12:14:30Z</time>
    </trkpt>
    <trkpt lat="49.435824" lon="21.122189">
      <ele>848</ele>
      <time>2026-05-07T12:15:15Z</time>
    </trkpt>
    <trkpt lat="49.435997" lon="21.122763">
      <ele>867</ele>
      <time>2026-05-07T12:16:13Z</time>
    </trkpt>
    <trkpt lat="49.43615" lon="21.123133">
      <ele>879</ele>
      <time>2026-05-07T12:16:53Z</time>
    </trkpt>
    <trkpt lat="49.436416" lon="21.123681">
      <ele>894</ele>
      <time>2026-05-07T12:17:54Z</time>
    </trkpt>
    <trkpt lat="49.43656" lon="21.123966">
      <ele>901</ele>
      <time>2026-05-07T12:18:25Z</time>
    </trkpt>
    <trkpt lat="49.436738" lon="21.123896">
      <ele>904</ele>
      <time>2026-05-07T12:18:47Z</time>
    </trkpt>
    <trkpt lat="49.436886" lon="21.123832">
      <ele>906</ele>
      <time>2026-05-07T12:19:05Z</time>
    </trkpt>
    <trkpt lat="49.437112" lon="21.123705">
      <ele>910</ele>
      <time>2026-05-07T12:19:33Z</time>
    </trkpt>
    <trkpt lat="49.437454" lon="21.123404">
      <ele>914</ele>
      <time>2026-05-07T12:20:19Z</time>
    </trkpt>
    <trkpt lat="49.43759" lon="21.123329">
      <ele>915</ele>
      <time>2026-05-07T12:20:36Z</time>
    </trkpt>
    <trkpt lat="49.437851" lon="21.123152">
      <ele>918</ele>
      <time>2026-05-07T12:21:09Z</time>
    </trkpt>
    <trkpt lat="49.43814" lon="21.12304">
      <ele>922</ele>
      <time>2026-05-07T12:21:44Z</time>
    </trkpt>
    <trkpt lat="49.438326" lon="21.122948">
      <ele>926</ele>
      <time>2026-05-07T12:22:07Z</time>
    </trkpt>
    <trkpt lat="49.438462" lon="21.122836">
      <ele>927</ele>
      <time>2026-05-07T12:22:25Z</time>
    </trkpt>
    <trkpt lat="49.438573" lon="21.122637">
      <ele>927</ele>
      <time>2026-05-07T12:22:45Z</time>
    </trkpt>
    <trkpt lat="49.438667" lon="21.122455">
      <ele>926</ele>
      <time>2026-05-07T12:23:03Z</time>
    </trkpt>
    <trkpt lat="49.438723" lon="21.122176">
      <ele>921</ele>
      <time>2026-05-07T12:23:25Z</time>
    </trkpt>
    <trkpt lat="49.438716" lon="21.121865">
      <ele>916</ele>
      <time>2026-05-07T12:23:50Z</time>
    </trkpt>
    <trkpt lat="49.438727" lon="21.121618">
      <ele>912</ele>
      <time>2026-05-07T12:24:09Z</time>
    </trkpt>
    <trkpt lat="49.438755" lon="21.121377">
      <ele>908</ele>
      <time>2026-05-07T12:24:28Z</time>
    </trkpt>
    <trkpt lat="49.438866" lon="21.121071">
      <ele>904</ele>
      <time>2026-05-07T12:24:55Z</time>
    </trkpt>
    <trkpt lat="49.438957" lon="21.120819">
      <ele>902</ele>
      <time>2026-05-07T12:25:17Z</time>
    </trkpt>
    <trkpt lat="49.438995" lon="21.120642">
      <ele>899</ele>
      <time>2026-05-07T12:25:31Z</time>
    </trkpt>
    <trkpt lat="49.439076" lon="21.120551">
      <ele>899</ele>
      <time>2026-05-07T12:25:43Z</time>
    </trkpt>
    <trkpt lat="49.439257" lon="21.120341">
      <ele>897</ele>
      <time>2026-05-07T12:26:09Z</time>
    </trkpt>
    <trkpt lat="49.439571" lon="21.119805">
      <ele>894</ele>
      <time>2026-05-07T12:27:04Z</time>
    </trkpt>
    <trkpt lat="49.439738" lon="21.119553">
      <ele>894</ele>
      <time>2026-05-07T12:27:31Z</time>
    </trkpt>
    <trkpt lat="49.440036" lon="21.119131">
      <ele>890</ele>
      <time>2026-05-07T12:28:18Z</time>
    </trkpt>
    <trkpt lat="49.440223" lon="21.118845">
      <ele>888</ele>
      <time>2026-05-07T12:28:49Z</time>
    </trkpt>
    <trkpt lat="49.440579" lon="21.118292">
      <ele>886</ele>
      <time>2026-05-07T12:29:48Z</time>
    </trkpt>
    <trkpt lat="49.44076" lon="21.118002">
      <ele>885</ele>
      <time>2026-05-07T12:30:19Z</time>
    </trkpt>
    <trkpt lat="49.440952" lon="21.117799">
      <ele>885</ele>
      <time>2026-05-07T12:30:46Z</time>
    </trkpt>
    <trkpt lat="49.441113" lon="21.117579">
      <ele>883</ele>
      <time>2026-05-07T12:31:11Z</time>
    </trkpt>
    <trkpt lat="49.441311" lon="21.117128">
      <ele>882</ele>
      <time>2026-05-07T12:31:52Z</time>
    </trkpt>
    <trkpt lat="49.441423" lon="21.116962">
      <ele>883</ele>
      <time>2026-05-07T12:32:10Z</time>
    </trkpt>
    <trkpt lat="49.441615" lon="21.116576">
      <ele>883</ele>
      <time>2026-05-07T12:32:47Z</time>
    </trkpt>
    <trkpt lat="49.441758" lon="21.116484">
      <ele>884</ele>
      <time>2026-05-07T12:33:05Z</time>
    </trkpt>
    <trkpt lat="49.441915" lon="21.116366">
      <ele>885</ele>
      <time>2026-05-07T12:33:25Z</time>
    </trkpt>
    <trkpt lat="49.442086" lon="21.116152">
      <ele>888</ele>
      <time>2026-05-07T12:33:51Z</time>
    </trkpt>
    <trkpt lat="49.442271" lon="21.115948">
      <ele>892</ele>
      <time>2026-05-07T12:34:18Z</time>
    </trkpt>
    <trkpt lat="49.442511" lon="21.11576">
      <ele>897</ele>
      <time>2026-05-07T12:34:50Z</time>
    </trkpt>
    <trkpt lat="49.442749" lon="21.115567">
      <ele>904</ele>
      <time>2026-05-07T12:35:22Z</time>
    </trkpt>
    <trkpt lat="49.443059" lon="21.115272">
      <ele>909</ele>
      <time>2026-05-07T12:36:05Z</time>
    </trkpt>
    <trkpt lat="49.443233" lon="21.115068">
      <ele>912</ele>
      <time>2026-05-07T12:36:30Z</time>
    </trkpt>
    <trkpt lat="49.443432" lon="21.114773">
      <ele>916</ele>
      <time>2026-05-07T12:37:03Z</time>
    </trkpt>
    <trkpt lat="49.443969" lon="21.113877">
      <ele>917</ele>
      <time>2026-05-07T12:38:35Z</time>
    </trkpt>
    <trkpt lat="49.444168" lon="21.113475">
      <ele>913</ele>
      <time>2026-05-07T12:39:14Z</time>
    </trkpt>
    <trkpt lat="49.44436" lon="21.113035">
      <ele>906</ele>
      <time>2026-05-07T12:39:54Z</time>
    </trkpt>
    <trkpt lat="49.444496" lon="21.112649">
      <ele>902</ele>
      <time>2026-05-07T12:40:28Z</time>
    </trkpt>
    <trkpt lat="49.444625" lon="21.112268">
      <ele>899</ele>
      <time>2026-05-07T12:41:00Z</time>
    </trkpt>
    <trkpt lat="49.444712" lon="21.111984">
      <ele>898</ele>
      <time>2026-05-07T12:41:24Z</time>
    </trkpt>
    <trkpt lat="49.444803" lon="21.111694">
      <ele>895</ele>
      <time>2026-05-07T12:41:49Z</time>
    </trkpt>
    <trkpt lat="49.444806" lon="21.111485">
      <ele>894</ele>
      <time>2026-05-07T12:42:05Z</time>
    </trkpt>
    <trkpt lat="49.444869" lon="21.111308">
      <ele>893</ele>
      <time>2026-05-07T12:42:20Z</time>
    </trkpt>
    <trkpt lat="49.444988" lon="21.11112">
      <ele>895</ele>
      <time>2026-05-07T12:42:40Z</time>
    </trkpt>
    <trkpt lat="49.44511" lon="21.1109">
      <ele>894</ele>
      <time>2026-05-07T12:43:02Z</time>
    </trkpt>
    <trkpt lat="49.445368" lon="21.110187">
      <ele>896</ele>
      <time>2026-05-07T12:44:04Z</time>
    </trkpt>
    <trkpt lat="49.445612" lon="21.109677">
      <ele>900</ele>
      <time>2026-05-07T12:44:52Z</time>
    </trkpt>
    <trkpt lat="49.445863" lon="21.109237">
      <ele>902</ele>
      <time>2026-05-07T12:45:36Z</time>
    </trkpt>
    <trkpt lat="49.446059" lon="21.108813">
      <ele>902</ele>
      <time>2026-05-07T12:46:15Z</time>
    </trkpt>
    <trkpt lat="49.446219" lon="21.108502">
      <ele>902</ele>
      <time>2026-05-07T12:46:45Z</time>
    </trkpt>
    <trkpt lat="49.44647" lon="21.108078">
      <ele>897</ele>
      <time>2026-05-07T12:47:29Z</time>
    </trkpt>
    <trkpt lat="49.446665" lon="21.107864">
      <ele>892</ele>
      <time>2026-05-07T12:47:57Z</time>
    </trkpt>
    <trkpt lat="49.446896" lon="21.107585">
      <ele>887</ele>
      <time>2026-05-07T12:48:32Z</time>
    </trkpt>
    <trkpt lat="49.447" lon="21.107365">
      <ele>884</ele>
      <time>2026-05-07T12:48:53Z</time>
    </trkpt>
    <trkpt lat="49.44707" lon="21.107199">
      <ele>882</ele>
      <time>2026-05-07T12:49:08Z</time>
    </trkpt>
    <trkpt lat="49.447107" lon="21.106927">
      <ele>877</ele>
      <time>2026-05-07T12:49:30Z</time>
    </trkpt>
    <trkpt lat="49.447171" lon="21.106265">
      <ele>862</ele>
      <time>2026-05-07T12:50:23Z</time>
    </trkpt>
    <trkpt lat="49.447216" lon="21.105863">
      <ele>852</ele>
      <time>2026-05-07T12:50:55Z</time>
    </trkpt>
    <trkpt lat="49.447293" lon="21.105477">
      <ele>842</ele>
      <time>2026-05-07T12:51:28Z</time>
    </trkpt>
    <trkpt lat="49.447419" lon="21.104956">
      <ele>832</ele>
      <time>2026-05-07T12:52:11Z</time>
    </trkpt>
    <trkpt lat="49.447558" lon="21.104484">
      <ele>827</ele>
      <time>2026-05-07T12:52:51Z</time>
    </trkpt>
    <trkpt lat="49.447677" lon="21.104227">
      <ele>824</ele>
      <time>2026-05-07T12:53:15Z</time>
    </trkpt>
    <trkpt lat="49.447822" lon="21.103948">
      <ele>822</ele>
      <time>2026-05-07T12:53:42Z</time>
    </trkpt>
    <trkpt lat="49.448017" lon="21.104168">
      <ele>822</ele>
      <time>2026-05-07T12:54:10Z</time>
    </trkpt>
    <trkpt lat="49.448188" lon="21.104385">
      <ele>820</ele>
      <time>2026-05-07T12:54:36Z</time>
    </trkpt>
    <trkpt lat="49.448371" lon="21.104586">
      <ele>817</ele>
      <time>2026-05-07T12:55:02Z</time>
    </trkpt>
    <trkpt lat="49.448763" lon="21.104962">
      <ele>807</ele>
      <time>2026-05-07T12:55:57Z</time>
    </trkpt>
    <trkpt lat="49.448901" lon="21.105077">
      <ele>803</ele>
      <time>2026-05-07T12:56:16Z</time>
    </trkpt>
    <trkpt lat="49.449095" lon="21.105259">
      <ele>795</ele>
      <time>2026-05-07T12:56:43Z</time>
    </trkpt>
    <trkpt lat="49.449252" lon="21.105471">
      <ele>788</ele>
      <time>2026-05-07T12:57:09Z</time>
    </trkpt>
    <trkpt lat="49.449389" lon="21.105726">
      <ele>781</ele>
      <time>2026-05-07T12:57:35Z</time>
    </trkpt>
    <trkpt lat="49.449476" lon="21.106032">
      <ele>779</ele>
      <time>2026-05-07T12:58:00Z</time>
    </trkpt>
    <trkpt lat="49.449584" lon="21.106364">
      <ele>776</ele>
      <time>2026-05-07T12:58:29Z</time>
    </trkpt>
    <trkpt lat="49.449656" lon="21.106552">
      <ele>773</ele>
      <time>2026-05-07T12:58:45Z</time>
    </trkpt>
    <trkpt lat="49.449966" lon="21.107005">
      <ele>761</ele>
      <time>2026-05-07T12:59:37Z</time>
    </trkpt>
    <trkpt lat="49.450118" lon="21.107333">
      <ele>755</ele>
      <time>2026-05-07T13:00:08Z</time>
    </trkpt>
    <trkpt lat="49.450401" lon="21.107917">
      <ele>743</ele>
      <time>2026-05-07T13:01:04Z</time>
    </trkpt>
    <trkpt lat="49.450552" lon="21.108215">
      <ele>739</ele>
      <time>2026-05-07T13:01:33Z</time>
    </trkpt>
    <trkpt lat="49.450659" lon="21.108424">
      <ele>737</ele>
      <time>2026-05-07T13:01:54Z</time>
    </trkpt>
    <trkpt lat="49.450836" lon="21.108752">
      <ele>730</ele>
      <time>2026-05-07T13:02:26Z</time>
    </trkpt>
    <trkpt lat="49.451112" lon="21.109197">
      <ele>721</ele>
      <time>2026-05-07T13:03:14Z</time>
    </trkpt>
    <trkpt lat="49.451245" lon="21.109393">
      <ele>717</ele>
      <time>2026-05-07T13:03:36Z</time>
    </trkpt>
    <trkpt lat="49.451367" lon="21.109698">
      <ele>713</ele>
      <time>2026-05-07T13:04:03Z</time>
    </trkpt>
    <trkpt lat="49.451511" lon="21.110069">
      <ele>707</ele>
      <time>2026-05-07T13:04:37Z</time>
    </trkpt>
    <trkpt lat="49.451606" lon="21.110423">
      <ele>702</ele>
      <time>2026-05-07T13:05:06Z</time>
    </trkpt>
    <trkpt lat="49.451626" lon="21.110728">
      <ele>697</ele>
      <time>2026-05-07T13:05:30Z</time>
    </trkpt>
    <trkpt lat="49.451586" lon="21.11104">
      <ele>692</ele>
      <time>2026-05-07T13:05:54Z</time>
    </trkpt>
    <trkpt lat="49.451539" lon="21.111412">
      <ele>688</ele>
      <time>2026-05-07T13:06:23Z</time>
    </trkpt>
    <trkpt lat="49.451471" lon="21.111686">
      <ele>686</ele>
      <time>2026-05-07T13:06:46Z</time>
    </trkpt>
    <trkpt lat="49.45137" lon="21.112029">
      <ele>682</ele>
      <time>2026-05-07T13:07:15Z</time>
    </trkpt>
    <trkpt lat="49.451384" lon="21.112145">
      <ele>679</ele>
      <time>2026-05-07T13:07:24Z</time>
    </trkpt>
    <trkpt lat="49.451462" lon="21.112193">
      <ele>676</ele>
      <time>2026-05-07T13:07:34Z</time>
    </trkpt>
    <trkpt lat="49.45156" lon="21.112209">
      <ele>674</ele>
      <time>2026-05-07T13:07:46Z</time>
    </trkpt>
    <trkpt lat="49.451993" lon="21.112287">
      <ele>666</ele>
      <time>2026-05-07T13:08:37Z</time>
    </trkpt>
    <trkpt lat="49.452162" lon="21.112319">
      <ele>664</ele>
      <time>2026-05-07T13:08:57Z</time>
    </trkpt>
    <trkpt lat="49.452307" lon="21.1123">
      <ele>661</ele>
      <time>2026-05-07T13:09:14Z</time>
    </trkpt>
    <trkpt lat="49.452791" lon="21.112185">
      <ele>649</ele>
      <time>2026-05-07T13:10:13Z</time>
    </trkpt>
    <trkpt lat="49.453129" lon="21.112187">
      <ele>643</ele>
      <time>2026-05-07T13:10:53Z</time>
    </trkpt>
    <trkpt lat="49.453447" lon="21.112115">
      <ele>638</ele>
      <time>2026-05-07T13:11:30Z</time>
    </trkpt>
    <trkpt lat="49.453576" lon="21.112091">
      <ele>636</ele>
      <time>2026-05-07T13:11:46Z</time>
    </trkpt>
    <trkpt lat="49.45371" lon="21.111992">
      <ele>632</ele>
      <time>2026-05-07T13:12:04Z</time>
    </trkpt>
    <trkpt lat="49.454041" lon="21.111935">
      <ele>625</ele>
      <time>2026-05-07T13:12:43Z</time>
    </trkpt>
    <trkpt lat="49.454334" lon="21.111997">
      <ele>621</ele>
      <time>2026-05-07T13:13:18Z</time>
    </trkpt>
    <trkpt lat="49.454725" lon="21.112245">
      <ele>616</ele>
      <time>2026-05-07T13:14:07Z</time>
    </trkpt>
    <trkpt lat="49.455112" lon="21.112327">
      <ele>609</ele>
      <time>2026-05-07T13:14:53Z</time>
    </trkpt>
    <trkpt lat="49.455314" lon="21.112318">
      <ele>607</ele>
      <time>2026-05-07T13:15:17Z</time>
    </trkpt>
    <trkpt lat="49.455432" lon="21.112285">
      <ele>605</ele>
      <time>2026-05-07T13:15:31Z</time>
    </trkpt>
    <trkpt lat="49.45556" lon="21.112217">
      <ele>603</ele>
      <time>2026-05-07T13:15:47Z</time>
    </trkpt>
    <trkpt lat="49.455689" lon="21.112123">
      <ele>601</ele>
      <time>2026-05-07T13:16:04Z</time>
    </trkpt>
    <trkpt lat="49.45579" lon="21.112129">
      <ele>600</ele>
      <time>2026-05-07T13:16:16Z</time>
    </trkpt>
    <trkpt lat="49.456109" lon="21.112442">
      <ele>597</ele>
      <time>2026-05-07T13:17:00Z</time>
    </trkpt>
    <trkpt lat="49.45639" lon="21.112622">
      <ele>592</ele>
      <time>2026-05-07T13:17:35Z</time>
    </trkpt>
    <trkpt lat="49.456606" lon="21.112863">
      <ele>589</ele>
      <time>2026-05-07T13:18:07Z</time>
    </trkpt>
    <trkpt lat="49.456749" lon="21.112958">
      <ele>587</ele>
      <time>2026-05-07T13:18:25Z</time>
    </trkpt>
    <trkpt lat="49.456852" lon="21.113115">
      <ele>585</ele>
      <time>2026-05-07T13:18:38Z</time>
    </trkpt>
    <trkpt lat="49.457215" lon="21.11379">
      <ele>581</ele>
      <time>2026-05-07T13:19:29Z</time>
    </trkpt>
    <trkpt lat="49.457374" lon="21.114203">
      <ele>580</ele>
      <time>2026-05-07T13:19:57Z</time>
    </trkpt>
    <trkpt lat="49.457556" lon="21.114646">
      <ele>578</ele>
      <time>2026-05-07T13:20:28Z</time>
    </trkpt>
    <trkpt lat="49.457619" lon="21.114797">
      <ele>577</ele>
      <time>2026-05-07T13:20:38Z</time>
    </trkpt>
    <trkpt lat="49.457699" lon="21.11487">
      <ele>576</ele>
      <time>2026-05-07T13:20:46Z</time>
    </trkpt>
    <trkpt lat="49.457872" lon="21.11499">
      <ele>574</ele>
      <time>2026-05-07T13:21:03Z</time>
    </trkpt>
    <trkpt lat="49.458015" lon="21.1152">
      <ele>571</ele>
      <time>2026-05-07T13:21:21Z</time>
    </trkpt>
    <trkpt lat="49.458081" lon="21.115411">
      <ele>570</ele>
      <time>2026-05-07T13:21:35Z</time>
    </trkpt>
    <trkpt lat="49.45814" lon="21.115661">
      <ele>568</ele>
      <time>2026-05-07T13:21:50Z</time>
    </trkpt>
    <trkpt lat="49.458214" lon="21.115983">
      <ele>568</ele>
      <time>2026-05-07T13:22:10Z</time>
    </trkpt>
    <trkpt lat="49.458285" lon="21.116181">
      <ele>567</ele>
      <time>2026-05-07T13:22:23Z</time>
    </trkpt>
    <trkpt lat="49.458341" lon="21.116323">
      <ele>567</ele>
      <time>2026-05-07T13:22:33Z</time>
    </trkpt>
    <trkpt lat="49.458384" lon="21.116495">
      <ele>567</ele>
      <time>2026-05-07T13:22:44Z</time>
    </trkpt>
    <trkpt lat="49.458404" lon="21.116761">
      <ele>566</ele>
      <time>2026-05-07T13:22:59Z</time>
    </trkpt>
    <trkpt lat="49.458378" lon="21.11723">
      <ele>565</ele>
      <time>2026-05-07T13:23:27Z</time>
    </trkpt>
    <trkpt lat="49.458359" lon="21.117525">
      <ele>564</ele>
      <time>2026-05-07T13:23:44Z</time>
    </trkpt>
    <trkpt lat="49.458339" lon="21.11782">
      <ele>563</ele>
      <time>2026-05-07T13:24:01Z</time>
    </trkpt>
    <trkpt lat="49.458344" lon="21.118086">
      <ele>561</ele>
      <time>2026-05-07T13:24:17Z</time>
    </trkpt>
    <trkpt lat="49.458359" lon="21.11825">
      <ele>561</ele>
      <time>2026-05-07T13:24:26Z</time>
    </trkpt>
    <trkpt lat="49.458437" lon="21.119133">
      <ele>562</ele>
      <time>2026-05-07T13:25:18Z</time>
    </trkpt>
    <trkpt lat="49.458501" lon="21.119786">
      <ele>562</ele>
      <time>2026-05-07T13:25:57Z</time>
    </trkpt>
    <trkpt lat="49.458576" lon="21.120277">
      <ele>561</ele>
      <time>2026-05-07T13:26:26Z</time>
    </trkpt>
    <trkpt lat="49.458624" lon="21.120426">
      <ele>560</ele>
      <time>2026-05-07T13:26:36Z</time>
    </trkpt>
    <trkpt lat="49.458782" lon="21.120703">
      <ele>559</ele>
      <time>2026-05-07T13:26:57Z</time>
    </trkpt>
    <trkpt lat="49.458843" lon="21.120827">
      <ele>556</ele>
      <time>2026-05-07T13:27:06Z</time>
    </trkpt>
    <trkpt lat="49.458899" lon="21.120999">
      <ele>554</ele>
      <time>2026-05-07T13:27:18Z</time>
    </trkpt>
    <trkpt lat="49.458972" lon="21.121542">
      <ele>555</ele>
      <time>2026-05-07T13:27:50Z</time>
    </trkpt>
    <trkpt lat="49.45913" lon="21.122093">
      <ele>553</ele>
      <time>2026-05-07T13:28:25Z</time>
    </trkpt>
  </trkseg>
</trk>
</gpx>