<?xml version="1.0" encoding="UTF-8"?><gpx creator="https://mapa-turystyczna.pl" xmlns="http://www.topografix.com/GPX/1/1" version="1.1" xmlns:xsi="http://www.w3.org/2001/XMLSchema-instance" xsi:schemaLocation="http://www.topografix.com/GPX/1/1 http://www.topografix.com/GPX/1/1/gpx.xsd">
  <metadata>
    <link href="https://mapa-turystyczna.pl">
      <text>mapa-turystyczna.pl</text>
    </link>
    <time>2026-05-07T08:43:25Z</time>
    <bounds maxlat="49.43656" maxlon="21.178942" minlat="49.421371" minlon="21.102555"/>
  </metadata>

<trk>
  <name>Wysowa-Zdrój – Wysowa-Zdrój</name>
  <link href="https://mapa-turystyczna.pl/route/rsj5">
    <text>Wysowa-Zdrój – Wysowa-Zdrój</text>
  </link>
  <trkseg>
    <trkpt lat="49.435452" lon="21.178004">
      <ele>516</ele>
      <time>2026-05-07T08:43:25Z</time>
    </trkpt>
    <trkpt lat="49.435325" lon="21.178159">
      <ele>516</ele>
      <time>2026-05-07T08:43:43Z</time>
    </trkpt>
    <trkpt lat="49.435107" lon="21.178432">
      <ele>517</ele>
      <time>2026-05-07T08:44:13Z</time>
    </trkpt>
    <trkpt lat="49.434536" lon="21.178942">
      <ele>517</ele>
      <time>2026-05-07T08:45:25Z</time>
    </trkpt>
    <trkpt lat="49.434456" lon="21.178753">
      <ele>517</ele>
      <time>2026-05-07T08:45:42Z</time>
    </trkpt>
    <trkpt lat="49.434383" lon="21.178723">
      <ele>517</ele>
      <time>2026-05-07T08:45:50Z</time>
    </trkpt>
    <trkpt lat="49.434278" lon="21.17872">
      <ele>517</ele>
      <time>2026-05-07T08:46:02Z</time>
    </trkpt>
    <trkpt lat="49.433687" lon="21.178813">
      <ele>515</ele>
      <time>2026-05-07T08:47:09Z</time>
    </trkpt>
    <trkpt lat="49.433621" lon="21.178801">
      <ele>515</ele>
      <time>2026-05-07T08:47:17Z</time>
    </trkpt>
    <trkpt lat="49.433598" lon="21.178797">
      <ele>515</ele>
      <time>2026-05-07T08:47:19Z</time>
    </trkpt>
    <trkpt lat="49.433519" lon="21.178751">
      <ele>514</ele>
      <time>2026-05-07T08:47:29Z</time>
    </trkpt>
    <trkpt lat="49.433484" lon="21.178686">
      <ele>514</ele>
      <time>2026-05-07T08:47:35Z</time>
    </trkpt>
    <trkpt lat="49.433422" lon="21.178583">
      <ele>514</ele>
      <time>2026-05-07T08:47:45Z</time>
    </trkpt>
    <trkpt lat="49.4333" lon="21.178434">
      <ele>513</ele>
      <time>2026-05-07T08:48:03Z</time>
    </trkpt>
    <trkpt lat="49.433149" lon="21.178254">
      <ele>514</ele>
      <time>2026-05-07T08:48:24Z</time>
    </trkpt>
    <trkpt lat="49.433134" lon="21.178233">
      <ele>514</ele>
      <time>2026-05-07T08:48:27Z</time>
    </trkpt>
    <trkpt lat="49.433074" lon="21.17815">
      <ele>514</ele>
      <time>2026-05-07T08:48:36Z</time>
    </trkpt>
    <trkpt lat="49.432957" lon="21.177968">
      <ele>515</ele>
      <time>2026-05-07T08:48:55Z</time>
    </trkpt>
    <trkpt lat="49.43284" lon="21.177754">
      <ele>515</ele>
      <time>2026-05-07T08:49:15Z</time>
    </trkpt>
    <trkpt lat="49.432567" lon="21.177236">
      <ele>517</ele>
      <time>2026-05-07T08:50:04Z</time>
    </trkpt>
    <trkpt lat="49.432532" lon="21.17717">
      <ele>518</ele>
      <time>2026-05-07T08:50:10Z</time>
    </trkpt>
    <trkpt lat="49.432121" lon="21.176425">
      <ele>526</ele>
      <time>2026-05-07T08:51:23Z</time>
    </trkpt>
    <trkpt lat="49.431775" lon="21.175778">
      <ele>529</ele>
      <time>2026-05-07T08:52:24Z</time>
    </trkpt>
    <trkpt lat="49.431459" lon="21.175163">
      <ele>534</ele>
      <time>2026-05-07T08:53:22Z</time>
    </trkpt>
    <trkpt lat="49.430769" lon="21.173816">
      <ele>539</ele>
      <time>2026-05-07T08:55:28Z</time>
    </trkpt>
    <trkpt lat="49.430516" lon="21.173276">
      <ele>541</ele>
      <time>2026-05-07T08:56:17Z</time>
    </trkpt>
    <trkpt lat="49.430324" lon="21.172951">
      <ele>543</ele>
      <time>2026-05-07T08:56:49Z</time>
    </trkpt>
    <trkpt lat="49.429974" lon="21.172319">
      <ele>544</ele>
      <time>2026-05-07T08:57:50Z</time>
    </trkpt>
    <trkpt lat="49.429656" lon="21.171546">
      <ele>548</ele>
      <time>2026-05-07T08:58:58Z</time>
    </trkpt>
    <trkpt lat="49.429276" lon="21.170509">
      <ele>551</ele>
      <time>2026-05-07T09:00:25Z</time>
    </trkpt>
    <trkpt lat="49.428827" lon="21.169328">
      <ele>555</ele>
      <time>2026-05-07T09:02:44Z</time>
    </trkpt>
    <trkpt lat="49.428607" lon="21.168747">
      <ele>556</ele>
      <time>2026-05-07T09:03:52Z</time>
    </trkpt>
    <trkpt lat="49.428502" lon="21.16842">
      <ele>559</ele>
      <time>2026-05-07T09:04:30Z</time>
    </trkpt>
    <trkpt lat="49.428375" lon="21.168023">
      <ele>561</ele>
      <time>2026-05-07T09:05:15Z</time>
    </trkpt>
    <trkpt lat="49.428214" lon="21.167693">
      <ele>562</ele>
      <time>2026-05-07T09:05:57Z</time>
    </trkpt>
    <trkpt lat="49.427779" lon="21.166963">
      <ele>567</ele>
      <time>2026-05-07T09:07:38Z</time>
    </trkpt>
    <trkpt lat="49.427393" lon="21.166288">
      <ele>574</ele>
      <time>2026-05-07T09:09:10Z</time>
    </trkpt>
    <trkpt lat="49.42731" lon="21.166124">
      <ele>576</ele>
      <time>2026-05-07T09:09:31Z</time>
    </trkpt>
    <trkpt lat="49.427186" lon="21.165982">
      <ele>576</ele>
      <time>2026-05-07T09:09:55Z</time>
    </trkpt>
    <trkpt lat="49.42704" lon="21.165867">
      <ele>577</ele>
      <time>2026-05-07T09:10:21Z</time>
    </trkpt>
    <trkpt lat="49.426792" lon="21.165663">
      <ele>577</ele>
      <time>2026-05-07T09:11:05Z</time>
    </trkpt>
    <trkpt lat="49.426665" lon="21.165529">
      <ele>576</ele>
      <time>2026-05-07T09:11:29Z</time>
    </trkpt>
    <trkpt lat="49.426363" lon="21.16509">
      <ele>577</ele>
      <time>2026-05-07T09:12:34Z</time>
    </trkpt>
    <trkpt lat="49.426089" lon="21.164646">
      <ele>580</ele>
      <time>2026-05-07T09:13:36Z</time>
    </trkpt>
    <trkpt lat="49.42592" lon="21.164402">
      <ele>584</ele>
      <time>2026-05-07T09:14:12Z</time>
    </trkpt>
    <trkpt lat="49.425718" lon="21.164096">
      <ele>587</ele>
      <time>2026-05-07T09:14:57Z</time>
    </trkpt>
    <trkpt lat="49.425665" lon="21.16396">
      <ele>587</ele>
      <time>2026-05-07T09:15:13Z</time>
    </trkpt>
    <trkpt lat="49.425572" lon="21.163549">
      <ele>589</ele>
      <time>2026-05-07T09:15:57Z</time>
    </trkpt>
    <trkpt lat="49.425394" lon="21.163249">
      <ele>591</ele>
      <time>2026-05-07T09:16:39Z</time>
    </trkpt>
    <trkpt lat="49.425222" lon="21.16312">
      <ele>592</ele>
      <time>2026-05-07T09:17:09Z</time>
    </trkpt>
    <trkpt lat="49.424925" lon="21.162906">
      <ele>595</ele>
      <time>2026-05-07T09:18:00Z</time>
    </trkpt>
    <trkpt lat="49.424761" lon="21.162798">
      <ele>597</ele>
      <time>2026-05-07T09:18:28Z</time>
    </trkpt>
    <trkpt lat="49.424498" lon="21.1625">
      <ele>600</ele>
      <time>2026-05-07T09:19:19Z</time>
    </trkpt>
    <trkpt lat="49.424322" lon="21.162342">
      <ele>602</ele>
      <time>2026-05-07T09:19:51Z</time>
    </trkpt>
    <trkpt lat="49.423878" lon="21.161824">
      <ele>605</ele>
      <time>2026-05-07T09:21:19Z</time>
    </trkpt>
    <trkpt lat="49.423774" lon="21.161631">
      <ele>608</ele>
      <time>2026-05-07T09:21:44Z</time>
    </trkpt>
    <trkpt lat="49.423679" lon="21.161465">
      <ele>611</ele>
      <time>2026-05-07T09:22:07Z</time>
    </trkpt>
    <trkpt lat="49.423646" lon="21.161267">
      <ele>614</ele>
      <time>2026-05-07T09:22:28Z</time>
    </trkpt>
    <trkpt lat="49.42361" lon="21.161124">
      <ele>615</ele>
      <time>2026-05-07T09:22:44Z</time>
    </trkpt>
    <trkpt lat="49.423505" lon="21.160974">
      <ele>615</ele>
      <time>2026-05-07T09:23:06Z</time>
    </trkpt>
    <trkpt lat="49.423446" lon="21.160768">
      <ele>616</ele>
      <time>2026-05-07T09:23:29Z</time>
    </trkpt>
    <trkpt lat="49.423315" lon="21.160424">
      <ele>623</ele>
      <time>2026-05-07T09:24:11Z</time>
    </trkpt>
    <trkpt lat="49.423212" lon="21.160078">
      <ele>630</ele>
      <time>2026-05-07T09:24:51Z</time>
    </trkpt>
    <trkpt lat="49.42309" lon="21.159703">
      <ele>637</ele>
      <time>2026-05-07T09:25:35Z</time>
    </trkpt>
    <trkpt lat="49.422976" lon="21.159327">
      <ele>644</ele>
      <time>2026-05-07T09:26:18Z</time>
    </trkpt>
    <trkpt lat="49.422879" lon="21.158887">
      <ele>649</ele>
      <time>2026-05-07T09:27:06Z</time>
    </trkpt>
    <trkpt lat="49.422781" lon="21.158507">
      <ele>648</ele>
      <time>2026-05-07T09:27:47Z</time>
    </trkpt>
    <trkpt lat="49.422741" lon="21.15823">
      <ele>647</ele>
      <time>2026-05-07T09:28:16Z</time>
    </trkpt>
    <trkpt lat="49.422725" lon="21.15789">
      <ele>648</ele>
      <time>2026-05-07T09:28:51Z</time>
    </trkpt>
    <trkpt lat="49.422682" lon="21.15753">
      <ele>650</ele>
      <time>2026-05-07T09:29:28Z</time>
    </trkpt>
    <trkpt lat="49.422652" lon="21.157224">
      <ele>652</ele>
      <time>2026-05-07T09:30:00Z</time>
    </trkpt>
    <trkpt lat="49.422657" lon="21.156876">
      <ele>654</ele>
      <time>2026-05-07T09:30:35Z</time>
    </trkpt>
    <trkpt lat="49.422615" lon="21.15664">
      <ele>657</ele>
      <time>2026-05-07T09:31:00Z</time>
    </trkpt>
    <trkpt lat="49.422577" lon="21.15646">
      <ele>658</ele>
      <time>2026-05-07T09:31:20Z</time>
    </trkpt>
    <trkpt lat="49.422514" lon="21.156312">
      <ele>658</ele>
      <time>2026-05-07T09:31:38Z</time>
    </trkpt>
    <trkpt lat="49.422394" lon="21.156256">
      <ele>658</ele>
      <time>2026-05-07T09:31:57Z</time>
    </trkpt>
    <trkpt lat="49.422332" lon="21.156222">
      <ele>657</ele>
      <time>2026-05-07T09:32:08Z</time>
    </trkpt>
    <trkpt lat="49.422228" lon="21.156052">
      <ele>657</ele>
      <time>2026-05-07T09:32:31Z</time>
    </trkpt>
    <trkpt lat="49.422118" lon="21.155921">
      <ele>659</ele>
      <time>2026-05-07T09:32:53Z</time>
    </trkpt>
    <trkpt lat="49.422038" lon="21.155832">
      <ele>660</ele>
      <time>2026-05-07T09:33:09Z</time>
    </trkpt>
    <trkpt lat="49.421924" lon="21.155629">
      <ele>663</ele>
      <time>2026-05-07T09:33:36Z</time>
    </trkpt>
    <trkpt lat="49.421806" lon="21.155468">
      <ele>663</ele>
      <time>2026-05-07T09:34:01Z</time>
    </trkpt>
    <trkpt lat="49.421666" lon="21.155336">
      <ele>664</ele>
      <time>2026-05-07T09:34:26Z</time>
    </trkpt>
    <trkpt lat="49.421574" lon="21.15524">
      <ele>662</ele>
      <time>2026-05-07T09:34:44Z</time>
    </trkpt>
    <trkpt lat="49.421371" lon="21.155025">
      <ele>652</ele>
      <time>2026-05-07T09:35:25Z</time>
    </trkpt>
    <trkpt lat="49.421574" lon="21.154867">
      <ele>658</ele>
      <time>2026-05-07T09:36:03Z</time>
    </trkpt>
    <trkpt lat="49.421724" lon="21.154768">
      <ele>660</ele>
      <time>2026-05-07T09:36:29Z</time>
    </trkpt>
    <trkpt lat="49.421844" lon="21.154714">
      <ele>661</ele>
      <time>2026-05-07T09:36:49Z</time>
    </trkpt>
    <trkpt lat="49.421999" lon="21.154706">
      <ele>662</ele>
      <time>2026-05-07T09:37:14Z</time>
    </trkpt>
    <trkpt lat="49.422151" lon="21.154692">
      <ele>661</ele>
      <time>2026-05-07T09:37:39Z</time>
    </trkpt>
    <trkpt lat="49.422237" lon="21.154631">
      <ele>660</ele>
      <time>2026-05-07T09:37:54Z</time>
    </trkpt>
    <trkpt lat="49.422303" lon="21.154564">
      <ele>660</ele>
      <time>2026-05-07T09:38:07Z</time>
    </trkpt>
    <trkpt lat="49.42238" lon="21.154556">
      <ele>660</ele>
      <time>2026-05-07T09:38:19Z</time>
    </trkpt>
    <trkpt lat="49.422634" lon="21.154666">
      <ele>661</ele>
      <time>2026-05-07T09:39:02Z</time>
    </trkpt>
    <trkpt lat="49.422818" lon="21.154719">
      <ele>662</ele>
      <time>2026-05-07T09:39:32Z</time>
    </trkpt>
    <trkpt lat="49.422976" lon="21.154752">
      <ele>665</ele>
      <time>2026-05-07T09:39:58Z</time>
    </trkpt>
    <trkpt lat="49.423172" lon="21.154821">
      <ele>669</ele>
      <time>2026-05-07T09:40:31Z</time>
    </trkpt>
    <trkpt lat="49.423386" lon="21.154985">
      <ele>676</ele>
      <time>2026-05-07T09:41:10Z</time>
    </trkpt>
    <trkpt lat="49.423568" lon="21.15513">
      <ele>681</ele>
      <time>2026-05-07T09:41:44Z</time>
    </trkpt>
    <trkpt lat="49.423699" lon="21.155197">
      <ele>685</ele>
      <time>2026-05-07T09:42:07Z</time>
    </trkpt>
    <trkpt lat="49.423863" lon="21.155264">
      <ele>688</ele>
      <time>2026-05-07T09:42:35Z</time>
    </trkpt>
    <trkpt lat="49.424007" lon="21.155355">
      <ele>692</ele>
      <time>2026-05-07T09:43:00Z</time>
    </trkpt>
    <trkpt lat="49.424119" lon="21.155435">
      <ele>695</ele>
      <time>2026-05-07T09:43:21Z</time>
    </trkpt>
    <trkpt lat="49.424191" lon="21.155468">
      <ele>697</ele>
      <time>2026-05-07T09:43:33Z</time>
    </trkpt>
    <trkpt lat="49.424284" lon="21.155475">
      <ele>700</ele>
      <time>2026-05-07T09:43:48Z</time>
    </trkpt>
    <trkpt lat="49.424433" lon="21.155355">
      <ele>704</ele>
      <time>2026-05-07T09:44:16Z</time>
    </trkpt>
    <trkpt lat="49.424592" lon="21.155138">
      <ele>710</ele>
      <time>2026-05-07T09:44:52Z</time>
    </trkpt>
    <trkpt lat="49.424995" lon="21.154651">
      <ele>722</ele>
      <time>2026-05-07T09:46:16Z</time>
    </trkpt>
    <trkpt lat="49.425267" lon="21.154352">
      <ele>731</ele>
      <time>2026-05-07T09:47:11Z</time>
    </trkpt>
    <trkpt lat="49.425386" lon="21.154161">
      <ele>737</ele>
      <time>2026-05-07T09:47:40Z</time>
    </trkpt>
    <trkpt lat="49.425442" lon="21.153931">
      <ele>741</ele>
      <time>2026-05-07T09:48:06Z</time>
    </trkpt>
    <trkpt lat="49.425523" lon="21.15372">
      <ele>745</ele>
      <time>2026-05-07T09:48:33Z</time>
    </trkpt>
    <trkpt lat="49.425653" lon="21.153614">
      <ele>749</ele>
      <time>2026-05-07T09:48:57Z</time>
    </trkpt>
    <trkpt lat="49.425763" lon="21.15355">
      <ele>753</ele>
      <time>2026-05-07T09:49:17Z</time>
    </trkpt>
    <trkpt lat="49.425904" lon="21.153502">
      <ele>757</ele>
      <time>2026-05-07T09:49:41Z</time>
    </trkpt>
    <trkpt lat="49.425989" lon="21.153437">
      <ele>759</ele>
      <time>2026-05-07T09:49:56Z</time>
    </trkpt>
    <trkpt lat="49.426141" lon="21.153249">
      <ele>765</ele>
      <time>2026-05-07T09:50:29Z</time>
    </trkpt>
    <trkpt lat="49.426338" lon="21.153051">
      <ele>771</ele>
      <time>2026-05-07T09:51:08Z</time>
    </trkpt>
    <trkpt lat="49.426474" lon="21.152938">
      <ele>774</ele>
      <time>2026-05-07T09:51:33Z</time>
    </trkpt>
    <trkpt lat="49.426681" lon="21.152661">
      <ele>779</ele>
      <time>2026-05-07T09:52:17Z</time>
    </trkpt>
    <trkpt lat="49.426926" lon="21.152276">
      <ele>785</ele>
      <time>2026-05-07T09:53:15Z</time>
    </trkpt>
    <trkpt lat="49.427066" lon="21.151985">
      <ele>790</ele>
      <time>2026-05-07T09:53:53Z</time>
    </trkpt>
    <trkpt lat="49.427165" lon="21.151656">
      <ele>795</ele>
      <time>2026-05-07T09:54:32Z</time>
    </trkpt>
    <trkpt lat="49.427346" lon="21.151342">
      <ele>799</ele>
      <time>2026-05-07T09:55:16Z</time>
    </trkpt>
    <trkpt lat="49.427511" lon="21.151029">
      <ele>803</ele>
      <time>2026-05-07T09:55:59Z</time>
    </trkpt>
    <trkpt lat="49.427606" lon="21.150789">
      <ele>805</ele>
      <time>2026-05-07T09:56:28Z</time>
    </trkpt>
    <trkpt lat="49.42775" lon="21.150023">
      <ele>804</ele>
      <time>2026-05-07T09:57:51Z</time>
    </trkpt>
    <trkpt lat="49.427854" lon="21.149567">
      <ele>800</ele>
      <time>2026-05-07T09:58:42Z</time>
    </trkpt>
    <trkpt lat="49.427935" lon="21.149307">
      <ele>800</ele>
      <time>2026-05-07T09:59:12Z</time>
    </trkpt>
    <trkpt lat="49.427978" lon="21.149028">
      <ele>800</ele>
      <time>2026-05-07T09:59:42Z</time>
    </trkpt>
    <trkpt lat="49.428008" lon="21.148813">
      <ele>799</ele>
      <time>2026-05-07T10:00:05Z</time>
    </trkpt>
    <trkpt lat="49.428137" lon="21.148596">
      <ele>800</ele>
      <time>2026-05-07T10:00:36Z</time>
    </trkpt>
    <trkpt lat="49.428421" lon="21.148063">
      <ele>798</ele>
      <time>2026-05-07T10:01:48Z</time>
    </trkpt>
    <trkpt lat="49.42906" lon="21.146944">
      <ele>795</ele>
      <time>2026-05-07T10:04:24Z</time>
    </trkpt>
    <trkpt lat="49.429149" lon="21.146726">
      <ele>794</ele>
      <time>2026-05-07T10:04:51Z</time>
    </trkpt>
    <trkpt lat="49.429229" lon="21.146426">
      <ele>792</ele>
      <time>2026-05-07T10:05:25Z</time>
    </trkpt>
    <trkpt lat="49.429297" lon="21.146024">
      <ele>788</ele>
      <time>2026-05-07T10:06:09Z</time>
    </trkpt>
    <trkpt lat="49.429339" lon="21.145771">
      <ele>785</ele>
      <time>2026-05-07T10:06:37Z</time>
    </trkpt>
    <trkpt lat="49.429435" lon="21.145412">
      <ele>781</ele>
      <time>2026-05-07T10:07:18Z</time>
    </trkpt>
    <trkpt lat="49.429538" lon="21.145028">
      <ele>776</ele>
      <time>2026-05-07T10:08:02Z</time>
    </trkpt>
    <trkpt lat="49.429616" lon="21.144661">
      <ele>774</ele>
      <time>2026-05-07T10:08:42Z</time>
    </trkpt>
    <trkpt lat="49.429756" lon="21.144229">
      <ele>771</ele>
      <time>2026-05-07T10:09:33Z</time>
    </trkpt>
    <trkpt lat="49.429876" lon="21.143923">
      <ele>770</ele>
      <time>2026-05-07T10:10:10Z</time>
    </trkpt>
    <trkpt lat="49.430042" lon="21.143534">
      <ele>770</ele>
      <time>2026-05-07T10:10:59Z</time>
    </trkpt>
    <trkpt lat="49.430227" lon="21.143022">
      <ele>772</ele>
      <time>2026-05-07T10:12:00Z</time>
    </trkpt>
    <trkpt lat="49.430324" lon="21.142641">
      <ele>772</ele>
      <time>2026-05-07T10:12:43Z</time>
    </trkpt>
    <trkpt lat="49.430441" lon="21.142172">
      <ele>771</ele>
      <time>2026-05-07T10:13:36Z</time>
    </trkpt>
    <trkpt lat="49.430529" lon="21.141735">
      <ele>773</ele>
      <time>2026-05-07T10:14:23Z</time>
    </trkpt>
    <trkpt lat="49.430578" lon="21.141421">
      <ele>775</ele>
      <time>2026-05-07T10:14:57Z</time>
    </trkpt>
    <trkpt lat="49.430604" lon="21.140946">
      <ele>771</ele>
      <time>2026-05-07T10:15:48Z</time>
    </trkpt>
    <trkpt lat="49.430637" lon="21.140635">
      <ele>768</ele>
      <time>2026-05-07T10:16:21Z</time>
    </trkpt>
    <trkpt lat="49.430691" lon="21.140394">
      <ele>767</ele>
      <time>2026-05-07T10:16:47Z</time>
    </trkpt>
    <trkpt lat="49.430841" lon="21.140107">
      <ele>769</ele>
      <time>2026-05-07T10:17:26Z</time>
    </trkpt>
    <trkpt lat="49.431019" lon="21.139779">
      <ele>771</ele>
      <time>2026-05-07T10:18:11Z</time>
    </trkpt>
    <trkpt lat="49.4312" lon="21.139479">
      <ele>771</ele>
      <time>2026-05-07T10:18:54Z</time>
    </trkpt>
    <trkpt lat="49.431446" lon="21.139023">
      <ele>771</ele>
      <time>2026-05-07T10:19:56Z</time>
    </trkpt>
    <trkpt lat="49.431558" lon="21.138749">
      <ele>773</ele>
      <time>2026-05-07T10:20:30Z</time>
    </trkpt>
    <trkpt lat="49.431636" lon="21.13847">
      <ele>774</ele>
      <time>2026-05-07T10:21:01Z</time>
    </trkpt>
    <trkpt lat="49.431778" lon="21.138186">
      <ele>775</ele>
      <time>2026-05-07T10:21:39Z</time>
    </trkpt>
    <trkpt lat="49.432064" lon="21.137548">
      <ele>780</ele>
      <time>2026-05-07T10:23:00Z</time>
    </trkpt>
    <trkpt lat="49.432191" lon="21.137113">
      <ele>782</ele>
      <time>2026-05-07T10:23:50Z</time>
    </trkpt>
    <trkpt lat="49.432338" lon="21.136786">
      <ele>783</ele>
      <time>2026-05-07T10:24:32Z</time>
    </trkpt>
    <trkpt lat="49.432524" lon="21.136448">
      <ele>786</ele>
      <time>2026-05-07T10:25:18Z</time>
    </trkpt>
    <trkpt lat="49.432688" lon="21.136223">
      <ele>789</ele>
      <time>2026-05-07T10:25:54Z</time>
    </trkpt>
    <trkpt lat="49.432903" lon="21.135898">
      <ele>794</ele>
      <time>2026-05-07T10:26:43Z</time>
    </trkpt>
    <trkpt lat="49.433072" lon="21.135555">
      <ele>799</ele>
      <time>2026-05-07T10:27:28Z</time>
    </trkpt>
    <trkpt lat="49.433288" lon="21.135131">
      <ele>801</ele>
      <time>2026-05-07T10:28:25Z</time>
    </trkpt>
    <trkpt lat="49.433438" lon="21.13475">
      <ele>801</ele>
      <time>2026-05-07T10:29:11Z</time>
    </trkpt>
    <trkpt lat="49.433552" lon="21.134259">
      <ele>802</ele>
      <time>2026-05-07T10:30:06Z</time>
    </trkpt>
    <trkpt lat="49.433592" lon="21.133868">
      <ele>805</ele>
      <time>2026-05-07T10:30:48Z</time>
    </trkpt>
    <trkpt lat="49.433613" lon="21.133345">
      <ele>806</ele>
      <time>2026-05-07T10:31:42Z</time>
    </trkpt>
    <trkpt lat="49.433645" lon="21.133125">
      <ele>806</ele>
      <time>2026-05-07T10:32:06Z</time>
    </trkpt>
    <trkpt lat="49.433761" lon="21.132873">
      <ele>807</ele>
      <time>2026-05-07T10:32:38Z</time>
    </trkpt>
    <trkpt lat="49.434153" lon="21.132151">
      <ele>817</ele>
      <time>2026-05-07T10:34:18Z</time>
    </trkpt>
    <trkpt lat="49.434322" lon="21.1318">
      <ele>825</ele>
      <time>2026-05-07T10:35:05Z</time>
    </trkpt>
    <trkpt lat="49.434525" lon="21.13107">
      <ele>836</ele>
      <time>2026-05-07T10:36:29Z</time>
    </trkpt>
    <trkpt lat="49.434786" lon="21.129985">
      <ele>855</ele>
      <time>2026-05-07T10:38:34Z</time>
    </trkpt>
    <trkpt lat="49.434961" lon="21.129308">
      <ele>861</ele>
      <time>2026-05-07T10:39:50Z</time>
    </trkpt>
    <trkpt lat="49.435003" lon="21.129053">
      <ele>862</ele>
      <time>2026-05-07T10:40:18Z</time>
    </trkpt>
    <trkpt lat="49.435024" lon="21.128662">
      <ele>861</ele>
      <time>2026-05-07T10:40:59Z</time>
    </trkpt>
    <trkpt lat="49.435034" lon="21.128369">
      <ele>861</ele>
      <time>2026-05-07T10:41:30Z</time>
    </trkpt>
    <trkpt lat="49.435151" lon="21.127404">
      <ele>863</ele>
      <time>2026-05-07T10:43:12Z</time>
    </trkpt>
    <trkpt lat="49.435235" lon="21.126987">
      <ele>867</ele>
      <time>2026-05-07T10:43:58Z</time>
    </trkpt>
    <trkpt lat="49.435415" lon="21.126328">
      <ele>873</ele>
      <time>2026-05-07T10:45:14Z</time>
    </trkpt>
    <trkpt lat="49.435538" lon="21.126063">
      <ele>876</ele>
      <time>2026-05-07T10:45:48Z</time>
    </trkpt>
    <trkpt lat="49.43572" lon="21.125682">
      <ele>881</ele>
      <time>2026-05-07T10:46:38Z</time>
    </trkpt>
    <trkpt lat="49.435778" lon="21.125536">
      <ele>882</ele>
      <time>2026-05-07T10:46:56Z</time>
    </trkpt>
    <trkpt lat="49.436036" lon="21.124892">
      <ele>891</ele>
      <time>2026-05-07T10:48:16Z</time>
    </trkpt>
    <trkpt lat="49.436497" lon="21.124084">
      <ele>900</ele>
      <time>2026-05-07T10:50:09Z</time>
    </trkpt>
    <trkpt lat="49.43656" lon="21.123966">
      <ele>901</ele>
      <time>2026-05-07T10:50:25Z</time>
    </trkpt>
    <trkpt lat="49.436416" lon="21.123681">
      <ele>894</ele>
      <time>2026-05-07T10:51:03Z</time>
    </trkpt>
    <trkpt lat="49.43615" lon="21.123133">
      <ele>878</ele>
      <time>2026-05-07T10:52:16Z</time>
    </trkpt>
    <trkpt lat="49.435997" lon="21.122763">
      <ele>867</ele>
      <time>2026-05-07T10:53:03Z</time>
    </trkpt>
    <trkpt lat="49.435824" lon="21.122189">
      <ele>848</ele>
      <time>2026-05-07T10:54:13Z</time>
    </trkpt>
    <trkpt lat="49.435689" lon="21.121729">
      <ele>835</ele>
      <time>2026-05-07T10:55:08Z</time>
    </trkpt>
    <trkpt lat="49.435435" lon="21.121235">
      <ele>818</ele>
      <time>2026-05-07T10:56:16Z</time>
    </trkpt>
    <trkpt lat="49.435277" lon="21.120894">
      <ele>812</ele>
      <time>2026-05-07T10:57:00Z</time>
    </trkpt>
    <trkpt lat="49.435199" lon="21.120707">
      <ele>809</ele>
      <time>2026-05-07T10:57:23Z</time>
    </trkpt>
    <trkpt lat="49.435077" lon="21.120515">
      <ele>805</ele>
      <time>2026-05-07T10:57:50Z</time>
    </trkpt>
    <trkpt lat="49.434865" lon="21.120215">
      <ele>797</ele>
      <time>2026-05-07T10:58:37Z</time>
    </trkpt>
    <trkpt lat="49.434514" lon="21.119858">
      <ele>790</ele>
      <time>2026-05-07T10:59:43Z</time>
    </trkpt>
    <trkpt lat="49.433744" lon="21.11928">
      <ele>779</ele>
      <time>2026-05-07T11:01:59Z</time>
    </trkpt>
    <trkpt lat="49.433229" lon="21.118855">
      <ele>774</ele>
      <time>2026-05-07T11:03:30Z</time>
    </trkpt>
    <trkpt lat="49.432798" lon="21.118576">
      <ele>768</ele>
      <time>2026-05-07T11:04:44Z</time>
    </trkpt>
    <trkpt lat="49.432552" lon="21.118442">
      <ele>766</ele>
      <time>2026-05-07T11:05:25Z</time>
    </trkpt>
    <trkpt lat="49.431966" lon="21.11826">
      <ele>765</ele>
      <time>2026-05-07T11:06:59Z</time>
    </trkpt>
    <trkpt lat="49.43152" lon="21.118124">
      <ele>768</ele>
      <time>2026-05-07T11:08:10Z</time>
    </trkpt>
    <trkpt lat="49.431263" lon="21.117946">
      <ele>771</ele>
      <time>2026-05-07T11:08:54Z</time>
    </trkpt>
    <trkpt lat="49.430905" lon="21.117646">
      <ele>772</ele>
      <time>2026-05-07T11:09:58Z</time>
    </trkpt>
    <trkpt lat="49.430757" lon="21.117587">
      <ele>772</ele>
      <time>2026-05-07T11:10:22Z</time>
    </trkpt>
    <trkpt lat="49.43059" lon="21.11745">
      <ele>773</ele>
      <time>2026-05-07T11:10:52Z</time>
    </trkpt>
    <trkpt lat="49.430499" lon="21.117391">
      <ele>774</ele>
      <time>2026-05-07T11:11:07Z</time>
    </trkpt>
    <trkpt lat="49.430429" lon="21.117383">
      <ele>775</ele>
      <time>2026-05-07T11:11:18Z</time>
    </trkpt>
    <trkpt lat="49.43014" lon="21.117337">
      <ele>781</ele>
      <time>2026-05-07T11:12:04Z</time>
    </trkpt>
    <trkpt lat="49.429963" lon="21.117248">
      <ele>784</ele>
      <time>2026-05-07T11:12:34Z</time>
    </trkpt>
    <trkpt lat="49.429491" lon="21.11673">
      <ele>790</ele>
      <time>2026-05-07T11:14:05Z</time>
    </trkpt>
    <trkpt lat="49.428606" lon="21.11599">
      <ele>810</ele>
      <time>2026-05-07T11:16:45Z</time>
    </trkpt>
    <trkpt lat="49.427847" lon="21.115306">
      <ele>831</ele>
      <time>2026-05-07T11:19:06Z</time>
    </trkpt>
    <trkpt lat="49.427694" lon="21.115124">
      <ele>836</ele>
      <time>2026-05-07T11:19:38Z</time>
    </trkpt>
    <trkpt lat="49.427431" lon="21.114993">
      <ele>843</ele>
      <time>2026-05-07T11:20:22Z</time>
    </trkpt>
    <trkpt lat="49.427219" lon="21.11499">
      <ele>847</ele>
      <time>2026-05-07T11:20:56Z</time>
    </trkpt>
    <trkpt lat="49.426986" lon="21.114988">
      <ele>855</ele>
      <time>2026-05-07T11:21:34Z</time>
    </trkpt>
    <trkpt lat="49.426673" lon="21.114929">
      <ele>866</ele>
      <time>2026-05-07T11:22:25Z</time>
    </trkpt>
    <trkpt lat="49.426167" lon="21.114864">
      <ele>879</ele>
      <time>2026-05-07T11:23:47Z</time>
    </trkpt>
    <trkpt lat="49.426095" lon="21.114837">
      <ele>881</ele>
      <time>2026-05-07T11:23:59Z</time>
    </trkpt>
    <trkpt lat="49.425909" lon="21.114768">
      <ele>886</ele>
      <time>2026-05-07T11:24:30Z</time>
    </trkpt>
    <trkpt lat="49.425702" lon="21.114628">
      <ele>894</ele>
      <time>2026-05-07T11:25:07Z</time>
    </trkpt>
    <trkpt lat="49.42549" lon="21.11455">
      <ele>902</ele>
      <time>2026-05-07T11:25:43Z</time>
    </trkpt>
    <trkpt lat="49.425178" lon="21.114371">
      <ele>914</ele>
      <time>2026-05-07T11:26:38Z</time>
    </trkpt>
    <trkpt lat="49.425023" lon="21.114296">
      <ele>921</ele>
      <time>2026-05-07T11:27:05Z</time>
    </trkpt>
    <trkpt lat="49.424857" lon="21.114231">
      <ele>929</ele>
      <time>2026-05-07T11:27:34Z</time>
    </trkpt>
    <trkpt lat="49.424646" lon="21.114079">
      <ele>940</ele>
      <time>2026-05-07T11:28:13Z</time>
    </trkpt>
    <trkpt lat="49.424538" lon="21.113993">
      <ele>945</ele>
      <time>2026-05-07T11:28:34Z</time>
    </trkpt>
    <trkpt lat="49.424381" lon="21.113923">
      <ele>950</ele>
      <time>2026-05-07T11:29:00Z</time>
    </trkpt>
    <trkpt lat="49.424255" lon="21.113877">
      <ele>950</ele>
      <time>2026-05-07T11:29:21Z</time>
    </trkpt>
    <trkpt lat="49.424149" lon="21.113816">
      <ele>951</ele>
      <time>2026-05-07T11:29:38Z</time>
    </trkpt>
    <trkpt lat="49.424056" lon="21.113762">
      <ele>949</ele>
      <time>2026-05-07T11:29:54Z</time>
    </trkpt>
    <trkpt lat="49.424002" lon="21.113663">
      <ele>949</ele>
      <time>2026-05-07T11:30:07Z</time>
    </trkpt>
    <trkpt lat="49.424004" lon="21.113545">
      <ele>950</ele>
      <time>2026-05-07T11:30:19Z</time>
    </trkpt>
    <trkpt lat="49.424036" lon="21.113372">
      <ele>951</ele>
      <time>2026-05-07T11:30:38Z</time>
    </trkpt>
    <trkpt lat="49.424137" lon="21.112992">
      <ele>954</ele>
      <time>2026-05-07T11:31:20Z</time>
    </trkpt>
    <trkpt lat="49.424182" lon="21.112769">
      <ele>954</ele>
      <time>2026-05-07T11:31:44Z</time>
    </trkpt>
    <trkpt lat="49.424201" lon="21.112609">
      <ele>955</ele>
      <time>2026-05-07T11:32:00Z</time>
    </trkpt>
    <trkpt lat="49.424297" lon="21.111592">
      <ele>962</ele>
      <time>2026-05-07T11:33:45Z</time>
    </trkpt>
    <trkpt lat="49.424374" lon="21.110967">
      <ele>966</ele>
      <time>2026-05-07T11:34:50Z</time>
    </trkpt>
    <trkpt lat="49.424412" lon="21.110511">
      <ele>969</ele>
      <time>2026-05-07T11:35:37Z</time>
    </trkpt>
    <trkpt lat="49.424449" lon="21.110221">
      <ele>972</ele>
      <time>2026-05-07T11:36:08Z</time>
    </trkpt>
    <trkpt lat="49.424618" lon="21.109714">
      <ele>974</ele>
      <time>2026-05-07T11:37:06Z</time>
    </trkpt>
    <trkpt lat="49.424674" lon="21.109331">
      <ele>973</ele>
      <time>2026-05-07T11:37:46Z</time>
    </trkpt>
    <trkpt lat="49.424765" lon="21.109004">
      <ele>972</ele>
      <time>2026-05-07T11:38:22Z</time>
    </trkpt>
    <trkpt lat="49.425006" lon="21.107768">
      <ele>977</ele>
      <time>2026-05-07T11:40:34Z</time>
    </trkpt>
    <trkpt lat="49.425135" lon="21.10752">
      <ele>976</ele>
      <time>2026-05-07T11:41:06Z</time>
    </trkpt>
    <trkpt lat="49.425229" lon="21.107373">
      <ele>975</ele>
      <time>2026-05-07T11:41:27Z</time>
    </trkpt>
    <trkpt lat="49.425309" lon="21.107148">
      <ele>974</ele>
      <time>2026-05-07T11:41:53Z</time>
    </trkpt>
    <trkpt lat="49.425321" lon="21.106936">
      <ele>972</ele>
      <time>2026-05-07T11:42:15Z</time>
    </trkpt>
    <trkpt lat="49.425347" lon="21.106708">
      <ele>971</ele>
      <time>2026-05-07T11:42:39Z</time>
    </trkpt>
    <trkpt lat="49.425412" lon="21.106525">
      <ele>971</ele>
      <time>2026-05-07T11:43:00Z</time>
    </trkpt>
    <trkpt lat="49.425483" lon="21.106319">
      <ele>973</ele>
      <time>2026-05-07T11:43:24Z</time>
    </trkpt>
    <trkpt lat="49.425515" lon="21.106107">
      <ele>976</ele>
      <time>2026-05-07T11:43:46Z</time>
    </trkpt>
    <trkpt lat="49.425522" lon="21.105868">
      <ele>976</ele>
      <time>2026-05-07T11:44:11Z</time>
    </trkpt>
    <trkpt lat="49.425581" lon="21.105638">
      <ele>978</ele>
      <time>2026-05-07T11:44:36Z</time>
    </trkpt>
    <trkpt lat="49.42574" lon="21.105235">
      <ele>978</ele>
      <time>2026-05-07T11:45:24Z</time>
    </trkpt>
    <trkpt lat="49.425855" lon="21.104983">
      <ele>979</ele>
      <time>2026-05-07T11:45:55Z</time>
    </trkpt>
    <trkpt lat="49.425907" lon="21.104752">
      <ele>979</ele>
      <time>2026-05-07T11:46:20Z</time>
    </trkpt>
    <trkpt lat="49.426046" lon="21.104359">
      <ele>984</ele>
      <time>2026-05-07T11:47:06Z</time>
    </trkpt>
    <trkpt lat="49.426153" lon="21.103966">
      <ele>987</ele>
      <time>2026-05-07T11:47:50Z</time>
    </trkpt>
    <trkpt lat="49.42618" lon="21.103747">
      <ele>987</ele>
      <time>2026-05-07T11:48:12Z</time>
    </trkpt>
    <trkpt lat="49.426314" lon="21.103288">
      <ele>988</ele>
      <time>2026-05-07T11:49:04Z</time>
    </trkpt>
    <trkpt lat="49.426505" lon="21.102555">
      <ele>997</ele>
      <time>2026-05-07T11:50:25Z</time>
    </trkpt>
    <trkpt lat="49.426314" lon="21.103288">
      <ele>988</ele>
      <time>2026-05-07T11:51:33Z</time>
    </trkpt>
    <trkpt lat="49.42618" lon="21.103747">
      <ele>987</ele>
      <time>2026-05-07T11:52:15Z</time>
    </trkpt>
    <trkpt lat="49.426153" lon="21.103966">
      <ele>987</ele>
      <time>2026-05-07T11:52:34Z</time>
    </trkpt>
    <trkpt lat="49.426046" lon="21.104359">
      <ele>984</ele>
      <time>2026-05-07T11:53:11Z</time>
    </trkpt>
    <trkpt lat="49.425907" lon="21.104752">
      <ele>979</ele>
      <time>2026-05-07T11:53:49Z</time>
    </trkpt>
    <trkpt lat="49.425855" lon="21.104983">
      <ele>979</ele>
      <time>2026-05-07T11:54:10Z</time>
    </trkpt>
    <trkpt lat="49.42574" lon="21.105235">
      <ele>978</ele>
      <time>2026-05-07T11:54:36Z</time>
    </trkpt>
    <trkpt lat="49.425581" lon="21.105638">
      <ele>978</ele>
      <time>2026-05-07T11:55:16Z</time>
    </trkpt>
    <trkpt lat="49.425522" lon="21.105868">
      <ele>976</ele>
      <time>2026-05-07T11:55:37Z</time>
    </trkpt>
    <trkpt lat="49.425515" lon="21.106107">
      <ele>976</ele>
      <time>2026-05-07T11:55:57Z</time>
    </trkpt>
    <trkpt lat="49.425483" lon="21.106319">
      <ele>973</ele>
      <time>2026-05-07T11:56:16Z</time>
    </trkpt>
    <trkpt lat="49.425412" lon="21.106525">
      <ele>971</ele>
      <time>2026-05-07T11:56:36Z</time>
    </trkpt>
    <trkpt lat="49.425347" lon="21.106708">
      <ele>971</ele>
      <time>2026-05-07T11:56:54Z</time>
    </trkpt>
    <trkpt lat="49.425321" lon="21.106936">
      <ele>972</ele>
      <time>2026-05-07T11:57:13Z</time>
    </trkpt>
    <trkpt lat="49.425309" lon="21.107148">
      <ele>974</ele>
      <time>2026-05-07T11:57:32Z</time>
    </trkpt>
    <trkpt lat="49.425229" lon="21.107373">
      <ele>975</ele>
      <time>2026-05-07T11:57:53Z</time>
    </trkpt>
    <trkpt lat="49.425135" lon="21.10752">
      <ele>976</ele>
      <time>2026-05-07T11:58:11Z</time>
    </trkpt>
    <trkpt lat="49.425006" lon="21.107768">
      <ele>977</ele>
      <time>2026-05-07T11:58:38Z</time>
    </trkpt>
    <trkpt lat="49.424765" lon="21.109004">
      <ele>972</ele>
      <time>2026-05-07T12:00:27Z</time>
    </trkpt>
    <trkpt lat="49.424674" lon="21.109331">
      <ele>973</ele>
      <time>2026-05-07T12:00:58Z</time>
    </trkpt>
    <trkpt lat="49.424618" lon="21.109714">
      <ele>974</ele>
      <time>2026-05-07T12:01:31Z</time>
    </trkpt>
    <trkpt lat="49.424449" lon="21.110221">
      <ele>972</ele>
      <time>2026-05-07T12:02:19Z</time>
    </trkpt>
    <trkpt lat="49.424412" lon="21.110511">
      <ele>969</ele>
      <time>2026-05-07T12:02:45Z</time>
    </trkpt>
    <trkpt lat="49.424374" lon="21.110967">
      <ele>966</ele>
      <time>2026-05-07T12:03:24Z</time>
    </trkpt>
    <trkpt lat="49.424297" lon="21.111592">
      <ele>962</ele>
      <time>2026-05-07T12:04:18Z</time>
    </trkpt>
    <trkpt lat="49.424201" lon="21.112609">
      <ele>955</ele>
      <time>2026-05-07T12:05:46Z</time>
    </trkpt>
    <trkpt lat="49.424182" lon="21.112769">
      <ele>954</ele>
      <time>2026-05-07T12:06:00Z</time>
    </trkpt>
    <trkpt lat="49.424137" lon="21.112992">
      <ele>954</ele>
      <time>2026-05-07T12:06:19Z</time>
    </trkpt>
    <trkpt lat="49.424036" lon="21.113372">
      <ele>951</ele>
      <time>2026-05-07T12:06:54Z</time>
    </trkpt>
    <trkpt lat="49.424004" lon="21.113545">
      <ele>950</ele>
      <time>2026-05-07T12:07:10Z</time>
    </trkpt>
    <trkpt lat="49.424002" lon="21.113663">
      <ele>949</ele>
      <time>2026-05-07T12:07:20Z</time>
    </trkpt>
    <trkpt lat="49.424056" lon="21.113762">
      <ele>949</ele>
      <time>2026-05-07T12:07:31Z</time>
    </trkpt>
    <trkpt lat="49.424149" lon="21.113816">
      <ele>951</ele>
      <time>2026-05-07T12:07:44Z</time>
    </trkpt>
    <trkpt lat="49.424255" lon="21.113877">
      <ele>950</ele>
      <time>2026-05-07T12:07:59Z</time>
    </trkpt>
    <trkpt lat="49.424381" lon="21.113923">
      <ele>950</ele>
      <time>2026-05-07T12:08:16Z</time>
    </trkpt>
    <trkpt lat="49.424538" lon="21.113993">
      <ele>945</ele>
      <time>2026-05-07T12:08:38Z</time>
    </trkpt>
    <trkpt lat="49.424646" lon="21.114079">
      <ele>940</ele>
      <time>2026-05-07T12:08:55Z</time>
    </trkpt>
    <trkpt lat="49.424857" lon="21.114231">
      <ele>929</ele>
      <time>2026-05-07T12:09:27Z</time>
    </trkpt>
    <trkpt lat="49.425023" lon="21.114296">
      <ele>921</ele>
      <time>2026-05-07T12:09:52Z</time>
    </trkpt>
    <trkpt lat="49.425178" lon="21.114371">
      <ele>914</ele>
      <time>2026-05-07T12:10:14Z</time>
    </trkpt>
    <trkpt lat="49.42549" lon="21.11455">
      <ele>902</ele>
      <time>2026-05-07T12:11:00Z</time>
    </trkpt>
    <trkpt lat="49.425702" lon="21.114628">
      <ele>894</ele>
      <time>2026-05-07T12:11:30Z</time>
    </trkpt>
    <trkpt lat="49.425909" lon="21.114768">
      <ele>886</ele>
      <time>2026-05-07T12:12:01Z</time>
    </trkpt>
    <trkpt lat="49.426095" lon="21.114837">
      <ele>881</ele>
      <time>2026-05-07T12:12:27Z</time>
    </trkpt>
    <trkpt lat="49.426167" lon="21.114864">
      <ele>879</ele>
      <time>2026-05-07T12:12:37Z</time>
    </trkpt>
    <trkpt lat="49.426673" lon="21.114929">
      <ele>866</ele>
      <time>2026-05-07T12:13:45Z</time>
    </trkpt>
    <trkpt lat="49.426986" lon="21.114988">
      <ele>855</ele>
      <time>2026-05-07T12:14:28Z</time>
    </trkpt>
    <trkpt lat="49.427219" lon="21.11499">
      <ele>847</ele>
      <time>2026-05-07T12:15:00Z</time>
    </trkpt>
    <trkpt lat="49.427431" lon="21.114993">
      <ele>843</ele>
      <time>2026-05-07T12:15:28Z</time>
    </trkpt>
    <trkpt lat="49.427694" lon="21.115124">
      <ele>836</ele>
      <time>2026-05-07T12:16:05Z</time>
    </trkpt>
    <trkpt lat="49.427847" lon="21.115306">
      <ele>831</ele>
      <time>2026-05-07T12:16:31Z</time>
    </trkpt>
    <trkpt lat="49.428606" lon="21.11599">
      <ele>810</ele>
      <time>2026-05-07T12:18:28Z</time>
    </trkpt>
    <trkpt lat="49.429491" lon="21.11673">
      <ele>790</ele>
      <time>2026-05-07T12:20:42Z</time>
    </trkpt>
    <trkpt lat="49.429963" lon="21.117248">
      <ele>784</ele>
      <time>2026-05-07T12:21:58Z</time>
    </trkpt>
    <trkpt lat="49.43014" lon="21.117337">
      <ele>781</ele>
      <time>2026-05-07T12:22:22Z</time>
    </trkpt>
    <trkpt lat="49.430429" lon="21.117383">
      <ele>775</ele>
      <time>2026-05-07T12:23:01Z</time>
    </trkpt>
    <trkpt lat="49.430499" lon="21.117391">
      <ele>774</ele>
      <time>2026-05-07T12:23:10Z</time>
    </trkpt>
    <trkpt lat="49.43059" lon="21.11745">
      <ele>773</ele>
      <time>2026-05-07T12:23:23Z</time>
    </trkpt>
    <trkpt lat="49.430757" lon="21.117587">
      <ele>772</ele>
      <time>2026-05-07T12:23:48Z</time>
    </trkpt>
    <trkpt lat="49.430905" lon="21.117646">
      <ele>772</ele>
      <time>2026-05-07T12:24:07Z</time>
    </trkpt>
    <trkpt lat="49.431263" lon="21.117946">
      <ele>771</ele>
      <time>2026-05-07T12:25:01Z</time>
    </trkpt>
    <trkpt lat="49.43152" lon="21.118124">
      <ele>768</ele>
      <time>2026-05-07T12:25:38Z</time>
    </trkpt>
    <trkpt lat="49.431966" lon="21.11826">
      <ele>765</ele>
      <time>2026-05-07T12:26:37Z</time>
    </trkpt>
    <trkpt lat="49.432552" lon="21.118442">
      <ele>766</ele>
      <time>2026-05-07T12:27:55Z</time>
    </trkpt>
    <trkpt lat="49.432798" lon="21.118576">
      <ele>768</ele>
      <time>2026-05-07T12:28:29Z</time>
    </trkpt>
    <trkpt lat="49.433229" lon="21.118855">
      <ele>774</ele>
      <time>2026-05-07T12:29:31Z</time>
    </trkpt>
    <trkpt lat="49.433744" lon="21.11928">
      <ele>779</ele>
      <time>2026-05-07T12:30:47Z</time>
    </trkpt>
    <trkpt lat="49.434514" lon="21.119858">
      <ele>790</ele>
      <time>2026-05-07T12:32:40Z</time>
    </trkpt>
    <trkpt lat="49.434865" lon="21.120215">
      <ele>797</ele>
      <time>2026-05-07T12:33:35Z</time>
    </trkpt>
    <trkpt lat="49.435077" lon="21.120515">
      <ele>805</ele>
      <time>2026-05-07T12:34:14Z</time>
    </trkpt>
    <trkpt lat="49.435199" lon="21.120707">
      <ele>809</ele>
      <time>2026-05-07T12:34:37Z</time>
    </trkpt>
    <trkpt lat="49.435277" lon="21.120894">
      <ele>812</ele>
      <time>2026-05-07T12:34:56Z</time>
    </trkpt>
    <trkpt lat="49.435435" lon="21.121235">
      <ele>818</ele>
      <time>2026-05-07T12:35:33Z</time>
    </trkpt>
    <trkpt lat="49.435689" lon="21.121729">
      <ele>835</ele>
      <time>2026-05-07T12:36:30Z</time>
    </trkpt>
    <trkpt lat="49.435824" lon="21.122189">
      <ele>848</ele>
      <time>2026-05-07T12:37:15Z</time>
    </trkpt>
    <trkpt lat="49.435997" lon="21.122763">
      <ele>867</ele>
      <time>2026-05-07T12:38:13Z</time>
    </trkpt>
    <trkpt lat="49.43615" lon="21.123133">
      <ele>878</ele>
      <time>2026-05-07T12:38:53Z</time>
    </trkpt>
    <trkpt lat="49.436416" lon="21.123681">
      <ele>894</ele>
      <time>2026-05-07T12:39:54Z</time>
    </trkpt>
    <trkpt lat="49.43656" lon="21.123966">
      <ele>901</ele>
      <time>2026-05-07T12:40:25Z</time>
    </trkpt>
    <trkpt lat="49.436497" lon="21.124084">
      <ele>900</ele>
      <time>2026-05-07T12:40:36Z</time>
    </trkpt>
    <trkpt lat="49.436036" lon="21.124892">
      <ele>891</ele>
      <time>2026-05-07T12:41:51Z</time>
    </trkpt>
    <trkpt lat="49.435778" lon="21.125536">
      <ele>882</ele>
      <time>2026-05-07T12:42:45Z</time>
    </trkpt>
    <trkpt lat="49.43572" lon="21.125682">
      <ele>881</ele>
      <time>2026-05-07T12:42:57Z</time>
    </trkpt>
    <trkpt lat="49.435538" lon="21.126063">
      <ele>876</ele>
      <time>2026-05-07T12:43:30Z</time>
    </trkpt>
    <trkpt lat="49.435415" lon="21.126328">
      <ele>873</ele>
      <time>2026-05-07T12:43:53Z</time>
    </trkpt>
    <trkpt lat="49.435235" lon="21.126987">
      <ele>867</ele>
      <time>2026-05-07T12:44:43Z</time>
    </trkpt>
    <trkpt lat="49.435151" lon="21.127404">
      <ele>863</ele>
      <time>2026-05-07T12:45:14Z</time>
    </trkpt>
    <trkpt lat="49.435034" lon="21.128369">
      <ele>861</ele>
      <time>2026-05-07T12:46:22Z</time>
    </trkpt>
    <trkpt lat="49.435024" lon="21.128662">
      <ele>861</ele>
      <time>2026-05-07T12:46:42Z</time>
    </trkpt>
    <trkpt lat="49.435003" lon="21.129053">
      <ele>862</ele>
      <time>2026-05-07T12:47:10Z</time>
    </trkpt>
    <trkpt lat="49.434961" lon="21.129308">
      <ele>861</ele>
      <time>2026-05-07T12:47:28Z</time>
    </trkpt>
    <trkpt lat="49.434786" lon="21.129985">
      <ele>855</ele>
      <time>2026-05-07T12:48:19Z</time>
    </trkpt>
    <trkpt lat="49.434525" lon="21.13107">
      <ele>836</ele>
      <time>2026-05-07T12:49:42Z</time>
    </trkpt>
    <trkpt lat="49.434322" lon="21.1318">
      <ele>825</ele>
      <time>2026-05-07T12:50:38Z</time>
    </trkpt>
    <trkpt lat="49.434153" lon="21.132151">
      <ele>817</ele>
      <time>2026-05-07T12:51:10Z</time>
    </trkpt>
    <trkpt lat="49.433761" lon="21.132873">
      <ele>807</ele>
      <time>2026-05-07T12:52:16Z</time>
    </trkpt>
    <trkpt lat="49.433645" lon="21.133125">
      <ele>806</ele>
      <time>2026-05-07T12:52:38Z</time>
    </trkpt>
    <trkpt lat="49.433613" lon="21.133345">
      <ele>806</ele>
      <time>2026-05-07T12:52:53Z</time>
    </trkpt>
    <trkpt lat="49.433592" lon="21.133868">
      <ele>805</ele>
      <time>2026-05-07T12:53:30Z</time>
    </trkpt>
    <trkpt lat="49.433552" lon="21.134259">
      <ele>802</ele>
      <time>2026-05-07T12:53:58Z</time>
    </trkpt>
    <trkpt lat="49.433438" lon="21.13475">
      <ele>801</ele>
      <time>2026-05-07T12:54:34Z</time>
    </trkpt>
    <trkpt lat="49.433288" lon="21.135131">
      <ele>801</ele>
      <time>2026-05-07T12:55:05Z</time>
    </trkpt>
    <trkpt lat="49.433072" lon="21.135555">
      <ele>799</ele>
      <time>2026-05-07T12:55:43Z</time>
    </trkpt>
    <trkpt lat="49.432903" lon="21.135898">
      <ele>794</ele>
      <time>2026-05-07T12:56:13Z</time>
    </trkpt>
    <trkpt lat="49.432688" lon="21.136223">
      <ele>789</ele>
      <time>2026-05-07T12:56:46Z</time>
    </trkpt>
    <trkpt lat="49.432524" lon="21.136448">
      <ele>786</ele>
      <time>2026-05-07T12:57:09Z</time>
    </trkpt>
    <trkpt lat="49.432338" lon="21.136786">
      <ele>783</ele>
      <time>2026-05-07T12:57:40Z</time>
    </trkpt>
    <trkpt lat="49.432191" lon="21.137113">
      <ele>782</ele>
      <time>2026-05-07T12:58:08Z</time>
    </trkpt>
    <trkpt lat="49.432064" lon="21.137548">
      <ele>780</ele>
      <time>2026-05-07T12:58:42Z</time>
    </trkpt>
    <trkpt lat="49.431778" lon="21.138186">
      <ele>775</ele>
      <time>2026-05-07T12:59:36Z</time>
    </trkpt>
    <trkpt lat="49.431636" lon="21.13847">
      <ele>774</ele>
      <time>2026-05-07T13:00:01Z</time>
    </trkpt>
    <trkpt lat="49.431558" lon="21.138749">
      <ele>773</ele>
      <time>2026-05-07T13:00:22Z</time>
    </trkpt>
    <trkpt lat="49.431446" lon="21.139023">
      <ele>771</ele>
      <time>2026-05-07T13:00:45Z</time>
    </trkpt>
    <trkpt lat="49.4312" lon="21.139479">
      <ele>771</ele>
      <time>2026-05-07T13:01:26Z</time>
    </trkpt>
    <trkpt lat="49.431019" lon="21.139779">
      <ele>771</ele>
      <time>2026-05-07T13:01:54Z</time>
    </trkpt>
    <trkpt lat="49.430841" lon="21.140107">
      <ele>769</ele>
      <time>2026-05-07T13:02:24Z</time>
    </trkpt>
    <trkpt lat="49.430691" lon="21.140394">
      <ele>767</ele>
      <time>2026-05-07T13:02:50Z</time>
    </trkpt>
    <trkpt lat="49.430637" lon="21.140635">
      <ele>768</ele>
      <time>2026-05-07T13:03:08Z</time>
    </trkpt>
    <trkpt lat="49.430604" lon="21.140946">
      <ele>771</ele>
      <time>2026-05-07T13:03:30Z</time>
    </trkpt>
    <trkpt lat="49.430578" lon="21.141421">
      <ele>775</ele>
      <time>2026-05-07T13:04:03Z</time>
    </trkpt>
    <trkpt lat="49.430529" lon="21.141735">
      <ele>773</ele>
      <time>2026-05-07T13:04:26Z</time>
    </trkpt>
    <trkpt lat="49.430441" lon="21.142172">
      <ele>771</ele>
      <time>2026-05-07T13:04:58Z</time>
    </trkpt>
    <trkpt lat="49.430324" lon="21.142641">
      <ele>772</ele>
      <time>2026-05-07T13:05:33Z</time>
    </trkpt>
    <trkpt lat="49.430227" lon="21.143022">
      <ele>772</ele>
      <time>2026-05-07T13:06:02Z</time>
    </trkpt>
    <trkpt lat="49.430042" lon="21.143534">
      <ele>770</ele>
      <time>2026-05-07T13:06:42Z</time>
    </trkpt>
    <trkpt lat="49.429876" lon="21.143923">
      <ele>770</ele>
      <time>2026-05-07T13:07:15Z</time>
    </trkpt>
    <trkpt lat="49.429756" lon="21.144229">
      <ele>771</ele>
      <time>2026-05-07T13:07:40Z</time>
    </trkpt>
    <trkpt lat="49.429616" lon="21.144661">
      <ele>774</ele>
      <time>2026-05-07T13:08:14Z</time>
    </trkpt>
    <trkpt lat="49.429538" lon="21.145028">
      <ele>776</ele>
      <time>2026-05-07T13:08:41Z</time>
    </trkpt>
    <trkpt lat="49.429435" lon="21.145412">
      <ele>781</ele>
      <time>2026-05-07T13:09:10Z</time>
    </trkpt>
    <trkpt lat="49.429339" lon="21.145771">
      <ele>785</ele>
      <time>2026-05-07T13:09:37Z</time>
    </trkpt>
    <trkpt lat="49.429297" lon="21.146024">
      <ele>788</ele>
      <time>2026-05-07T13:09:56Z</time>
    </trkpt>
    <trkpt lat="49.429229" lon="21.146426">
      <ele>792</ele>
      <time>2026-05-07T13:10:25Z</time>
    </trkpt>
    <trkpt lat="49.429149" lon="21.146726">
      <ele>794</ele>
      <time>2026-05-07T13:10:48Z</time>
    </trkpt>
    <trkpt lat="49.42906" lon="21.146944">
      <ele>795</ele>
      <time>2026-05-07T13:11:06Z</time>
    </trkpt>
    <trkpt lat="49.428421" lon="21.148063">
      <ele>798</ele>
      <time>2026-05-07T13:12:49Z</time>
    </trkpt>
    <trkpt lat="49.428137" lon="21.148596">
      <ele>800</ele>
      <time>2026-05-07T13:13:38Z</time>
    </trkpt>
    <trkpt lat="49.428008" lon="21.148813">
      <ele>799</ele>
      <time>2026-05-07T13:13:58Z</time>
    </trkpt>
    <trkpt lat="49.427978" lon="21.149028">
      <ele>800</ele>
      <time>2026-05-07T13:14:13Z</time>
    </trkpt>
    <trkpt lat="49.427935" lon="21.149307">
      <ele>800</ele>
      <time>2026-05-07T13:14:33Z</time>
    </trkpt>
    <trkpt lat="49.427854" lon="21.149567">
      <ele>800</ele>
      <time>2026-05-07T13:14:53Z</time>
    </trkpt>
    <trkpt lat="49.42775" lon="21.150023">
      <ele>804</ele>
      <time>2026-05-07T13:15:27Z</time>
    </trkpt>
    <trkpt lat="49.427606" lon="21.150789">
      <ele>805</ele>
      <time>2026-05-07T13:16:23Z</time>
    </trkpt>
    <trkpt lat="49.427511" lon="21.151029">
      <ele>803</ele>
      <time>2026-05-07T13:16:43Z</time>
    </trkpt>
    <trkpt lat="49.427346" lon="21.151342">
      <ele>799</ele>
      <time>2026-05-07T13:17:11Z</time>
    </trkpt>
    <trkpt lat="49.427165" lon="21.151656">
      <ele>795</ele>
      <time>2026-05-07T13:17:40Z</time>
    </trkpt>
    <trkpt lat="49.427066" lon="21.151985">
      <ele>790</ele>
      <time>2026-05-07T13:18:06Z</time>
    </trkpt>
    <trkpt lat="49.426926" lon="21.152276">
      <ele>785</ele>
      <time>2026-05-07T13:18:32Z</time>
    </trkpt>
    <trkpt lat="49.426681" lon="21.152661">
      <ele>779</ele>
      <time>2026-05-07T13:19:10Z</time>
    </trkpt>
    <trkpt lat="49.426474" lon="21.152938">
      <ele>774</ele>
      <time>2026-05-07T13:19:40Z</time>
    </trkpt>
    <trkpt lat="49.426338" lon="21.153051">
      <ele>771</ele>
      <time>2026-05-07T13:19:57Z</time>
    </trkpt>
    <trkpt lat="49.426141" lon="21.153249">
      <ele>765</ele>
      <time>2026-05-07T13:20:22Z</time>
    </trkpt>
    <trkpt lat="49.425989" lon="21.153437">
      <ele>759</ele>
      <time>2026-05-07T13:20:44Z</time>
    </trkpt>
    <trkpt lat="49.425904" lon="21.153502">
      <ele>757</ele>
      <time>2026-05-07T13:20:55Z</time>
    </trkpt>
    <trkpt lat="49.425763" lon="21.15355">
      <ele>753</ele>
      <time>2026-05-07T13:21:10Z</time>
    </trkpt>
    <trkpt lat="49.425653" lon="21.153614">
      <ele>749</ele>
      <time>2026-05-07T13:21:24Z</time>
    </trkpt>
    <trkpt lat="49.425523" lon="21.15372">
      <ele>745</ele>
      <time>2026-05-07T13:21:40Z</time>
    </trkpt>
    <trkpt lat="49.425442" lon="21.153931">
      <ele>741</ele>
      <time>2026-05-07T13:21:57Z</time>
    </trkpt>
    <trkpt lat="49.425386" lon="21.154161">
      <ele>737</ele>
      <time>2026-05-07T13:22:15Z</time>
    </trkpt>
    <trkpt lat="49.425267" lon="21.154352">
      <ele>731</ele>
      <time>2026-05-07T13:22:34Z</time>
    </trkpt>
    <trkpt lat="49.424995" lon="21.154651">
      <ele>722</ele>
      <time>2026-05-07T13:23:11Z</time>
    </trkpt>
    <trkpt lat="49.424592" lon="21.155138">
      <ele>710</ele>
      <time>2026-05-07T13:24:07Z</time>
    </trkpt>
    <trkpt lat="49.424433" lon="21.155355">
      <ele>704</ele>
      <time>2026-05-07T13:24:31Z</time>
    </trkpt>
    <trkpt lat="49.424284" lon="21.155475">
      <ele>700</ele>
      <time>2026-05-07T13:24:49Z</time>
    </trkpt>
    <trkpt lat="49.424191" lon="21.155468">
      <ele>697</ele>
      <time>2026-05-07T13:25:00Z</time>
    </trkpt>
    <trkpt lat="49.424119" lon="21.155435">
      <ele>695</ele>
      <time>2026-05-07T13:25:08Z</time>
    </trkpt>
    <trkpt lat="49.424007" lon="21.155355">
      <ele>692</ele>
      <time>2026-05-07T13:25:21Z</time>
    </trkpt>
    <trkpt lat="49.423863" lon="21.155264">
      <ele>688</ele>
      <time>2026-05-07T13:25:39Z</time>
    </trkpt>
    <trkpt lat="49.423699" lon="21.155197">
      <ele>685</ele>
      <time>2026-05-07T13:25:57Z</time>
    </trkpt>
    <trkpt lat="49.423568" lon="21.15513">
      <ele>681</ele>
      <time>2026-05-07T13:26:12Z</time>
    </trkpt>
    <trkpt lat="49.423386" lon="21.154985">
      <ele>676</ele>
      <time>2026-05-07T13:26:35Z</time>
    </trkpt>
    <trkpt lat="49.423172" lon="21.154821">
      <ele>669</ele>
      <time>2026-05-07T13:27:01Z</time>
    </trkpt>
    <trkpt lat="49.422976" lon="21.154752">
      <ele>665</ele>
      <time>2026-05-07T13:27:23Z</time>
    </trkpt>
    <trkpt lat="49.422818" lon="21.154719">
      <ele>662</ele>
      <time>2026-05-07T13:27:41Z</time>
    </trkpt>
    <trkpt lat="49.422634" lon="21.154666">
      <ele>661</ele>
      <time>2026-05-07T13:28:01Z</time>
    </trkpt>
    <trkpt lat="49.42238" lon="21.154556">
      <ele>660</ele>
      <time>2026-05-07T13:28:29Z</time>
    </trkpt>
    <trkpt lat="49.422303" lon="21.154564">
      <ele>660</ele>
      <time>2026-05-07T13:28:37Z</time>
    </trkpt>
    <trkpt lat="49.422237" lon="21.154631">
      <ele>660</ele>
      <time>2026-05-07T13:28:46Z</time>
    </trkpt>
    <trkpt lat="49.422151" lon="21.154692">
      <ele>661</ele>
      <time>2026-05-07T13:28:56Z</time>
    </trkpt>
    <trkpt lat="49.421999" lon="21.154706">
      <ele>662</ele>
      <time>2026-05-07T13:29:12Z</time>
    </trkpt>
    <trkpt lat="49.421844" lon="21.154714">
      <ele>661</ele>
      <time>2026-05-07T13:29:29Z</time>
    </trkpt>
    <trkpt lat="49.421724" lon="21.154768">
      <ele>660</ele>
      <time>2026-05-07T13:29:42Z</time>
    </trkpt>
    <trkpt lat="49.421574" lon="21.154867">
      <ele>658</ele>
      <time>2026-05-07T13:30:00Z</time>
    </trkpt>
    <trkpt lat="49.421371" lon="21.155025">
      <ele>652</ele>
      <time>2026-05-07T13:30:25Z</time>
    </trkpt>
    <trkpt lat="49.421574" lon="21.15524">
      <ele>662</ele>
      <time>2026-05-07T13:30:54Z</time>
    </trkpt>
    <trkpt lat="49.421666" lon="21.155336">
      <ele>664</ele>
      <time>2026-05-07T13:31:07Z</time>
    </trkpt>
    <trkpt lat="49.421806" lon="21.155468">
      <ele>663</ele>
      <time>2026-05-07T13:31:25Z</time>
    </trkpt>
    <trkpt lat="49.421924" lon="21.155629">
      <ele>663</ele>
      <time>2026-05-07T13:31:43Z</time>
    </trkpt>
    <trkpt lat="49.422038" lon="21.155832">
      <ele>660</ele>
      <time>2026-05-07T13:32:02Z</time>
    </trkpt>
    <trkpt lat="49.422118" lon="21.155921">
      <ele>659</ele>
      <time>2026-05-07T13:32:13Z</time>
    </trkpt>
    <trkpt lat="49.422228" lon="21.156052">
      <ele>657</ele>
      <time>2026-05-07T13:32:29Z</time>
    </trkpt>
    <trkpt lat="49.422332" lon="21.156222">
      <ele>657</ele>
      <time>2026-05-07T13:32:46Z</time>
    </trkpt>
    <trkpt lat="49.422394" lon="21.156256">
      <ele>658</ele>
      <time>2026-05-07T13:32:53Z</time>
    </trkpt>
    <trkpt lat="49.422514" lon="21.156312">
      <ele>658</ele>
      <time>2026-05-07T13:33:07Z</time>
    </trkpt>
    <trkpt lat="49.422577" lon="21.15646">
      <ele>658</ele>
      <time>2026-05-07T13:33:20Z</time>
    </trkpt>
    <trkpt lat="49.422615" lon="21.15664">
      <ele>657</ele>
      <time>2026-05-07T13:33:34Z</time>
    </trkpt>
    <trkpt lat="49.422657" lon="21.156876">
      <ele>654</ele>
      <time>2026-05-07T13:33:52Z</time>
    </trkpt>
    <trkpt lat="49.422652" lon="21.157224">
      <ele>652</ele>
      <time>2026-05-07T13:34:17Z</time>
    </trkpt>
    <trkpt lat="49.422682" lon="21.15753">
      <ele>650</ele>
      <time>2026-05-07T13:34:40Z</time>
    </trkpt>
    <trkpt lat="49.422725" lon="21.15789">
      <ele>648</ele>
      <time>2026-05-07T13:35:07Z</time>
    </trkpt>
    <trkpt lat="49.422741" lon="21.15823">
      <ele>647</ele>
      <time>2026-05-07T13:35:31Z</time>
    </trkpt>
    <trkpt lat="49.422781" lon="21.158507">
      <ele>648</ele>
      <time>2026-05-07T13:35:52Z</time>
    </trkpt>
    <trkpt lat="49.422879" lon="21.158887">
      <ele>649</ele>
      <time>2026-05-07T13:36:22Z</time>
    </trkpt>
    <trkpt lat="49.422976" lon="21.159327">
      <ele>644</ele>
      <time>2026-05-07T13:36:56Z</time>
    </trkpt>
    <trkpt lat="49.42309" lon="21.159703">
      <ele>637</ele>
      <time>2026-05-07T13:37:27Z</time>
    </trkpt>
    <trkpt lat="49.423212" lon="21.160078">
      <ele>630</ele>
      <time>2026-05-07T13:37:58Z</time>
    </trkpt>
    <trkpt lat="49.423315" lon="21.160424">
      <ele>623</ele>
      <time>2026-05-07T13:38:27Z</time>
    </trkpt>
    <trkpt lat="49.423446" lon="21.160768">
      <ele>616</ele>
      <time>2026-05-07T13:38:56Z</time>
    </trkpt>
    <trkpt lat="49.423505" lon="21.160974">
      <ele>615</ele>
      <time>2026-05-07T13:39:13Z</time>
    </trkpt>
    <trkpt lat="49.42361" lon="21.161124">
      <ele>615</ele>
      <time>2026-05-07T13:39:29Z</time>
    </trkpt>
    <trkpt lat="49.423646" lon="21.161267">
      <ele>614</ele>
      <time>2026-05-07T13:39:40Z</time>
    </trkpt>
    <trkpt lat="49.423679" lon="21.161465">
      <ele>611</ele>
      <time>2026-05-07T13:39:55Z</time>
    </trkpt>
    <trkpt lat="49.423774" lon="21.161631">
      <ele>608</ele>
      <time>2026-05-07T13:40:11Z</time>
    </trkpt>
    <trkpt lat="49.423878" lon="21.161824">
      <ele>605</ele>
      <time>2026-05-07T13:40:30Z</time>
    </trkpt>
    <trkpt lat="49.424322" lon="21.162342">
      <ele>602</ele>
      <time>2026-05-07T13:41:32Z</time>
    </trkpt>
    <trkpt lat="49.424498" lon="21.1625">
      <ele>600</ele>
      <time>2026-05-07T13:41:55Z</time>
    </trkpt>
    <trkpt lat="49.424761" lon="21.162798">
      <ele>597</ele>
      <time>2026-05-07T13:42:31Z</time>
    </trkpt>
    <trkpt lat="49.424925" lon="21.162906">
      <ele>595</ele>
      <time>2026-05-07T13:42:51Z</time>
    </trkpt>
    <trkpt lat="49.425222" lon="21.16312">
      <ele>592</ele>
      <time>2026-05-07T13:43:28Z</time>
    </trkpt>
    <trkpt lat="49.425394" lon="21.163249">
      <ele>591</ele>
      <time>2026-05-07T13:43:49Z</time>
    </trkpt>
    <trkpt lat="49.425572" lon="21.163549">
      <ele>589</ele>
      <time>2026-05-07T13:44:19Z</time>
    </trkpt>
    <trkpt lat="49.425665" lon="21.16396">
      <ele>587</ele>
      <time>2026-05-07T13:44:51Z</time>
    </trkpt>
    <trkpt lat="49.425718" lon="21.164096">
      <ele>587</ele>
      <time>2026-05-07T13:45:02Z</time>
    </trkpt>
    <trkpt lat="49.42592" lon="21.164402">
      <ele>584</ele>
      <time>2026-05-07T13:45:34Z</time>
    </trkpt>
    <trkpt lat="49.426089" lon="21.164646">
      <ele>580</ele>
      <time>2026-05-07T13:46:00Z</time>
    </trkpt>
    <trkpt lat="49.426363" lon="21.16509">
      <ele>577</ele>
      <time>2026-05-07T13:46:45Z</time>
    </trkpt>
    <trkpt lat="49.426665" lon="21.165529">
      <ele>576</ele>
      <time>2026-05-07T13:47:31Z</time>
    </trkpt>
    <trkpt lat="49.426792" lon="21.165663">
      <ele>577</ele>
      <time>2026-05-07T13:47:48Z</time>
    </trkpt>
    <trkpt lat="49.42704" lon="21.165867">
      <ele>577</ele>
      <time>2026-05-07T13:48:20Z</time>
    </trkpt>
    <trkpt lat="49.427186" lon="21.165982">
      <ele>576</ele>
      <time>2026-05-07T13:48:38Z</time>
    </trkpt>
    <trkpt lat="49.42731" lon="21.166124">
      <ele>576</ele>
      <time>2026-05-07T13:48:55Z</time>
    </trkpt>
    <trkpt lat="49.427393" lon="21.166288">
      <ele>574</ele>
      <time>2026-05-07T13:49:10Z</time>
    </trkpt>
    <trkpt lat="49.427779" lon="21.166963">
      <ele>567</ele>
      <time>2026-05-07T13:50:16Z</time>
    </trkpt>
    <trkpt lat="49.428214" lon="21.167693">
      <ele>562</ele>
      <time>2026-05-07T13:51:28Z</time>
    </trkpt>
    <trkpt lat="49.428375" lon="21.168023">
      <ele>561</ele>
      <time>2026-05-07T13:51:58Z</time>
    </trkpt>
    <trkpt lat="49.428502" lon="21.16842">
      <ele>559</ele>
      <time>2026-05-07T13:52:30Z</time>
    </trkpt>
    <trkpt lat="49.428607" lon="21.168747">
      <ele>556</ele>
      <time>2026-05-07T13:52:57Z</time>
    </trkpt>
    <trkpt lat="49.428827" lon="21.169328">
      <ele>555</ele>
      <time>2026-05-07T13:53:46Z</time>
    </trkpt>
    <trkpt lat="49.429276" lon="21.170509">
      <ele>551</ele>
      <time>2026-05-07T13:55:25Z</time>
    </trkpt>
    <trkpt lat="49.429656" lon="21.171546">
      <ele>548</ele>
      <time>2026-05-07T13:56:52Z</time>
    </trkpt>
    <trkpt lat="49.429974" lon="21.172319">
      <ele>544</ele>
      <time>2026-05-07T13:58:00Z</time>
    </trkpt>
    <trkpt lat="49.430324" lon="21.172951">
      <ele>543</ele>
      <time>2026-05-07T13:59:01Z</time>
    </trkpt>
    <trkpt lat="49.430516" lon="21.173276">
      <ele>541</ele>
      <time>2026-05-07T13:59:33Z</time>
    </trkpt>
    <trkpt lat="49.430769" lon="21.173816">
      <ele>539</ele>
      <time>2026-05-07T14:00:22Z</time>
    </trkpt>
    <trkpt lat="49.431459" lon="21.175163">
      <ele>534</ele>
      <time>2026-05-07T14:02:28Z</time>
    </trkpt>
    <trkpt lat="49.431775" lon="21.175778">
      <ele>529</ele>
      <time>2026-05-07T14:03:26Z</time>
    </trkpt>
    <trkpt lat="49.432121" lon="21.176425">
      <ele>526</ele>
      <time>2026-05-07T14:04:27Z</time>
    </trkpt>
    <trkpt lat="49.432532" lon="21.17717">
      <ele>518</ele>
      <time>2026-05-07T14:05:40Z</time>
    </trkpt>
    <trkpt lat="49.432567" lon="21.177236">
      <ele>517</ele>
      <time>2026-05-07T14:05:46Z</time>
    </trkpt>
    <trkpt lat="49.43284" lon="21.177754">
      <ele>515</ele>
      <time>2026-05-07T14:06:35Z</time>
    </trkpt>
    <trkpt lat="49.432957" lon="21.177968">
      <ele>515</ele>
      <time>2026-05-07T14:06:55Z</time>
    </trkpt>
    <trkpt lat="49.433074" lon="21.17815">
      <ele>514</ele>
      <time>2026-05-07T14:07:14Z</time>
    </trkpt>
    <trkpt lat="49.433134" lon="21.178233">
      <ele>514</ele>
      <time>2026-05-07T14:07:23Z</time>
    </trkpt>
    <trkpt lat="49.433149" lon="21.178254">
      <ele>514</ele>
      <time>2026-05-07T14:07:26Z</time>
    </trkpt>
    <trkpt lat="49.4333" lon="21.178434">
      <ele>513</ele>
      <time>2026-05-07T14:07:47Z</time>
    </trkpt>
    <trkpt lat="49.433422" lon="21.178583">
      <ele>514</ele>
      <time>2026-05-07T14:08:05Z</time>
    </trkpt>
    <trkpt lat="49.433484" lon="21.178686">
      <ele>514</ele>
      <time>2026-05-07T14:08:15Z</time>
    </trkpt>
    <trkpt lat="49.433519" lon="21.178751">
      <ele>514</ele>
      <time>2026-05-07T14:08:21Z</time>
    </trkpt>
    <trkpt lat="49.433598" lon="21.178797">
      <ele>515</ele>
      <time>2026-05-07T14:08:31Z</time>
    </trkpt>
    <trkpt lat="49.433621" lon="21.178801">
      <ele>515</ele>
      <time>2026-05-07T14:08:33Z</time>
    </trkpt>
    <trkpt lat="49.433687" lon="21.178813">
      <ele>515</ele>
      <time>2026-05-07T14:08:41Z</time>
    </trkpt>
    <trkpt lat="49.434278" lon="21.17872">
      <ele>517</ele>
      <time>2026-05-07T14:09:48Z</time>
    </trkpt>
    <trkpt lat="49.434383" lon="21.178723">
      <ele>517</ele>
      <time>2026-05-07T14:10:00Z</time>
    </trkpt>
    <trkpt lat="49.434456" lon="21.178753">
      <ele>517</ele>
      <time>2026-05-07T14:10:08Z</time>
    </trkpt>
    <trkpt lat="49.434536" lon="21.178942">
      <ele>517</ele>
      <time>2026-05-07T14:10:25Z</time>
    </trkpt>
    <trkpt lat="49.435107" lon="21.178432">
      <ele>517</ele>
      <time>2026-05-07T14:11:37Z</time>
    </trkpt>
    <trkpt lat="49.435325" lon="21.178159">
      <ele>516</ele>
      <time>2026-05-07T14:12:07Z</time>
    </trkpt>
    <trkpt lat="49.435452" lon="21.178004">
      <ele>516</ele>
      <time>2026-05-07T14:12:25Z</time>
    </trkpt>
  </trkseg>
</trk>
</gpx>