<?xml version="1.0" encoding="UTF-8"?><gpx creator="https://mapa-turystyczna.pl" xmlns="http://www.topografix.com/GPX/1/1" version="1.1" xmlns:xsi="http://www.w3.org/2001/XMLSchema-instance" xsi:schemaLocation="http://www.topografix.com/GPX/1/1 http://www.topografix.com/GPX/1/1/gpx.xsd">
  <metadata>
    <link href="https://mapa-turystyczna.pl">
      <text>mapa-turystyczna.pl</text>
    </link>
    <time>2026-05-07T08:43:22Z</time>
    <bounds maxlat="49.411127" maxlon="20.55709" minlat="49.380379" minlon="20.508601"/>
  </metadata>

<trk>
  <name>Trasa z: Szlachtowa</name>
  <link href="https://mapa-turystyczna.pl/route/yuan">
    <text>Trasa z: Szlachtowa</text>
  </link>
  <trkseg>
    <trkpt lat="49.411127" lon="20.522944">
      <ele>524</ele>
      <time>2026-05-07T08:43:22Z</time>
    </trkpt>
    <trkpt lat="49.411089" lon="20.523212">
      <ele>524</ele>
      <time>2026-05-07T08:43:49Z</time>
    </trkpt>
    <trkpt lat="49.41107" lon="20.52335">
      <ele>524</ele>
      <time>2026-05-07T08:44:04Z</time>
    </trkpt>
    <trkpt lat="49.411034" lon="20.523646">
      <ele>522</ele>
      <time>2026-05-07T08:44:34Z</time>
    </trkpt>
    <trkpt lat="49.41101" lon="20.523838">
      <ele>521</ele>
      <time>2026-05-07T08:44:53Z</time>
    </trkpt>
    <trkpt lat="49.410992" lon="20.523999">
      <ele>521</ele>
      <time>2026-05-07T08:45:10Z</time>
    </trkpt>
    <trkpt lat="49.410972" lon="20.524175">
      <ele>520</ele>
      <time>2026-05-07T08:45:27Z</time>
    </trkpt>
    <trkpt lat="49.410959" lon="20.524327">
      <ele>520</ele>
      <time>2026-05-07T08:45:43Z</time>
    </trkpt>
    <trkpt lat="49.410952" lon="20.524511">
      <ele>520</ele>
      <time>2026-05-07T08:46:01Z</time>
    </trkpt>
    <trkpt lat="49.410943" lon="20.524958">
      <ele>521</ele>
      <time>2026-05-07T08:46:46Z</time>
    </trkpt>
    <trkpt lat="49.410942" lon="20.525055">
      <ele>521</ele>
      <time>2026-05-07T08:46:56Z</time>
    </trkpt>
    <trkpt lat="49.410937" lon="20.525299">
      <ele>521</ele>
      <time>2026-05-07T08:47:20Z</time>
    </trkpt>
    <trkpt lat="49.410923" lon="20.525486">
      <ele>520</ele>
      <time>2026-05-07T08:47:39Z</time>
    </trkpt>
    <trkpt lat="49.410895" lon="20.525713">
      <ele>521</ele>
      <time>2026-05-07T08:48:02Z</time>
    </trkpt>
    <trkpt lat="49.410874" lon="20.525869">
      <ele>522</ele>
      <time>2026-05-07T08:48:18Z</time>
    </trkpt>
    <trkpt lat="49.410851" lon="20.525996">
      <ele>522</ele>
      <time>2026-05-07T08:48:31Z</time>
    </trkpt>
    <trkpt lat="49.41081" lon="20.52618">
      <ele>523</ele>
      <time>2026-05-07T08:48:51Z</time>
    </trkpt>
    <trkpt lat="49.410753" lon="20.52638">
      <ele>523</ele>
      <time>2026-05-07T08:49:12Z</time>
    </trkpt>
    <trkpt lat="49.410698" lon="20.526586">
      <ele>523</ele>
      <time>2026-05-07T08:49:35Z</time>
    </trkpt>
    <trkpt lat="49.409982" lon="20.526516">
      <ele>519</ele>
      <time>2026-05-07T08:51:25Z</time>
    </trkpt>
    <trkpt lat="49.409816" lon="20.526479">
      <ele>518</ele>
      <time>2026-05-07T08:51:51Z</time>
    </trkpt>
    <trkpt lat="49.40973" lon="20.52645">
      <ele>517</ele>
      <time>2026-05-07T08:52:04Z</time>
    </trkpt>
    <trkpt lat="49.409627" lon="20.526376">
      <ele>518</ele>
      <time>2026-05-07T08:52:22Z</time>
    </trkpt>
    <trkpt lat="49.40942" lon="20.526134">
      <ele>519</ele>
      <time>2026-05-07T08:53:02Z</time>
    </trkpt>
    <trkpt lat="49.409367" lon="20.526052">
      <ele>519</ele>
      <time>2026-05-07T08:53:13Z</time>
    </trkpt>
    <trkpt lat="49.409338" lon="20.525892">
      <ele>520</ele>
      <time>2026-05-07T08:53:30Z</time>
    </trkpt>
    <trkpt lat="49.409347" lon="20.525661">
      <ele>521</ele>
      <time>2026-05-07T08:53:53Z</time>
    </trkpt>
    <trkpt lat="49.409369" lon="20.52543">
      <ele>522</ele>
      <time>2026-05-07T08:54:17Z</time>
    </trkpt>
    <trkpt lat="49.409406" lon="20.525245">
      <ele>522</ele>
      <time>2026-05-07T08:54:36Z</time>
    </trkpt>
    <trkpt lat="49.409471" lon="20.525068">
      <ele>523</ele>
      <time>2026-05-07T08:54:56Z</time>
    </trkpt>
    <trkpt lat="49.409499" lon="20.524972">
      <ele>524</ele>
      <time>2026-05-07T08:55:07Z</time>
    </trkpt>
    <trkpt lat="49.409516" lon="20.524869">
      <ele>524</ele>
      <time>2026-05-07T08:55:18Z</time>
    </trkpt>
    <trkpt lat="49.409516" lon="20.524757">
      <ele>525</ele>
      <time>2026-05-07T08:55:29Z</time>
    </trkpt>
    <trkpt lat="49.409512" lon="20.524656">
      <ele>526</ele>
      <time>2026-05-07T08:55:39Z</time>
    </trkpt>
    <trkpt lat="49.409496" lon="20.524505">
      <ele>528</ele>
      <time>2026-05-07T08:55:54Z</time>
    </trkpt>
    <trkpt lat="49.409366" lon="20.523987">
      <ele>533</ele>
      <time>2026-05-07T08:56:50Z</time>
    </trkpt>
    <trkpt lat="49.409333" lon="20.523829">
      <ele>534</ele>
      <time>2026-05-07T08:57:07Z</time>
    </trkpt>
    <trkpt lat="49.409334" lon="20.523744">
      <ele>535</ele>
      <time>2026-05-07T08:57:16Z</time>
    </trkpt>
    <trkpt lat="49.40935" lon="20.52366">
      <ele>535</ele>
      <time>2026-05-07T08:57:24Z</time>
    </trkpt>
    <trkpt lat="49.409367" lon="20.523606">
      <ele>536</ele>
      <time>2026-05-07T08:57:30Z</time>
    </trkpt>
    <trkpt lat="49.409496" lon="20.523196">
      <ele>537</ele>
      <time>2026-05-07T08:58:16Z</time>
    </trkpt>
    <trkpt lat="49.409584" lon="20.522842">
      <ele>539</ele>
      <time>2026-05-07T08:58:54Z</time>
    </trkpt>
    <trkpt lat="49.409635" lon="20.522557">
      <ele>539</ele>
      <time>2026-05-07T08:59:24Z</time>
    </trkpt>
    <trkpt lat="49.409665" lon="20.522384">
      <ele>539</ele>
      <time>2026-05-07T08:59:41Z</time>
    </trkpt>
    <trkpt lat="49.409691" lon="20.522231">
      <ele>540</ele>
      <time>2026-05-07T08:59:57Z</time>
    </trkpt>
    <trkpt lat="49.409928" lon="20.521381">
      <ele>541</ele>
      <time>2026-05-07T09:01:30Z</time>
    </trkpt>
    <trkpt lat="49.409947" lon="20.521198">
      <ele>541</ele>
      <time>2026-05-07T09:01:48Z</time>
    </trkpt>
    <trkpt lat="49.40993" lon="20.521007">
      <ele>542</ele>
      <time>2026-05-07T09:02:08Z</time>
    </trkpt>
    <trkpt lat="49.409803" lon="20.520751">
      <ele>544</ele>
      <time>2026-05-07T09:02:40Z</time>
    </trkpt>
    <trkpt lat="49.409725" lon="20.520658">
      <ele>545</ele>
      <time>2026-05-07T09:02:55Z</time>
    </trkpt>
    <trkpt lat="49.409704" lon="20.520641">
      <ele>546</ele>
      <time>2026-05-07T09:02:59Z</time>
    </trkpt>
    <trkpt lat="49.409676" lon="20.520633">
      <ele>546</ele>
      <time>2026-05-07T09:03:03Z</time>
    </trkpt>
    <trkpt lat="49.409623" lon="20.520648">
      <ele>547</ele>
      <time>2026-05-07T09:03:12Z</time>
    </trkpt>
    <trkpt lat="49.409551" lon="20.520668">
      <ele>548</ele>
      <time>2026-05-07T09:03:23Z</time>
    </trkpt>
    <trkpt lat="49.409443" lon="20.520656">
      <ele>550</ele>
      <time>2026-05-07T09:03:40Z</time>
    </trkpt>
    <trkpt lat="49.409276" lon="20.520572">
      <ele>552</ele>
      <time>2026-05-07T09:04:07Z</time>
    </trkpt>
    <trkpt lat="49.409181" lon="20.520524">
      <ele>554</ele>
      <time>2026-05-07T09:04:22Z</time>
    </trkpt>
    <trkpt lat="49.409111" lon="20.520387">
      <ele>555</ele>
      <time>2026-05-07T09:04:40Z</time>
    </trkpt>
    <trkpt lat="49.409085" lon="20.520125">
      <ele>556</ele>
      <time>2026-05-07T09:05:06Z</time>
    </trkpt>
    <trkpt lat="49.409088" lon="20.519814">
      <ele>557</ele>
      <time>2026-05-07T09:05:38Z</time>
    </trkpt>
    <trkpt lat="49.409062" lon="20.519548">
      <ele>559</ele>
      <time>2026-05-07T09:06:05Z</time>
    </trkpt>
    <trkpt lat="49.409027" lon="20.51935">
      <ele>561</ele>
      <time>2026-05-07T09:06:25Z</time>
    </trkpt>
    <trkpt lat="49.409015" lon="20.51917">
      <ele>563</ele>
      <time>2026-05-07T09:06:44Z</time>
    </trkpt>
    <trkpt lat="49.409055" lon="20.518947">
      <ele>564</ele>
      <time>2026-05-07T09:07:07Z</time>
    </trkpt>
    <trkpt lat="49.409071" lon="20.518687">
      <ele>565</ele>
      <time>2026-05-07T09:07:33Z</time>
    </trkpt>
    <trkpt lat="49.409045" lon="20.518548">
      <ele>565</ele>
      <time>2026-05-07T09:07:47Z</time>
    </trkpt>
    <trkpt lat="49.408986" lon="20.518491">
      <ele>567</ele>
      <time>2026-05-07T09:07:58Z</time>
    </trkpt>
    <trkpt lat="49.40893" lon="20.518502">
      <ele>568</ele>
      <time>2026-05-07T09:08:07Z</time>
    </trkpt>
    <trkpt lat="49.408881" lon="20.518566">
      <ele>570</ele>
      <time>2026-05-07T09:08:17Z</time>
    </trkpt>
    <trkpt lat="49.408814" lon="20.518652">
      <ele>573</ele>
      <time>2026-05-07T09:08:31Z</time>
    </trkpt>
    <trkpt lat="49.408731" lon="20.518703">
      <ele>576</ele>
      <time>2026-05-07T09:08:46Z</time>
    </trkpt>
    <trkpt lat="49.408638" lon="20.5187">
      <ele>579</ele>
      <time>2026-05-07T09:09:01Z</time>
    </trkpt>
    <trkpt lat="49.408509" lon="20.518666">
      <ele>583</ele>
      <time>2026-05-07T09:09:21Z</time>
    </trkpt>
    <trkpt lat="49.40842" lon="20.518655">
      <ele>585</ele>
      <time>2026-05-07T09:09:35Z</time>
    </trkpt>
    <trkpt lat="49.408336" lon="20.518687">
      <ele>588</ele>
      <time>2026-05-07T09:09:49Z</time>
    </trkpt>
    <trkpt lat="49.408293" lon="20.518808">
      <ele>590</ele>
      <time>2026-05-07T09:10:03Z</time>
    </trkpt>
    <trkpt lat="49.408273" lon="20.518928">
      <ele>592</ele>
      <time>2026-05-07T09:10:16Z</time>
    </trkpt>
    <trkpt lat="49.40827" lon="20.519081">
      <ele>593</ele>
      <time>2026-05-07T09:10:31Z</time>
    </trkpt>
    <trkpt lat="49.408241" lon="20.5192">
      <ele>594</ele>
      <time>2026-05-07T09:10:44Z</time>
    </trkpt>
    <trkpt lat="49.408191" lon="20.519299">
      <ele>596</ele>
      <time>2026-05-07T09:10:57Z</time>
    </trkpt>
    <trkpt lat="49.408094" lon="20.519341">
      <ele>600</ele>
      <time>2026-05-07T09:11:13Z</time>
    </trkpt>
    <trkpt lat="49.408013" lon="20.519323">
      <ele>602</ele>
      <time>2026-05-07T09:11:26Z</time>
    </trkpt>
    <trkpt lat="49.407869" lon="20.519232">
      <ele>607</ele>
      <time>2026-05-07T09:11:51Z</time>
    </trkpt>
    <trkpt lat="49.407703" lon="20.519146">
      <ele>611</ele>
      <time>2026-05-07T09:12:19Z</time>
    </trkpt>
    <trkpt lat="49.407588" lon="20.519041">
      <ele>613</ele>
      <time>2026-05-07T09:12:39Z</time>
    </trkpt>
    <trkpt lat="49.407464" lon="20.518848">
      <ele>614</ele>
      <time>2026-05-07T09:13:07Z</time>
    </trkpt>
    <trkpt lat="49.407312" lon="20.518617">
      <ele>617</ele>
      <time>2026-05-07T09:13:40Z</time>
    </trkpt>
    <trkpt lat="49.407169" lon="20.518301">
      <ele>620</ele>
      <time>2026-05-07T09:14:18Z</time>
    </trkpt>
    <trkpt lat="49.406984" lon="20.517882">
      <ele>622</ele>
      <time>2026-05-07T09:15:09Z</time>
    </trkpt>
    <trkpt lat="49.40678" lon="20.517416">
      <ele>624</ele>
      <time>2026-05-07T09:16:05Z</time>
    </trkpt>
    <trkpt lat="49.40661" lon="20.517121">
      <ele>625</ele>
      <time>2026-05-07T09:16:45Z</time>
    </trkpt>
    <trkpt lat="49.406402" lon="20.51678">
      <ele>626</ele>
      <time>2026-05-07T09:17:31Z</time>
    </trkpt>
    <trkpt lat="49.406111" lon="20.516458">
      <ele>632</ele>
      <time>2026-05-07T09:18:27Z</time>
    </trkpt>
    <trkpt lat="49.405889" lon="20.516177">
      <ele>634</ele>
      <time>2026-05-07T09:19:11Z</time>
    </trkpt>
    <trkpt lat="49.405788" lon="20.516085">
      <ele>636</ele>
      <time>2026-05-07T09:19:30Z</time>
    </trkpt>
    <trkpt lat="49.40572" lon="20.516005">
      <ele>637</ele>
      <time>2026-05-07T09:19:43Z</time>
    </trkpt>
    <trkpt lat="49.405706" lon="20.515906">
      <ele>637</ele>
      <time>2026-05-07T09:19:53Z</time>
    </trkpt>
    <trkpt lat="49.405725" lon="20.515809">
      <ele>637</ele>
      <time>2026-05-07T09:20:03Z</time>
    </trkpt>
    <trkpt lat="49.405745" lon="20.515661">
      <ele>637</ele>
      <time>2026-05-07T09:20:18Z</time>
    </trkpt>
    <trkpt lat="49.40572" lon="20.515533">
      <ele>638</ele>
      <time>2026-05-07T09:20:32Z</time>
    </trkpt>
    <trkpt lat="49.405682" lon="20.515476">
      <ele>638</ele>
      <time>2026-05-07T09:20:40Z</time>
    </trkpt>
    <trkpt lat="49.405607" lon="20.515452">
      <ele>639</ele>
      <time>2026-05-07T09:20:52Z</time>
    </trkpt>
    <trkpt lat="49.405519" lon="20.515474">
      <ele>641</ele>
      <time>2026-05-07T09:21:06Z</time>
    </trkpt>
    <trkpt lat="49.405399" lon="20.51553">
      <ele>644</ele>
      <time>2026-05-07T09:21:25Z</time>
    </trkpt>
    <trkpt lat="49.405169" lon="20.51567">
      <ele>651</ele>
      <time>2026-05-07T09:22:05Z</time>
    </trkpt>
    <trkpt lat="49.405076" lon="20.515774">
      <ele>654</ele>
      <time>2026-05-07T09:22:23Z</time>
    </trkpt>
    <trkpt lat="49.405022" lon="20.515828">
      <ele>656</ele>
      <time>2026-05-07T09:22:33Z</time>
    </trkpt>
    <trkpt lat="49.404945" lon="20.515879">
      <ele>658</ele>
      <time>2026-05-07T09:22:46Z</time>
    </trkpt>
    <trkpt lat="49.404877" lon="20.515978">
      <ele>661</ele>
      <time>2026-05-07T09:23:01Z</time>
    </trkpt>
    <trkpt lat="49.404809" lon="20.516123">
      <ele>663</ele>
      <time>2026-05-07T09:23:19Z</time>
    </trkpt>
    <trkpt lat="49.404758" lon="20.516278">
      <ele>665</ele>
      <time>2026-05-07T09:23:37Z</time>
    </trkpt>
    <trkpt lat="49.404675" lon="20.516404">
      <ele>668</ele>
      <time>2026-05-07T09:23:55Z</time>
    </trkpt>
    <trkpt lat="49.404552" lon="20.516474">
      <ele>669</ele>
      <time>2026-05-07T09:24:15Z</time>
    </trkpt>
    <trkpt lat="49.404437" lon="20.516512">
      <ele>671</ele>
      <time>2026-05-07T09:24:34Z</time>
    </trkpt>
    <trkpt lat="49.404333" lon="20.516501">
      <ele>673</ele>
      <time>2026-05-07T09:24:50Z</time>
    </trkpt>
    <trkpt lat="49.404233" lon="20.516434">
      <ele>674</ele>
      <time>2026-05-07T09:25:07Z</time>
    </trkpt>
    <trkpt lat="49.404135" lon="20.516337">
      <ele>675</ele>
      <time>2026-05-07T09:25:25Z</time>
    </trkpt>
    <trkpt lat="49.403977" lon="20.51626">
      <ele>677</ele>
      <time>2026-05-07T09:25:50Z</time>
    </trkpt>
    <trkpt lat="49.403823" lon="20.516246">
      <ele>678</ele>
      <time>2026-05-07T09:26:14Z</time>
    </trkpt>
    <trkpt lat="49.403702" lon="20.516289">
      <ele>678</ele>
      <time>2026-05-07T09:26:33Z</time>
    </trkpt>
    <trkpt lat="49.403538" lon="20.516415">
      <ele>681</ele>
      <time>2026-05-07T09:27:01Z</time>
    </trkpt>
    <trkpt lat="49.403399" lon="20.516482">
      <ele>686</ele>
      <time>2026-05-07T09:27:25Z</time>
    </trkpt>
    <trkpt lat="49.403292" lon="20.516437">
      <ele>689</ele>
      <time>2026-05-07T09:27:42Z</time>
    </trkpt>
    <trkpt lat="49.403146" lon="20.51641">
      <ele>693</ele>
      <time>2026-05-07T09:28:05Z</time>
    </trkpt>
    <trkpt lat="49.402905" lon="20.516348">
      <ele>697</ele>
      <time>2026-05-07T09:28:43Z</time>
    </trkpt>
    <trkpt lat="49.402725" lon="20.516238">
      <ele>701</ele>
      <time>2026-05-07T09:29:14Z</time>
    </trkpt>
    <trkpt lat="49.402486" lon="20.515608">
      <ele>704</ele>
      <time>2026-05-07T09:30:27Z</time>
    </trkpt>
    <trkpt lat="49.402317" lon="20.515087">
      <ele>704</ele>
      <time>2026-05-07T09:31:25Z</time>
    </trkpt>
    <trkpt lat="49.402163" lon="20.514471">
      <ele>708</ele>
      <time>2026-05-07T09:32:31Z</time>
    </trkpt>
    <trkpt lat="49.402072" lon="20.513717">
      <ele>710</ele>
      <time>2026-05-07T09:33:48Z</time>
    </trkpt>
    <trkpt lat="49.401955" lon="20.51299">
      <ele>713</ele>
      <time>2026-05-07T09:35:03Z</time>
    </trkpt>
    <trkpt lat="49.401966" lon="20.512676">
      <ele>713</ele>
      <time>2026-05-07T09:35:34Z</time>
    </trkpt>
    <trkpt lat="49.401969" lon="20.512234">
      <ele>715</ele>
      <time>2026-05-07T09:36:18Z</time>
    </trkpt>
    <trkpt lat="49.401938" lon="20.51152">
      <ele>717</ele>
      <time>2026-05-07T09:37:30Z</time>
    </trkpt>
    <trkpt lat="49.401865" lon="20.510455">
      <ele>725</ele>
      <time>2026-05-07T09:39:18Z</time>
    </trkpt>
    <trkpt lat="49.401917" lon="20.51004">
      <ele>729</ele>
      <time>2026-05-07T09:40:00Z</time>
    </trkpt>
    <trkpt lat="49.40192" lon="20.509801">
      <ele>731</ele>
      <time>2026-05-07T09:40:24Z</time>
    </trkpt>
    <trkpt lat="49.401903" lon="20.509501">
      <ele>734</ele>
      <time>2026-05-07T09:40:55Z</time>
    </trkpt>
    <trkpt lat="49.401838" lon="20.509257">
      <ele>736</ele>
      <time>2026-05-07T09:41:21Z</time>
    </trkpt>
    <trkpt lat="49.401717" lon="20.509012">
      <ele>739</ele>
      <time>2026-05-07T09:41:52Z</time>
    </trkpt>
    <trkpt lat="49.401629" lon="20.508916">
      <ele>740</ele>
      <time>2026-05-07T09:42:09Z</time>
    </trkpt>
    <trkpt lat="49.401547" lon="20.508884">
      <ele>742</ele>
      <time>2026-05-07T09:42:22Z</time>
    </trkpt>
    <trkpt lat="49.40146" lon="20.508776">
      <ele>744</ele>
      <time>2026-05-07T09:42:40Z</time>
    </trkpt>
    <trkpt lat="49.401322" lon="20.508658">
      <ele>747</ele>
      <time>2026-05-07T09:43:04Z</time>
    </trkpt>
    <trkpt lat="49.401212" lon="20.508601">
      <ele>748</ele>
      <time>2026-05-07T09:43:22Z</time>
    </trkpt>
    <trkpt lat="49.40081" lon="20.509412">
      <ele>758</ele>
      <time>2026-05-07T09:45:04Z</time>
    </trkpt>
    <trkpt lat="49.40057" lon="20.509754">
      <ele>767</ele>
      <time>2026-05-07T09:45:55Z</time>
    </trkpt>
    <trkpt lat="49.399866" lon="20.510919">
      <ele>780</ele>
      <time>2026-05-07T09:48:34Z</time>
    </trkpt>
    <trkpt lat="49.399637" lon="20.511158">
      <ele>785</ele>
      <time>2026-05-07T09:49:17Z</time>
    </trkpt>
    <trkpt lat="49.399294" lon="20.511338">
      <ele>791</ele>
      <time>2026-05-07T09:50:12Z</time>
    </trkpt>
    <trkpt lat="49.398861" lon="20.511501">
      <ele>797</ele>
      <time>2026-05-07T09:51:21Z</time>
    </trkpt>
    <trkpt lat="49.398635" lon="20.511617">
      <ele>800</ele>
      <time>2026-05-07T09:51:58Z</time>
    </trkpt>
    <trkpt lat="49.39786" lon="20.511901">
      <ele>803</ele>
      <time>2026-05-07T09:53:59Z</time>
    </trkpt>
    <trkpt lat="49.397066" lon="20.51222">
      <ele>807</ele>
      <time>2026-05-07T09:56:04Z</time>
    </trkpt>
    <trkpt lat="49.396771" lon="20.51236">
      <ele>808</ele>
      <time>2026-05-07T09:56:51Z</time>
    </trkpt>
    <trkpt lat="49.396523" lon="20.512518">
      <ele>813</ele>
      <time>2026-05-07T09:57:32Z</time>
    </trkpt>
    <trkpt lat="49.395452" lon="20.514184">
      <ele>818</ele>
      <time>2026-05-07T10:01:25Z</time>
    </trkpt>
    <trkpt lat="49.395184" lon="20.514669">
      <ele>819</ele>
      <time>2026-05-07T10:02:28Z</time>
    </trkpt>
    <trkpt lat="49.395095" lon="20.514881">
      <ele>820</ele>
      <time>2026-05-07T10:02:53Z</time>
    </trkpt>
    <trkpt lat="49.394965" lon="20.515094">
      <ele>822</ele>
      <time>2026-05-07T10:03:22Z</time>
    </trkpt>
    <trkpt lat="49.394742" lon="20.515784">
      <ele>826</ele>
      <time>2026-05-07T10:04:38Z</time>
    </trkpt>
    <trkpt lat="49.394676" lon="20.515989">
      <ele>825</ele>
      <time>2026-05-07T10:05:01Z</time>
    </trkpt>
    <trkpt lat="49.3946" lon="20.51619">
      <ele>825</ele>
      <time>2026-05-07T10:05:24Z</time>
    </trkpt>
    <trkpt lat="49.394519" lon="20.516313">
      <ele>825</ele>
      <time>2026-05-07T10:05:42Z</time>
    </trkpt>
    <trkpt lat="49.394362" lon="20.516445">
      <ele>825</ele>
      <time>2026-05-07T10:06:09Z</time>
    </trkpt>
    <trkpt lat="49.394193" lon="20.51659">
      <ele>826</ele>
      <time>2026-05-07T10:06:38Z</time>
    </trkpt>
    <trkpt lat="49.39409" lon="20.516716">
      <ele>827</ele>
      <time>2026-05-07T10:06:58Z</time>
    </trkpt>
    <trkpt lat="49.393894" lon="20.516992">
      <ele>825</ele>
      <time>2026-05-07T10:07:39Z</time>
    </trkpt>
    <trkpt lat="49.393721" lon="20.517156">
      <ele>830</ele>
      <time>2026-05-07T10:08:11Z</time>
    </trkpt>
    <trkpt lat="49.393641" lon="20.517292">
      <ele>831</ele>
      <time>2026-05-07T10:08:29Z</time>
    </trkpt>
    <trkpt lat="49.393594" lon="20.517461">
      <ele>831</ele>
      <time>2026-05-07T10:08:47Z</time>
    </trkpt>
    <trkpt lat="49.393472" lon="20.517748">
      <ele>833</ele>
      <time>2026-05-07T10:09:21Z</time>
    </trkpt>
    <trkpt lat="49.39317" lon="20.518332">
      <ele>838</ele>
      <time>2026-05-07T10:10:36Z</time>
    </trkpt>
    <trkpt lat="49.392684" lon="20.519688">
      <ele>824</ele>
      <time>2026-05-07T10:13:10Z</time>
    </trkpt>
    <trkpt lat="49.392636" lon="20.51978">
      <ele>823</ele>
      <time>2026-05-07T10:13:22Z</time>
    </trkpt>
    <trkpt lat="49.39244" lon="20.520546">
      <ele>821</ele>
      <time>2026-05-07T10:14:45Z</time>
    </trkpt>
    <trkpt lat="49.392307" lon="20.520964">
      <ele>825</ele>
      <time>2026-05-07T10:15:32Z</time>
    </trkpt>
    <trkpt lat="49.392098" lon="20.521511">
      <ele>831</ele>
      <time>2026-05-07T10:16:37Z</time>
    </trkpt>
    <trkpt lat="49.391749" lon="20.522193">
      <ele>837</ele>
      <time>2026-05-07T10:18:04Z</time>
    </trkpt>
    <trkpt lat="49.391179" lon="20.523207">
      <ele>852</ele>
      <time>2026-05-07T10:20:21Z</time>
    </trkpt>
    <trkpt lat="49.390963" lon="20.523523">
      <ele>858</ele>
      <time>2026-05-07T10:21:08Z</time>
    </trkpt>
    <trkpt lat="49.390792" lon="20.523791">
      <ele>861</ele>
      <time>2026-05-07T10:21:46Z</time>
    </trkpt>
    <trkpt lat="49.390685" lon="20.52403">
      <ele>863</ele>
      <time>2026-05-07T10:22:15Z</time>
    </trkpt>
    <trkpt lat="49.390607" lon="20.524261">
      <ele>864</ele>
      <time>2026-05-07T10:22:41Z</time>
    </trkpt>
    <trkpt lat="49.390502" lon="20.524586">
      <ele>864</ele>
      <time>2026-05-07T10:23:18Z</time>
    </trkpt>
    <trkpt lat="49.390146" lon="20.525932">
      <ele>874</ele>
      <time>2026-05-07T10:25:45Z</time>
    </trkpt>
    <trkpt lat="49.389797" lon="20.526844">
      <ele>878</ele>
      <time>2026-05-07T10:27:32Z</time>
    </trkpt>
    <trkpt lat="49.389451" lon="20.528067">
      <ele>877</ele>
      <time>2026-05-07T10:29:46Z</time>
    </trkpt>
    <trkpt lat="49.389105" lon="20.529215">
      <ele>876</ele>
      <time>2026-05-07T10:31:53Z</time>
    </trkpt>
    <trkpt lat="49.38893" lon="20.530052">
      <ele>879</ele>
      <time>2026-05-07T10:33:22Z</time>
    </trkpt>
    <trkpt lat="49.388313" lon="20.531602">
      <ele>891</ele>
      <time>2026-05-07T10:36:57Z</time>
    </trkpt>
    <trkpt lat="49.387943" lon="20.532455">
      <ele>903</ele>
      <time>2026-05-07T10:39:00Z</time>
    </trkpt>
    <trkpt lat="49.387569" lon="20.533222">
      <ele>907</ele>
      <time>2026-05-07T10:40:53Z</time>
    </trkpt>
    <trkpt lat="49.387236" lon="20.534169">
      <ele>916</ele>
      <time>2026-05-07T10:43:01Z</time>
    </trkpt>
    <trkpt lat="49.387056" lon="20.534665">
      <ele>923</ele>
      <time>2026-05-07T10:44:09Z</time>
    </trkpt>
    <trkpt lat="49.386935" lon="20.535271">
      <ele>928</ele>
      <time>2026-05-07T10:45:24Z</time>
    </trkpt>
    <trkpt lat="49.386892" lon="20.535899">
      <ele>929</ele>
      <time>2026-05-07T10:46:38Z</time>
    </trkpt>
    <trkpt lat="49.387005" lon="20.536759">
      <ele>934</ele>
      <time>2026-05-07T10:48:22Z</time>
    </trkpt>
    <trkpt lat="49.387101" lon="20.537347">
      <ele>927</ele>
      <time>2026-05-07T10:49:11Z</time>
    </trkpt>
    <trkpt lat="49.387056" lon="20.537803">
      <ele>927</ele>
      <time>2026-05-07T10:49:48Z</time>
    </trkpt>
    <trkpt lat="49.386959" lon="20.538452">
      <ele>928</ele>
      <time>2026-05-07T10:50:42Z</time>
    </trkpt>
    <trkpt lat="49.38686" lon="20.538919">
      <ele>926</ele>
      <time>2026-05-07T10:51:21Z</time>
    </trkpt>
    <trkpt lat="49.386747" lon="20.539342">
      <ele>926</ele>
      <time>2026-05-07T10:51:58Z</time>
    </trkpt>
    <trkpt lat="49.386612" lon="20.539994">
      <ele>931</ele>
      <time>2026-05-07T10:52:53Z</time>
    </trkpt>
    <trkpt lat="49.386507" lon="20.540453">
      <ele>932</ele>
      <time>2026-05-07T10:53:32Z</time>
    </trkpt>
    <trkpt lat="49.386073" lon="20.542132">
      <ele>933</ele>
      <time>2026-05-07T10:55:57Z</time>
    </trkpt>
    <trkpt lat="49.385938" lon="20.542562">
      <ele>932</ele>
      <time>2026-05-07T10:56:35Z</time>
    </trkpt>
    <trkpt lat="49.38576" lon="20.543401">
      <ele>931</ele>
      <time>2026-05-07T10:57:46Z</time>
    </trkpt>
    <trkpt lat="49.385624" lon="20.544428">
      <ele>936</ele>
      <time>2026-05-07T10:59:10Z</time>
    </trkpt>
    <trkpt lat="49.385584" lon="20.544852">
      <ele>939</ele>
      <time>2026-05-07T10:59:45Z</time>
    </trkpt>
    <trkpt lat="49.385579" lon="20.54538">
      <ele>941</ele>
      <time>2026-05-07T11:00:27Z</time>
    </trkpt>
    <trkpt lat="49.385573" lon="20.546303">
      <ele>943</ele>
      <time>2026-05-07T11:01:41Z</time>
    </trkpt>
    <trkpt lat="49.385559" lon="20.546482">
      <ele>943</ele>
      <time>2026-05-07T11:01:56Z</time>
    </trkpt>
    <trkpt lat="49.384636" lon="20.547517">
      <ele>919</ele>
      <time>2026-05-07T11:04:19Z</time>
    </trkpt>
    <trkpt lat="49.38459" lon="20.547607">
      <ele>918</ele>
      <time>2026-05-07T11:04:29Z</time>
    </trkpt>
    <trkpt lat="49.384346" lon="20.548092">
      <ele>920</ele>
      <time>2026-05-07T11:05:18Z</time>
    </trkpt>
    <trkpt lat="49.384176" lon="20.548631">
      <ele>929</ele>
      <time>2026-05-07T11:06:07Z</time>
    </trkpt>
    <trkpt lat="49.384068" lon="20.548921">
      <ele>930</ele>
      <time>2026-05-07T11:06:34Z</time>
    </trkpt>
    <trkpt lat="49.383979" lon="20.549237">
      <ele>929</ele>
      <time>2026-05-07T11:07:01Z</time>
    </trkpt>
    <trkpt lat="49.383838" lon="20.549538">
      <ele>927</ele>
      <time>2026-05-07T11:07:31Z</time>
    </trkpt>
    <trkpt lat="49.383145" lon="20.550705">
      <ele>937</ele>
      <time>2026-05-07T11:09:38Z</time>
    </trkpt>
    <trkpt lat="49.383026" lon="20.550962">
      <ele>947</ele>
      <time>2026-05-07T11:10:06Z</time>
    </trkpt>
    <trkpt lat="49.382972" lon="20.551128">
      <ele>953</ele>
      <time>2026-05-07T11:10:22Z</time>
    </trkpt>
    <trkpt lat="49.382938" lon="20.551249">
      <ele>956</ele>
      <time>2026-05-07T11:10:34Z</time>
    </trkpt>
    <trkpt lat="49.382841" lon="20.551289">
      <ele>959</ele>
      <time>2026-05-07T11:10:46Z</time>
    </trkpt>
    <trkpt lat="49.382706" lon="20.551295">
      <ele>960</ele>
      <time>2026-05-07T11:11:03Z</time>
    </trkpt>
    <trkpt lat="49.382565" lon="20.551378">
      <ele>960</ele>
      <time>2026-05-07T11:11:22Z</time>
    </trkpt>
    <trkpt lat="49.38232" lon="20.551595">
      <ele>960</ele>
      <time>2026-05-07T11:11:56Z</time>
    </trkpt>
    <trkpt lat="49.382071" lon="20.552019">
      <ele>961</ele>
      <time>2026-05-07T11:12:42Z</time>
    </trkpt>
    <trkpt lat="49.381866" lon="20.552398">
      <ele>964</ele>
      <time>2026-05-07T11:13:22Z</time>
    </trkpt>
    <trkpt lat="49.381671" lon="20.552558">
      <ele>966</ele>
      <time>2026-05-07T11:14:28Z</time>
    </trkpt>
    <trkpt lat="49.381487" lon="20.552821">
      <ele>971</ele>
      <time>2026-05-07T11:15:43Z</time>
    </trkpt>
    <trkpt lat="49.38125" lon="20.553464">
      <ele>986</ele>
      <time>2026-05-07T11:18:11Z</time>
    </trkpt>
    <trkpt lat="49.381153" lon="20.553607">
      <ele>989</ele>
      <time>2026-05-07T11:18:52Z</time>
    </trkpt>
    <trkpt lat="49.380991" lon="20.553845">
      <ele>993</ele>
      <time>2026-05-07T11:19:59Z</time>
    </trkpt>
    <trkpt lat="49.380919" lon="20.55395">
      <ele>995</ele>
      <time>2026-05-07T11:20:29Z</time>
    </trkpt>
    <trkpt lat="49.38094" lon="20.554046">
      <ele>999</ele>
      <time>2026-05-07T11:20:51Z</time>
    </trkpt>
    <trkpt lat="49.381033" lon="20.554402">
      <ele>1011</ele>
      <time>2026-05-07T11:22:11Z</time>
    </trkpt>
    <trkpt lat="49.381012" lon="20.554666">
      <ele>1020</ele>
      <time>2026-05-07T11:23:08Z</time>
    </trkpt>
    <trkpt lat="49.380656" lon="20.555074">
      <ele>1039</ele>
      <time>2026-05-07T11:25:29Z</time>
    </trkpt>
    <trkpt lat="49.380572" lon="20.555256">
      <ele>1043</ele>
      <time>2026-05-07T11:26:13Z</time>
    </trkpt>
    <trkpt lat="49.380529" lon="20.555316">
      <ele>1044</ele>
      <time>2026-05-07T11:26:30Z</time>
    </trkpt>
    <trkpt lat="49.380408" lon="20.555427">
      <ele>1046</ele>
      <time>2026-05-07T11:27:13Z</time>
    </trkpt>
    <trkpt lat="49.380379" lon="20.5554418">
      <ele>1047</ele>
      <time>2026-05-07T11:27:22Z</time>
    </trkpt>
    <trkpt lat="49.380408" lon="20.555427">
      <ele>1046</ele>
      <time>2026-05-07T11:27:25Z</time>
    </trkpt>
    <trkpt lat="49.380529" lon="20.555316">
      <ele>1044</ele>
      <time>2026-05-07T11:27:37Z</time>
    </trkpt>
    <trkpt lat="49.380572" lon="20.555256">
      <ele>1043</ele>
      <time>2026-05-07T11:27:42Z</time>
    </trkpt>
    <trkpt lat="49.380656" lon="20.555074">
      <ele>1039</ele>
      <time>2026-05-07T11:27:54Z</time>
    </trkpt>
    <trkpt lat="49.381012" lon="20.554666">
      <ele>1020</ele>
      <time>2026-05-07T11:28:35Z</time>
    </trkpt>
    <trkpt lat="49.381033" lon="20.554402">
      <ele>1011</ele>
      <time>2026-05-07T11:28:51Z</time>
    </trkpt>
    <trkpt lat="49.38094" lon="20.554046">
      <ele>999</ele>
      <time>2026-05-07T11:29:14Z</time>
    </trkpt>
    <trkpt lat="49.380919" lon="20.55395">
      <ele>995</ele>
      <time>2026-05-07T11:29:20Z</time>
    </trkpt>
    <trkpt lat="49.380991" lon="20.553845">
      <ele>993</ele>
      <time>2026-05-07T11:29:29Z</time>
    </trkpt>
    <trkpt lat="49.381153" lon="20.553607">
      <ele>989</ele>
      <time>2026-05-07T11:29:48Z</time>
    </trkpt>
    <trkpt lat="49.38125" lon="20.553464">
      <ele>986</ele>
      <time>2026-05-07T11:29:59Z</time>
    </trkpt>
    <trkpt lat="49.381487" lon="20.552821">
      <ele>971</ele>
      <time>2026-05-07T11:30:42Z</time>
    </trkpt>
    <trkpt lat="49.381671" lon="20.552558">
      <ele>966</ele>
      <time>2026-05-07T11:31:03Z</time>
    </trkpt>
    <trkpt lat="49.381866" lon="20.552398">
      <ele>964</ele>
      <time>2026-05-07T11:31:22Z</time>
    </trkpt>
    <trkpt lat="49.381992" lon="20.552781">
      <ele>970</ele>
      <time>2026-05-07T11:31:56Z</time>
    </trkpt>
    <trkpt lat="49.382013" lon="20.553011">
      <ele>972</ele>
      <time>2026-05-07T11:32:14Z</time>
    </trkpt>
    <trkpt lat="49.382037" lon="20.553381">
      <ele>972</ele>
      <time>2026-05-07T11:32:43Z</time>
    </trkpt>
    <trkpt lat="49.382046" lon="20.553542">
      <ele>973</ele>
      <time>2026-05-07T11:32:55Z</time>
    </trkpt>
    <trkpt lat="49.382086" lon="20.553631">
      <ele>972</ele>
      <time>2026-05-07T11:33:04Z</time>
    </trkpt>
    <trkpt lat="49.382149" lon="20.553725">
      <ele>970</ele>
      <time>2026-05-07T11:33:14Z</time>
    </trkpt>
    <trkpt lat="49.382334" lon="20.553945">
      <ele>963</ele>
      <time>2026-05-07T11:33:43Z</time>
    </trkpt>
    <trkpt lat="49.382551" lon="20.554245">
      <ele>947</ele>
      <time>2026-05-07T11:34:22Z</time>
    </trkpt>
    <trkpt lat="49.382746" lon="20.554529">
      <ele>929</ele>
      <time>2026-05-07T11:34:54Z</time>
    </trkpt>
    <trkpt lat="49.382855" lon="20.554674">
      <ele>921</ele>
      <time>2026-05-07T11:35:11Z</time>
    </trkpt>
    <trkpt lat="49.382946" lon="20.554942">
      <ele>912</ele>
      <time>2026-05-07T11:35:33Z</time>
    </trkpt>
    <trkpt lat="49.383022" lon="20.555023">
      <ele>907</ele>
      <time>2026-05-07T11:35:44Z</time>
    </trkpt>
    <trkpt lat="49.383113" lon="20.555157">
      <ele>901</ele>
      <time>2026-05-07T11:35:58Z</time>
    </trkpt>
    <trkpt lat="49.383096" lon="20.555264">
      <ele>899</ele>
      <time>2026-05-07T11:36:06Z</time>
    </trkpt>
    <trkpt lat="49.383015" lon="20.55534">
      <ele>901</ele>
      <time>2026-05-07T11:36:16Z</time>
    </trkpt>
    <trkpt lat="49.383036" lon="20.555522">
      <ele>896</ele>
      <time>2026-05-07T11:36:29Z</time>
    </trkpt>
    <trkpt lat="49.383134" lon="20.555634">
      <ele>890</ele>
      <time>2026-05-07T11:36:43Z</time>
    </trkpt>
    <trkpt lat="49.3832" lon="20.55586">
      <ele>885</ele>
      <time>2026-05-07T11:37:01Z</time>
    </trkpt>
    <trkpt lat="49.383351" lon="20.556144">
      <ele>878</ele>
      <time>2026-05-07T11:37:26Z</time>
    </trkpt>
    <trkpt lat="49.383501" lon="20.556257">
      <ele>874</ele>
      <time>2026-05-07T11:37:44Z</time>
    </trkpt>
    <trkpt lat="49.383703" lon="20.5563">
      <ele>868</ele>
      <time>2026-05-07T11:38:06Z</time>
    </trkpt>
    <trkpt lat="49.38392" lon="20.556396">
      <ele>857</ele>
      <time>2026-05-07T11:38:32Z</time>
    </trkpt>
    <trkpt lat="49.384124" lon="20.556605">
      <ele>847</ele>
      <time>2026-05-07T11:38:59Z</time>
    </trkpt>
    <trkpt lat="49.384802" lon="20.557048">
      <ele>833</ele>
      <time>2026-05-07T11:40:16Z</time>
    </trkpt>
    <trkpt lat="49.384885" lon="20.55709">
      <ele>829</ele>
      <time>2026-05-07T11:40:26Z</time>
    </trkpt>
    <trkpt lat="49.384935" lon="20.557086">
      <ele>828</ele>
      <time>2026-05-07T11:40:31Z</time>
    </trkpt>
    <trkpt lat="49.384984" lon="20.55705">
      <ele>827</ele>
      <time>2026-05-07T11:40:37Z</time>
    </trkpt>
    <trkpt lat="49.385077" lon="20.556961">
      <ele>827</ele>
      <time>2026-05-07T11:40:48Z</time>
    </trkpt>
    <trkpt lat="49.385252" lon="20.556843">
      <ele>825</ele>
      <time>2026-05-07T11:41:08Z</time>
    </trkpt>
    <trkpt lat="49.385413" lon="20.556814">
      <ele>821</ele>
      <time>2026-05-07T11:41:26Z</time>
    </trkpt>
    <trkpt lat="49.385505" lon="20.556779">
      <ele>818</ele>
      <time>2026-05-07T11:41:36Z</time>
    </trkpt>
    <trkpt lat="49.38565" lon="20.556708">
      <ele>814</ele>
      <time>2026-05-07T11:41:52Z</time>
    </trkpt>
    <trkpt lat="49.385722" lon="20.556585">
      <ele>814</ele>
      <time>2026-05-07T11:42:03Z</time>
    </trkpt>
    <trkpt lat="49.385776" lon="20.556532">
      <ele>813</ele>
      <time>2026-05-07T11:42:10Z</time>
    </trkpt>
    <trkpt lat="49.385957" lon="20.556507">
      <ele>808</ele>
      <time>2026-05-07T11:42:29Z</time>
    </trkpt>
    <trkpt lat="49.386112" lon="20.556444">
      <ele>806</ele>
      <time>2026-05-07T11:42:46Z</time>
    </trkpt>
    <trkpt lat="49.386281" lon="20.556338">
      <ele>803</ele>
      <time>2026-05-07T11:43:05Z</time>
    </trkpt>
    <trkpt lat="49.386438" lon="20.556259">
      <ele>800</ele>
      <time>2026-05-07T11:43:23Z</time>
    </trkpt>
    <trkpt lat="49.38663" lon="20.556161">
      <ele>795</ele>
      <time>2026-05-07T11:43:44Z</time>
    </trkpt>
    <trkpt lat="49.386862" lon="20.556075">
      <ele>784</ele>
      <time>2026-05-07T11:44:11Z</time>
    </trkpt>
    <trkpt lat="49.387086" lon="20.55603">
      <ele>774</ele>
      <time>2026-05-07T11:44:36Z</time>
    </trkpt>
    <trkpt lat="49.387471" lon="20.555933">
      <ele>768</ele>
      <time>2026-05-07T11:45:17Z</time>
    </trkpt>
    <trkpt lat="49.387864" lon="20.555434">
      <ele>762</ele>
      <time>2026-05-07T11:46:10Z</time>
    </trkpt>
    <trkpt lat="49.388328" lon="20.555038">
      <ele>749</ele>
      <time>2026-05-07T11:47:07Z</time>
    </trkpt>
    <trkpt lat="49.388546" lon="20.555017">
      <ele>741</ele>
      <time>2026-05-07T11:47:31Z</time>
    </trkpt>
    <trkpt lat="49.38907" lon="20.555136">
      <ele>734</ele>
      <time>2026-05-07T11:48:26Z</time>
    </trkpt>
    <trkpt lat="49.389236" lon="20.555364">
      <ele>731</ele>
      <time>2026-05-07T11:48:50Z</time>
    </trkpt>
    <trkpt lat="49.389408" lon="20.555468">
      <ele>728</ele>
      <time>2026-05-07T11:49:09Z</time>
    </trkpt>
    <trkpt lat="49.389531" lon="20.555478">
      <ele>726</ele>
      <time>2026-05-07T11:49:22Z</time>
    </trkpt>
    <trkpt lat="49.389704" lon="20.555436">
      <ele>723</ele>
      <time>2026-05-07T11:49:42Z</time>
    </trkpt>
    <trkpt lat="49.389795" lon="20.555323">
      <ele>721</ele>
      <time>2026-05-07T11:49:56Z</time>
    </trkpt>
    <trkpt lat="49.389973" lon="20.555296">
      <ele>717</ele>
      <time>2026-05-07T11:50:17Z</time>
    </trkpt>
    <trkpt lat="49.390099" lon="20.555229">
      <ele>714</ele>
      <time>2026-05-07T11:50:32Z</time>
    </trkpt>
    <trkpt lat="49.390188" lon="20.555168">
      <ele>712</ele>
      <time>2026-05-07T11:50:44Z</time>
    </trkpt>
    <trkpt lat="49.39027" lon="20.555125">
      <ele>710</ele>
      <time>2026-05-07T11:50:54Z</time>
    </trkpt>
    <trkpt lat="49.390436" lon="20.554946">
      <ele>709</ele>
      <time>2026-05-07T11:51:17Z</time>
    </trkpt>
    <trkpt lat="49.390524" lon="20.554935">
      <ele>709</ele>
      <time>2026-05-07T11:51:27Z</time>
    </trkpt>
    <trkpt lat="49.390627" lon="20.554958">
      <ele>711</ele>
      <time>2026-05-07T11:51:39Z</time>
    </trkpt>
    <trkpt lat="49.390656" lon="20.554965">
      <ele>711</ele>
      <time>2026-05-07T11:51:43Z</time>
    </trkpt>
    <trkpt lat="49.390741" lon="20.554907">
      <ele>712</ele>
      <time>2026-05-07T11:51:53Z</time>
    </trkpt>
    <trkpt lat="49.39101" lon="20.554873">
      <ele>714</ele>
      <time>2026-05-07T11:52:24Z</time>
    </trkpt>
    <trkpt lat="49.391096" lon="20.554884">
      <ele>714</ele>
      <time>2026-05-07T11:52:34Z</time>
    </trkpt>
    <trkpt lat="49.391178" lon="20.554828">
      <ele>714</ele>
      <time>2026-05-07T11:52:45Z</time>
    </trkpt>
    <trkpt lat="49.391595" lon="20.554718">
      <ele>711</ele>
      <time>2026-05-07T11:53:33Z</time>
    </trkpt>
    <trkpt lat="49.391902" lon="20.554912">
      <ele>712</ele>
      <time>2026-05-07T11:54:11Z</time>
    </trkpt>
    <trkpt lat="49.392071" lon="20.554976">
      <ele>710</ele>
      <time>2026-05-07T11:54:31Z</time>
    </trkpt>
    <trkpt lat="49.39222" lon="20.554965">
      <ele>707</ele>
      <time>2026-05-07T11:54:49Z</time>
    </trkpt>
    <trkpt lat="49.392429" lon="20.55483">
      <ele>702</ele>
      <time>2026-05-07T11:55:15Z</time>
    </trkpt>
    <trkpt lat="49.392601" lon="20.554773">
      <ele>699</ele>
      <time>2026-05-07T11:55:35Z</time>
    </trkpt>
    <trkpt lat="49.392887" lon="20.555133">
      <ele>708</ele>
      <time>2026-05-07T11:56:19Z</time>
    </trkpt>
    <trkpt lat="49.393721" lon="20.555458">
      <ele>710</ele>
      <time>2026-05-07T11:57:57Z</time>
    </trkpt>
    <trkpt lat="49.39458" lon="20.555329">
      <ele>707</ele>
      <time>2026-05-07T11:59:36Z</time>
    </trkpt>
    <trkpt lat="49.394919" lon="20.555114">
      <ele>702</ele>
      <time>2026-05-07T12:00:19Z</time>
    </trkpt>
    <trkpt lat="49.39509" lon="20.555077">
      <ele>700</ele>
      <time>2026-05-07T12:00:39Z</time>
    </trkpt>
    <trkpt lat="49.395352" lon="20.555098">
      <ele>698</ele>
      <time>2026-05-07T12:01:09Z</time>
    </trkpt>
    <trkpt lat="49.396095" lon="20.554579">
      <ele>696</ele>
      <time>2026-05-07T12:02:42Z</time>
    </trkpt>
    <trkpt lat="49.39657" lon="20.554182">
      <ele>694</ele>
      <time>2026-05-07T12:03:44Z</time>
    </trkpt>
    <trkpt lat="49.39676" lon="20.554023">
      <ele>694</ele>
      <time>2026-05-07T12:04:09Z</time>
    </trkpt>
    <trkpt lat="49.396867" lon="20.55398">
      <ele>694</ele>
      <time>2026-05-07T12:04:22Z</time>
    </trkpt>
    <trkpt lat="49.396846" lon="20.553919">
      <ele>693</ele>
      <time>2026-05-07T12:04:27Z</time>
    </trkpt>
    <trkpt lat="49.396758" lon="20.553667">
      <ele>687</ele>
      <time>2026-05-07T12:04:47Z</time>
    </trkpt>
    <trkpt lat="49.39676" lon="20.553545">
      <ele>684</ele>
      <time>2026-05-07T12:04:56Z</time>
    </trkpt>
    <trkpt lat="49.396766" lon="20.553269">
      <ele>680</ele>
      <time>2026-05-07T12:05:15Z</time>
    </trkpt>
    <trkpt lat="49.396819" lon="20.553183">
      <ele>679</ele>
      <time>2026-05-07T12:05:23Z</time>
    </trkpt>
    <trkpt lat="49.397083" lon="20.553141">
      <ele>678</ele>
      <time>2026-05-07T12:05:51Z</time>
    </trkpt>
    <trkpt lat="49.397323" lon="20.55275">
      <ele>672</ele>
      <time>2026-05-07T12:06:28Z</time>
    </trkpt>
    <trkpt lat="49.397589" lon="20.552525">
      <ele>669</ele>
      <time>2026-05-07T12:07:00Z</time>
    </trkpt>
    <trkpt lat="49.397855" lon="20.552378">
      <ele>667</ele>
      <time>2026-05-07T12:07:29Z</time>
    </trkpt>
    <trkpt lat="49.397984" lon="20.552335">
      <ele>666</ele>
      <time>2026-05-07T12:07:43Z</time>
    </trkpt>
    <trkpt lat="49.398078" lon="20.552239">
      <ele>664</ele>
      <time>2026-05-07T12:07:55Z</time>
    </trkpt>
    <trkpt lat="49.39811" lon="20.552067">
      <ele>661</ele>
      <time>2026-05-07T12:08:08Z</time>
    </trkpt>
    <trkpt lat="49.398176" lon="20.551933">
      <ele>658</ele>
      <time>2026-05-07T12:08:19Z</time>
    </trkpt>
    <trkpt lat="49.398176" lon="20.55174">
      <ele>654</ele>
      <time>2026-05-07T12:08:33Z</time>
    </trkpt>
    <trkpt lat="49.398304" lon="20.551522">
      <ele>650</ele>
      <time>2026-05-07T12:08:53Z</time>
    </trkpt>
    <trkpt lat="49.398592" lon="20.550981">
      <ele>642</ele>
      <time>2026-05-07T12:09:41Z</time>
    </trkpt>
    <trkpt lat="49.398779" lon="20.550728">
      <ele>640</ele>
      <time>2026-05-07T12:10:07Z</time>
    </trkpt>
    <trkpt lat="49.398836" lon="20.550659">
      <ele>640</ele>
      <time>2026-05-07T12:10:15Z</time>
    </trkpt>
    <trkpt lat="49.399082" lon="20.550601">
      <ele>640</ele>
      <time>2026-05-07T12:10:41Z</time>
    </trkpt>
    <trkpt lat="49.399148" lon="20.550581">
      <ele>640</ele>
      <time>2026-05-07T12:10:48Z</time>
    </trkpt>
    <trkpt lat="49.399249" lon="20.550539">
      <ele>641</ele>
      <time>2026-05-07T12:10:59Z</time>
    </trkpt>
    <trkpt lat="49.39939" lon="20.550539">
      <ele>642</ele>
      <time>2026-05-07T12:11:14Z</time>
    </trkpt>
    <trkpt lat="49.39953" lon="20.550558">
      <ele>642</ele>
      <time>2026-05-07T12:11:28Z</time>
    </trkpt>
    <trkpt lat="49.4001" lon="20.550446">
      <ele>638</ele>
      <time>2026-05-07T12:12:29Z</time>
    </trkpt>
    <trkpt lat="49.400337" lon="20.550393">
      <ele>634</ele>
      <time>2026-05-07T12:12:54Z</time>
    </trkpt>
    <trkpt lat="49.400529" lon="20.550308">
      <ele>629</ele>
      <time>2026-05-07T12:13:15Z</time>
    </trkpt>
    <trkpt lat="49.400669" lon="20.550302">
      <ele>628</ele>
      <time>2026-05-07T12:13:30Z</time>
    </trkpt>
    <trkpt lat="49.400746" lon="20.550163">
      <ele>627</ele>
      <time>2026-05-07T12:13:42Z</time>
    </trkpt>
    <trkpt lat="49.401217" lon="20.549794">
      <ele>625</ele>
      <time>2026-05-07T12:14:38Z</time>
    </trkpt>
    <trkpt lat="49.401299" lon="20.549662">
      <ele>623</ele>
      <time>2026-05-07T12:14:50Z</time>
    </trkpt>
    <trkpt lat="49.401388" lon="20.549514">
      <ele>621</ele>
      <time>2026-05-07T12:15:04Z</time>
    </trkpt>
    <trkpt lat="49.401496" lon="20.549245">
      <ele>622</ele>
      <time>2026-05-07T12:15:26Z</time>
    </trkpt>
    <trkpt lat="49.401692" lon="20.549063">
      <ele>616</ele>
      <time>2026-05-07T12:15:50Z</time>
    </trkpt>
    <trkpt lat="49.40181" lon="20.549004">
      <ele>615</ele>
      <time>2026-05-07T12:16:03Z</time>
    </trkpt>
    <trkpt lat="49.40195" lon="20.54895">
      <ele>614</ele>
      <time>2026-05-07T12:16:18Z</time>
    </trkpt>
    <trkpt lat="49.402082" lon="20.548907">
      <ele>612</ele>
      <time>2026-05-07T12:16:32Z</time>
    </trkpt>
    <trkpt lat="49.40227" lon="20.548916">
      <ele>610</ele>
      <time>2026-05-07T12:16:52Z</time>
    </trkpt>
    <trkpt lat="49.402301" lon="20.54894">
      <ele>610</ele>
      <time>2026-05-07T12:16:56Z</time>
    </trkpt>
    <trkpt lat="49.402329" lon="20.548961">
      <ele>610</ele>
      <time>2026-05-07T12:16:59Z</time>
    </trkpt>
    <trkpt lat="49.402353" lon="20.54898">
      <ele>610</ele>
      <time>2026-05-07T12:17:02Z</time>
    </trkpt>
    <trkpt lat="49.402379" lon="20.549001">
      <ele>610</ele>
      <time>2026-05-07T12:17:05Z</time>
    </trkpt>
    <trkpt lat="49.402484" lon="20.548953">
      <ele>610</ele>
      <time>2026-05-07T12:17:16Z</time>
    </trkpt>
    <trkpt lat="49.402585" lon="20.548747">
      <ele>609</ele>
      <time>2026-05-07T12:17:34Z</time>
    </trkpt>
    <trkpt lat="49.402729" lon="20.54855">
      <ele>608</ele>
      <time>2026-05-07T12:17:54Z</time>
    </trkpt>
    <trkpt lat="49.40307" lon="20.548114">
      <ele>599</ele>
      <time>2026-05-07T12:18:41Z</time>
    </trkpt>
    <trkpt lat="49.403121" lon="20.548047">
      <ele>599</ele>
      <time>2026-05-07T12:18:48Z</time>
    </trkpt>
    <trkpt lat="49.403238" lon="20.548092">
      <ele>598</ele>
      <time>2026-05-07T12:19:01Z</time>
    </trkpt>
    <trkpt lat="49.403413" lon="20.548173">
      <ele>597</ele>
      <time>2026-05-07T12:19:20Z</time>
    </trkpt>
    <trkpt lat="49.403612" lon="20.548156">
      <ele>595</ele>
      <time>2026-05-07T12:19:41Z</time>
    </trkpt>
    <trkpt lat="49.40376" lon="20.548016">
      <ele>593</ele>
      <time>2026-05-07T12:19:59Z</time>
    </trkpt>
    <trkpt lat="49.403856" lon="20.547957">
      <ele>594</ele>
      <time>2026-05-07T12:20:10Z</time>
    </trkpt>
    <trkpt lat="49.403937" lon="20.547948">
      <ele>593</ele>
      <time>2026-05-07T12:20:18Z</time>
    </trkpt>
    <trkpt lat="49.404025" lon="20.548055">
      <ele>589</ele>
      <time>2026-05-07T12:20:31Z</time>
    </trkpt>
    <trkpt lat="49.404149" lon="20.547985">
      <ele>591</ele>
      <time>2026-05-07T12:20:45Z</time>
    </trkpt>
    <trkpt lat="49.404247" lon="20.547915">
      <ele>592</ele>
      <time>2026-05-07T12:20:56Z</time>
    </trkpt>
    <trkpt lat="49.404369" lon="20.547979">
      <ele>589</ele>
      <time>2026-05-07T12:21:10Z</time>
    </trkpt>
    <trkpt lat="49.40454" lon="20.548049">
      <ele>587</ele>
      <time>2026-05-07T12:21:28Z</time>
    </trkpt>
    <trkpt lat="49.40476" lon="20.548038">
      <ele>587</ele>
      <time>2026-05-07T12:21:51Z</time>
    </trkpt>
    <trkpt lat="49.405176" lon="20.547781">
      <ele>581</ele>
      <time>2026-05-07T12:22:38Z</time>
    </trkpt>
    <trkpt lat="49.405323" lon="20.547647">
      <ele>578</ele>
      <time>2026-05-07T12:22:56Z</time>
    </trkpt>
    <trkpt lat="49.405417" lon="20.547494">
      <ele>576</ele>
      <time>2026-05-07T12:23:11Z</time>
    </trkpt>
    <trkpt lat="49.405567" lon="20.547254">
      <ele>572</ele>
      <time>2026-05-07T12:23:34Z</time>
    </trkpt>
    <trkpt lat="49.405622" lon="20.54724">
      <ele>571</ele>
      <time>2026-05-07T12:23:40Z</time>
    </trkpt>
    <trkpt lat="49.405652" lon="20.547233">
      <ele>570</ele>
      <time>2026-05-07T12:23:43Z</time>
    </trkpt>
    <trkpt lat="49.405675" lon="20.547227">
      <ele>569</ele>
      <time>2026-05-07T12:23:45Z</time>
    </trkpt>
    <trkpt lat="49.405985" lon="20.547457">
      <ele>562</ele>
      <time>2026-05-07T12:24:22Z</time>
    </trkpt>
    <trkpt lat="49.405973" lon="20.547712">
      <ele>562</ele>
      <time>2026-05-07T12:24:44Z</time>
    </trkpt>
    <trkpt lat="49.405991" lon="20.5479">
      <ele>561</ele>
      <time>2026-05-07T12:25:01Z</time>
    </trkpt>
    <trkpt lat="49.406008" lon="20.548004">
      <ele>561</ele>
      <time>2026-05-07T12:25:10Z</time>
    </trkpt>
    <trkpt lat="49.406051" lon="20.548193">
      <ele>561</ele>
      <time>2026-05-07T12:25:27Z</time>
    </trkpt>
    <trkpt lat="49.406065" lon="20.548258">
      <ele>561</ele>
      <time>2026-05-07T12:25:33Z</time>
    </trkpt>
    <trkpt lat="49.40617" lon="20.548677">
      <ele>562</ele>
      <time>2026-05-07T12:26:12Z</time>
    </trkpt>
    <trkpt lat="49.406179" lon="20.54871">
      <ele>562</ele>
      <time>2026-05-07T12:26:16Z</time>
    </trkpt>
    <trkpt lat="49.406237" lon="20.548975">
      <ele>562</ele>
      <time>2026-05-07T12:26:40Z</time>
    </trkpt>
    <trkpt lat="49.40638" lon="20.549645">
      <ele>561</ele>
      <time>2026-05-07T12:27:41Z</time>
    </trkpt>
    <trkpt lat="49.406429" lon="20.549839">
      <ele>561</ele>
      <time>2026-05-07T12:27:59Z</time>
    </trkpt>
    <trkpt lat="49.406506" lon="20.550145">
      <ele>561</ele>
      <time>2026-05-07T12:28:28Z</time>
    </trkpt>
    <trkpt lat="49.406558" lon="20.550351">
      <ele>562</ele>
      <time>2026-05-07T12:28:47Z</time>
    </trkpt>
    <trkpt lat="49.40664" lon="20.550651">
      <ele>562</ele>
      <time>2026-05-07T12:29:15Z</time>
    </trkpt>
    <trkpt lat="49.406667" lon="20.55078">
      <ele>563</ele>
      <time>2026-05-07T12:29:27Z</time>
    </trkpt>
    <trkpt lat="49.406677" lon="20.550903">
      <ele>563</ele>
      <time>2026-05-07T12:29:38Z</time>
    </trkpt>
    <trkpt lat="49.406678" lon="20.551172">
      <ele>563</ele>
      <time>2026-05-07T12:30:01Z</time>
    </trkpt>
    <trkpt lat="49.40667" lon="20.552152">
      <ele>565</ele>
      <time>2026-05-07T12:31:27Z</time>
    </trkpt>
    <trkpt lat="49.406653" lon="20.552451">
      <ele>565</ele>
      <time>2026-05-07T12:31:53Z</time>
    </trkpt>
    <trkpt lat="49.406635" lon="20.552606">
      <ele>565</ele>
      <time>2026-05-07T12:32:06Z</time>
    </trkpt>
    <trkpt lat="49.406615" lon="20.552783">
      <ele>565</ele>
      <time>2026-05-07T12:32:22Z</time>
    </trkpt>
  </trkseg>
</trk>
</gpx>