<?xml version="1.0" encoding="UTF-8"?><gpx creator="https://mapa-turystyczna.pl" xmlns="http://www.topografix.com/GPX/1/1" version="1.1" xmlns:xsi="http://www.w3.org/2001/XMLSchema-instance" xsi:schemaLocation="http://www.topografix.com/GPX/1/1 http://www.topografix.com/GPX/1/1/gpx.xsd">
  <metadata>
    <link href="https://mapa-turystyczna.pl">
      <text>mapa-turystyczna.pl</text>
    </link>
    <time>2026-05-07T08:43:16Z</time>
    <bounds maxlat="49.714715" maxlon="19.032878" minlat="49.652787" minlon="18.9750961"/>
  </metadata>

<trk>
  <name>Trasa do: Szczyrk</name>
  <link href="https://mapa-turystyczna.pl/route/h8qy">
    <text>Trasa do: Szczyrk</text>
  </link>
  <trkseg>
    <trkpt lat="49.6827132" lon="18.9750961">
      <ele>655</ele>
      <time>2026-05-07T08:43:16Z</time>
    </trkpt>
    <trkpt lat="49.682672" lon="18.975332">
      <ele>656</ele>
      <time>2026-05-07T08:43:42Z</time>
    </trkpt>
    <trkpt lat="49.682598" lon="18.9756">
      <ele>659</ele>
      <time>2026-05-07T08:44:13Z</time>
    </trkpt>
    <trkpt lat="49.68248" lon="18.975744">
      <ele>662</ele>
      <time>2026-05-07T08:44:38Z</time>
    </trkpt>
    <trkpt lat="49.682298" lon="18.975869">
      <ele>668</ele>
      <time>2026-05-07T08:45:11Z</time>
    </trkpt>
    <trkpt lat="49.682098" lon="18.975952">
      <ele>675</ele>
      <time>2026-05-07T08:45:47Z</time>
    </trkpt>
    <trkpt lat="49.681788" lon="18.975975">
      <ele>683</ele>
      <time>2026-05-07T08:46:39Z</time>
    </trkpt>
    <trkpt lat="49.681679" lon="18.976006">
      <ele>684</ele>
      <time>2026-05-07T08:46:57Z</time>
    </trkpt>
    <trkpt lat="49.681537" lon="18.976087">
      <ele>684</ele>
      <time>2026-05-07T08:47:21Z</time>
    </trkpt>
    <trkpt lat="49.68128" lon="18.976314">
      <ele>683</ele>
      <time>2026-05-07T08:48:10Z</time>
    </trkpt>
    <trkpt lat="49.681104" lon="18.976477">
      <ele>686</ele>
      <time>2026-05-07T08:48:43Z</time>
    </trkpt>
    <trkpt lat="49.680847" lon="18.976605">
      <ele>689</ele>
      <time>2026-05-07T08:49:28Z</time>
    </trkpt>
    <trkpt lat="49.68064" lon="18.97678">
      <ele>693</ele>
      <time>2026-05-07T08:50:07Z</time>
    </trkpt>
    <trkpt lat="49.680339" lon="18.977189">
      <ele>697</ele>
      <time>2026-05-07T08:51:12Z</time>
    </trkpt>
    <trkpt lat="49.680049" lon="18.977598">
      <ele>694</ele>
      <time>2026-05-07T08:52:16Z</time>
    </trkpt>
    <trkpt lat="49.679806" lon="18.97787">
      <ele>697</ele>
      <time>2026-05-07T08:53:05Z</time>
    </trkpt>
    <trkpt lat="49.679706" lon="18.977855">
      <ele>701</ele>
      <time>2026-05-07T08:53:23Z</time>
    </trkpt>
    <trkpt lat="49.679559" lon="18.977939">
      <ele>705</ele>
      <time>2026-05-07T08:53:49Z</time>
    </trkpt>
    <trkpt lat="49.678197" lon="18.978419">
      <ele>752</ele>
      <time>2026-05-07T08:57:47Z</time>
    </trkpt>
    <trkpt lat="49.677393" lon="18.978597">
      <ele>780</ele>
      <time>2026-05-07T09:00:06Z</time>
    </trkpt>
    <trkpt lat="49.676161" lon="18.978686">
      <ele>810</ele>
      <time>2026-05-07T09:03:31Z</time>
    </trkpt>
    <trkpt lat="49.675918" lon="18.978683">
      <ele>815</ele>
      <time>2026-05-07T09:04:12Z</time>
    </trkpt>
    <trkpt lat="49.675206" lon="18.978468">
      <ele>833</ele>
      <time>2026-05-07T09:06:13Z</time>
    </trkpt>
    <trkpt lat="49.673989" lon="18.977698">
      <ele>866</ele>
      <time>2026-05-07T09:09:53Z</time>
    </trkpt>
    <trkpt lat="49.673757" lon="18.977592">
      <ele>869</ele>
      <time>2026-05-07T09:10:32Z</time>
    </trkpt>
    <trkpt lat="49.673574" lon="18.977562">
      <ele>871</ele>
      <time>2026-05-07T09:11:02Z</time>
    </trkpt>
    <trkpt lat="49.671205" lon="18.97766">
      <ele>885</ele>
      <time>2026-05-07T09:17:29Z</time>
    </trkpt>
    <trkpt lat="49.670284" lon="18.977809">
      <ele>893</ele>
      <time>2026-05-07T09:20:01Z</time>
    </trkpt>
    <trkpt lat="49.669994" lon="18.977873">
      <ele>895</ele>
      <time>2026-05-07T09:20:49Z</time>
    </trkpt>
    <trkpt lat="49.669445" lon="18.97808">
      <ele>902</ele>
      <time>2026-05-07T09:22:22Z</time>
    </trkpt>
    <trkpt lat="49.66923" lon="18.978123">
      <ele>910</ele>
      <time>2026-05-07T09:22:58Z</time>
    </trkpt>
    <trkpt lat="49.669056" lon="18.97822">
      <ele>913</ele>
      <time>2026-05-07T09:23:29Z</time>
    </trkpt>
    <trkpt lat="49.668732" lon="18.978369">
      <ele>920</ele>
      <time>2026-05-07T09:24:25Z</time>
    </trkpt>
    <trkpt lat="49.668191" lon="18.978562">
      <ele>926</ele>
      <time>2026-05-07T09:25:56Z</time>
    </trkpt>
    <trkpt lat="49.667566" lon="18.97867">
      <ele>933</ele>
      <time>2026-05-07T09:27:39Z</time>
    </trkpt>
    <trkpt lat="49.666998" lon="18.978865">
      <ele>944</ele>
      <time>2026-05-07T09:29:15Z</time>
    </trkpt>
    <trkpt lat="49.666803" lon="18.978922">
      <ele>946</ele>
      <time>2026-05-07T09:29:48Z</time>
    </trkpt>
    <trkpt lat="49.666605" lon="18.978949">
      <ele>948</ele>
      <time>2026-05-07T09:30:20Z</time>
    </trkpt>
    <trkpt lat="49.666458" lon="18.97897">
      <ele>949</ele>
      <time>2026-05-07T09:30:44Z</time>
    </trkpt>
    <trkpt lat="49.666205" lon="18.979055">
      <ele>949</ele>
      <time>2026-05-07T09:31:27Z</time>
    </trkpt>
    <trkpt lat="49.665396" lon="18.979334">
      <ele>951</ele>
      <time>2026-05-07T09:33:42Z</time>
    </trkpt>
    <trkpt lat="49.664868" lon="18.979515">
      <ele>951</ele>
      <time>2026-05-07T09:35:10Z</time>
    </trkpt>
    <trkpt lat="49.664597" lon="18.979617">
      <ele>950</ele>
      <time>2026-05-07T09:35:56Z</time>
    </trkpt>
    <trkpt lat="49.664414" lon="18.979648">
      <ele>953</ele>
      <time>2026-05-07T09:36:26Z</time>
    </trkpt>
    <trkpt lat="49.663958" lon="18.979711">
      <ele>964</ele>
      <time>2026-05-07T09:37:42Z</time>
    </trkpt>
    <trkpt lat="49.663758" lon="18.979763">
      <ele>965</ele>
      <time>2026-05-07T09:38:15Z</time>
    </trkpt>
    <trkpt lat="49.663442" lon="18.979898">
      <ele>965</ele>
      <time>2026-05-07T09:39:09Z</time>
    </trkpt>
    <trkpt lat="49.663222" lon="18.980008">
      <ele>967</ele>
      <time>2026-05-07T09:39:47Z</time>
    </trkpt>
    <trkpt lat="49.662668" lon="18.980413">
      <ele>971</ele>
      <time>2026-05-07T09:41:27Z</time>
    </trkpt>
    <trkpt lat="49.662205" lon="18.980876">
      <ele>975</ele>
      <time>2026-05-07T09:42:57Z</time>
    </trkpt>
    <trkpt lat="49.661735" lon="18.981459">
      <ele>978</ele>
      <time>2026-05-07T09:44:35Z</time>
    </trkpt>
    <trkpt lat="49.661597" lon="18.981738">
      <ele>976</ele>
      <time>2026-05-07T09:45:12Z</time>
    </trkpt>
    <trkpt lat="49.661472" lon="18.982063">
      <ele>974</ele>
      <time>2026-05-07T09:45:52Z</time>
    </trkpt>
    <trkpt lat="49.661281" lon="18.98242">
      <ele>977</ele>
      <time>2026-05-07T09:46:41Z</time>
    </trkpt>
    <trkpt lat="49.660933" lon="18.983114">
      <ele>989</ele>
      <time>2026-05-07T09:48:16Z</time>
    </trkpt>
    <trkpt lat="49.660571" lon="18.983838">
      <ele>994</ele>
      <time>2026-05-07T09:49:53Z</time>
    </trkpt>
    <trkpt lat="49.660279" lon="18.984206">
      <ele>996</ele>
      <time>2026-05-07T09:50:54Z</time>
    </trkpt>
    <trkpt lat="49.660107" lon="18.984396">
      <ele>997</ele>
      <time>2026-05-07T09:51:29Z</time>
    </trkpt>
    <trkpt lat="49.659919" lon="18.984552">
      <ele>997</ele>
      <time>2026-05-07T09:52:03Z</time>
    </trkpt>
    <trkpt lat="49.659692" lon="18.984646">
      <ele>998</ele>
      <time>2026-05-07T09:52:42Z</time>
    </trkpt>
    <trkpt lat="49.659425" lon="18.984697">
      <ele>1004</ele>
      <time>2026-05-07T09:53:26Z</time>
    </trkpt>
    <trkpt lat="49.658985" lon="18.98494">
      <ele>1005</ele>
      <time>2026-05-07T09:54:43Z</time>
    </trkpt>
    <trkpt lat="49.658691" lon="18.985191">
      <ele>1003</ele>
      <time>2026-05-07T09:55:37Z</time>
    </trkpt>
    <trkpt lat="49.657636" lon="18.986004">
      <ele>1000</ele>
      <time>2026-05-07T09:58:50Z</time>
    </trkpt>
    <trkpt lat="49.657226" lon="18.98629">
      <ele>998</ele>
      <time>2026-05-07T10:00:03Z</time>
    </trkpt>
    <trkpt lat="49.656518" lon="18.986741">
      <ele>993</ele>
      <time>2026-05-07T10:02:08Z</time>
    </trkpt>
    <trkpt lat="49.655837" lon="18.987201">
      <ele>978</ele>
      <time>2026-05-07T10:04:11Z</time>
    </trkpt>
    <trkpt lat="49.655429" lon="18.987545">
      <ele>981</ele>
      <time>2026-05-07T10:05:27Z</time>
    </trkpt>
    <trkpt lat="49.655148" lon="18.987953">
      <ele>980</ele>
      <time>2026-05-07T10:06:30Z</time>
    </trkpt>
    <trkpt lat="49.654973" lon="18.988237">
      <ele>979</ele>
      <time>2026-05-07T10:07:12Z</time>
    </trkpt>
    <trkpt lat="49.654782" lon="18.988713">
      <ele>982</ele>
      <time>2026-05-07T10:08:11Z</time>
    </trkpt>
    <trkpt lat="49.654571" lon="18.989476">
      <ele>986</ele>
      <time>2026-05-07T10:09:39Z</time>
    </trkpt>
    <trkpt lat="49.654507" lon="18.990014">
      <ele>988</ele>
      <time>2026-05-07T10:10:36Z</time>
    </trkpt>
    <trkpt lat="49.654526" lon="18.99049">
      <ele>989</ele>
      <time>2026-05-07T10:11:27Z</time>
    </trkpt>
    <trkpt lat="49.654535" lon="18.990651">
      <ele>989</ele>
      <time>2026-05-07T10:11:44Z</time>
    </trkpt>
    <trkpt lat="49.654523" lon="18.990718">
      <ele>990</ele>
      <time>2026-05-07T10:11:51Z</time>
    </trkpt>
    <trkpt lat="49.654467" lon="18.990555">
      <ele>994</ele>
      <time>2026-05-07T10:12:11Z</time>
    </trkpt>
    <trkpt lat="49.654413" lon="18.990264">
      <ele>995</ele>
      <time>2026-05-07T10:12:43Z</time>
    </trkpt>
    <trkpt lat="49.654377" lon="18.989884">
      <ele>995</ele>
      <time>2026-05-07T10:13:24Z</time>
    </trkpt>
    <trkpt lat="49.654382" lon="18.989519">
      <ele>996</ele>
      <time>2026-05-07T10:14:02Z</time>
    </trkpt>
    <trkpt lat="49.65441" lon="18.989158">
      <ele>997</ele>
      <time>2026-05-07T10:14:41Z</time>
    </trkpt>
    <trkpt lat="49.654381" lon="18.988323">
      <ele>1000</ele>
      <time>2026-05-07T10:16:09Z</time>
    </trkpt>
    <trkpt lat="49.654348" lon="18.988101">
      <ele>1004</ele>
      <time>2026-05-07T10:16:34Z</time>
    </trkpt>
    <trkpt lat="49.654281" lon="18.987885">
      <ele>1007</ele>
      <time>2026-05-07T10:17:00Z</time>
    </trkpt>
    <trkpt lat="49.654202" lon="18.987794">
      <ele>1009</ele>
      <time>2026-05-07T10:17:16Z</time>
    </trkpt>
    <trkpt lat="49.654108" lon="18.987797">
      <ele>1010</ele>
      <time>2026-05-07T10:17:29Z</time>
    </trkpt>
    <trkpt lat="49.654033" lon="18.987757">
      <ele>1009</ele>
      <time>2026-05-07T10:17:40Z</time>
    </trkpt>
    <trkpt lat="49.653873" lon="18.988016">
      <ele>1009</ele>
      <time>2026-05-07T10:18:13Z</time>
    </trkpt>
    <trkpt lat="49.653748" lon="18.98828">
      <ele>1008</ele>
      <time>2026-05-07T10:18:43Z</time>
    </trkpt>
    <trkpt lat="49.653625" lon="18.988614">
      <ele>1010</ele>
      <time>2026-05-07T10:19:18Z</time>
    </trkpt>
    <trkpt lat="49.653559" lon="18.988846">
      <ele>1013</ele>
      <time>2026-05-07T10:19:42Z</time>
    </trkpt>
    <trkpt lat="49.653519" lon="18.989145">
      <ele>1017</ele>
      <time>2026-05-07T10:20:10Z</time>
    </trkpt>
    <trkpt lat="49.653493" lon="18.989397">
      <ele>1019</ele>
      <time>2026-05-07T10:20:33Z</time>
    </trkpt>
    <trkpt lat="49.653507" lon="18.989798">
      <ele>1024</ele>
      <time>2026-05-07T10:21:10Z</time>
    </trkpt>
    <trkpt lat="49.653427" lon="18.990228">
      <ele>1029</ele>
      <time>2026-05-07T10:21:52Z</time>
    </trkpt>
    <trkpt lat="49.653351" lon="18.990775">
      <ele>1037</ele>
      <time>2026-05-07T10:22:44Z</time>
    </trkpt>
    <trkpt lat="49.653309" lon="18.990938">
      <ele>1039</ele>
      <time>2026-05-07T10:23:00Z</time>
    </trkpt>
    <trkpt lat="49.653271" lon="18.991292">
      <ele>1040</ele>
      <time>2026-05-07T10:23:33Z</time>
    </trkpt>
    <trkpt lat="49.653194" lon="18.99207">
      <ele>1041</ele>
      <time>2026-05-07T10:24:45Z</time>
    </trkpt>
    <trkpt lat="49.653109" lon="18.992518">
      <ele>1041</ele>
      <time>2026-05-07T10:25:27Z</time>
    </trkpt>
    <trkpt lat="49.652965" lon="18.993899">
      <ele>1049</ele>
      <time>2026-05-07T10:27:35Z</time>
    </trkpt>
    <trkpt lat="49.652959" lon="18.993955">
      <ele>1050</ele>
      <time>2026-05-07T10:27:40Z</time>
    </trkpt>
    <trkpt lat="49.652888" lon="18.994595">
      <ele>1054</ele>
      <time>2026-05-07T10:28:40Z</time>
    </trkpt>
    <trkpt lat="49.652787" lon="18.995721">
      <ele>1064</ele>
      <time>2026-05-07T10:30:24Z</time>
    </trkpt>
    <trkpt lat="49.652795" lon="18.995975">
      <ele>1065</ele>
      <time>2026-05-07T10:30:48Z</time>
    </trkpt>
    <trkpt lat="49.652803" lon="18.996195">
      <ele>1065</ele>
      <time>2026-05-07T10:31:08Z</time>
    </trkpt>
    <trkpt lat="49.652888" lon="18.996802">
      <ele>1066</ele>
      <time>2026-05-07T10:32:04Z</time>
    </trkpt>
    <trkpt lat="49.652906" lon="18.996925">
      <ele>1067</ele>
      <time>2026-05-07T10:32:16Z</time>
    </trkpt>
    <trkpt lat="49.652964" lon="18.997267">
      <ele>1069</ele>
      <time>2026-05-07T10:32:58Z</time>
    </trkpt>
    <trkpt lat="49.65292" lon="18.997643">
      <ele>1075</ele>
      <time>2026-05-07T10:33:44Z</time>
    </trkpt>
    <trkpt lat="49.652997" lon="18.997882">
      <ele>1079</ele>
      <time>2026-05-07T10:34:17Z</time>
    </trkpt>
    <trkpt lat="49.653091" lon="18.998122">
      <ele>1083</ele>
      <time>2026-05-07T10:34:50Z</time>
    </trkpt>
    <trkpt lat="49.653267" lon="18.998919">
      <ele>1095</ele>
      <time>2026-05-07T10:36:32Z</time>
    </trkpt>
    <trkpt lat="49.653266" lon="18.998997">
      <ele>1096</ele>
      <time>2026-05-07T10:36:41Z</time>
    </trkpt>
    <trkpt lat="49.653244" lon="18.999141">
      <ele>1099</ele>
      <time>2026-05-07T10:36:59Z</time>
    </trkpt>
    <trkpt lat="49.653263" lon="18.999246">
      <ele>1101</ele>
      <time>2026-05-07T10:37:13Z</time>
    </trkpt>
    <trkpt lat="49.653363" lon="18.999418">
      <ele>1105</ele>
      <time>2026-05-07T10:37:41Z</time>
    </trkpt>
    <trkpt lat="49.653597" lon="18.999759">
      <ele>1110</ele>
      <time>2026-05-07T10:38:40Z</time>
    </trkpt>
    <trkpt lat="49.653828" lon="19.000166">
      <ele>1120</ele>
      <time>2026-05-07T10:39:46Z</time>
    </trkpt>
    <trkpt lat="49.654206" lon="19.000893">
      <ele>1133</ele>
      <time>2026-05-07T10:41:38Z</time>
    </trkpt>
    <trkpt lat="49.6543" lon="19.001016">
      <ele>1135</ele>
      <time>2026-05-07T10:42:01Z</time>
    </trkpt>
    <trkpt lat="49.654368" lon="19.001064">
      <ele>1136</ele>
      <time>2026-05-07T10:42:15Z</time>
    </trkpt>
    <trkpt lat="49.654669" lon="19.001182">
      <ele>1140</ele>
      <time>2026-05-07T10:43:12Z</time>
    </trkpt>
    <trkpt lat="49.655081" lon="19.001289">
      <ele>1143</ele>
      <time>2026-05-07T10:44:28Z</time>
    </trkpt>
    <trkpt lat="49.655157" lon="19.001298">
      <ele>1143</ele>
      <time>2026-05-07T10:44:42Z</time>
    </trkpt>
    <trkpt lat="49.655266" lon="19.001275">
      <ele>1144</ele>
      <time>2026-05-07T10:45:02Z</time>
    </trkpt>
    <trkpt lat="49.655763" lon="19.001073">
      <ele>1148</ele>
      <time>2026-05-07T10:46:37Z</time>
    </trkpt>
    <trkpt lat="49.655803" lon="19.00107">
      <ele>1148</ele>
      <time>2026-05-07T10:46:44Z</time>
    </trkpt>
    <trkpt lat="49.655861" lon="19.001104">
      <ele>1150</ele>
      <time>2026-05-07T10:46:56Z</time>
    </trkpt>
    <trkpt lat="49.655913" lon="19.00119">
      <ele>1151</ele>
      <time>2026-05-07T10:47:10Z</time>
    </trkpt>
    <trkpt lat="49.655929" lon="19.001237">
      <ele>1152</ele>
      <time>2026-05-07T10:47:16Z</time>
    </trkpt>
    <trkpt lat="49.655993" lon="19.001238">
      <ele>1150</ele>
      <time>2026-05-07T10:47:25Z</time>
    </trkpt>
    <trkpt lat="49.656069" lon="19.001217">
      <ele>1147</ele>
      <time>2026-05-07T10:47:35Z</time>
    </trkpt>
    <trkpt lat="49.656136" lon="19.001186">
      <ele>1146</ele>
      <time>2026-05-07T10:47:45Z</time>
    </trkpt>
    <trkpt lat="49.656198" lon="19.001171">
      <ele>1146</ele>
      <time>2026-05-07T10:47:53Z</time>
    </trkpt>
    <trkpt lat="49.656272" lon="19.00118">
      <ele>1146</ele>
      <time>2026-05-07T10:48:02Z</time>
    </trkpt>
    <trkpt lat="49.65639" lon="19.001259">
      <ele>1146</ele>
      <time>2026-05-07T10:48:19Z</time>
    </trkpt>
    <trkpt lat="49.656459" lon="19.001295">
      <ele>1145</ele>
      <time>2026-05-07T10:48:29Z</time>
    </trkpt>
    <trkpt lat="49.656513" lon="19.001332">
      <ele>1145</ele>
      <time>2026-05-07T10:48:36Z</time>
    </trkpt>
    <trkpt lat="49.656561" lon="19.001398">
      <ele>1145</ele>
      <time>2026-05-07T10:48:45Z</time>
    </trkpt>
    <trkpt lat="49.656618" lon="19.001399">
      <ele>1144</ele>
      <time>2026-05-07T10:48:52Z</time>
    </trkpt>
    <trkpt lat="49.656673" lon="19.001391">
      <ele>1144</ele>
      <time>2026-05-07T10:48:59Z</time>
    </trkpt>
    <trkpt lat="49.65673" lon="19.001396">
      <ele>1143</ele>
      <time>2026-05-07T10:49:07Z</time>
    </trkpt>
    <trkpt lat="49.656769" lon="19.00143">
      <ele>1142</ele>
      <time>2026-05-07T10:49:13Z</time>
    </trkpt>
    <trkpt lat="49.656793" lon="19.00146">
      <ele>1142</ele>
      <time>2026-05-07T10:49:17Z</time>
    </trkpt>
    <trkpt lat="49.656814" lon="19.001492">
      <ele>1142</ele>
      <time>2026-05-07T10:49:21Z</time>
    </trkpt>
    <trkpt lat="49.656884" lon="19.001588">
      <ele>1141</ele>
      <time>2026-05-07T10:49:33Z</time>
    </trkpt>
    <trkpt lat="49.656957" lon="19.001616">
      <ele>1140</ele>
      <time>2026-05-07T10:49:43Z</time>
    </trkpt>
    <trkpt lat="49.656967" lon="19.001591">
      <ele>1140</ele>
      <time>2026-05-07T10:49:45Z</time>
    </trkpt>
    <trkpt lat="49.656988" lon="19.001569">
      <ele>1139</ele>
      <time>2026-05-07T10:49:49Z</time>
    </trkpt>
    <trkpt lat="49.657007" lon="19.001559">
      <ele>1139</ele>
      <time>2026-05-07T10:49:51Z</time>
    </trkpt>
    <trkpt lat="49.657032" lon="19.001574">
      <ele>1138</ele>
      <time>2026-05-07T10:49:55Z</time>
    </trkpt>
    <trkpt lat="49.657049" lon="19.001615">
      <ele>1138</ele>
      <time>2026-05-07T10:49:59Z</time>
    </trkpt>
    <trkpt lat="49.657061" lon="19.001674">
      <ele>1137</ele>
      <time>2026-05-07T10:50:04Z</time>
    </trkpt>
    <trkpt lat="49.657083" lon="19.00171">
      <ele>1137</ele>
      <time>2026-05-07T10:50:08Z</time>
    </trkpt>
    <trkpt lat="49.657132" lon="19.001745">
      <ele>1135</ele>
      <time>2026-05-07T10:50:16Z</time>
    </trkpt>
    <trkpt lat="49.657216" lon="19.001771">
      <ele>1133</ele>
      <time>2026-05-07T10:50:27Z</time>
    </trkpt>
    <trkpt lat="49.657335" lon="19.00185">
      <ele>1130</ele>
      <time>2026-05-07T10:50:44Z</time>
    </trkpt>
    <trkpt lat="49.657482" lon="19.001937">
      <ele>1126</ele>
      <time>2026-05-07T10:51:05Z</time>
    </trkpt>
    <trkpt lat="49.657619" lon="19.001887">
      <ele>1123</ele>
      <time>2026-05-07T10:51:24Z</time>
    </trkpt>
    <trkpt lat="49.65775" lon="19.001819">
      <ele>1121</ele>
      <time>2026-05-07T10:51:42Z</time>
    </trkpt>
    <trkpt lat="49.657921" lon="19.001768">
      <ele>1117</ele>
      <time>2026-05-07T10:52:05Z</time>
    </trkpt>
    <trkpt lat="49.658066" lon="19.001668">
      <ele>1114</ele>
      <time>2026-05-07T10:52:26Z</time>
    </trkpt>
    <trkpt lat="49.658387" lon="19.001486">
      <ele>1110</ele>
      <time>2026-05-07T10:53:11Z</time>
    </trkpt>
    <trkpt lat="49.658652" lon="19.001382">
      <ele>1110</ele>
      <time>2026-05-07T10:53:47Z</time>
    </trkpt>
    <trkpt lat="49.659473" lon="19.001178">
      <ele>1110</ele>
      <time>2026-05-07T10:55:35Z</time>
    </trkpt>
    <trkpt lat="49.660204" lon="19.001102">
      <ele>1116</ele>
      <time>2026-05-07T10:57:11Z</time>
    </trkpt>
    <trkpt lat="49.66058" lon="19.00121">
      <ele>1120</ele>
      <time>2026-05-07T10:58:01Z</time>
    </trkpt>
    <trkpt lat="49.661181" lon="19.001346">
      <ele>1127</ele>
      <time>2026-05-07T10:59:20Z</time>
    </trkpt>
    <trkpt lat="49.661452" lon="19.001486">
      <ele>1131</ele>
      <time>2026-05-07T10:59:58Z</time>
    </trkpt>
    <trkpt lat="49.661849" lon="19.001862">
      <ele>1137</ele>
      <time>2026-05-07T11:00:59Z</time>
    </trkpt>
    <trkpt lat="49.662357" lon="19.002244">
      <ele>1144</ele>
      <time>2026-05-07T11:02:13Z</time>
    </trkpt>
    <trkpt lat="49.662501" lon="19.002353">
      <ele>1145</ele>
      <time>2026-05-07T11:02:34Z</time>
    </trkpt>
    <trkpt lat="49.662603" lon="19.002423">
      <ele>1145</ele>
      <time>2026-05-07T11:02:48Z</time>
    </trkpt>
    <trkpt lat="49.663033" lon="19.002731">
      <ele>1147</ele>
      <time>2026-05-07T11:03:50Z</time>
    </trkpt>
    <trkpt lat="49.663863" lon="19.003018">
      <ele>1155</ele>
      <time>2026-05-07T11:05:41Z</time>
    </trkpt>
    <trkpt lat="49.664426" lon="19.003328">
      <ele>1156</ele>
      <time>2026-05-07T11:06:59Z</time>
    </trkpt>
    <trkpt lat="49.664779" lon="19.003439">
      <ele>1155</ele>
      <time>2026-05-07T11:07:46Z</time>
    </trkpt>
    <trkpt lat="49.667676" lon="19.005134">
      <ele>1170</ele>
      <time>2026-05-07T11:14:30Z</time>
    </trkpt>
    <trkpt lat="49.668293" lon="19.005405">
      <ele>1177</ele>
      <time>2026-05-07T11:15:54Z</time>
    </trkpt>
    <trkpt lat="49.669083" lon="19.005583">
      <ele>1186</ele>
      <time>2026-05-07T11:17:39Z</time>
    </trkpt>
    <trkpt lat="49.669309" lon="19.005596">
      <ele>1187</ele>
      <time>2026-05-07T11:18:08Z</time>
    </trkpt>
    <trkpt lat="49.669773" lon="19.005623">
      <ele>1189</ele>
      <time>2026-05-07T11:19:09Z</time>
    </trkpt>
    <trkpt lat="49.670067" lon="19.005645">
      <ele>1190</ele>
      <time>2026-05-07T11:19:47Z</time>
    </trkpt>
    <trkpt lat="49.670267" lon="19.005689">
      <ele>1189</ele>
      <time>2026-05-07T11:20:13Z</time>
    </trkpt>
    <trkpt lat="49.671813" lon="19.006722">
      <ele>1184</ele>
      <time>2026-05-07T11:23:53Z</time>
    </trkpt>
    <trkpt lat="49.671929" lon="19.0068">
      <ele>1184</ele>
      <time>2026-05-07T11:24:09Z</time>
    </trkpt>
    <trkpt lat="49.672124" lon="19.007019">
      <ele>1183</ele>
      <time>2026-05-07T11:24:41Z</time>
    </trkpt>
    <trkpt lat="49.672698" lon="19.008017">
      <ele>1183</ele>
      <time>2026-05-07T11:26:33Z</time>
    </trkpt>
    <trkpt lat="49.673442" lon="19.00886">
      <ele>1179</ele>
      <time>2026-05-07T11:28:34Z</time>
    </trkpt>
    <trkpt lat="49.673825" lon="19.009426">
      <ele>1178</ele>
      <time>2026-05-07T11:29:43Z</time>
    </trkpt>
    <trkpt lat="49.673905" lon="19.009483">
      <ele>1178</ele>
      <time>2026-05-07T11:29:54Z</time>
    </trkpt>
    <trkpt lat="49.674037" lon="19.009542">
      <ele>1176</ele>
      <time>2026-05-07T11:30:12Z</time>
    </trkpt>
    <trkpt lat="49.674134" lon="19.00969">
      <ele>1176</ele>
      <time>2026-05-07T11:30:30Z</time>
    </trkpt>
    <trkpt lat="49.674377" lon="19.009904">
      <ele>1177</ele>
      <time>2026-05-07T11:31:06Z</time>
    </trkpt>
    <trkpt lat="49.674597" lon="19.010084">
      <ele>1179</ele>
      <time>2026-05-07T11:31:39Z</time>
    </trkpt>
    <trkpt lat="49.674951" lon="19.010473">
      <ele>1181</ele>
      <time>2026-05-07T11:32:36Z</time>
    </trkpt>
    <trkpt lat="49.675125" lon="19.010664">
      <ele>1184</ele>
      <time>2026-05-07T11:33:04Z</time>
    </trkpt>
    <trkpt lat="49.675944" lon="19.01157">
      <ele>1199</ele>
      <time>2026-05-07T11:35:16Z</time>
    </trkpt>
    <trkpt lat="49.676567" lon="19.01214">
      <ele>1206</ele>
      <time>2026-05-07T11:36:51Z</time>
    </trkpt>
    <trkpt lat="49.676658" lon="19.012234">
      <ele>1209</ele>
      <time>2026-05-07T11:37:05Z</time>
    </trkpt>
    <trkpt lat="49.676705" lon="19.012333">
      <ele>1211</ele>
      <time>2026-05-07T11:37:16Z</time>
    </trkpt>
    <trkpt lat="49.676765" lon="19.012561">
      <ele>1206</ele>
      <time>2026-05-07T11:37:35Z</time>
    </trkpt>
    <trkpt lat="49.676821" lon="19.012817">
      <ele>1204</ele>
      <time>2026-05-07T11:37:56Z</time>
    </trkpt>
    <trkpt lat="49.676843" lon="19.013099">
      <ele>1204</ele>
      <time>2026-05-07T11:38:17Z</time>
    </trkpt>
    <trkpt lat="49.6769" lon="19.013799">
      <ele>1203</ele>
      <time>2026-05-07T11:39:11Z</time>
    </trkpt>
    <trkpt lat="49.676996" lon="19.014354">
      <ele>1201</ele>
      <time>2026-05-07T11:39:55Z</time>
    </trkpt>
    <trkpt lat="49.677106" lon="19.014895">
      <ele>1198</ele>
      <time>2026-05-07T11:40:38Z</time>
    </trkpt>
    <trkpt lat="49.677211" lon="19.015413">
      <ele>1198</ele>
      <time>2026-05-07T11:41:19Z</time>
    </trkpt>
    <trkpt lat="49.677336" lon="19.015987">
      <ele>1196</ele>
      <time>2026-05-07T11:42:05Z</time>
    </trkpt>
    <trkpt lat="49.677478" lon="19.016765">
      <ele>1196</ele>
      <time>2026-05-07T11:43:06Z</time>
    </trkpt>
    <trkpt lat="49.67764" lon="19.01735">
      <ele>1198</ele>
      <time>2026-05-07T11:43:54Z</time>
    </trkpt>
    <trkpt lat="49.677907" lon="19.018188">
      <ele>1200</ele>
      <time>2026-05-07T11:45:05Z</time>
    </trkpt>
    <trkpt lat="49.678146" lon="19.018821">
      <ele>1197</ele>
      <time>2026-05-07T11:46:01Z</time>
    </trkpt>
    <trkpt lat="49.678268" lon="19.019078">
      <ele>1197</ele>
      <time>2026-05-07T11:46:25Z</time>
    </trkpt>
    <trkpt lat="49.678356" lon="19.019342">
      <ele>1197</ele>
      <time>2026-05-07T11:46:48Z</time>
    </trkpt>
    <trkpt lat="49.678438" lon="19.019728">
      <ele>1200</ele>
      <time>2026-05-07T11:47:18Z</time>
    </trkpt>
    <trkpt lat="49.678589" lon="19.020433">
      <ele>1201</ele>
      <time>2026-05-07T11:48:15Z</time>
    </trkpt>
    <trkpt lat="49.678621" lon="19.020563">
      <ele>1201</ele>
      <time>2026-05-07T11:48:25Z</time>
    </trkpt>
    <trkpt lat="49.678656" lon="19.020709">
      <ele>1201</ele>
      <time>2026-05-07T11:48:37Z</time>
    </trkpt>
    <trkpt lat="49.679045" lon="19.021871">
      <ele>1199</ele>
      <time>2026-05-07T11:50:16Z</time>
    </trkpt>
    <trkpt lat="49.679216" lon="19.022358">
      <ele>1196</ele>
      <time>2026-05-07T11:50:58Z</time>
    </trkpt>
    <trkpt lat="49.679403" lon="19.02288">
      <ele>1196</ele>
      <time>2026-05-07T11:51:44Z</time>
    </trkpt>
    <trkpt lat="49.679919" lon="19.024237">
      <ele>1202</ele>
      <time>2026-05-07T11:53:43Z</time>
    </trkpt>
    <trkpt lat="49.679999" lon="19.024447">
      <ele>1203</ele>
      <time>2026-05-07T11:54:02Z</time>
    </trkpt>
    <trkpt lat="49.680056" lon="19.0246">
      <ele>1203</ele>
      <time>2026-05-07T11:54:15Z</time>
    </trkpt>
    <trkpt lat="49.680139" lon="19.024745">
      <ele>1204</ele>
      <time>2026-05-07T11:54:30Z</time>
    </trkpt>
    <trkpt lat="49.680209" lon="19.024825">
      <ele>1205</ele>
      <time>2026-05-07T11:54:40Z</time>
    </trkpt>
    <trkpt lat="49.680437" lon="19.024981">
      <ele>1207</ele>
      <time>2026-05-07T11:55:09Z</time>
    </trkpt>
    <trkpt lat="49.6813" lon="19.02563">
      <ele>1219</ele>
      <time>2026-05-07T11:57:03Z</time>
    </trkpt>
    <trkpt lat="49.681403" lon="19.025721">
      <ele>1220</ele>
      <time>2026-05-07T11:57:17Z</time>
    </trkpt>
    <trkpt lat="49.681731" lon="19.026111">
      <ele>1225</ele>
      <time>2026-05-07T11:58:05Z</time>
    </trkpt>
    <trkpt lat="49.681838" lon="19.026295">
      <ele>1226</ele>
      <time>2026-05-07T11:58:24Z</time>
    </trkpt>
    <trkpt lat="49.681965" lon="19.026598">
      <ele>1227</ele>
      <time>2026-05-07T11:58:51Z</time>
    </trkpt>
    <trkpt lat="49.682098" lon="19.026799">
      <ele>1228</ele>
      <time>2026-05-07T11:59:13Z</time>
    </trkpt>
    <trkpt lat="49.682316" lon="19.027178">
      <ele>1230</ele>
      <time>2026-05-07T11:59:52Z</time>
    </trkpt>
    <trkpt lat="49.682384" lon="19.027335">
      <ele>1231</ele>
      <time>2026-05-07T12:00:06Z</time>
    </trkpt>
    <trkpt lat="49.682623" lon="19.028216">
      <ele>1232</ele>
      <time>2026-05-07T12:01:19Z</time>
    </trkpt>
    <trkpt lat="49.682683" lon="19.028377">
      <ele>1232</ele>
      <time>2026-05-07T12:01:33Z</time>
    </trkpt>
    <trkpt lat="49.682821" lon="19.028558">
      <ele>1234</ele>
      <time>2026-05-07T12:01:54Z</time>
    </trkpt>
    <trkpt lat="49.682894" lon="19.028637">
      <ele>1235</ele>
      <time>2026-05-07T12:02:05Z</time>
    </trkpt>
    <trkpt lat="49.682999" lon="19.028779">
      <ele>1237</ele>
      <time>2026-05-07T12:02:21Z</time>
    </trkpt>
    <trkpt lat="49.683384" lon="19.029318">
      <ele>1241</ele>
      <time>2026-05-07T12:03:22Z</time>
    </trkpt>
    <trkpt lat="49.683815" lon="19.029718">
      <ele>1244</ele>
      <time>2026-05-07T12:04:21Z</time>
    </trkpt>
    <trkpt lat="49.683933" lon="19.029835">
      <ele>1246</ele>
      <time>2026-05-07T12:04:38Z</time>
    </trkpt>
    <trkpt lat="49.68404" lon="19.030569">
      <ele>1250</ele>
      <time>2026-05-07T12:05:35Z</time>
    </trkpt>
    <trkpt lat="49.684086" lon="19.030915">
      <ele>1248</ele>
      <time>2026-05-07T12:06:02Z</time>
    </trkpt>
    <trkpt lat="49.684141" lon="19.031435">
      <ele>1251</ele>
      <time>2026-05-07T12:06:42Z</time>
    </trkpt>
    <trkpt lat="49.684191" lon="19.031616">
      <ele>1253</ele>
      <time>2026-05-07T12:06:57Z</time>
    </trkpt>
    <trkpt lat="49.684301" lon="19.031797">
      <ele>1257</ele>
      <time>2026-05-07T12:07:16Z</time>
    </trkpt>
    <trkpt lat="49.684577" lon="19.031795">
      <ele>1250</ele>
      <time>2026-05-07T12:07:48Z</time>
    </trkpt>
    <trkpt lat="49.684823" lon="19.03173">
      <ele>1242</ele>
      <time>2026-05-07T12:08:17Z</time>
    </trkpt>
    <trkpt lat="49.684969" lon="19.031664">
      <ele>1239</ele>
      <time>2026-05-07T12:08:35Z</time>
    </trkpt>
    <trkpt lat="49.685111" lon="19.031566">
      <ele>1239</ele>
      <time>2026-05-07T12:08:52Z</time>
    </trkpt>
    <trkpt lat="49.685299" lon="19.031419">
      <ele>1240</ele>
      <time>2026-05-07T12:09:16Z</time>
    </trkpt>
    <trkpt lat="49.685494" lon="19.0318">
      <ele>1237</ele>
      <time>2026-05-07T12:09:45Z</time>
    </trkpt>
    <trkpt lat="49.685517" lon="19.031986">
      <ele>1235</ele>
      <time>2026-05-07T12:09:57Z</time>
    </trkpt>
    <trkpt lat="49.685536" lon="19.032027">
      <ele>1235</ele>
      <time>2026-05-07T12:10:00Z</time>
    </trkpt>
    <trkpt lat="49.685616" lon="19.032054">
      <ele>1233</ele>
      <time>2026-05-07T12:10:07Z</time>
    </trkpt>
    <trkpt lat="49.685631" lon="19.032086">
      <ele>1232</ele>
      <time>2026-05-07T12:10:10Z</time>
    </trkpt>
    <trkpt lat="49.685742" lon="19.032067">
      <ele>1230</ele>
      <time>2026-05-07T12:10:20Z</time>
    </trkpt>
    <trkpt lat="49.685767" lon="19.032095">
      <ele>1229</ele>
      <time>2026-05-07T12:10:23Z</time>
    </trkpt>
    <trkpt lat="49.685842" lon="19.03212">
      <ele>1227</ele>
      <time>2026-05-07T12:10:31Z</time>
    </trkpt>
    <trkpt lat="49.685896" lon="19.032158">
      <ele>1224</ele>
      <time>2026-05-07T12:10:36Z</time>
    </trkpt>
    <trkpt lat="49.685923" lon="19.032317">
      <ele>1221</ele>
      <time>2026-05-07T12:10:47Z</time>
    </trkpt>
    <trkpt lat="49.68591" lon="19.032411">
      <ele>1219</ele>
      <time>2026-05-07T12:10:53Z</time>
    </trkpt>
    <trkpt lat="49.685941" lon="19.032505">
      <ele>1217</ele>
      <time>2026-05-07T12:10:59Z</time>
    </trkpt>
    <trkpt lat="49.685996" lon="19.032593">
      <ele>1213</ele>
      <time>2026-05-07T12:11:07Z</time>
    </trkpt>
    <trkpt lat="49.686032" lon="19.032673">
      <ele>1210</ele>
      <time>2026-05-07T12:11:13Z</time>
    </trkpt>
    <trkpt lat="49.686709" lon="19.032144">
      <ele>1202</ele>
      <time>2026-05-07T12:12:24Z</time>
    </trkpt>
    <trkpt lat="49.687457" lon="19.031548">
      <ele>1201</ele>
      <time>2026-05-07T12:13:42Z</time>
    </trkpt>
    <trkpt lat="49.687596" lon="19.031525">
      <ele>1199</ele>
      <time>2026-05-07T12:13:55Z</time>
    </trkpt>
    <trkpt lat="49.687724" lon="19.03159">
      <ele>1196</ele>
      <time>2026-05-07T12:14:08Z</time>
    </trkpt>
    <trkpt lat="49.687808" lon="19.031564">
      <ele>1195</ele>
      <time>2026-05-07T12:14:16Z</time>
    </trkpt>
    <trkpt lat="49.68807" lon="19.031384">
      <ele>1193</ele>
      <time>2026-05-07T12:14:42Z</time>
    </trkpt>
    <trkpt lat="49.688258" lon="19.031305">
      <ele>1187</ele>
      <time>2026-05-07T12:15:01Z</time>
    </trkpt>
    <trkpt lat="49.688389" lon="19.031267">
      <ele>1183</ele>
      <time>2026-05-07T12:15:13Z</time>
    </trkpt>
    <trkpt lat="49.688367" lon="19.031379">
      <ele>1184</ele>
      <time>2026-05-07T12:15:21Z</time>
    </trkpt>
    <trkpt lat="49.688334" lon="19.031469">
      <ele>1184</ele>
      <time>2026-05-07T12:15:27Z</time>
    </trkpt>
    <trkpt lat="49.688219" lon="19.031661">
      <ele>1185</ele>
      <time>2026-05-07T12:15:42Z</time>
    </trkpt>
    <trkpt lat="49.688168" lon="19.031765">
      <ele>1184</ele>
      <time>2026-05-07T12:15:50Z</time>
    </trkpt>
    <trkpt lat="49.688004" lon="19.031994">
      <ele>1181</ele>
      <time>2026-05-07T12:16:11Z</time>
    </trkpt>
    <trkpt lat="49.687633" lon="19.032409">
      <ele>1172</ele>
      <time>2026-05-07T12:16:54Z</time>
    </trkpt>
    <trkpt lat="49.687453" lon="19.032544">
      <ele>1171</ele>
      <time>2026-05-07T12:17:12Z</time>
    </trkpt>
    <trkpt lat="49.687293" lon="19.032668">
      <ele>1172</ele>
      <time>2026-05-07T12:17:29Z</time>
    </trkpt>
    <trkpt lat="49.687173" lon="19.03273">
      <ele>1173</ele>
      <time>2026-05-07T12:17:41Z</time>
    </trkpt>
    <trkpt lat="49.687101" lon="19.032771">
      <ele>1174</ele>
      <time>2026-05-07T12:17:48Z</time>
    </trkpt>
    <trkpt lat="49.687066" lon="19.032811">
      <ele>1173</ele>
      <time>2026-05-07T12:17:52Z</time>
    </trkpt>
    <trkpt lat="49.687117" lon="19.032831">
      <ele>1171</ele>
      <time>2026-05-07T12:17:57Z</time>
    </trkpt>
    <trkpt lat="49.687184" lon="19.032836">
      <ele>1169</ele>
      <time>2026-05-07T12:18:04Z</time>
    </trkpt>
    <trkpt lat="49.687341" lon="19.032852">
      <ele>1163</ele>
      <time>2026-05-07T12:18:19Z</time>
    </trkpt>
    <trkpt lat="49.687562" lon="19.032878">
      <ele>1153</ele>
      <time>2026-05-07T12:18:41Z</time>
    </trkpt>
    <trkpt lat="49.688266" lon="19.032755">
      <ele>1140</ele>
      <time>2026-05-07T12:19:47Z</time>
    </trkpt>
    <trkpt lat="49.688466" lon="19.032685">
      <ele>1140</ele>
      <time>2026-05-07T12:20:06Z</time>
    </trkpt>
    <trkpt lat="49.688756" lon="19.032637">
      <ele>1134</ele>
      <time>2026-05-07T12:20:34Z</time>
    </trkpt>
    <trkpt lat="49.689024" lon="19.032541">
      <ele>1127</ele>
      <time>2026-05-07T12:21:00Z</time>
    </trkpt>
    <trkpt lat="49.689283" lon="19.032391">
      <ele>1125</ele>
      <time>2026-05-07T12:21:26Z</time>
    </trkpt>
    <trkpt lat="49.689462" lon="19.032317">
      <ele>1124</ele>
      <time>2026-05-07T12:21:43Z</time>
    </trkpt>
    <trkpt lat="49.689922" lon="19.032073">
      <ele>1126</ele>
      <time>2026-05-07T12:22:28Z</time>
    </trkpt>
    <trkpt lat="49.690416" lon="19.03174">
      <ele>1118</ele>
      <time>2026-05-07T12:23:18Z</time>
    </trkpt>
    <trkpt lat="49.690687" lon="19.031511">
      <ele>1107</ele>
      <time>2026-05-07T12:23:48Z</time>
    </trkpt>
    <trkpt lat="49.690904" lon="19.031231">
      <ele>1095</ele>
      <time>2026-05-07T12:24:16Z</time>
    </trkpt>
    <trkpt lat="49.690955" lon="19.031143">
      <ele>1093</ele>
      <time>2026-05-07T12:24:23Z</time>
    </trkpt>
    <trkpt lat="49.691032" lon="19.030932">
      <ele>1090</ele>
      <time>2026-05-07T12:24:36Z</time>
    </trkpt>
    <trkpt lat="49.691105" lon="19.030729">
      <ele>1088</ele>
      <time>2026-05-07T12:24:48Z</time>
    </trkpt>
    <trkpt lat="49.691116" lon="19.0307">
      <ele>1088</ele>
      <time>2026-05-07T12:24:50Z</time>
    </trkpt>
    <trkpt lat="49.691156" lon="19.030535">
      <ele>1089</ele>
      <time>2026-05-07T12:25:00Z</time>
    </trkpt>
    <trkpt lat="49.691186" lon="19.03028">
      <ele>1088</ele>
      <time>2026-05-07T12:25:14Z</time>
    </trkpt>
    <trkpt lat="49.691164" lon="19.030128">
      <ele>1087</ele>
      <time>2026-05-07T12:25:22Z</time>
    </trkpt>
    <trkpt lat="49.691126" lon="19.029964">
      <ele>1087</ele>
      <time>2026-05-07T12:25:32Z</time>
    </trkpt>
    <trkpt lat="49.691105" lon="19.029707">
      <ele>1086</ele>
      <time>2026-05-07T12:25:46Z</time>
    </trkpt>
    <trkpt lat="49.691119" lon="19.029447">
      <ele>1083</ele>
      <time>2026-05-07T12:26:00Z</time>
    </trkpt>
    <trkpt lat="49.691098" lon="19.029275">
      <ele>1080</ele>
      <time>2026-05-07T12:26:09Z</time>
    </trkpt>
    <trkpt lat="49.691095" lon="19.029166">
      <ele>1078</ele>
      <time>2026-05-07T12:26:16Z</time>
    </trkpt>
    <trkpt lat="49.69112" lon="19.029069">
      <ele>1076</ele>
      <time>2026-05-07T12:26:22Z</time>
    </trkpt>
    <trkpt lat="49.691129" lon="19.02901">
      <ele>1074</ele>
      <time>2026-05-07T12:26:25Z</time>
    </trkpt>
    <trkpt lat="49.691168" lon="19.028934">
      <ele>1071</ele>
      <time>2026-05-07T12:26:31Z</time>
    </trkpt>
    <trkpt lat="49.691284" lon="19.028763">
      <ele>1065</ele>
      <time>2026-05-07T12:26:45Z</time>
    </trkpt>
    <trkpt lat="49.691686" lon="19.028682">
      <ele>1055</ele>
      <time>2026-05-07T12:27:20Z</time>
    </trkpt>
    <trkpt lat="49.69193" lon="19.028586">
      <ele>1051</ele>
      <time>2026-05-07T12:27:41Z</time>
    </trkpt>
    <trkpt lat="49.692058" lon="19.028406">
      <ele>1046</ele>
      <time>2026-05-07T12:27:56Z</time>
    </trkpt>
    <trkpt lat="49.692226" lon="19.028219">
      <ele>1040</ele>
      <time>2026-05-07T12:28:13Z</time>
    </trkpt>
    <trkpt lat="49.692616" lon="19.027827">
      <ele>1031</ele>
      <time>2026-05-07T12:28:53Z</time>
    </trkpt>
    <trkpt lat="49.692912" lon="19.027466">
      <ele>1023</ele>
      <time>2026-05-07T12:29:25Z</time>
    </trkpt>
    <trkpt lat="49.693016" lon="19.027223">
      <ele>1016</ele>
      <time>2026-05-07T12:29:41Z</time>
    </trkpt>
    <trkpt lat="49.693043" lon="19.027121">
      <ele>1013</ele>
      <time>2026-05-07T12:29:48Z</time>
    </trkpt>
    <trkpt lat="49.693074" lon="19.026879">
      <ele>1008</ele>
      <time>2026-05-07T12:30:01Z</time>
    </trkpt>
    <trkpt lat="49.693142" lon="19.026708">
      <ele>1004</ele>
      <time>2026-05-07T12:30:13Z</time>
    </trkpt>
    <trkpt lat="49.693225" lon="19.026607">
      <ele>1001</ele>
      <time>2026-05-07T12:30:22Z</time>
    </trkpt>
    <trkpt lat="49.693322" lon="19.026523">
      <ele>999</ele>
      <time>2026-05-07T12:30:31Z</time>
    </trkpt>
    <trkpt lat="49.69344" lon="19.02648">
      <ele>995</ele>
      <time>2026-05-07T12:30:42Z</time>
    </trkpt>
    <trkpt lat="49.693508" lon="19.026432">
      <ele>993</ele>
      <time>2026-05-07T12:30:48Z</time>
    </trkpt>
    <trkpt lat="49.693659" lon="19.026341">
      <ele>988</ele>
      <time>2026-05-07T12:31:02Z</time>
    </trkpt>
    <trkpt lat="49.693784" lon="19.026212">
      <ele>982</ele>
      <time>2026-05-07T12:31:15Z</time>
    </trkpt>
    <trkpt lat="49.693896" lon="19.026027">
      <ele>977</ele>
      <time>2026-05-07T12:31:30Z</time>
    </trkpt>
    <trkpt lat="49.694058" lon="19.025794">
      <ele>971</ele>
      <time>2026-05-07T12:31:49Z</time>
    </trkpt>
    <trkpt lat="49.694219" lon="19.025496">
      <ele>964</ele>
      <time>2026-05-07T12:32:10Z</time>
    </trkpt>
    <trkpt lat="49.694325" lon="19.025333">
      <ele>960</ele>
      <time>2026-05-07T12:32:23Z</time>
    </trkpt>
    <trkpt lat="49.694445" lon="19.025123">
      <ele>955</ele>
      <time>2026-05-07T12:32:38Z</time>
    </trkpt>
    <trkpt lat="49.694525" lon="19.024951">
      <ele>952</ele>
      <time>2026-05-07T12:32:50Z</time>
    </trkpt>
    <trkpt lat="49.694613" lon="19.024764">
      <ele>948</ele>
      <time>2026-05-07T12:33:03Z</time>
    </trkpt>
    <trkpt lat="49.694674" lon="19.024611">
      <ele>947</ele>
      <time>2026-05-07T12:33:13Z</time>
    </trkpt>
    <trkpt lat="49.694796" lon="19.024226">
      <ele>945</ele>
      <time>2026-05-07T12:33:36Z</time>
    </trkpt>
    <trkpt lat="49.69509" lon="19.02364">
      <ele>940</ele>
      <time>2026-05-07T12:34:16Z</time>
    </trkpt>
    <trkpt lat="49.695255" lon="19.023409">
      <ele>935</ele>
      <time>2026-05-07T12:34:40Z</time>
    </trkpt>
    <trkpt lat="49.69543" lon="19.023192">
      <ele>932</ele>
      <time>2026-05-07T12:35:03Z</time>
    </trkpt>
    <trkpt lat="49.695528" lon="19.023145">
      <ele>931</ele>
      <time>2026-05-07T12:35:14Z</time>
    </trkpt>
    <trkpt lat="49.69566" lon="19.023082">
      <ele>931</ele>
      <time>2026-05-07T12:35:29Z</time>
    </trkpt>
    <trkpt lat="49.69585" lon="19.023039">
      <ele>930</ele>
      <time>2026-05-07T12:35:49Z</time>
    </trkpt>
    <trkpt lat="49.69596" lon="19.022944">
      <ele>927</ele>
      <time>2026-05-07T12:36:02Z</time>
    </trkpt>
    <trkpt lat="49.696114" lon="19.022885">
      <ele>923</ele>
      <time>2026-05-07T12:36:19Z</time>
    </trkpt>
    <trkpt lat="49.696185" lon="19.022717">
      <ele>920</ele>
      <time>2026-05-07T12:36:33Z</time>
    </trkpt>
    <trkpt lat="49.696324" lon="19.022526">
      <ele>915</ele>
      <time>2026-05-07T12:36:53Z</time>
    </trkpt>
    <trkpt lat="49.696429" lon="19.022347">
      <ele>911</ele>
      <time>2026-05-07T12:37:10Z</time>
    </trkpt>
    <trkpt lat="49.696529" lon="19.022167">
      <ele>907</ele>
      <time>2026-05-07T12:37:26Z</time>
    </trkpt>
    <trkpt lat="49.696607" lon="19.021948">
      <ele>903</ele>
      <time>2026-05-07T12:37:44Z</time>
    </trkpt>
    <trkpt lat="49.696655" lon="19.021717">
      <ele>901</ele>
      <time>2026-05-07T12:38:00Z</time>
    </trkpt>
    <trkpt lat="49.696669" lon="19.021647">
      <ele>900</ele>
      <time>2026-05-07T12:38:05Z</time>
    </trkpt>
    <trkpt lat="49.69673" lon="19.021321">
      <ele>896</ele>
      <time>2026-05-07T12:38:28Z</time>
    </trkpt>
    <trkpt lat="49.696799" lon="19.020773">
      <ele>888</ele>
      <time>2026-05-07T12:39:07Z</time>
    </trkpt>
    <trkpt lat="49.696794" lon="19.020569">
      <ele>887</ele>
      <time>2026-05-07T12:39:21Z</time>
    </trkpt>
    <trkpt lat="49.696763" lon="19.020349">
      <ele>887</ele>
      <time>2026-05-07T12:39:36Z</time>
    </trkpt>
    <trkpt lat="49.696749" lon="19.020181">
      <ele>885</ele>
      <time>2026-05-07T12:39:47Z</time>
    </trkpt>
    <trkpt lat="49.696739" lon="19.019957">
      <ele>883</ele>
      <time>2026-05-07T12:40:03Z</time>
    </trkpt>
    <trkpt lat="49.696811" lon="19.019753">
      <ele>878</ele>
      <time>2026-05-07T12:40:19Z</time>
    </trkpt>
    <trkpt lat="49.696925" lon="19.019659">
      <ele>873</ele>
      <time>2026-05-07T12:40:33Z</time>
    </trkpt>
    <trkpt lat="49.697021" lon="19.019574">
      <ele>869</ele>
      <time>2026-05-07T12:40:46Z</time>
    </trkpt>
    <trkpt lat="49.697209" lon="19.019351">
      <ele>861</ele>
      <time>2026-05-07T12:41:11Z</time>
    </trkpt>
    <trkpt lat="49.697349" lon="19.019174">
      <ele>855</ele>
      <time>2026-05-07T12:41:31Z</time>
    </trkpt>
    <trkpt lat="49.697419" lon="19.019032">
      <ele>852</ele>
      <time>2026-05-07T12:41:44Z</time>
    </trkpt>
    <trkpt lat="49.697499" lon="19.018879">
      <ele>847</ele>
      <time>2026-05-07T12:41:58Z</time>
    </trkpt>
    <trkpt lat="49.697523" lon="19.018835">
      <ele>846</ele>
      <time>2026-05-07T12:42:02Z</time>
    </trkpt>
    <trkpt lat="49.697668" lon="19.018613">
      <ele>838</ele>
      <time>2026-05-07T12:42:24Z</time>
    </trkpt>
    <trkpt lat="49.697811" lon="19.018383">
      <ele>831</ele>
      <time>2026-05-07T12:42:47Z</time>
    </trkpt>
    <trkpt lat="49.697989" lon="19.018099">
      <ele>825</ele>
      <time>2026-05-07T12:43:14Z</time>
    </trkpt>
    <trkpt lat="49.698141" lon="19.017996">
      <ele>818</ele>
      <time>2026-05-07T12:43:33Z</time>
    </trkpt>
    <trkpt lat="49.698267" lon="19.017978">
      <ele>812</ele>
      <time>2026-05-07T12:43:47Z</time>
    </trkpt>
    <trkpt lat="49.698385" lon="19.017994">
      <ele>808</ele>
      <time>2026-05-07T12:44:00Z</time>
    </trkpt>
    <trkpt lat="49.698491" lon="19.018029">
      <ele>805</ele>
      <time>2026-05-07T12:44:12Z</time>
    </trkpt>
    <trkpt lat="49.69865" lon="19.018072">
      <ele>802</ele>
      <time>2026-05-07T12:44:29Z</time>
    </trkpt>
    <trkpt lat="49.6988" lon="19.018039">
      <ele>798</ele>
      <time>2026-05-07T12:44:45Z</time>
    </trkpt>
    <trkpt lat="49.698973" lon="19.018039">
      <ele>793</ele>
      <time>2026-05-07T12:45:04Z</time>
    </trkpt>
    <trkpt lat="49.699047" lon="19.018027">
      <ele>791</ele>
      <time>2026-05-07T12:45:12Z</time>
    </trkpt>
    <trkpt lat="49.699129" lon="19.018007">
      <ele>788</ele>
      <time>2026-05-07T12:45:21Z</time>
    </trkpt>
    <trkpt lat="49.699337" lon="19.017988">
      <ele>782</ele>
      <time>2026-05-07T12:45:43Z</time>
    </trkpt>
    <trkpt lat="49.699424" lon="19.018047">
      <ele>780</ele>
      <time>2026-05-07T12:45:53Z</time>
    </trkpt>
    <trkpt lat="49.699504" lon="19.018149">
      <ele>777</ele>
      <time>2026-05-07T12:46:05Z</time>
    </trkpt>
    <trkpt lat="49.699611" lon="19.018241">
      <ele>774</ele>
      <time>2026-05-07T12:46:18Z</time>
    </trkpt>
    <trkpt lat="49.69976" lon="19.01827">
      <ele>769</ele>
      <time>2026-05-07T12:46:34Z</time>
    </trkpt>
    <trkpt lat="49.6999" lon="19.01823">
      <ele>764</ele>
      <time>2026-05-07T12:46:50Z</time>
    </trkpt>
    <trkpt lat="49.700024" lon="19.018165">
      <ele>761</ele>
      <time>2026-05-07T12:47:04Z</time>
    </trkpt>
    <trkpt lat="49.700174" lon="19.017865">
      <ele>755</ele>
      <time>2026-05-07T12:47:30Z</time>
    </trkpt>
    <trkpt lat="49.700336" lon="19.017742">
      <ele>750</ele>
      <time>2026-05-07T12:47:49Z</time>
    </trkpt>
    <trkpt lat="49.700498" lon="19.017615">
      <ele>745</ele>
      <time>2026-05-07T12:48:09Z</time>
    </trkpt>
    <trkpt lat="49.700865" lon="19.01723">
      <ele>736</ele>
      <time>2026-05-07T12:48:56Z</time>
    </trkpt>
    <trkpt lat="49.700953" lon="19.017105">
      <ele>733</ele>
      <time>2026-05-07T12:49:09Z</time>
    </trkpt>
    <trkpt lat="49.700982" lon="19.01698">
      <ele>731</ele>
      <time>2026-05-07T12:49:18Z</time>
    </trkpt>
    <trkpt lat="49.701047" lon="19.016589">
      <ele>726</ele>
      <time>2026-05-07T12:49:46Z</time>
    </trkpt>
    <trkpt lat="49.701105" lon="19.016534">
      <ele>725</ele>
      <time>2026-05-07T12:49:53Z</time>
    </trkpt>
    <trkpt lat="49.701173" lon="19.016591">
      <ele>724</ele>
      <time>2026-05-07T12:50:01Z</time>
    </trkpt>
    <trkpt lat="49.70127" lon="19.01669">
      <ele>722</ele>
      <time>2026-05-07T12:50:13Z</time>
    </trkpt>
    <trkpt lat="49.701388" lon="19.016779">
      <ele>720</ele>
      <time>2026-05-07T12:50:27Z</time>
    </trkpt>
    <trkpt lat="49.701567" lon="19.016992">
      <ele>712</ele>
      <time>2026-05-07T12:50:52Z</time>
    </trkpt>
    <trkpt lat="49.701718" lon="19.017211">
      <ele>705</ele>
      <time>2026-05-07T12:51:14Z</time>
    </trkpt>
    <trkpt lat="49.701905" lon="19.017661">
      <ele>699</ele>
      <time>2026-05-07T12:51:51Z</time>
    </trkpt>
    <trkpt lat="49.702068" lon="19.017527">
      <ele>693</ele>
      <time>2026-05-07T12:52:11Z</time>
    </trkpt>
    <trkpt lat="49.702158" lon="19.017345">
      <ele>691</ele>
      <time>2026-05-07T12:52:27Z</time>
    </trkpt>
    <trkpt lat="49.702217" lon="19.017157">
      <ele>689</ele>
      <time>2026-05-07T12:52:41Z</time>
    </trkpt>
    <trkpt lat="49.7023" lon="19.016808">
      <ele>685</ele>
      <time>2026-05-07T12:53:06Z</time>
    </trkpt>
    <trkpt lat="49.702422" lon="19.01661">
      <ele>680</ele>
      <time>2026-05-07T12:53:25Z</time>
    </trkpt>
    <trkpt lat="49.702581" lon="19.016637">
      <ele>675</ele>
      <time>2026-05-07T12:53:43Z</time>
    </trkpt>
    <trkpt lat="49.702793" lon="19.016733">
      <ele>667</ele>
      <time>2026-05-07T12:54:07Z</time>
    </trkpt>
    <trkpt lat="49.702967" lon="19.016658">
      <ele>659</ele>
      <time>2026-05-07T12:54:27Z</time>
    </trkpt>
    <trkpt lat="49.703067" lon="19.016529">
      <ele>655</ele>
      <time>2026-05-07T12:54:41Z</time>
    </trkpt>
    <trkpt lat="49.703109" lon="19.01639">
      <ele>652</ele>
      <time>2026-05-07T12:54:52Z</time>
    </trkpt>
    <trkpt lat="49.703195" lon="19.01624">
      <ele>648</ele>
      <time>2026-05-07T12:55:06Z</time>
    </trkpt>
    <trkpt lat="49.703355" lon="19.015709">
      <ele>638</ele>
      <time>2026-05-07T12:55:47Z</time>
    </trkpt>
    <trkpt lat="49.703435" lon="19.015612">
      <ele>634</ele>
      <time>2026-05-07T12:55:58Z</time>
    </trkpt>
    <trkpt lat="49.703768" lon="19.015295">
      <ele>615</ele>
      <time>2026-05-07T12:56:43Z</time>
    </trkpt>
    <trkpt lat="49.703976" lon="19.015161">
      <ele>608</ele>
      <time>2026-05-07T12:57:07Z</time>
    </trkpt>
    <trkpt lat="49.704184" lon="19.014984">
      <ele>603</ele>
      <time>2026-05-07T12:57:32Z</time>
    </trkpt>
    <trkpt lat="49.704413" lon="19.014813">
      <ele>597</ele>
      <time>2026-05-07T12:58:00Z</time>
    </trkpt>
    <trkpt lat="49.704569" lon="19.014743">
      <ele>593</ele>
      <time>2026-05-07T12:58:17Z</time>
    </trkpt>
    <trkpt lat="49.704743" lon="19.014636">
      <ele>586</ele>
      <time>2026-05-07T12:58:37Z</time>
    </trkpt>
    <trkpt lat="49.704906" lon="19.014646">
      <ele>581</ele>
      <time>2026-05-07T12:58:55Z</time>
    </trkpt>
    <trkpt lat="49.70509" lon="19.014668">
      <ele>576</ele>
      <time>2026-05-07T12:59:15Z</time>
    </trkpt>
    <trkpt lat="49.705319" lon="19.014477">
      <ele>569</ele>
      <time>2026-05-07T12:59:43Z</time>
    </trkpt>
    <trkpt lat="49.705532" lon="19.014173">
      <ele>562</ele>
      <time>2026-05-07T13:00:14Z</time>
    </trkpt>
    <trkpt lat="49.705791" lon="19.01386">
      <ele>555</ele>
      <time>2026-05-07T13:00:49Z</time>
    </trkpt>
    <trkpt lat="49.705893" lon="19.013748">
      <ele>554</ele>
      <time>2026-05-07T13:01:02Z</time>
    </trkpt>
    <trkpt lat="49.705957" lon="19.013643">
      <ele>552</ele>
      <time>2026-05-07T13:01:12Z</time>
    </trkpt>
    <trkpt lat="49.706059" lon="19.013533">
      <ele>549</ele>
      <time>2026-05-07T13:01:25Z</time>
    </trkpt>
    <trkpt lat="49.70616" lon="19.01356">
      <ele>548</ele>
      <time>2026-05-07T13:01:36Z</time>
    </trkpt>
    <trkpt lat="49.706259" lon="19.013592">
      <ele>546</ele>
      <time>2026-05-07T13:01:47Z</time>
    </trkpt>
    <trkpt lat="49.706326" lon="19.013555">
      <ele>544</ele>
      <time>2026-05-07T13:01:54Z</time>
    </trkpt>
    <trkpt lat="49.706526" lon="19.013329">
      <ele>541</ele>
      <time>2026-05-07T13:02:21Z</time>
    </trkpt>
    <trkpt lat="49.706856" lon="19.013102">
      <ele>540</ele>
      <time>2026-05-07T13:02:58Z</time>
    </trkpt>
    <trkpt lat="49.707007" lon="19.012997">
      <ele>540</ele>
      <time>2026-05-07T13:03:16Z</time>
    </trkpt>
    <trkpt lat="49.707171" lon="19.012831">
      <ele>541</ele>
      <time>2026-05-07T13:03:36Z</time>
    </trkpt>
    <trkpt lat="49.707399" lon="19.012597">
      <ele>540</ele>
      <time>2026-05-07T13:04:05Z</time>
    </trkpt>
    <trkpt lat="49.707438" lon="19.012533">
      <ele>540</ele>
      <time>2026-05-07T13:04:11Z</time>
    </trkpt>
    <trkpt lat="49.707473" lon="19.012474">
      <ele>540</ele>
      <time>2026-05-07T13:04:16Z</time>
    </trkpt>
    <trkpt lat="49.707543" lon="19.012576">
      <ele>540</ele>
      <time>2026-05-07T13:04:24Z</time>
    </trkpt>
    <trkpt lat="49.707599" lon="19.012657">
      <ele>540</ele>
      <time>2026-05-07T13:04:31Z</time>
    </trkpt>
    <trkpt lat="49.707726" lon="19.01284">
      <ele>539</ele>
      <time>2026-05-07T13:04:46Z</time>
    </trkpt>
    <trkpt lat="49.707881" lon="19.013065">
      <ele>538</ele>
      <time>2026-05-07T13:05:05Z</time>
    </trkpt>
    <trkpt lat="49.708039" lon="19.013288">
      <ele>538</ele>
      <time>2026-05-07T13:05:24Z</time>
    </trkpt>
    <trkpt lat="49.708135" lon="19.01341">
      <ele>537</ele>
      <time>2026-05-07T13:05:35Z</time>
    </trkpt>
    <trkpt lat="49.70831" lon="19.013611">
      <ele>536</ele>
      <time>2026-05-07T13:05:54Z</time>
    </trkpt>
    <trkpt lat="49.708417" lon="19.013724">
      <ele>536</ele>
      <time>2026-05-07T13:06:06Z</time>
    </trkpt>
    <trkpt lat="49.70857" lon="19.013883">
      <ele>535</ele>
      <time>2026-05-07T13:06:22Z</time>
    </trkpt>
    <trkpt lat="49.708786" lon="19.01411">
      <ele>534</ele>
      <time>2026-05-07T13:06:45Z</time>
    </trkpt>
    <trkpt lat="49.709065" lon="19.014393">
      <ele>532</ele>
      <time>2026-05-07T13:07:14Z</time>
    </trkpt>
    <trkpt lat="49.709089" lon="19.014416">
      <ele>532</ele>
      <time>2026-05-07T13:07:17Z</time>
    </trkpt>
    <trkpt lat="49.709171" lon="19.014495">
      <ele>532</ele>
      <time>2026-05-07T13:07:25Z</time>
    </trkpt>
    <trkpt lat="49.709375" lon="19.014685">
      <ele>532</ele>
      <time>2026-05-07T13:07:46Z</time>
    </trkpt>
    <trkpt lat="49.709423" lon="19.01473">
      <ele>532</ele>
      <time>2026-05-07T13:07:51Z</time>
    </trkpt>
    <trkpt lat="49.710009" lon="19.0153">
      <ele>531</ele>
      <time>2026-05-07T13:08:52Z</time>
    </trkpt>
    <trkpt lat="49.710138" lon="19.015422">
      <ele>530</ele>
      <time>2026-05-07T13:09:05Z</time>
    </trkpt>
    <trkpt lat="49.71026" lon="19.01554">
      <ele>529</ele>
      <time>2026-05-07T13:09:18Z</time>
    </trkpt>
    <trkpt lat="49.710362" lon="19.015676">
      <ele>528</ele>
      <time>2026-05-07T13:09:30Z</time>
    </trkpt>
    <trkpt lat="49.710394" lon="19.015725">
      <ele>528</ele>
      <time>2026-05-07T13:09:34Z</time>
    </trkpt>
    <trkpt lat="49.710435" lon="19.015802">
      <ele>528</ele>
      <time>2026-05-07T13:09:39Z</time>
    </trkpt>
    <trkpt lat="49.710475" lon="19.015892">
      <ele>527</ele>
      <time>2026-05-07T13:09:46Z</time>
    </trkpt>
    <trkpt lat="49.710511" lon="19.015989">
      <ele>527</ele>
      <time>2026-05-07T13:09:52Z</time>
    </trkpt>
    <trkpt lat="49.710556" lon="19.016137">
      <ele>526</ele>
      <time>2026-05-07T13:10:01Z</time>
    </trkpt>
    <trkpt lat="49.710623" lon="19.016361">
      <ele>527</ele>
      <time>2026-05-07T13:10:15Z</time>
    </trkpt>
    <trkpt lat="49.710712" lon="19.016651">
      <ele>527</ele>
      <time>2026-05-07T13:10:34Z</time>
    </trkpt>
    <trkpt lat="49.710793" lon="19.016932">
      <ele>529</ele>
      <time>2026-05-07T13:10:51Z</time>
    </trkpt>
    <trkpt lat="49.710909" lon="19.01733">
      <ele>529</ele>
      <time>2026-05-07T13:11:16Z</time>
    </trkpt>
    <trkpt lat="49.710973" lon="19.017539">
      <ele>529</ele>
      <time>2026-05-07T13:11:29Z</time>
    </trkpt>
    <trkpt lat="49.711015" lon="19.017665">
      <ele>528</ele>
      <time>2026-05-07T13:11:37Z</time>
    </trkpt>
    <trkpt lat="49.711121" lon="19.017937">
      <ele>526</ele>
      <time>2026-05-07T13:11:55Z</time>
    </trkpt>
    <trkpt lat="49.711343" lon="19.01843">
      <ele>529</ele>
      <time>2026-05-07T13:12:30Z</time>
    </trkpt>
    <trkpt lat="49.711676" lon="19.019191">
      <ele>528</ele>
      <time>2026-05-07T13:13:22Z</time>
    </trkpt>
    <trkpt lat="49.711763" lon="19.01938">
      <ele>527</ele>
      <time>2026-05-07T13:13:35Z</time>
    </trkpt>
    <trkpt lat="49.71204" lon="19.020003">
      <ele>525</ele>
      <time>2026-05-07T13:14:18Z</time>
    </trkpt>
    <trkpt lat="49.712189" lon="19.020342">
      <ele>523</ele>
      <time>2026-05-07T13:14:42Z</time>
    </trkpt>
    <trkpt lat="49.712267" lon="19.020502">
      <ele>522</ele>
      <time>2026-05-07T13:14:53Z</time>
    </trkpt>
    <trkpt lat="49.712355" lon="19.020651">
      <ele>521</ele>
      <time>2026-05-07T13:15:04Z</time>
    </trkpt>
    <trkpt lat="49.712446" lon="19.020782">
      <ele>521</ele>
      <time>2026-05-07T13:15:15Z</time>
    </trkpt>
    <trkpt lat="49.712474" lon="19.020818">
      <ele>520</ele>
      <time>2026-05-07T13:15:19Z</time>
    </trkpt>
    <trkpt lat="49.712599" lon="19.020976">
      <ele>520</ele>
      <time>2026-05-07T13:15:33Z</time>
    </trkpt>
    <trkpt lat="49.712734" lon="19.021111">
      <ele>521</ele>
      <time>2026-05-07T13:15:47Z</time>
    </trkpt>
    <trkpt lat="49.713132" lon="19.021458">
      <ele>522</ele>
      <time>2026-05-07T13:16:27Z</time>
    </trkpt>
    <trkpt lat="49.713315" lon="19.021606">
      <ele>521</ele>
      <time>2026-05-07T13:16:45Z</time>
    </trkpt>
    <trkpt lat="49.713498" lon="19.021776">
      <ele>521</ele>
      <time>2026-05-07T13:17:04Z</time>
    </trkpt>
    <trkpt lat="49.71374" lon="19.022015">
      <ele>520</ele>
      <time>2026-05-07T13:17:29Z</time>
    </trkpt>
    <trkpt lat="49.713932" lon="19.022224">
      <ele>520</ele>
      <time>2026-05-07T13:17:50Z</time>
    </trkpt>
    <trkpt lat="49.714137" lon="19.022453">
      <ele>519</ele>
      <time>2026-05-07T13:18:12Z</time>
    </trkpt>
    <trkpt lat="49.71427" lon="19.022595">
      <ele>518</ele>
      <time>2026-05-07T13:18:26Z</time>
    </trkpt>
    <trkpt lat="49.714417" lon="19.022757">
      <ele>516</ele>
      <time>2026-05-07T13:18:42Z</time>
    </trkpt>
    <trkpt lat="49.714541" lon="19.022896">
      <ele>515</ele>
      <time>2026-05-07T13:18:56Z</time>
    </trkpt>
    <trkpt lat="49.714653" lon="19.023037">
      <ele>514</ele>
      <time>2026-05-07T13:19:09Z</time>
    </trkpt>
    <trkpt lat="49.714715" lon="19.023124">
      <ele>514</ele>
      <time>2026-05-07T13:19:16Z</time>
    </trkpt>
  </trkseg>
</trk>
</gpx>