<?xml version="1.0" encoding="UTF-8"?><gpx creator="https://mapa-turystyczna.pl" xmlns="http://www.topografix.com/GPX/1/1" version="1.1" xmlns:xsi="http://www.w3.org/2001/XMLSchema-instance" xsi:schemaLocation="http://www.topografix.com/GPX/1/1 http://www.topografix.com/GPX/1/1/gpx.xsd">
  <metadata>
    <link href="https://mapa-turystyczna.pl">
      <text>mapa-turystyczna.pl</text>
    </link>
    <time>2026-05-07T08:43:16Z</time>
    <bounds maxlat="49.714715" maxlon="19.037205" minlat="49.684301" minlon="19.012474"/>
  </metadata>

<trk>
  <name>Szczyrk – Szczyrk</name>
  <link href="https://mapa-turystyczna.pl/route/any">
    <text>Szczyrk – Szczyrk</text>
  </link>
  <trkseg>
    <trkpt lat="49.714715" lon="19.023124">
      <ele>514</ele>
      <time>2026-05-07T08:43:16Z</time>
    </trkpt>
    <trkpt lat="49.714667" lon="19.023161">
      <ele>514</ele>
      <time>2026-05-07T08:43:26Z</time>
    </trkpt>
    <trkpt lat="49.714638" lon="19.023183">
      <ele>514</ele>
      <time>2026-05-07T08:43:33Z</time>
    </trkpt>
    <trkpt lat="49.714371" lon="19.023208">
      <ele>515</ele>
      <time>2026-05-07T08:44:25Z</time>
    </trkpt>
    <trkpt lat="49.714039" lon="19.023251">
      <ele>517</ele>
      <time>2026-05-07T08:45:29Z</time>
    </trkpt>
    <trkpt lat="49.713983" lon="19.023287">
      <ele>517</ele>
      <time>2026-05-07T08:45:41Z</time>
    </trkpt>
    <trkpt lat="49.713855" lon="19.023495">
      <ele>519</ele>
      <time>2026-05-07T08:46:17Z</time>
    </trkpt>
    <trkpt lat="49.713825" lon="19.023547">
      <ele>520</ele>
      <time>2026-05-07T08:46:26Z</time>
    </trkpt>
    <trkpt lat="49.713629" lon="19.023649">
      <ele>523</ele>
      <time>2026-05-07T08:47:07Z</time>
    </trkpt>
    <trkpt lat="49.71346" lon="19.023705">
      <ele>527</ele>
      <time>2026-05-07T08:47:41Z</time>
    </trkpt>
    <trkpt lat="49.713316" lon="19.023715">
      <ele>530</ele>
      <time>2026-05-07T08:48:09Z</time>
    </trkpt>
    <trkpt lat="49.713209" lon="19.023661">
      <ele>530</ele>
      <time>2026-05-07T08:48:31Z</time>
    </trkpt>
    <trkpt lat="49.713114" lon="19.023574">
      <ele>531</ele>
      <time>2026-05-07T08:48:52Z</time>
    </trkpt>
    <trkpt lat="49.712891" lon="19.023271">
      <ele>533</ele>
      <time>2026-05-07T08:49:50Z</time>
    </trkpt>
    <trkpt lat="49.712862" lon="19.023238">
      <ele>534</ele>
      <time>2026-05-07T08:49:57Z</time>
    </trkpt>
    <trkpt lat="49.712775" lon="19.023137">
      <ele>535</ele>
      <time>2026-05-07T08:50:18Z</time>
    </trkpt>
    <trkpt lat="49.712627" lon="19.023088">
      <ele>536</ele>
      <time>2026-05-07T08:50:48Z</time>
    </trkpt>
    <trkpt lat="49.71247" lon="19.023152">
      <ele>539</ele>
      <time>2026-05-07T08:51:20Z</time>
    </trkpt>
    <trkpt lat="49.711965" lon="19.023472">
      <ele>550</ele>
      <time>2026-05-07T08:53:07Z</time>
    </trkpt>
    <trkpt lat="49.711716" lon="19.023662">
      <ele>558</ele>
      <time>2026-05-07T08:54:03Z</time>
    </trkpt>
    <trkpt lat="49.711588" lon="19.02368">
      <ele>561</ele>
      <time>2026-05-07T08:54:28Z</time>
    </trkpt>
    <trkpt lat="49.711453" lon="19.023715">
      <ele>563</ele>
      <time>2026-05-07T08:54:55Z</time>
    </trkpt>
    <trkpt lat="49.711266" lon="19.023812">
      <ele>566</ele>
      <time>2026-05-07T08:55:34Z</time>
    </trkpt>
    <trkpt lat="49.711105" lon="19.02394">
      <ele>568</ele>
      <time>2026-05-07T08:56:09Z</time>
    </trkpt>
    <trkpt lat="49.71096" lon="19.0241">
      <ele>572</ele>
      <time>2026-05-07T08:56:44Z</time>
    </trkpt>
    <trkpt lat="49.7107" lon="19.024439">
      <ele>578</ele>
      <time>2026-05-07T08:57:51Z</time>
    </trkpt>
    <trkpt lat="49.710521" lon="19.024724">
      <ele>582</ele>
      <time>2026-05-07T08:58:41Z</time>
    </trkpt>
    <trkpt lat="49.710381" lon="19.025069">
      <ele>586</ele>
      <time>2026-05-07T08:59:33Z</time>
    </trkpt>
    <trkpt lat="49.710313" lon="19.025301">
      <ele>587</ele>
      <time>2026-05-07T09:00:05Z</time>
    </trkpt>
    <trkpt lat="49.71023" lon="19.025825">
      <ele>592</ele>
      <time>2026-05-07T09:01:13Z</time>
    </trkpt>
    <trkpt lat="49.710118" lon="19.026385">
      <ele>597</ele>
      <time>2026-05-07T09:02:27Z</time>
    </trkpt>
    <trkpt lat="49.710085" lon="19.026679">
      <ele>599</ele>
      <time>2026-05-07T09:03:05Z</time>
    </trkpt>
    <trkpt lat="49.71007" lon="19.026988">
      <ele>602</ele>
      <time>2026-05-07T09:03:44Z</time>
    </trkpt>
    <trkpt lat="49.710035" lon="19.027822">
      <ele>609</ele>
      <time>2026-05-07T09:05:29Z</time>
    </trkpt>
    <trkpt lat="49.710032" lon="19.028355">
      <ele>615</ele>
      <time>2026-05-07T09:06:37Z</time>
    </trkpt>
    <trkpt lat="49.710001" lon="19.028983">
      <ele>621</ele>
      <time>2026-05-07T09:07:57Z</time>
    </trkpt>
    <trkpt lat="49.709985" lon="19.029411">
      <ele>626</ele>
      <time>2026-05-07T09:08:51Z</time>
    </trkpt>
    <trkpt lat="49.709945" lon="19.029705">
      <ele>628</ele>
      <time>2026-05-07T09:09:29Z</time>
    </trkpt>
    <trkpt lat="49.709885" lon="19.029991">
      <ele>631</ele>
      <time>2026-05-07T09:10:07Z</time>
    </trkpt>
    <trkpt lat="49.709808" lon="19.030232">
      <ele>633</ele>
      <time>2026-05-07T09:10:41Z</time>
    </trkpt>
    <trkpt lat="49.709636" lon="19.030511">
      <ele>635</ele>
      <time>2026-05-07T09:11:29Z</time>
    </trkpt>
    <trkpt lat="49.709183" lon="19.03116">
      <ele>640</ele>
      <time>2026-05-07T09:13:29Z</time>
    </trkpt>
    <trkpt lat="49.708854" lon="19.031734">
      <ele>648</ele>
      <time>2026-05-07T09:15:07Z</time>
    </trkpt>
    <trkpt lat="49.708774" lon="19.031847">
      <ele>650</ele>
      <time>2026-05-07T09:15:28Z</time>
    </trkpt>
    <trkpt lat="49.708447" lon="19.032138">
      <ele>653</ele>
      <time>2026-05-07T09:16:41Z</time>
    </trkpt>
    <trkpt lat="49.708128" lon="19.0326">
      <ele>660</ele>
      <time>2026-05-07T09:18:07Z</time>
    </trkpt>
    <trkpt lat="49.70781" lon="19.033072">
      <ele>664</ele>
      <time>2026-05-07T09:19:33Z</time>
    </trkpt>
    <trkpt lat="49.707784" lon="19.033357">
      <ele>670</ele>
      <time>2026-05-07T09:20:10Z</time>
    </trkpt>
    <trkpt lat="49.707784" lon="19.03347">
      <ele>672</ele>
      <time>2026-05-07T09:20:25Z</time>
    </trkpt>
    <trkpt lat="49.707867" lon="19.033766">
      <ele>680</ele>
      <time>2026-05-07T09:21:07Z</time>
    </trkpt>
    <trkpt lat="49.707901" lon="19.034487">
      <ele>693</ele>
      <time>2026-05-07T09:22:41Z</time>
    </trkpt>
    <trkpt lat="49.70786" lon="19.034809">
      <ele>697</ele>
      <time>2026-05-07T09:23:23Z</time>
    </trkpt>
    <trkpt lat="49.707737" lon="19.035149">
      <ele>701</ele>
      <time>2026-05-07T09:24:12Z</time>
    </trkpt>
    <trkpt lat="49.707629" lon="19.035411">
      <ele>704</ele>
      <time>2026-05-07T09:24:51Z</time>
    </trkpt>
    <trkpt lat="49.707498" lon="19.035655">
      <ele>707</ele>
      <time>2026-05-07T09:25:32Z</time>
    </trkpt>
    <trkpt lat="49.70734" lon="19.035846">
      <ele>712</ele>
      <time>2026-05-07T09:26:11Z</time>
    </trkpt>
    <trkpt lat="49.707205" lon="19.035988">
      <ele>715</ele>
      <time>2026-05-07T09:26:44Z</time>
    </trkpt>
    <trkpt lat="49.706836" lon="19.036343">
      <ele>723</ele>
      <time>2026-05-07T09:28:09Z</time>
    </trkpt>
    <trkpt lat="49.706745" lon="19.03645">
      <ele>725</ele>
      <time>2026-05-07T09:28:31Z</time>
    </trkpt>
    <trkpt lat="49.706573" lon="19.036756">
      <ele>728</ele>
      <time>2026-05-07T09:29:23Z</time>
    </trkpt>
    <trkpt lat="49.706408" lon="19.037032">
      <ele>735</ele>
      <time>2026-05-07T09:30:11Z</time>
    </trkpt>
    <trkpt lat="49.706294" lon="19.037159">
      <ele>739</ele>
      <time>2026-05-07T09:30:39Z</time>
    </trkpt>
    <trkpt lat="49.706135" lon="19.037205">
      <ele>744</ele>
      <time>2026-05-07T09:31:12Z</time>
    </trkpt>
    <trkpt lat="49.705993" lon="19.037186">
      <ele>747</ele>
      <time>2026-05-07T09:31:40Z</time>
    </trkpt>
    <trkpt lat="49.705748" lon="19.037181">
      <ele>753</ele>
      <time>2026-05-07T09:32:29Z</time>
    </trkpt>
    <trkpt lat="49.705651" lon="19.037119">
      <ele>755</ele>
      <time>2026-05-07T09:32:49Z</time>
    </trkpt>
    <trkpt lat="49.705519" lon="19.037077">
      <ele>758</ele>
      <time>2026-05-07T09:33:16Z</time>
    </trkpt>
    <trkpt lat="49.705236" lon="19.037088">
      <ele>766</ele>
      <time>2026-05-07T09:34:12Z</time>
    </trkpt>
    <trkpt lat="49.704954" lon="19.037179">
      <ele>773</ele>
      <time>2026-05-07T09:35:10Z</time>
    </trkpt>
    <trkpt lat="49.704742" lon="19.037202">
      <ele>778</ele>
      <time>2026-05-07T09:35:52Z</time>
    </trkpt>
    <trkpt lat="49.704254" lon="19.03703">
      <ele>780</ele>
      <time>2026-05-07T09:37:29Z</time>
    </trkpt>
    <trkpt lat="49.703846" lon="19.03697">
      <ele>783</ele>
      <time>2026-05-07T09:38:49Z</time>
    </trkpt>
    <trkpt lat="49.703651" lon="19.036951">
      <ele>786</ele>
      <time>2026-05-07T09:39:27Z</time>
    </trkpt>
    <trkpt lat="49.703358" lon="19.036989">
      <ele>789</ele>
      <time>2026-05-07T09:40:24Z</time>
    </trkpt>
    <trkpt lat="49.7031" lon="19.036942">
      <ele>790</ele>
      <time>2026-05-07T09:41:14Z</time>
    </trkpt>
    <trkpt lat="49.702897" lon="19.036833">
      <ele>792</ele>
      <time>2026-05-07T09:41:56Z</time>
    </trkpt>
    <trkpt lat="49.702598" lon="19.036595">
      <ele>799</ele>
      <time>2026-05-07T09:43:03Z</time>
    </trkpt>
    <trkpt lat="49.702346" lon="19.036292">
      <ele>807</ele>
      <time>2026-05-07T09:44:06Z</time>
    </trkpt>
    <trkpt lat="49.702141" lon="19.03586">
      <ele>819</ele>
      <time>2026-05-07T09:45:16Z</time>
    </trkpt>
    <trkpt lat="49.702023" lon="19.035562">
      <ele>824</ele>
      <time>2026-05-07T09:46:01Z</time>
    </trkpt>
    <trkpt lat="49.701924" lon="19.035164">
      <ele>821</ele>
      <time>2026-05-07T09:46:55Z</time>
    </trkpt>
    <trkpt lat="49.701791" lon="19.034959">
      <ele>820</ele>
      <time>2026-05-07T09:47:31Z</time>
    </trkpt>
    <trkpt lat="49.701697" lon="19.034845">
      <ele>819</ele>
      <time>2026-05-07T09:47:55Z</time>
    </trkpt>
    <trkpt lat="49.701599" lon="19.034752">
      <ele>819</ele>
      <time>2026-05-07T09:48:17Z</time>
    </trkpt>
    <trkpt lat="49.701525" lon="19.034739">
      <ele>821</ele>
      <time>2026-05-07T09:48:32Z</time>
    </trkpt>
    <trkpt lat="49.701157" lon="19.034812">
      <ele>834</ele>
      <time>2026-05-07T09:49:48Z</time>
    </trkpt>
    <trkpt lat="49.700944" lon="19.03487">
      <ele>839</ele>
      <time>2026-05-07T09:50:30Z</time>
    </trkpt>
    <trkpt lat="49.700801" lon="19.034955">
      <ele>845</ele>
      <time>2026-05-07T09:51:02Z</time>
    </trkpt>
    <trkpt lat="49.700673" lon="19.034997">
      <ele>848</ele>
      <time>2026-05-07T09:51:28Z</time>
    </trkpt>
    <trkpt lat="49.700458" lon="19.03497">
      <ele>849</ele>
      <time>2026-05-07T09:52:09Z</time>
    </trkpt>
    <trkpt lat="49.70033" lon="19.034865">
      <ele>847</ele>
      <time>2026-05-07T09:52:38Z</time>
    </trkpt>
    <trkpt lat="49.700185" lon="19.034604">
      <ele>841</ele>
      <time>2026-05-07T09:53:22Z</time>
    </trkpt>
    <trkpt lat="49.70011" lon="19.034518">
      <ele>839</ele>
      <time>2026-05-07T09:53:40Z</time>
    </trkpt>
    <trkpt lat="49.700051" lon="19.034509">
      <ele>840</ele>
      <time>2026-05-07T09:53:52Z</time>
    </trkpt>
    <trkpt lat="49.699894" lon="19.034611">
      <ele>843</ele>
      <time>2026-05-07T09:54:25Z</time>
    </trkpt>
    <trkpt lat="49.699798" lon="19.034686">
      <ele>846</ele>
      <time>2026-05-07T09:54:47Z</time>
    </trkpt>
    <trkpt lat="49.699684" lon="19.034793">
      <ele>850</ele>
      <time>2026-05-07T09:55:14Z</time>
    </trkpt>
    <trkpt lat="49.699627" lon="19.034806">
      <ele>851</ele>
      <time>2026-05-07T09:55:25Z</time>
    </trkpt>
    <trkpt lat="49.699589" lon="19.034835">
      <ele>852</ele>
      <time>2026-05-07T09:55:33Z</time>
    </trkpt>
    <trkpt lat="49.699415" lon="19.034877">
      <ele>854</ele>
      <time>2026-05-07T09:56:08Z</time>
    </trkpt>
    <trkpt lat="49.699348" lon="19.034926">
      <ele>855</ele>
      <time>2026-05-07T09:56:22Z</time>
    </trkpt>
    <trkpt lat="49.699156" lon="19.034969">
      <ele>857</ele>
      <time>2026-05-07T09:57:00Z</time>
    </trkpt>
    <trkpt lat="49.699082" lon="19.035059">
      <ele>860</ele>
      <time>2026-05-07T09:57:19Z</time>
    </trkpt>
    <trkpt lat="49.699012" lon="19.035422">
      <ele>863</ele>
      <time>2026-05-07T09:58:07Z</time>
    </trkpt>
    <trkpt lat="49.699003" lon="19.035493">
      <ele>862</ele>
      <time>2026-05-07T09:58:16Z</time>
    </trkpt>
    <trkpt lat="49.698726" lon="19.035418">
      <ele>867</ele>
      <time>2026-05-07T09:59:09Z</time>
    </trkpt>
    <trkpt lat="49.698574" lon="19.035289">
      <ele>868</ele>
      <time>2026-05-07T09:59:42Z</time>
    </trkpt>
    <trkpt lat="49.698437" lon="19.035217">
      <ele>870</ele>
      <time>2026-05-07T10:00:10Z</time>
    </trkpt>
    <trkpt lat="49.698262" lon="19.035238">
      <ele>874</ele>
      <time>2026-05-07T10:00:44Z</time>
    </trkpt>
    <trkpt lat="49.698121" lon="19.035165">
      <ele>879</ele>
      <time>2026-05-07T10:01:13Z</time>
    </trkpt>
    <trkpt lat="49.698034" lon="19.034999">
      <ele>883</ele>
      <time>2026-05-07T10:01:40Z</time>
    </trkpt>
    <trkpt lat="49.697914" lon="19.034767">
      <ele>888</ele>
      <time>2026-05-07T10:02:17Z</time>
    </trkpt>
    <trkpt lat="49.697631" lon="19.034493">
      <ele>899</ele>
      <time>2026-05-07T10:03:22Z</time>
    </trkpt>
    <trkpt lat="49.697466" lon="19.03436">
      <ele>903</ele>
      <time>2026-05-07T10:03:58Z</time>
    </trkpt>
    <trkpt lat="49.697328" lon="19.034218">
      <ele>906</ele>
      <time>2026-05-07T10:04:30Z</time>
    </trkpt>
    <trkpt lat="49.697163" lon="19.033992">
      <ele>911</ele>
      <time>2026-05-07T10:05:12Z</time>
    </trkpt>
    <trkpt lat="49.69704" lon="19.033854">
      <ele>915</ele>
      <time>2026-05-07T10:05:41Z</time>
    </trkpt>
    <trkpt lat="49.696995" lon="19.033813">
      <ele>917</ele>
      <time>2026-05-07T10:05:51Z</time>
    </trkpt>
    <trkpt lat="49.69688" lon="19.03376">
      <ele>920</ele>
      <time>2026-05-07T10:06:15Z</time>
    </trkpt>
    <trkpt lat="49.696674" lon="19.033762">
      <ele>924</ele>
      <time>2026-05-07T10:06:54Z</time>
    </trkpt>
    <trkpt lat="49.696419" lon="19.033665">
      <ele>928</ele>
      <time>2026-05-07T10:07:44Z</time>
    </trkpt>
    <trkpt lat="49.696203" lon="19.033715">
      <ele>928</ele>
      <time>2026-05-07T10:08:25Z</time>
    </trkpt>
    <trkpt lat="49.69609" lon="19.033693">
      <ele>928</ele>
      <time>2026-05-07T10:08:46Z</time>
    </trkpt>
    <trkpt lat="49.695767" lon="19.03351">
      <ele>930</ele>
      <time>2026-05-07T10:09:51Z</time>
    </trkpt>
    <trkpt lat="49.695643" lon="19.033418">
      <ele>931</ele>
      <time>2026-05-07T10:10:17Z</time>
    </trkpt>
    <trkpt lat="49.695394" lon="19.033151">
      <ele>936</ele>
      <time>2026-05-07T10:11:15Z</time>
    </trkpt>
    <trkpt lat="49.69494" lon="19.032734">
      <ele>947</ele>
      <time>2026-05-07T10:12:56Z</time>
    </trkpt>
    <trkpt lat="49.694861" lon="19.032655">
      <ele>949</ele>
      <time>2026-05-07T10:13:14Z</time>
    </trkpt>
    <trkpt lat="49.694699" lon="19.032547">
      <ele>954</ele>
      <time>2026-05-07T10:13:48Z</time>
    </trkpt>
    <trkpt lat="49.694549" lon="19.032406">
      <ele>957</ele>
      <time>2026-05-07T10:14:22Z</time>
    </trkpt>
    <trkpt lat="49.694502" lon="19.032423">
      <ele>958</ele>
      <time>2026-05-07T10:14:31Z</time>
    </trkpt>
    <trkpt lat="49.694424" lon="19.032445">
      <ele>959</ele>
      <time>2026-05-07T10:14:46Z</time>
    </trkpt>
    <trkpt lat="49.694176" lon="19.032419">
      <ele>963</ele>
      <time>2026-05-07T10:15:33Z</time>
    </trkpt>
    <trkpt lat="49.693803" lon="19.032362">
      <ele>967</ele>
      <time>2026-05-07T10:16:44Z</time>
    </trkpt>
    <trkpt lat="49.693543" lon="19.032274">
      <ele>972</ele>
      <time>2026-05-07T10:17:35Z</time>
    </trkpt>
    <trkpt lat="49.693385" lon="19.032275">
      <ele>973</ele>
      <time>2026-05-07T10:18:05Z</time>
    </trkpt>
    <trkpt lat="49.693213" lon="19.032311">
      <ele>975</ele>
      <time>2026-05-07T10:18:38Z</time>
    </trkpt>
    <trkpt lat="49.693039" lon="19.032365">
      <ele>977</ele>
      <time>2026-05-07T10:19:11Z</time>
    </trkpt>
    <trkpt lat="49.692894" lon="19.032408">
      <ele>980</ele>
      <time>2026-05-07T10:19:39Z</time>
    </trkpt>
    <trkpt lat="49.692781" lon="19.032405">
      <ele>983</ele>
      <time>2026-05-07T10:20:01Z</time>
    </trkpt>
    <trkpt lat="49.69267" lon="19.032429">
      <ele>986</ele>
      <time>2026-05-07T10:20:23Z</time>
    </trkpt>
    <trkpt lat="49.692604" lon="19.032486">
      <ele>986</ele>
      <time>2026-05-07T10:20:37Z</time>
    </trkpt>
    <trkpt lat="49.692512" lon="19.032564">
      <ele>986</ele>
      <time>2026-05-07T10:20:57Z</time>
    </trkpt>
    <trkpt lat="49.692241" lon="19.032885">
      <ele>990</ele>
      <time>2026-05-07T10:22:01Z</time>
    </trkpt>
    <trkpt lat="49.692104" lon="19.033017">
      <ele>992</ele>
      <time>2026-05-07T10:22:32Z</time>
    </trkpt>
    <trkpt lat="49.692009" lon="19.0331">
      <ele>992</ele>
      <time>2026-05-07T10:22:53Z</time>
    </trkpt>
    <trkpt lat="49.691879" lon="19.033288">
      <ele>992</ele>
      <time>2026-05-07T10:23:26Z</time>
    </trkpt>
    <trkpt lat="49.691361" lon="19.034133">
      <ele>989</ele>
      <time>2026-05-07T10:25:48Z</time>
    </trkpt>
    <trkpt lat="49.691245" lon="19.034194">
      <ele>994</ele>
      <time>2026-05-07T10:26:12Z</time>
    </trkpt>
    <trkpt lat="49.691134" lon="19.034275">
      <ele>997</ele>
      <time>2026-05-07T10:26:36Z</time>
    </trkpt>
    <trkpt lat="49.691025" lon="19.034417">
      <ele>998</ele>
      <time>2026-05-07T10:27:03Z</time>
    </trkpt>
    <trkpt lat="49.690907" lon="19.034564">
      <ele>999</ele>
      <time>2026-05-07T10:27:31Z</time>
    </trkpt>
    <trkpt lat="49.690721" lon="19.034723">
      <ele>1003</ele>
      <time>2026-05-07T10:28:12Z</time>
    </trkpt>
    <trkpt lat="49.690461" lon="19.03491">
      <ele>1008</ele>
      <time>2026-05-07T10:29:06Z</time>
    </trkpt>
    <trkpt lat="49.690071" lon="19.035114">
      <ele>1013</ele>
      <time>2026-05-07T10:30:24Z</time>
    </trkpt>
    <trkpt lat="49.689793" lon="19.035224">
      <ele>1018</ele>
      <time>2026-05-07T10:31:19Z</time>
    </trkpt>
    <trkpt lat="49.689387" lon="19.035342">
      <ele>1024</ele>
      <time>2026-05-07T10:32:37Z</time>
    </trkpt>
    <trkpt lat="49.689168" lon="19.035393">
      <ele>1029</ele>
      <time>2026-05-07T10:33:20Z</time>
    </trkpt>
    <trkpt lat="49.689" lon="19.035474">
      <ele>1032</ele>
      <time>2026-05-07T10:33:54Z</time>
    </trkpt>
    <trkpt lat="49.688852" lon="19.035535">
      <ele>1035</ele>
      <time>2026-05-07T10:34:23Z</time>
    </trkpt>
    <trkpt lat="49.688535" lon="19.035613">
      <ele>1039</ele>
      <time>2026-05-07T10:35:24Z</time>
    </trkpt>
    <trkpt lat="49.68838" lon="19.03568">
      <ele>1040</ele>
      <time>2026-05-07T10:35:54Z</time>
    </trkpt>
    <trkpt lat="49.688345" lon="19.035702">
      <ele>1040</ele>
      <time>2026-05-07T10:36:01Z</time>
    </trkpt>
    <trkpt lat="49.688324" lon="19.035704">
      <ele>1040</ele>
      <time>2026-05-07T10:36:05Z</time>
    </trkpt>
    <trkpt lat="49.688314" lon="19.035682">
      <ele>1041</ele>
      <time>2026-05-07T10:36:09Z</time>
    </trkpt>
    <trkpt lat="49.68833" lon="19.035639">
      <ele>1042</ele>
      <time>2026-05-07T10:36:15Z</time>
    </trkpt>
    <trkpt lat="49.688358" lon="19.0356">
      <ele>1043</ele>
      <time>2026-05-07T10:36:22Z</time>
    </trkpt>
    <trkpt lat="49.688413" lon="19.035541">
      <ele>1044</ele>
      <time>2026-05-07T10:36:35Z</time>
    </trkpt>
    <trkpt lat="49.688615" lon="19.03534">
      <ele>1046</ele>
      <time>2026-05-07T10:37:20Z</time>
    </trkpt>
    <trkpt lat="49.688795" lon="19.035082">
      <ele>1049</ele>
      <time>2026-05-07T10:38:07Z</time>
    </trkpt>
    <trkpt lat="49.688967" lon="19.034795">
      <ele>1054</ele>
      <time>2026-05-07T10:38:55Z</time>
    </trkpt>
    <trkpt lat="49.689122" lon="19.034575">
      <ele>1058</ele>
      <time>2026-05-07T10:39:35Z</time>
    </trkpt>
    <trkpt lat="49.689541" lon="19.034048">
      <ele>1064</ele>
      <time>2026-05-07T10:41:17Z</time>
    </trkpt>
    <trkpt lat="49.68982" lon="19.03354">
      <ele>1074</ele>
      <time>2026-05-07T10:42:40Z</time>
    </trkpt>
    <trkpt lat="49.689953" lon="19.033329">
      <ele>1078</ele>
      <time>2026-05-07T10:43:17Z</time>
    </trkpt>
    <trkpt lat="49.690418" lon="19.032452">
      <ele>1087</ele>
      <time>2026-05-07T10:45:36Z</time>
    </trkpt>
    <trkpt lat="49.690638" lon="19.032082">
      <ele>1094</ele>
      <time>2026-05-07T10:46:38Z</time>
    </trkpt>
    <trkpt lat="49.690731" lon="19.031954">
      <ele>1095</ele>
      <time>2026-05-07T10:47:02Z</time>
    </trkpt>
    <trkpt lat="49.690833" lon="19.03187">
      <ele>1091</ele>
      <time>2026-05-07T10:47:24Z</time>
    </trkpt>
    <trkpt lat="49.690934" lon="19.031786">
      <ele>1088</ele>
      <time>2026-05-07T10:47:46Z</time>
    </trkpt>
    <trkpt lat="49.691078" lon="19.031638">
      <ele>1083</ele>
      <time>2026-05-07T10:48:20Z</time>
    </trkpt>
    <trkpt lat="49.691377" lon="19.031446">
      <ele>1074</ele>
      <time>2026-05-07T10:49:23Z</time>
    </trkpt>
    <trkpt lat="49.691496" lon="19.031326">
      <ele>1070</ele>
      <time>2026-05-07T10:49:50Z</time>
    </trkpt>
    <trkpt lat="49.691623" lon="19.031132">
      <ele>1067</ele>
      <time>2026-05-07T10:50:24Z</time>
    </trkpt>
    <trkpt lat="49.691656" lon="19.031031">
      <ele>1067</ele>
      <time>2026-05-07T10:50:38Z</time>
    </trkpt>
    <trkpt lat="49.691615" lon="19.030954">
      <ele>1070</ele>
      <time>2026-05-07T10:50:51Z</time>
    </trkpt>
    <trkpt lat="49.691573" lon="19.030958">
      <ele>1071</ele>
      <time>2026-05-07T10:50:59Z</time>
    </trkpt>
    <trkpt lat="49.691374" lon="19.031068">
      <ele>1077</ele>
      <time>2026-05-07T10:51:40Z</time>
    </trkpt>
    <trkpt lat="49.690904" lon="19.031231">
      <ele>1095</ele>
      <time>2026-05-07T10:53:16Z</time>
    </trkpt>
    <trkpt lat="49.690955" lon="19.031143">
      <ele>1093</ele>
      <time>2026-05-07T10:53:23Z</time>
    </trkpt>
    <trkpt lat="49.691032" lon="19.030932">
      <ele>1090</ele>
      <time>2026-05-07T10:53:36Z</time>
    </trkpt>
    <trkpt lat="49.691105" lon="19.030729">
      <ele>1088</ele>
      <time>2026-05-07T10:53:49Z</time>
    </trkpt>
    <trkpt lat="49.691116" lon="19.0307">
      <ele>1088</ele>
      <time>2026-05-07T10:53:51Z</time>
    </trkpt>
    <trkpt lat="49.691156" lon="19.030535">
      <ele>1089</ele>
      <time>2026-05-07T10:54:00Z</time>
    </trkpt>
    <trkpt lat="49.691186" lon="19.03028">
      <ele>1088</ele>
      <time>2026-05-07T10:54:14Z</time>
    </trkpt>
    <trkpt lat="49.691164" lon="19.030128">
      <ele>1087</ele>
      <time>2026-05-07T10:54:23Z</time>
    </trkpt>
    <trkpt lat="49.691126" lon="19.029964">
      <ele>1087</ele>
      <time>2026-05-07T10:54:32Z</time>
    </trkpt>
    <trkpt lat="49.691105" lon="19.029707">
      <ele>1086</ele>
      <time>2026-05-07T10:54:47Z</time>
    </trkpt>
    <trkpt lat="49.691119" lon="19.029447">
      <ele>1083</ele>
      <time>2026-05-07T10:55:01Z</time>
    </trkpt>
    <trkpt lat="49.691098" lon="19.029275">
      <ele>1080</ele>
      <time>2026-05-07T10:55:11Z</time>
    </trkpt>
    <trkpt lat="49.691095" lon="19.029166">
      <ele>1078</ele>
      <time>2026-05-07T10:55:17Z</time>
    </trkpt>
    <trkpt lat="49.69112" lon="19.029069">
      <ele>1076</ele>
      <time>2026-05-07T10:55:23Z</time>
    </trkpt>
    <trkpt lat="49.691129" lon="19.02901">
      <ele>1074</ele>
      <time>2026-05-07T10:55:26Z</time>
    </trkpt>
    <trkpt lat="49.691168" lon="19.028934">
      <ele>1071</ele>
      <time>2026-05-07T10:55:32Z</time>
    </trkpt>
    <trkpt lat="49.691284" lon="19.028763">
      <ele>1065</ele>
      <time>2026-05-07T10:55:46Z</time>
    </trkpt>
    <trkpt lat="49.691686" lon="19.028682">
      <ele>1055</ele>
      <time>2026-05-07T10:56:21Z</time>
    </trkpt>
    <trkpt lat="49.69193" lon="19.028586">
      <ele>1051</ele>
      <time>2026-05-07T10:56:43Z</time>
    </trkpt>
    <trkpt lat="49.692058" lon="19.028406">
      <ele>1046</ele>
      <time>2026-05-07T10:56:58Z</time>
    </trkpt>
    <trkpt lat="49.692226" lon="19.028219">
      <ele>1040</ele>
      <time>2026-05-07T10:57:16Z</time>
    </trkpt>
    <trkpt lat="49.692058" lon="19.028406">
      <ele>1046</ele>
      <time>2026-05-07T10:57:57Z</time>
    </trkpt>
    <trkpt lat="49.69193" lon="19.028586">
      <ele>1051</ele>
      <time>2026-05-07T10:58:31Z</time>
    </trkpt>
    <trkpt lat="49.691686" lon="19.028682">
      <ele>1055</ele>
      <time>2026-05-07T10:59:19Z</time>
    </trkpt>
    <trkpt lat="49.691284" lon="19.028763">
      <ele>1065</ele>
      <time>2026-05-07T11:00:37Z</time>
    </trkpt>
    <trkpt lat="49.691168" lon="19.028934">
      <ele>1071</ele>
      <time>2026-05-07T11:01:10Z</time>
    </trkpt>
    <trkpt lat="49.691129" lon="19.02901">
      <ele>1074</ele>
      <time>2026-05-07T11:01:23Z</time>
    </trkpt>
    <trkpt lat="49.69112" lon="19.029069">
      <ele>1076</ele>
      <time>2026-05-07T11:01:31Z</time>
    </trkpt>
    <trkpt lat="49.691095" lon="19.029166">
      <ele>1078</ele>
      <time>2026-05-07T11:01:44Z</time>
    </trkpt>
    <trkpt lat="49.691098" lon="19.029275">
      <ele>1080</ele>
      <time>2026-05-07T11:01:58Z</time>
    </trkpt>
    <trkpt lat="49.691119" lon="19.029447">
      <ele>1083</ele>
      <time>2026-05-07T11:02:20Z</time>
    </trkpt>
    <trkpt lat="49.691105" lon="19.029707">
      <ele>1086</ele>
      <time>2026-05-07T11:02:52Z</time>
    </trkpt>
    <trkpt lat="49.691126" lon="19.029964">
      <ele>1087</ele>
      <time>2026-05-07T11:03:24Z</time>
    </trkpt>
    <trkpt lat="49.691164" lon="19.030128">
      <ele>1087</ele>
      <time>2026-05-07T11:03:46Z</time>
    </trkpt>
    <trkpt lat="49.691186" lon="19.03028">
      <ele>1088</ele>
      <time>2026-05-07T11:04:05Z</time>
    </trkpt>
    <trkpt lat="49.691156" lon="19.030535">
      <ele>1089</ele>
      <time>2026-05-07T11:04:36Z</time>
    </trkpt>
    <trkpt lat="49.691116" lon="19.0307">
      <ele>1088</ele>
      <time>2026-05-07T11:04:58Z</time>
    </trkpt>
    <trkpt lat="49.691105" lon="19.030729">
      <ele>1088</ele>
      <time>2026-05-07T11:05:02Z</time>
    </trkpt>
    <trkpt lat="49.691032" lon="19.030932">
      <ele>1090</ele>
      <time>2026-05-07T11:05:31Z</time>
    </trkpt>
    <trkpt lat="49.690955" lon="19.031143">
      <ele>1093</ele>
      <time>2026-05-07T11:06:01Z</time>
    </trkpt>
    <trkpt lat="49.690904" lon="19.031231">
      <ele>1095</ele>
      <time>2026-05-07T11:06:16Z</time>
    </trkpt>
    <trkpt lat="49.690687" lon="19.031511">
      <ele>1107</ele>
      <time>2026-05-07T11:07:12Z</time>
    </trkpt>
    <trkpt lat="49.690416" lon="19.03174">
      <ele>1118</ele>
      <time>2026-05-07T11:08:12Z</time>
    </trkpt>
    <trkpt lat="49.689922" lon="19.032073">
      <ele>1126</ele>
      <time>2026-05-07T11:09:52Z</time>
    </trkpt>
    <trkpt lat="49.689462" lon="19.032317">
      <ele>1124</ele>
      <time>2026-05-07T11:11:22Z</time>
    </trkpt>
    <trkpt lat="49.689283" lon="19.032391">
      <ele>1125</ele>
      <time>2026-05-07T11:11:57Z</time>
    </trkpt>
    <trkpt lat="49.689024" lon="19.032541">
      <ele>1127</ele>
      <time>2026-05-07T11:12:48Z</time>
    </trkpt>
    <trkpt lat="49.688756" lon="19.032637">
      <ele>1134</ele>
      <time>2026-05-07T11:13:40Z</time>
    </trkpt>
    <trkpt lat="49.688466" lon="19.032685">
      <ele>1140</ele>
      <time>2026-05-07T11:14:35Z</time>
    </trkpt>
    <trkpt lat="49.688266" lon="19.032755">
      <ele>1140</ele>
      <time>2026-05-07T11:15:13Z</time>
    </trkpt>
    <trkpt lat="49.687562" lon="19.032878">
      <ele>1153</ele>
      <time>2026-05-07T11:17:26Z</time>
    </trkpt>
    <trkpt lat="49.687341" lon="19.032852">
      <ele>1163</ele>
      <time>2026-05-07T11:18:10Z</time>
    </trkpt>
    <trkpt lat="49.687184" lon="19.032836">
      <ele>1169</ele>
      <time>2026-05-07T11:18:41Z</time>
    </trkpt>
    <trkpt lat="49.687117" lon="19.032831">
      <ele>1171</ele>
      <time>2026-05-07T11:18:54Z</time>
    </trkpt>
    <trkpt lat="49.687066" lon="19.032811">
      <ele>1173</ele>
      <time>2026-05-07T11:19:04Z</time>
    </trkpt>
    <trkpt lat="49.687101" lon="19.032771">
      <ele>1174</ele>
      <time>2026-05-07T11:19:12Z</time>
    </trkpt>
    <trkpt lat="49.687173" lon="19.03273">
      <ele>1173</ele>
      <time>2026-05-07T11:19:26Z</time>
    </trkpt>
    <trkpt lat="49.687293" lon="19.032668">
      <ele>1172</ele>
      <time>2026-05-07T11:19:50Z</time>
    </trkpt>
    <trkpt lat="49.687453" lon="19.032544">
      <ele>1171</ele>
      <time>2026-05-07T11:20:23Z</time>
    </trkpt>
    <trkpt lat="49.687633" lon="19.032409">
      <ele>1172</ele>
      <time>2026-05-07T11:21:00Z</time>
    </trkpt>
    <trkpt lat="49.688004" lon="19.031994">
      <ele>1181</ele>
      <time>2026-05-07T11:22:26Z</time>
    </trkpt>
    <trkpt lat="49.688168" lon="19.031765">
      <ele>1184</ele>
      <time>2026-05-07T11:23:07Z</time>
    </trkpt>
    <trkpt lat="49.688219" lon="19.031661">
      <ele>1185</ele>
      <time>2026-05-07T11:23:23Z</time>
    </trkpt>
    <trkpt lat="49.688334" lon="19.031469">
      <ele>1184</ele>
      <time>2026-05-07T11:23:55Z</time>
    </trkpt>
    <trkpt lat="49.688367" lon="19.031379">
      <ele>1184</ele>
      <time>2026-05-07T11:24:07Z</time>
    </trkpt>
    <trkpt lat="49.688389" lon="19.031267">
      <ele>1183</ele>
      <time>2026-05-07T11:24:21Z</time>
    </trkpt>
    <trkpt lat="49.688258" lon="19.031305">
      <ele>1187</ele>
      <time>2026-05-07T11:24:47Z</time>
    </trkpt>
    <trkpt lat="49.68807" lon="19.031384">
      <ele>1193</ele>
      <time>2026-05-07T11:25:24Z</time>
    </trkpt>
    <trkpt lat="49.687808" lon="19.031564">
      <ele>1195</ele>
      <time>2026-05-07T11:26:17Z</time>
    </trkpt>
    <trkpt lat="49.687724" lon="19.03159">
      <ele>1196</ele>
      <time>2026-05-07T11:26:33Z</time>
    </trkpt>
    <trkpt lat="49.687596" lon="19.031525">
      <ele>1199</ele>
      <time>2026-05-07T11:26:58Z</time>
    </trkpt>
    <trkpt lat="49.687457" lon="19.031548">
      <ele>1201</ele>
      <time>2026-05-07T11:27:24Z</time>
    </trkpt>
    <trkpt lat="49.686709" lon="19.032144">
      <ele>1202</ele>
      <time>2026-05-07T11:30:00Z</time>
    </trkpt>
    <trkpt lat="49.686032" lon="19.032673">
      <ele>1210</ele>
      <time>2026-05-07T11:32:21Z</time>
    </trkpt>
    <trkpt lat="49.685996" lon="19.032593">
      <ele>1213</ele>
      <time>2026-05-07T11:32:34Z</time>
    </trkpt>
    <trkpt lat="49.685941" lon="19.032505">
      <ele>1217</ele>
      <time>2026-05-07T11:32:49Z</time>
    </trkpt>
    <trkpt lat="49.68591" lon="19.032411">
      <ele>1219</ele>
      <time>2026-05-07T11:33:03Z</time>
    </trkpt>
    <trkpt lat="49.685923" lon="19.032317">
      <ele>1221</ele>
      <time>2026-05-07T11:33:14Z</time>
    </trkpt>
    <trkpt lat="49.685896" lon="19.032158">
      <ele>1224</ele>
      <time>2026-05-07T11:33:35Z</time>
    </trkpt>
    <trkpt lat="49.685842" lon="19.03212">
      <ele>1227</ele>
      <time>2026-05-07T11:33:47Z</time>
    </trkpt>
    <trkpt lat="49.685767" lon="19.032095">
      <ele>1229</ele>
      <time>2026-05-07T11:34:01Z</time>
    </trkpt>
    <trkpt lat="49.685742" lon="19.032067">
      <ele>1230</ele>
      <time>2026-05-07T11:34:07Z</time>
    </trkpt>
    <trkpt lat="49.685631" lon="19.032086">
      <ele>1232</ele>
      <time>2026-05-07T11:34:28Z</time>
    </trkpt>
    <trkpt lat="49.685616" lon="19.032054">
      <ele>1233</ele>
      <time>2026-05-07T11:34:33Z</time>
    </trkpt>
    <trkpt lat="49.685536" lon="19.032027">
      <ele>1235</ele>
      <time>2026-05-07T11:34:49Z</time>
    </trkpt>
    <trkpt lat="49.685517" lon="19.031986">
      <ele>1235</ele>
      <time>2026-05-07T11:34:55Z</time>
    </trkpt>
    <trkpt lat="49.685494" lon="19.0318">
      <ele>1237</ele>
      <time>2026-05-07T11:35:18Z</time>
    </trkpt>
    <trkpt lat="49.685299" lon="19.031419">
      <ele>1240</ele>
      <time>2026-05-07T11:36:16Z</time>
    </trkpt>
    <trkpt lat="49.685111" lon="19.031566">
      <ele>1239</ele>
      <time>2026-05-07T11:36:52Z</time>
    </trkpt>
    <trkpt lat="49.684969" lon="19.031664">
      <ele>1239</ele>
      <time>2026-05-07T11:37:18Z</time>
    </trkpt>
    <trkpt lat="49.684823" lon="19.03173">
      <ele>1242</ele>
      <time>2026-05-07T11:37:44Z</time>
    </trkpt>
    <trkpt lat="49.684577" lon="19.031795">
      <ele>1250</ele>
      <time>2026-05-07T11:38:28Z</time>
    </trkpt>
    <trkpt lat="49.684301" lon="19.031797">
      <ele>1257</ele>
      <time>2026-05-07T11:39:16Z</time>
    </trkpt>
    <trkpt lat="49.684577" lon="19.031795">
      <ele>1250</ele>
      <time>2026-05-07T11:39:48Z</time>
    </trkpt>
    <trkpt lat="49.684823" lon="19.03173">
      <ele>1242</ele>
      <time>2026-05-07T11:40:17Z</time>
    </trkpt>
    <trkpt lat="49.684969" lon="19.031664">
      <ele>1239</ele>
      <time>2026-05-07T11:40:35Z</time>
    </trkpt>
    <trkpt lat="49.685111" lon="19.031566">
      <ele>1239</ele>
      <time>2026-05-07T11:40:52Z</time>
    </trkpt>
    <trkpt lat="49.685299" lon="19.031419">
      <ele>1240</ele>
      <time>2026-05-07T11:41:16Z</time>
    </trkpt>
    <trkpt lat="49.685494" lon="19.0318">
      <ele>1237</ele>
      <time>2026-05-07T11:41:45Z</time>
    </trkpt>
    <trkpt lat="49.685517" lon="19.031986">
      <ele>1235</ele>
      <time>2026-05-07T11:41:57Z</time>
    </trkpt>
    <trkpt lat="49.685536" lon="19.032027">
      <ele>1235</ele>
      <time>2026-05-07T11:42:00Z</time>
    </trkpt>
    <trkpt lat="49.685616" lon="19.032054">
      <ele>1233</ele>
      <time>2026-05-07T11:42:07Z</time>
    </trkpt>
    <trkpt lat="49.685631" lon="19.032086">
      <ele>1232</ele>
      <time>2026-05-07T11:42:10Z</time>
    </trkpt>
    <trkpt lat="49.685742" lon="19.032067">
      <ele>1230</ele>
      <time>2026-05-07T11:42:20Z</time>
    </trkpt>
    <trkpt lat="49.685767" lon="19.032095">
      <ele>1229</ele>
      <time>2026-05-07T11:42:23Z</time>
    </trkpt>
    <trkpt lat="49.685842" lon="19.03212">
      <ele>1227</ele>
      <time>2026-05-07T11:42:31Z</time>
    </trkpt>
    <trkpt lat="49.685896" lon="19.032158">
      <ele>1224</ele>
      <time>2026-05-07T11:42:36Z</time>
    </trkpt>
    <trkpt lat="49.685923" lon="19.032317">
      <ele>1221</ele>
      <time>2026-05-07T11:42:47Z</time>
    </trkpt>
    <trkpt lat="49.68591" lon="19.032411">
      <ele>1219</ele>
      <time>2026-05-07T11:42:53Z</time>
    </trkpt>
    <trkpt lat="49.685941" lon="19.032505">
      <ele>1217</ele>
      <time>2026-05-07T11:42:59Z</time>
    </trkpt>
    <trkpt lat="49.685996" lon="19.032593">
      <ele>1213</ele>
      <time>2026-05-07T11:43:07Z</time>
    </trkpt>
    <trkpt lat="49.686032" lon="19.032673">
      <ele>1210</ele>
      <time>2026-05-07T11:43:13Z</time>
    </trkpt>
    <trkpt lat="49.686709" lon="19.032144">
      <ele>1202</ele>
      <time>2026-05-07T11:44:24Z</time>
    </trkpt>
    <trkpt lat="49.687457" lon="19.031548">
      <ele>1201</ele>
      <time>2026-05-07T11:45:42Z</time>
    </trkpt>
    <trkpt lat="49.687596" lon="19.031525">
      <ele>1199</ele>
      <time>2026-05-07T11:45:55Z</time>
    </trkpt>
    <trkpt lat="49.687724" lon="19.03159">
      <ele>1196</ele>
      <time>2026-05-07T11:46:08Z</time>
    </trkpt>
    <trkpt lat="49.687808" lon="19.031564">
      <ele>1195</ele>
      <time>2026-05-07T11:46:16Z</time>
    </trkpt>
    <trkpt lat="49.68807" lon="19.031384">
      <ele>1193</ele>
      <time>2026-05-07T11:46:42Z</time>
    </trkpt>
    <trkpt lat="49.688258" lon="19.031305">
      <ele>1187</ele>
      <time>2026-05-07T11:47:01Z</time>
    </trkpt>
    <trkpt lat="49.688389" lon="19.031267">
      <ele>1183</ele>
      <time>2026-05-07T11:47:13Z</time>
    </trkpt>
    <trkpt lat="49.688367" lon="19.031379">
      <ele>1184</ele>
      <time>2026-05-07T11:47:21Z</time>
    </trkpt>
    <trkpt lat="49.688334" lon="19.031469">
      <ele>1184</ele>
      <time>2026-05-07T11:47:27Z</time>
    </trkpt>
    <trkpt lat="49.688219" lon="19.031661">
      <ele>1185</ele>
      <time>2026-05-07T11:47:42Z</time>
    </trkpt>
    <trkpt lat="49.688168" lon="19.031765">
      <ele>1184</ele>
      <time>2026-05-07T11:47:50Z</time>
    </trkpt>
    <trkpt lat="49.688004" lon="19.031994">
      <ele>1181</ele>
      <time>2026-05-07T11:48:11Z</time>
    </trkpt>
    <trkpt lat="49.687633" lon="19.032409">
      <ele>1172</ele>
      <time>2026-05-07T11:48:54Z</time>
    </trkpt>
    <trkpt lat="49.687453" lon="19.032544">
      <ele>1171</ele>
      <time>2026-05-07T11:49:12Z</time>
    </trkpt>
    <trkpt lat="49.687293" lon="19.032668">
      <ele>1172</ele>
      <time>2026-05-07T11:49:29Z</time>
    </trkpt>
    <trkpt lat="49.687173" lon="19.03273">
      <ele>1173</ele>
      <time>2026-05-07T11:49:41Z</time>
    </trkpt>
    <trkpt lat="49.687101" lon="19.032771">
      <ele>1174</ele>
      <time>2026-05-07T11:49:48Z</time>
    </trkpt>
    <trkpt lat="49.687066" lon="19.032811">
      <ele>1173</ele>
      <time>2026-05-07T11:49:52Z</time>
    </trkpt>
    <trkpt lat="49.687117" lon="19.032831">
      <ele>1171</ele>
      <time>2026-05-07T11:49:57Z</time>
    </trkpt>
    <trkpt lat="49.687184" lon="19.032836">
      <ele>1169</ele>
      <time>2026-05-07T11:50:04Z</time>
    </trkpt>
    <trkpt lat="49.687341" lon="19.032852">
      <ele>1163</ele>
      <time>2026-05-07T11:50:19Z</time>
    </trkpt>
    <trkpt lat="49.687562" lon="19.032878">
      <ele>1153</ele>
      <time>2026-05-07T11:50:41Z</time>
    </trkpt>
    <trkpt lat="49.688266" lon="19.032755">
      <ele>1140</ele>
      <time>2026-05-07T11:51:47Z</time>
    </trkpt>
    <trkpt lat="49.688466" lon="19.032685">
      <ele>1140</ele>
      <time>2026-05-07T11:52:06Z</time>
    </trkpt>
    <trkpt lat="49.688756" lon="19.032637">
      <ele>1134</ele>
      <time>2026-05-07T11:52:34Z</time>
    </trkpt>
    <trkpt lat="49.689024" lon="19.032541">
      <ele>1127</ele>
      <time>2026-05-07T11:53:00Z</time>
    </trkpt>
    <trkpt lat="49.689283" lon="19.032391">
      <ele>1125</ele>
      <time>2026-05-07T11:53:26Z</time>
    </trkpt>
    <trkpt lat="49.689462" lon="19.032317">
      <ele>1124</ele>
      <time>2026-05-07T11:53:43Z</time>
    </trkpt>
    <trkpt lat="49.689922" lon="19.032073">
      <ele>1126</ele>
      <time>2026-05-07T11:54:28Z</time>
    </trkpt>
    <trkpt lat="49.690416" lon="19.03174">
      <ele>1118</ele>
      <time>2026-05-07T11:55:18Z</time>
    </trkpt>
    <trkpt lat="49.690687" lon="19.031511">
      <ele>1107</ele>
      <time>2026-05-07T11:55:48Z</time>
    </trkpt>
    <trkpt lat="49.690904" lon="19.031231">
      <ele>1095</ele>
      <time>2026-05-07T11:56:16Z</time>
    </trkpt>
    <trkpt lat="49.690955" lon="19.031143">
      <ele>1093</ele>
      <time>2026-05-07T11:56:23Z</time>
    </trkpt>
    <trkpt lat="49.691032" lon="19.030932">
      <ele>1090</ele>
      <time>2026-05-07T11:56:36Z</time>
    </trkpt>
    <trkpt lat="49.691105" lon="19.030729">
      <ele>1088</ele>
      <time>2026-05-07T11:56:48Z</time>
    </trkpt>
    <trkpt lat="49.691116" lon="19.0307">
      <ele>1088</ele>
      <time>2026-05-07T11:56:50Z</time>
    </trkpt>
    <trkpt lat="49.691156" lon="19.030535">
      <ele>1089</ele>
      <time>2026-05-07T11:57:00Z</time>
    </trkpt>
    <trkpt lat="49.691186" lon="19.03028">
      <ele>1088</ele>
      <time>2026-05-07T11:57:14Z</time>
    </trkpt>
    <trkpt lat="49.691164" lon="19.030128">
      <ele>1087</ele>
      <time>2026-05-07T11:57:22Z</time>
    </trkpt>
    <trkpt lat="49.691126" lon="19.029964">
      <ele>1087</ele>
      <time>2026-05-07T11:57:32Z</time>
    </trkpt>
    <trkpt lat="49.691105" lon="19.029707">
      <ele>1086</ele>
      <time>2026-05-07T11:57:46Z</time>
    </trkpt>
    <trkpt lat="49.691119" lon="19.029447">
      <ele>1083</ele>
      <time>2026-05-07T11:58:00Z</time>
    </trkpt>
    <trkpt lat="49.691098" lon="19.029275">
      <ele>1080</ele>
      <time>2026-05-07T11:58:09Z</time>
    </trkpt>
    <trkpt lat="49.691095" lon="19.029166">
      <ele>1078</ele>
      <time>2026-05-07T11:58:16Z</time>
    </trkpt>
    <trkpt lat="49.69112" lon="19.029069">
      <ele>1076</ele>
      <time>2026-05-07T11:58:22Z</time>
    </trkpt>
    <trkpt lat="49.691129" lon="19.02901">
      <ele>1074</ele>
      <time>2026-05-07T11:58:25Z</time>
    </trkpt>
    <trkpt lat="49.691168" lon="19.028934">
      <ele>1071</ele>
      <time>2026-05-07T11:58:31Z</time>
    </trkpt>
    <trkpt lat="49.691284" lon="19.028763">
      <ele>1065</ele>
      <time>2026-05-07T11:58:45Z</time>
    </trkpt>
    <trkpt lat="49.691686" lon="19.028682">
      <ele>1055</ele>
      <time>2026-05-07T11:59:20Z</time>
    </trkpt>
    <trkpt lat="49.69193" lon="19.028586">
      <ele>1051</ele>
      <time>2026-05-07T11:59:41Z</time>
    </trkpt>
    <trkpt lat="49.692058" lon="19.028406">
      <ele>1046</ele>
      <time>2026-05-07T11:59:56Z</time>
    </trkpt>
    <trkpt lat="49.692226" lon="19.028219">
      <ele>1040</ele>
      <time>2026-05-07T12:00:13Z</time>
    </trkpt>
    <trkpt lat="49.692616" lon="19.027827">
      <ele>1031</ele>
      <time>2026-05-07T12:00:53Z</time>
    </trkpt>
    <trkpt lat="49.692912" lon="19.027466">
      <ele>1023</ele>
      <time>2026-05-07T12:01:25Z</time>
    </trkpt>
    <trkpt lat="49.693016" lon="19.027223">
      <ele>1016</ele>
      <time>2026-05-07T12:01:41Z</time>
    </trkpt>
    <trkpt lat="49.693043" lon="19.027121">
      <ele>1013</ele>
      <time>2026-05-07T12:01:48Z</time>
    </trkpt>
    <trkpt lat="49.693074" lon="19.026879">
      <ele>1008</ele>
      <time>2026-05-07T12:02:01Z</time>
    </trkpt>
    <trkpt lat="49.693142" lon="19.026708">
      <ele>1004</ele>
      <time>2026-05-07T12:02:13Z</time>
    </trkpt>
    <trkpt lat="49.693225" lon="19.026607">
      <ele>1001</ele>
      <time>2026-05-07T12:02:22Z</time>
    </trkpt>
    <trkpt lat="49.693322" lon="19.026523">
      <ele>999</ele>
      <time>2026-05-07T12:02:31Z</time>
    </trkpt>
    <trkpt lat="49.69344" lon="19.02648">
      <ele>995</ele>
      <time>2026-05-07T12:02:42Z</time>
    </trkpt>
    <trkpt lat="49.693508" lon="19.026432">
      <ele>993</ele>
      <time>2026-05-07T12:02:48Z</time>
    </trkpt>
    <trkpt lat="49.693659" lon="19.026341">
      <ele>988</ele>
      <time>2026-05-07T12:03:02Z</time>
    </trkpt>
    <trkpt lat="49.693784" lon="19.026212">
      <ele>982</ele>
      <time>2026-05-07T12:03:15Z</time>
    </trkpt>
    <trkpt lat="49.693896" lon="19.026027">
      <ele>977</ele>
      <time>2026-05-07T12:03:30Z</time>
    </trkpt>
    <trkpt lat="49.694058" lon="19.025794">
      <ele>971</ele>
      <time>2026-05-07T12:03:49Z</time>
    </trkpt>
    <trkpt lat="49.694219" lon="19.025496">
      <ele>964</ele>
      <time>2026-05-07T12:04:10Z</time>
    </trkpt>
    <trkpt lat="49.694325" lon="19.025333">
      <ele>960</ele>
      <time>2026-05-07T12:04:23Z</time>
    </trkpt>
    <trkpt lat="49.694445" lon="19.025123">
      <ele>955</ele>
      <time>2026-05-07T12:04:38Z</time>
    </trkpt>
    <trkpt lat="49.694525" lon="19.024951">
      <ele>952</ele>
      <time>2026-05-07T12:04:50Z</time>
    </trkpt>
    <trkpt lat="49.694613" lon="19.024764">
      <ele>948</ele>
      <time>2026-05-07T12:05:03Z</time>
    </trkpt>
    <trkpt lat="49.694674" lon="19.024611">
      <ele>947</ele>
      <time>2026-05-07T12:05:13Z</time>
    </trkpt>
    <trkpt lat="49.694796" lon="19.024226">
      <ele>945</ele>
      <time>2026-05-07T12:05:36Z</time>
    </trkpt>
    <trkpt lat="49.69509" lon="19.02364">
      <ele>940</ele>
      <time>2026-05-07T12:06:16Z</time>
    </trkpt>
    <trkpt lat="49.695255" lon="19.023409">
      <ele>935</ele>
      <time>2026-05-07T12:06:40Z</time>
    </trkpt>
    <trkpt lat="49.69543" lon="19.023192">
      <ele>932</ele>
      <time>2026-05-07T12:07:03Z</time>
    </trkpt>
    <trkpt lat="49.695528" lon="19.023145">
      <ele>931</ele>
      <time>2026-05-07T12:07:14Z</time>
    </trkpt>
    <trkpt lat="49.69566" lon="19.023082">
      <ele>931</ele>
      <time>2026-05-07T12:07:29Z</time>
    </trkpt>
    <trkpt lat="49.69585" lon="19.023039">
      <ele>930</ele>
      <time>2026-05-07T12:07:49Z</time>
    </trkpt>
    <trkpt lat="49.69596" lon="19.022944">
      <ele>927</ele>
      <time>2026-05-07T12:08:02Z</time>
    </trkpt>
    <trkpt lat="49.696114" lon="19.022885">
      <ele>923</ele>
      <time>2026-05-07T12:08:19Z</time>
    </trkpt>
    <trkpt lat="49.696185" lon="19.022717">
      <ele>920</ele>
      <time>2026-05-07T12:08:33Z</time>
    </trkpt>
    <trkpt lat="49.696324" lon="19.022526">
      <ele>915</ele>
      <time>2026-05-07T12:08:53Z</time>
    </trkpt>
    <trkpt lat="49.696429" lon="19.022347">
      <ele>911</ele>
      <time>2026-05-07T12:09:10Z</time>
    </trkpt>
    <trkpt lat="49.696529" lon="19.022167">
      <ele>907</ele>
      <time>2026-05-07T12:09:26Z</time>
    </trkpt>
    <trkpt lat="49.696607" lon="19.021948">
      <ele>903</ele>
      <time>2026-05-07T12:09:44Z</time>
    </trkpt>
    <trkpt lat="49.696655" lon="19.021717">
      <ele>901</ele>
      <time>2026-05-07T12:10:00Z</time>
    </trkpt>
    <trkpt lat="49.696669" lon="19.021647">
      <ele>900</ele>
      <time>2026-05-07T12:10:05Z</time>
    </trkpt>
    <trkpt lat="49.69673" lon="19.021321">
      <ele>896</ele>
      <time>2026-05-07T12:10:28Z</time>
    </trkpt>
    <trkpt lat="49.696799" lon="19.020773">
      <ele>888</ele>
      <time>2026-05-07T12:11:07Z</time>
    </trkpt>
    <trkpt lat="49.696794" lon="19.020569">
      <ele>887</ele>
      <time>2026-05-07T12:11:21Z</time>
    </trkpt>
    <trkpt lat="49.696763" lon="19.020349">
      <ele>887</ele>
      <time>2026-05-07T12:11:36Z</time>
    </trkpt>
    <trkpt lat="49.696749" lon="19.020181">
      <ele>885</ele>
      <time>2026-05-07T12:11:47Z</time>
    </trkpt>
    <trkpt lat="49.696739" lon="19.019957">
      <ele>883</ele>
      <time>2026-05-07T12:12:03Z</time>
    </trkpt>
    <trkpt lat="49.696811" lon="19.019753">
      <ele>878</ele>
      <time>2026-05-07T12:12:19Z</time>
    </trkpt>
    <trkpt lat="49.696925" lon="19.019659">
      <ele>873</ele>
      <time>2026-05-07T12:12:33Z</time>
    </trkpt>
    <trkpt lat="49.697021" lon="19.019574">
      <ele>869</ele>
      <time>2026-05-07T12:12:46Z</time>
    </trkpt>
    <trkpt lat="49.697209" lon="19.019351">
      <ele>861</ele>
      <time>2026-05-07T12:13:11Z</time>
    </trkpt>
    <trkpt lat="49.697349" lon="19.019174">
      <ele>855</ele>
      <time>2026-05-07T12:13:31Z</time>
    </trkpt>
    <trkpt lat="49.697419" lon="19.019032">
      <ele>852</ele>
      <time>2026-05-07T12:13:44Z</time>
    </trkpt>
    <trkpt lat="49.697499" lon="19.018879">
      <ele>847</ele>
      <time>2026-05-07T12:13:58Z</time>
    </trkpt>
    <trkpt lat="49.697523" lon="19.018835">
      <ele>846</ele>
      <time>2026-05-07T12:14:02Z</time>
    </trkpt>
    <trkpt lat="49.697668" lon="19.018613">
      <ele>838</ele>
      <time>2026-05-07T12:14:24Z</time>
    </trkpt>
    <trkpt lat="49.697811" lon="19.018383">
      <ele>831</ele>
      <time>2026-05-07T12:14:47Z</time>
    </trkpt>
    <trkpt lat="49.697989" lon="19.018099">
      <ele>825</ele>
      <time>2026-05-07T12:15:14Z</time>
    </trkpt>
    <trkpt lat="49.698141" lon="19.017996">
      <ele>818</ele>
      <time>2026-05-07T12:15:33Z</time>
    </trkpt>
    <trkpt lat="49.698267" lon="19.017978">
      <ele>812</ele>
      <time>2026-05-07T12:15:47Z</time>
    </trkpt>
    <trkpt lat="49.698385" lon="19.017994">
      <ele>808</ele>
      <time>2026-05-07T12:16:00Z</time>
    </trkpt>
    <trkpt lat="49.698491" lon="19.018029">
      <ele>805</ele>
      <time>2026-05-07T12:16:12Z</time>
    </trkpt>
    <trkpt lat="49.69865" lon="19.018072">
      <ele>802</ele>
      <time>2026-05-07T12:16:29Z</time>
    </trkpt>
    <trkpt lat="49.6988" lon="19.018039">
      <ele>798</ele>
      <time>2026-05-07T12:16:45Z</time>
    </trkpt>
    <trkpt lat="49.698973" lon="19.018039">
      <ele>793</ele>
      <time>2026-05-07T12:17:04Z</time>
    </trkpt>
    <trkpt lat="49.699047" lon="19.018027">
      <ele>791</ele>
      <time>2026-05-07T12:17:12Z</time>
    </trkpt>
    <trkpt lat="49.699129" lon="19.018007">
      <ele>788</ele>
      <time>2026-05-07T12:17:21Z</time>
    </trkpt>
    <trkpt lat="49.699337" lon="19.017988">
      <ele>782</ele>
      <time>2026-05-07T12:17:43Z</time>
    </trkpt>
    <trkpt lat="49.699424" lon="19.018047">
      <ele>780</ele>
      <time>2026-05-07T12:17:53Z</time>
    </trkpt>
    <trkpt lat="49.699504" lon="19.018149">
      <ele>777</ele>
      <time>2026-05-07T12:18:05Z</time>
    </trkpt>
    <trkpt lat="49.699611" lon="19.018241">
      <ele>774</ele>
      <time>2026-05-07T12:18:18Z</time>
    </trkpt>
    <trkpt lat="49.69976" lon="19.01827">
      <ele>769</ele>
      <time>2026-05-07T12:18:34Z</time>
    </trkpt>
    <trkpt lat="49.6999" lon="19.01823">
      <ele>764</ele>
      <time>2026-05-07T12:18:50Z</time>
    </trkpt>
    <trkpt lat="49.700024" lon="19.018165">
      <ele>760</ele>
      <time>2026-05-07T12:19:04Z</time>
    </trkpt>
    <trkpt lat="49.700174" lon="19.017865">
      <ele>755</ele>
      <time>2026-05-07T12:19:30Z</time>
    </trkpt>
    <trkpt lat="49.700336" lon="19.017742">
      <ele>750</ele>
      <time>2026-05-07T12:19:49Z</time>
    </trkpt>
    <trkpt lat="49.700498" lon="19.017615">
      <ele>745</ele>
      <time>2026-05-07T12:20:09Z</time>
    </trkpt>
    <trkpt lat="49.700865" lon="19.01723">
      <ele>736</ele>
      <time>2026-05-07T12:20:56Z</time>
    </trkpt>
    <trkpt lat="49.700953" lon="19.017105">
      <ele>733</ele>
      <time>2026-05-07T12:21:09Z</time>
    </trkpt>
    <trkpt lat="49.700982" lon="19.01698">
      <ele>731</ele>
      <time>2026-05-07T12:21:18Z</time>
    </trkpt>
    <trkpt lat="49.701047" lon="19.016589">
      <ele>726</ele>
      <time>2026-05-07T12:21:46Z</time>
    </trkpt>
    <trkpt lat="49.701105" lon="19.016534">
      <ele>725</ele>
      <time>2026-05-07T12:21:53Z</time>
    </trkpt>
    <trkpt lat="49.701173" lon="19.016591">
      <ele>724</ele>
      <time>2026-05-07T12:22:01Z</time>
    </trkpt>
    <trkpt lat="49.70127" lon="19.01669">
      <ele>722</ele>
      <time>2026-05-07T12:22:13Z</time>
    </trkpt>
    <trkpt lat="49.701388" lon="19.016779">
      <ele>720</ele>
      <time>2026-05-07T12:22:27Z</time>
    </trkpt>
    <trkpt lat="49.701567" lon="19.016992">
      <ele>712</ele>
      <time>2026-05-07T12:22:52Z</time>
    </trkpt>
    <trkpt lat="49.701718" lon="19.017211">
      <ele>705</ele>
      <time>2026-05-07T12:23:14Z</time>
    </trkpt>
    <trkpt lat="49.701905" lon="19.017661">
      <ele>699</ele>
      <time>2026-05-07T12:23:51Z</time>
    </trkpt>
    <trkpt lat="49.702068" lon="19.017527">
      <ele>693</ele>
      <time>2026-05-07T12:24:11Z</time>
    </trkpt>
    <trkpt lat="49.702158" lon="19.017345">
      <ele>691</ele>
      <time>2026-05-07T12:24:27Z</time>
    </trkpt>
    <trkpt lat="49.702217" lon="19.017157">
      <ele>689</ele>
      <time>2026-05-07T12:24:41Z</time>
    </trkpt>
    <trkpt lat="49.7023" lon="19.016808">
      <ele>685</ele>
      <time>2026-05-07T12:25:06Z</time>
    </trkpt>
    <trkpt lat="49.702422" lon="19.01661">
      <ele>680</ele>
      <time>2026-05-07T12:25:25Z</time>
    </trkpt>
    <trkpt lat="49.702581" lon="19.016637">
      <ele>675</ele>
      <time>2026-05-07T12:25:43Z</time>
    </trkpt>
    <trkpt lat="49.702793" lon="19.016733">
      <ele>667</ele>
      <time>2026-05-07T12:26:07Z</time>
    </trkpt>
    <trkpt lat="49.702967" lon="19.016658">
      <ele>659</ele>
      <time>2026-05-07T12:26:27Z</time>
    </trkpt>
    <trkpt lat="49.703067" lon="19.016529">
      <ele>655</ele>
      <time>2026-05-07T12:26:41Z</time>
    </trkpt>
    <trkpt lat="49.703109" lon="19.01639">
      <ele>652</ele>
      <time>2026-05-07T12:26:52Z</time>
    </trkpt>
    <trkpt lat="49.703195" lon="19.01624">
      <ele>648</ele>
      <time>2026-05-07T12:27:06Z</time>
    </trkpt>
    <trkpt lat="49.703355" lon="19.015709">
      <ele>638</ele>
      <time>2026-05-07T12:27:47Z</time>
    </trkpt>
    <trkpt lat="49.703435" lon="19.015612">
      <ele>634</ele>
      <time>2026-05-07T12:27:58Z</time>
    </trkpt>
    <trkpt lat="49.703768" lon="19.015295">
      <ele>615</ele>
      <time>2026-05-07T12:28:43Z</time>
    </trkpt>
    <trkpt lat="49.703976" lon="19.015161">
      <ele>608</ele>
      <time>2026-05-07T12:29:07Z</time>
    </trkpt>
    <trkpt lat="49.704184" lon="19.014984">
      <ele>603</ele>
      <time>2026-05-07T12:29:32Z</time>
    </trkpt>
    <trkpt lat="49.704413" lon="19.014813">
      <ele>597</ele>
      <time>2026-05-07T12:30:00Z</time>
    </trkpt>
    <trkpt lat="49.704569" lon="19.014743">
      <ele>593</ele>
      <time>2026-05-07T12:30:17Z</time>
    </trkpt>
    <trkpt lat="49.704743" lon="19.014636">
      <ele>586</ele>
      <time>2026-05-07T12:30:37Z</time>
    </trkpt>
    <trkpt lat="49.704906" lon="19.014646">
      <ele>581</ele>
      <time>2026-05-07T12:30:55Z</time>
    </trkpt>
    <trkpt lat="49.70509" lon="19.014668">
      <ele>576</ele>
      <time>2026-05-07T12:31:15Z</time>
    </trkpt>
    <trkpt lat="49.705319" lon="19.014477">
      <ele>569</ele>
      <time>2026-05-07T12:31:43Z</time>
    </trkpt>
    <trkpt lat="49.705532" lon="19.014173">
      <ele>562</ele>
      <time>2026-05-07T12:32:14Z</time>
    </trkpt>
    <trkpt lat="49.705791" lon="19.01386">
      <ele>555</ele>
      <time>2026-05-07T12:32:49Z</time>
    </trkpt>
    <trkpt lat="49.705893" lon="19.013748">
      <ele>554</ele>
      <time>2026-05-07T12:33:02Z</time>
    </trkpt>
    <trkpt lat="49.705957" lon="19.013643">
      <ele>552</ele>
      <time>2026-05-07T12:33:12Z</time>
    </trkpt>
    <trkpt lat="49.706059" lon="19.013533">
      <ele>549</ele>
      <time>2026-05-07T12:33:25Z</time>
    </trkpt>
    <trkpt lat="49.70616" lon="19.01356">
      <ele>548</ele>
      <time>2026-05-07T12:33:36Z</time>
    </trkpt>
    <trkpt lat="49.706259" lon="19.013592">
      <ele>546</ele>
      <time>2026-05-07T12:33:47Z</time>
    </trkpt>
    <trkpt lat="49.706326" lon="19.013555">
      <ele>544</ele>
      <time>2026-05-07T12:33:54Z</time>
    </trkpt>
    <trkpt lat="49.706526" lon="19.013329">
      <ele>540</ele>
      <time>2026-05-07T12:34:21Z</time>
    </trkpt>
    <trkpt lat="49.706856" lon="19.013102">
      <ele>540</ele>
      <time>2026-05-07T12:34:58Z</time>
    </trkpt>
    <trkpt lat="49.707007" lon="19.012997">
      <ele>540</ele>
      <time>2026-05-07T12:35:16Z</time>
    </trkpt>
    <trkpt lat="49.707171" lon="19.012831">
      <ele>541</ele>
      <time>2026-05-07T12:35:36Z</time>
    </trkpt>
    <trkpt lat="49.707399" lon="19.012597">
      <ele>540</ele>
      <time>2026-05-07T12:36:05Z</time>
    </trkpt>
    <trkpt lat="49.707438" lon="19.012533">
      <ele>540</ele>
      <time>2026-05-07T12:36:11Z</time>
    </trkpt>
    <trkpt lat="49.707473" lon="19.012474">
      <ele>540</ele>
      <time>2026-05-07T12:36:16Z</time>
    </trkpt>
    <trkpt lat="49.707543" lon="19.012576">
      <ele>540</ele>
      <time>2026-05-07T12:36:24Z</time>
    </trkpt>
    <trkpt lat="49.707599" lon="19.012657">
      <ele>540</ele>
      <time>2026-05-07T12:36:31Z</time>
    </trkpt>
    <trkpt lat="49.707726" lon="19.01284">
      <ele>539</ele>
      <time>2026-05-07T12:36:46Z</time>
    </trkpt>
    <trkpt lat="49.707881" lon="19.013065">
      <ele>538</ele>
      <time>2026-05-07T12:37:05Z</time>
    </trkpt>
    <trkpt lat="49.708039" lon="19.013288">
      <ele>538</ele>
      <time>2026-05-07T12:37:24Z</time>
    </trkpt>
    <trkpt lat="49.708135" lon="19.01341">
      <ele>537</ele>
      <time>2026-05-07T12:37:35Z</time>
    </trkpt>
    <trkpt lat="49.70831" lon="19.013611">
      <ele>536</ele>
      <time>2026-05-07T12:37:54Z</time>
    </trkpt>
    <trkpt lat="49.708417" lon="19.013724">
      <ele>536</ele>
      <time>2026-05-07T12:38:06Z</time>
    </trkpt>
    <trkpt lat="49.70857" lon="19.013883">
      <ele>535</ele>
      <time>2026-05-07T12:38:22Z</time>
    </trkpt>
    <trkpt lat="49.708786" lon="19.01411">
      <ele>534</ele>
      <time>2026-05-07T12:38:45Z</time>
    </trkpt>
    <trkpt lat="49.709065" lon="19.014393">
      <ele>532</ele>
      <time>2026-05-07T12:39:14Z</time>
    </trkpt>
    <trkpt lat="49.709089" lon="19.014416">
      <ele>532</ele>
      <time>2026-05-07T12:39:17Z</time>
    </trkpt>
    <trkpt lat="49.709171" lon="19.014495">
      <ele>532</ele>
      <time>2026-05-07T12:39:25Z</time>
    </trkpt>
    <trkpt lat="49.709375" lon="19.014685">
      <ele>532</ele>
      <time>2026-05-07T12:39:46Z</time>
    </trkpt>
    <trkpt lat="49.709423" lon="19.01473">
      <ele>532</ele>
      <time>2026-05-07T12:39:51Z</time>
    </trkpt>
    <trkpt lat="49.710009" lon="19.0153">
      <ele>531</ele>
      <time>2026-05-07T12:40:52Z</time>
    </trkpt>
    <trkpt lat="49.710138" lon="19.015422">
      <ele>530</ele>
      <time>2026-05-07T12:41:05Z</time>
    </trkpt>
    <trkpt lat="49.71026" lon="19.01554">
      <ele>529</ele>
      <time>2026-05-07T12:41:18Z</time>
    </trkpt>
    <trkpt lat="49.710362" lon="19.015676">
      <ele>528</ele>
      <time>2026-05-07T12:41:30Z</time>
    </trkpt>
    <trkpt lat="49.710394" lon="19.015725">
      <ele>528</ele>
      <time>2026-05-07T12:41:34Z</time>
    </trkpt>
    <trkpt lat="49.710435" lon="19.015802">
      <ele>528</ele>
      <time>2026-05-07T12:41:39Z</time>
    </trkpt>
    <trkpt lat="49.710475" lon="19.015892">
      <ele>527</ele>
      <time>2026-05-07T12:41:46Z</time>
    </trkpt>
    <trkpt lat="49.710511" lon="19.015989">
      <ele>527</ele>
      <time>2026-05-07T12:41:52Z</time>
    </trkpt>
    <trkpt lat="49.710556" lon="19.016137">
      <ele>526</ele>
      <time>2026-05-07T12:42:01Z</time>
    </trkpt>
    <trkpt lat="49.710623" lon="19.016361">
      <ele>527</ele>
      <time>2026-05-07T12:42:15Z</time>
    </trkpt>
    <trkpt lat="49.710712" lon="19.016651">
      <ele>527</ele>
      <time>2026-05-07T12:42:34Z</time>
    </trkpt>
    <trkpt lat="49.710793" lon="19.016932">
      <ele>529</ele>
      <time>2026-05-07T12:42:51Z</time>
    </trkpt>
    <trkpt lat="49.710909" lon="19.01733">
      <ele>529</ele>
      <time>2026-05-07T12:43:16Z</time>
    </trkpt>
    <trkpt lat="49.710973" lon="19.017539">
      <ele>529</ele>
      <time>2026-05-07T12:43:29Z</time>
    </trkpt>
    <trkpt lat="49.711015" lon="19.017665">
      <ele>528</ele>
      <time>2026-05-07T12:43:37Z</time>
    </trkpt>
    <trkpt lat="49.711121" lon="19.017937">
      <ele>526</ele>
      <time>2026-05-07T12:43:55Z</time>
    </trkpt>
    <trkpt lat="49.711343" lon="19.01843">
      <ele>529</ele>
      <time>2026-05-07T12:44:30Z</time>
    </trkpt>
    <trkpt lat="49.711676" lon="19.019191">
      <ele>528</ele>
      <time>2026-05-07T12:45:22Z</time>
    </trkpt>
    <trkpt lat="49.711763" lon="19.01938">
      <ele>527</ele>
      <time>2026-05-07T12:45:35Z</time>
    </trkpt>
    <trkpt lat="49.71204" lon="19.020003">
      <ele>525</ele>
      <time>2026-05-07T12:46:18Z</time>
    </trkpt>
    <trkpt lat="49.712189" lon="19.020342">
      <ele>523</ele>
      <time>2026-05-07T12:46:42Z</time>
    </trkpt>
    <trkpt lat="49.712267" lon="19.020502">
      <ele>522</ele>
      <time>2026-05-07T12:46:53Z</time>
    </trkpt>
    <trkpt lat="49.712355" lon="19.020651">
      <ele>521</ele>
      <time>2026-05-07T12:47:04Z</time>
    </trkpt>
    <trkpt lat="49.712446" lon="19.020782">
      <ele>521</ele>
      <time>2026-05-07T12:47:15Z</time>
    </trkpt>
    <trkpt lat="49.712474" lon="19.020818">
      <ele>520</ele>
      <time>2026-05-07T12:47:19Z</time>
    </trkpt>
    <trkpt lat="49.712599" lon="19.020976">
      <ele>520</ele>
      <time>2026-05-07T12:47:33Z</time>
    </trkpt>
    <trkpt lat="49.712734" lon="19.021111">
      <ele>521</ele>
      <time>2026-05-07T12:47:47Z</time>
    </trkpt>
    <trkpt lat="49.713132" lon="19.021458">
      <ele>522</ele>
      <time>2026-05-07T12:48:27Z</time>
    </trkpt>
    <trkpt lat="49.713315" lon="19.021606">
      <ele>521</ele>
      <time>2026-05-07T12:48:45Z</time>
    </trkpt>
    <trkpt lat="49.713498" lon="19.021776">
      <ele>521</ele>
      <time>2026-05-07T12:49:04Z</time>
    </trkpt>
    <trkpt lat="49.71374" lon="19.022015">
      <ele>520</ele>
      <time>2026-05-07T12:49:29Z</time>
    </trkpt>
    <trkpt lat="49.713932" lon="19.022224">
      <ele>520</ele>
      <time>2026-05-07T12:49:50Z</time>
    </trkpt>
    <trkpt lat="49.714137" lon="19.022453">
      <ele>519</ele>
      <time>2026-05-07T12:50:12Z</time>
    </trkpt>
    <trkpt lat="49.71427" lon="19.022595">
      <ele>518</ele>
      <time>2026-05-07T12:50:26Z</time>
    </trkpt>
    <trkpt lat="49.714417" lon="19.022757">
      <ele>516</ele>
      <time>2026-05-07T12:50:42Z</time>
    </trkpt>
    <trkpt lat="49.714541" lon="19.022896">
      <ele>515</ele>
      <time>2026-05-07T12:50:56Z</time>
    </trkpt>
    <trkpt lat="49.714653" lon="19.023037">
      <ele>514</ele>
      <time>2026-05-07T12:51:09Z</time>
    </trkpt>
    <trkpt lat="49.714715" lon="19.023124">
      <ele>514</ele>
      <time>2026-05-07T12:51:16Z</time>
    </trkpt>
  </trkseg>
</trk>
</gpx>