<?xml version="1.0" encoding="UTF-8"?><gpx creator="https://mapa-turystyczna.pl" xmlns="http://www.topografix.com/GPX/1/1" version="1.1" xmlns:xsi="http://www.w3.org/2001/XMLSchema-instance" xsi:schemaLocation="http://www.topografix.com/GPX/1/1 http://www.topografix.com/GPX/1/1/gpx.xsd">
  <metadata>
    <link href="https://mapa-turystyczna.pl">
      <text>mapa-turystyczna.pl</text>
    </link>
    <time>2026-05-07T08:43:16Z</time>
    <bounds maxlat="49.684301" maxlon="19.076962" minlat="49.666522" minlon="19.031797"/>
  </metadata>

<trk>
  <name>Lipowa, Ostre – Lipowa, Ostre</name>
  <link href="https://mapa-turystyczna.pl/route/cbx">
    <text>Lipowa, Ostre – Lipowa, Ostre</text>
  </link>
  <trkseg>
    <trkpt lat="49.666522" lon="19.075643">
      <ele>537</ele>
      <time>2026-05-07T08:43:16Z</time>
    </trkpt>
    <trkpt lat="49.666549" lon="19.076088">
      <ele>534</ele>
      <time>2026-05-07T08:44:18Z</time>
    </trkpt>
    <trkpt lat="49.666562" lon="19.076275">
      <ele>533</ele>
      <time>2026-05-07T08:44:44Z</time>
    </trkpt>
    <trkpt lat="49.66664" lon="19.076916">
      <ele>529</ele>
      <time>2026-05-07T08:46:14Z</time>
    </trkpt>
    <trkpt lat="49.666921" lon="19.076938">
      <ele>533</ele>
      <time>2026-05-07T08:47:14Z</time>
    </trkpt>
    <trkpt lat="49.667062" lon="19.076962">
      <ele>535</ele>
      <time>2026-05-07T08:47:45Z</time>
    </trkpt>
    <trkpt lat="49.667251" lon="19.076941">
      <ele>538</ele>
      <time>2026-05-07T08:48:26Z</time>
    </trkpt>
    <trkpt lat="49.667348" lon="19.076898">
      <ele>540</ele>
      <time>2026-05-07T08:48:47Z</time>
    </trkpt>
    <trkpt lat="49.667427" lon="19.076837">
      <ele>542</ele>
      <time>2026-05-07T08:49:07Z</time>
    </trkpt>
    <trkpt lat="49.667544" lon="19.07674">
      <ele>546</ele>
      <time>2026-05-07T08:49:36Z</time>
    </trkpt>
    <trkpt lat="49.667626" lon="19.076648">
      <ele>550</ele>
      <time>2026-05-07T08:49:58Z</time>
    </trkpt>
    <trkpt lat="49.667678" lon="19.076458">
      <ele>554</ele>
      <time>2026-05-07T08:50:28Z</time>
    </trkpt>
    <trkpt lat="49.667973" lon="19.075801">
      <ele>569</ele>
      <time>2026-05-07T08:52:22Z</time>
    </trkpt>
    <trkpt lat="49.66834" lon="19.075211">
      <ele>588</ele>
      <time>2026-05-07T08:54:20Z</time>
    </trkpt>
    <trkpt lat="49.668517" lon="19.074993">
      <ele>600</ele>
      <time>2026-05-07T08:55:13Z</time>
    </trkpt>
    <trkpt lat="49.668635" lon="19.074832">
      <ele>607</ele>
      <time>2026-05-07T08:55:49Z</time>
    </trkpt>
    <trkpt lat="49.669056" lon="19.073481">
      <ele>645</ele>
      <time>2026-05-07T08:59:28Z</time>
    </trkpt>
    <trkpt lat="49.669161" lon="19.073105">
      <ele>651</ele>
      <time>2026-05-07T09:00:26Z</time>
    </trkpt>
    <trkpt lat="49.669209" lon="19.072786">
      <ele>656</ele>
      <time>2026-05-07T09:01:12Z</time>
    </trkpt>
    <trkpt lat="49.669336" lon="19.072486">
      <ele>662</ele>
      <time>2026-05-07T09:02:03Z</time>
    </trkpt>
    <trkpt lat="49.669421" lon="19.07237">
      <ele>665</ele>
      <time>2026-05-07T09:02:28Z</time>
    </trkpt>
    <trkpt lat="49.669518" lon="19.072174">
      <ele>669</ele>
      <time>2026-05-07T09:03:03Z</time>
    </trkpt>
    <trkpt lat="49.6696" lon="19.071869">
      <ele>674</ele>
      <time>2026-05-07T09:03:49Z</time>
    </trkpt>
    <trkpt lat="49.669683" lon="19.071649">
      <ele>677</ele>
      <time>2026-05-07T09:04:25Z</time>
    </trkpt>
    <trkpt lat="49.669815" lon="19.071448">
      <ele>682</ele>
      <time>2026-05-07T09:05:05Z</time>
    </trkpt>
    <trkpt lat="49.670004" lon="19.07122">
      <ele>689</ele>
      <time>2026-05-07T09:05:58Z</time>
    </trkpt>
    <trkpt lat="49.670075" lon="19.070989">
      <ele>691</ele>
      <time>2026-05-07T09:06:33Z</time>
    </trkpt>
    <trkpt lat="49.670109" lon="19.07067">
      <ele>695</ele>
      <time>2026-05-07T09:07:18Z</time>
    </trkpt>
    <trkpt lat="49.670126" lon="19.07035">
      <ele>698</ele>
      <time>2026-05-07T09:08:03Z</time>
    </trkpt>
    <trkpt lat="49.670185" lon="19.069986">
      <ele>703</ele>
      <time>2026-05-07T09:08:56Z</time>
    </trkpt>
    <trkpt lat="49.67032" lon="19.069449">
      <ele>706</ele>
      <time>2026-05-07T09:10:15Z</time>
    </trkpt>
    <trkpt lat="49.670397" lon="19.068913">
      <ele>706</ele>
      <time>2026-05-07T09:11:31Z</time>
    </trkpt>
    <trkpt lat="49.670447" lon="19.068457">
      <ele>708</ele>
      <time>2026-05-07T09:12:34Z</time>
    </trkpt>
    <trkpt lat="49.670487" lon="19.067843">
      <ele>712</ele>
      <time>2026-05-07T09:14:00Z</time>
    </trkpt>
    <trkpt lat="49.670503" lon="19.067615">
      <ele>713</ele>
      <time>2026-05-07T09:14:31Z</time>
    </trkpt>
    <trkpt lat="49.670605" lon="19.066751">
      <ele>722</ele>
      <time>2026-05-07T09:16:34Z</time>
    </trkpt>
    <trkpt lat="49.67062" lon="19.065498">
      <ele>737</ele>
      <time>2026-05-07T09:19:29Z</time>
    </trkpt>
    <trkpt lat="49.67071" lon="19.064748">
      <ele>747</ele>
      <time>2026-05-07T09:21:15Z</time>
    </trkpt>
    <trkpt lat="49.670796" lon="19.064181">
      <ele>752</ele>
      <time>2026-05-07T09:22:36Z</time>
    </trkpt>
    <trkpt lat="49.671004" lon="19.06313">
      <ele>761</ele>
      <time>2026-05-07T09:25:08Z</time>
    </trkpt>
    <trkpt lat="49.671046" lon="19.062698">
      <ele>769</ele>
      <time>2026-05-07T09:26:10Z</time>
    </trkpt>
    <trkpt lat="49.671042" lon="19.062341">
      <ele>775</ele>
      <time>2026-05-07T09:27:01Z</time>
    </trkpt>
    <trkpt lat="49.671079" lon="19.062095">
      <ele>780</ele>
      <time>2026-05-07T09:27:37Z</time>
    </trkpt>
    <trkpt lat="49.671141" lon="19.061813">
      <ele>786</ele>
      <time>2026-05-07T09:28:19Z</time>
    </trkpt>
    <trkpt lat="49.671208" lon="19.061608">
      <ele>789</ele>
      <time>2026-05-07T09:28:52Z</time>
    </trkpt>
    <trkpt lat="49.67128" lon="19.061336">
      <ele>794</ele>
      <time>2026-05-07T09:29:33Z</time>
    </trkpt>
    <trkpt lat="49.671492" lon="19.060917">
      <ele>803</ele>
      <time>2026-05-07T09:30:49Z</time>
    </trkpt>
    <trkpt lat="49.671565" lon="19.060571">
      <ele>809</ele>
      <time>2026-05-07T09:31:40Z</time>
    </trkpt>
    <trkpt lat="49.671554" lon="19.060303">
      <ele>812</ele>
      <time>2026-05-07T09:32:17Z</time>
    </trkpt>
    <trkpt lat="49.671546" lon="19.05993">
      <ele>816</ele>
      <time>2026-05-07T09:33:09Z</time>
    </trkpt>
    <trkpt lat="49.671578" lon="19.059434">
      <ele>821</ele>
      <time>2026-05-07T09:34:19Z</time>
    </trkpt>
    <trkpt lat="49.671608" lon="19.05882">
      <ele>828</ele>
      <time>2026-05-07T09:35:45Z</time>
    </trkpt>
    <trkpt lat="49.671692" lon="19.058423">
      <ele>833</ele>
      <time>2026-05-07T09:36:43Z</time>
    </trkpt>
    <trkpt lat="49.671856" lon="19.057808">
      <ele>839</ele>
      <time>2026-05-07T09:38:15Z</time>
    </trkpt>
    <trkpt lat="49.671978" lon="19.057511">
      <ele>842</ele>
      <time>2026-05-07T09:39:04Z</time>
    </trkpt>
    <trkpt lat="49.672437" lon="19.056672">
      <ele>853</ele>
      <time>2026-05-07T09:41:37Z</time>
    </trkpt>
    <trkpt lat="49.672598" lon="19.056191">
      <ele>856</ele>
      <time>2026-05-07T09:42:51Z</time>
    </trkpt>
    <trkpt lat="49.672609" lon="19.056111">
      <ele>857</ele>
      <time>2026-05-07T09:43:03Z</time>
    </trkpt>
    <trkpt lat="49.672674" lon="19.05566">
      <ele>859</ele>
      <time>2026-05-07T09:44:06Z</time>
    </trkpt>
    <trkpt lat="49.672745" lon="19.055252">
      <ele>861</ele>
      <time>2026-05-07T09:45:05Z</time>
    </trkpt>
    <trkpt lat="49.67278" lon="19.055022">
      <ele>864</ele>
      <time>2026-05-07T09:45:38Z</time>
    </trkpt>
    <trkpt lat="49.67275" lon="19.054633">
      <ele>870</ele>
      <time>2026-05-07T09:46:33Z</time>
    </trkpt>
    <trkpt lat="49.672783" lon="19.05419">
      <ele>878</ele>
      <time>2026-05-07T09:47:36Z</time>
    </trkpt>
    <trkpt lat="49.672839" lon="19.053742">
      <ele>882</ele>
      <time>2026-05-07T09:48:39Z</time>
    </trkpt>
    <trkpt lat="49.672936" lon="19.053541">
      <ele>884</ele>
      <time>2026-05-07T09:49:14Z</time>
    </trkpt>
    <trkpt lat="49.673044" lon="19.053206">
      <ele>888</ele>
      <time>2026-05-07T09:50:06Z</time>
    </trkpt>
    <trkpt lat="49.673202" lon="19.052651">
      <ele>901</ele>
      <time>2026-05-07T09:51:34Z</time>
    </trkpt>
    <trkpt lat="49.673426" lon="19.052179">
      <ele>909</ele>
      <time>2026-05-07T09:52:55Z</time>
    </trkpt>
    <trkpt lat="49.673575" lon="19.051832">
      <ele>913</ele>
      <time>2026-05-07T09:53:53Z</time>
    </trkpt>
    <trkpt lat="49.67382" lon="19.051174">
      <ele>923</ele>
      <time>2026-05-07T09:55:40Z</time>
    </trkpt>
    <trkpt lat="49.673941" lon="19.050709">
      <ele>927</ele>
      <time>2026-05-07T09:56:49Z</time>
    </trkpt>
    <trkpt lat="49.674101" lon="19.050095">
      <ele>931</ele>
      <time>2026-05-07T09:58:21Z</time>
    </trkpt>
    <trkpt lat="49.674231" lon="19.049743">
      <ele>932</ele>
      <time>2026-05-07T09:59:16Z</time>
    </trkpt>
    <trkpt lat="49.674373" lon="19.049485">
      <ele>932</ele>
      <time>2026-05-07T10:00:03Z</time>
    </trkpt>
    <trkpt lat="49.67455" lon="19.048944">
      <ele>930</ele>
      <time>2026-05-07T10:01:27Z</time>
    </trkpt>
    <trkpt lat="49.674766" lon="19.048421">
      <ele>930</ele>
      <time>2026-05-07T10:02:52Z</time>
    </trkpt>
    <trkpt lat="49.674891" lon="19.048045">
      <ele>930</ele>
      <time>2026-05-07T10:03:50Z</time>
    </trkpt>
    <trkpt lat="49.675029" lon="19.047552">
      <ele>933</ele>
      <time>2026-05-07T10:05:04Z</time>
    </trkpt>
    <trkpt lat="49.675099" lon="19.04727">
      <ele>935</ele>
      <time>2026-05-07T10:05:46Z</time>
    </trkpt>
    <trkpt lat="49.675141" lon="19.047018">
      <ele>936</ele>
      <time>2026-05-07T10:06:22Z</time>
    </trkpt>
    <trkpt lat="49.675271" lon="19.046608">
      <ele>942</ele>
      <time>2026-05-07T10:07:26Z</time>
    </trkpt>
    <trkpt lat="49.675408" lon="19.046256">
      <ele>946</ele>
      <time>2026-05-07T10:08:23Z</time>
    </trkpt>
    <trkpt lat="49.675588" lon="19.045706">
      <ele>955</ele>
      <time>2026-05-07T10:09:50Z</time>
    </trkpt>
    <trkpt lat="49.675743" lon="19.045226">
      <ele>961</ele>
      <time>2026-05-07T10:11:04Z</time>
    </trkpt>
    <trkpt lat="49.676073" lon="19.044422">
      <ele>970</ele>
      <time>2026-05-07T10:13:17Z</time>
    </trkpt>
    <trkpt lat="49.676354" lon="19.043837">
      <ele>984</ele>
      <time>2026-05-07T10:15:00Z</time>
    </trkpt>
    <trkpt lat="49.676515" lon="19.043451">
      <ele>991</ele>
      <time>2026-05-07T10:16:05Z</time>
    </trkpt>
    <trkpt lat="49.676638" lon="19.043003">
      <ele>999</ele>
      <time>2026-05-07T10:17:14Z</time>
    </trkpt>
    <trkpt lat="49.676859" lon="19.042482">
      <ele>1009</ele>
      <time>2026-05-07T10:18:42Z</time>
    </trkpt>
    <trkpt lat="49.676913" lon="19.042219">
      <ele>1013</ele>
      <time>2026-05-07T10:19:21Z</time>
    </trkpt>
    <trkpt lat="49.677005" lon="19.042042">
      <ele>1017</ele>
      <time>2026-05-07T10:19:53Z</time>
    </trkpt>
    <trkpt lat="49.677102" lon="19.041906">
      <ele>1020</ele>
      <time>2026-05-07T10:20:21Z</time>
    </trkpt>
    <trkpt lat="49.67722" lon="19.041624">
      <ele>1025</ele>
      <time>2026-05-07T10:21:08Z</time>
    </trkpt>
    <trkpt lat="49.677315" lon="19.04149">
      <ele>1029</ele>
      <time>2026-05-07T10:21:37Z</time>
    </trkpt>
    <trkpt lat="49.677428" lon="19.041369">
      <ele>1034</ele>
      <time>2026-05-07T10:22:07Z</time>
    </trkpt>
    <trkpt lat="49.677489" lon="19.041208">
      <ele>1038</ele>
      <time>2026-05-07T10:22:34Z</time>
    </trkpt>
    <trkpt lat="49.677532" lon="19.040916">
      <ele>1041</ele>
      <time>2026-05-07T10:23:16Z</time>
    </trkpt>
    <trkpt lat="49.67755" lon="19.040723">
      <ele>1042</ele>
      <time>2026-05-07T10:23:43Z</time>
    </trkpt>
    <trkpt lat="49.677583" lon="19.040549">
      <ele>1043</ele>
      <time>2026-05-07T10:24:08Z</time>
    </trkpt>
    <trkpt lat="49.677567" lon="19.040361">
      <ele>1045</ele>
      <time>2026-05-07T10:24:34Z</time>
    </trkpt>
    <trkpt lat="49.677511" lon="19.040031">
      <ele>1045</ele>
      <time>2026-05-07T10:25:21Z</time>
    </trkpt>
    <trkpt lat="49.677543" lon="19.03984">
      <ele>1047</ele>
      <time>2026-05-07T10:25:48Z</time>
    </trkpt>
    <trkpt lat="49.677581" lon="19.039669">
      <ele>1048</ele>
      <time>2026-05-07T10:26:13Z</time>
    </trkpt>
    <trkpt lat="49.677676" lon="19.039454">
      <ele>1053</ele>
      <time>2026-05-07T10:26:50Z</time>
    </trkpt>
    <trkpt lat="49.677813" lon="19.03921">
      <ele>1060</ele>
      <time>2026-05-07T10:27:36Z</time>
    </trkpt>
    <trkpt lat="49.677961" lon="19.038987">
      <ele>1066</ele>
      <time>2026-05-07T10:28:22Z</time>
    </trkpt>
    <trkpt lat="49.678084" lon="19.038851">
      <ele>1070</ele>
      <time>2026-05-07T10:28:55Z</time>
    </trkpt>
    <trkpt lat="49.678234" lon="19.038556">
      <ele>1075</ele>
      <time>2026-05-07T10:29:48Z</time>
    </trkpt>
    <trkpt lat="49.6784" lon="19.038403">
      <ele>1081</ele>
      <time>2026-05-07T10:30:30Z</time>
    </trkpt>
    <trkpt lat="49.678621" lon="19.038266">
      <ele>1087</ele>
      <time>2026-05-07T10:31:22Z</time>
    </trkpt>
    <trkpt lat="49.678733" lon="19.038171">
      <ele>1090</ele>
      <time>2026-05-07T10:31:50Z</time>
    </trkpt>
    <trkpt lat="49.678891" lon="19.037971">
      <ele>1096</ele>
      <time>2026-05-07T10:32:35Z</time>
    </trkpt>
    <trkpt lat="49.679087" lon="19.037847">
      <ele>1103</ele>
      <time>2026-05-07T10:33:22Z</time>
    </trkpt>
    <trkpt lat="49.679214" lon="19.037813">
      <ele>1106</ele>
      <time>2026-05-07T10:33:50Z</time>
    </trkpt>
    <trkpt lat="49.679457" lon="19.037754">
      <ele>1112</ele>
      <time>2026-05-07T10:34:44Z</time>
    </trkpt>
    <trkpt lat="49.679662" lon="19.037654">
      <ele>1115</ele>
      <time>2026-05-07T10:35:30Z</time>
    </trkpt>
    <trkpt lat="49.679889" lon="19.037418">
      <ele>1122</ele>
      <time>2026-05-07T10:36:29Z</time>
    </trkpt>
    <trkpt lat="49.680025" lon="19.037338">
      <ele>1125</ele>
      <time>2026-05-07T10:37:01Z</time>
    </trkpt>
    <trkpt lat="49.680296" lon="19.037305">
      <ele>1129</ele>
      <time>2026-05-07T10:37:59Z</time>
    </trkpt>
    <trkpt lat="49.680358" lon="19.037215">
      <ele>1132</ele>
      <time>2026-05-07T10:38:18Z</time>
    </trkpt>
    <trkpt lat="49.68041" lon="19.03711">
      <ele>1134</ele>
      <time>2026-05-07T10:38:37Z</time>
    </trkpt>
    <trkpt lat="49.680464" lon="19.036941">
      <ele>1139</ele>
      <time>2026-05-07T10:39:04Z</time>
    </trkpt>
    <trkpt lat="49.680502" lon="19.036826">
      <ele>1141</ele>
      <time>2026-05-07T10:39:23Z</time>
    </trkpt>
    <trkpt lat="49.680651" lon="19.036734">
      <ele>1146</ele>
      <time>2026-05-07T10:39:58Z</time>
    </trkpt>
    <trkpt lat="49.680741" lon="19.036603">
      <ele>1150</ele>
      <time>2026-05-07T10:40:26Z</time>
    </trkpt>
    <trkpt lat="49.680806" lon="19.036477">
      <ele>1153</ele>
      <time>2026-05-07T10:40:48Z</time>
    </trkpt>
    <trkpt lat="49.681137" lon="19.035841">
      <ele>1166</ele>
      <time>2026-05-07T10:42:44Z</time>
    </trkpt>
    <trkpt lat="49.681245" lon="19.035769">
      <ele>1168</ele>
      <time>2026-05-07T10:43:09Z</time>
    </trkpt>
    <trkpt lat="49.681382" lon="19.035755">
      <ele>1170</ele>
      <time>2026-05-07T10:43:38Z</time>
    </trkpt>
    <trkpt lat="49.681471" lon="19.035731">
      <ele>1172</ele>
      <time>2026-05-07T10:43:58Z</time>
    </trkpt>
    <trkpt lat="49.681583" lon="19.03564">
      <ele>1173</ele>
      <time>2026-05-07T10:44:25Z</time>
    </trkpt>
    <trkpt lat="49.681636" lon="19.035548">
      <ele>1175</ele>
      <time>2026-05-07T10:44:42Z</time>
    </trkpt>
    <trkpt lat="49.681791" lon="19.035219">
      <ele>1182</ele>
      <time>2026-05-07T10:45:40Z</time>
    </trkpt>
    <trkpt lat="49.681967" lon="19.034996">
      <ele>1188</ele>
      <time>2026-05-07T10:46:30Z</time>
    </trkpt>
    <trkpt lat="49.682063" lon="19.034906">
      <ele>1191</ele>
      <time>2026-05-07T10:46:54Z</time>
    </trkpt>
    <trkpt lat="49.682319" lon="19.034812">
      <ele>1196</ele>
      <time>2026-05-07T10:47:51Z</time>
    </trkpt>
    <trkpt lat="49.682413" lon="19.034747">
      <ele>1199</ele>
      <time>2026-05-07T10:48:13Z</time>
    </trkpt>
    <trkpt lat="49.682479" lon="19.034683">
      <ele>1200</ele>
      <time>2026-05-07T10:48:30Z</time>
    </trkpt>
    <trkpt lat="49.682524" lon="19.03458">
      <ele>1203</ele>
      <time>2026-05-07T10:48:48Z</time>
    </trkpt>
    <trkpt lat="49.68259" lon="19.034394">
      <ele>1207</ele>
      <time>2026-05-07T10:49:18Z</time>
    </trkpt>
    <trkpt lat="49.682713" lon="19.034082">
      <ele>1214</ele>
      <time>2026-05-07T10:50:10Z</time>
    </trkpt>
    <trkpt lat="49.682853" lon="19.033773">
      <ele>1219</ele>
      <time>2026-05-07T10:51:03Z</time>
    </trkpt>
    <trkpt lat="49.682947" lon="19.033433">
      <ele>1223</ele>
      <time>2026-05-07T10:51:55Z</time>
    </trkpt>
    <trkpt lat="49.683079" lon="19.033172">
      <ele>1226</ele>
      <time>2026-05-07T10:52:41Z</time>
    </trkpt>
    <trkpt lat="49.683259" lon="19.032909">
      <ele>1227</ele>
      <time>2026-05-07T10:53:33Z</time>
    </trkpt>
    <trkpt lat="49.683338" lon="19.03272">
      <ele>1228</ele>
      <time>2026-05-07T10:54:04Z</time>
    </trkpt>
    <trkpt lat="49.68344" lon="19.032541">
      <ele>1229</ele>
      <time>2026-05-07T10:54:37Z</time>
    </trkpt>
    <trkpt lat="49.683637" lon="19.032304">
      <ele>1232</ele>
      <time>2026-05-07T10:55:31Z</time>
    </trkpt>
    <trkpt lat="49.6839" lon="19.032055">
      <ele>1241</ele>
      <time>2026-05-07T10:56:38Z</time>
    </trkpt>
    <trkpt lat="49.684086" lon="19.031942">
      <ele>1248</ele>
      <time>2026-05-07T10:57:23Z</time>
    </trkpt>
    <trkpt lat="49.684171" lon="19.031879">
      <ele>1252</ele>
      <time>2026-05-07T10:57:44Z</time>
    </trkpt>
    <trkpt lat="49.684301" lon="19.031797">
      <ele>1257</ele>
      <time>2026-05-07T10:58:16Z</time>
    </trkpt>
    <trkpt lat="49.684171" lon="19.031879">
      <ele>1252</ele>
      <time>2026-05-07T10:58:31Z</time>
    </trkpt>
    <trkpt lat="49.684086" lon="19.031942">
      <ele>1248</ele>
      <time>2026-05-07T10:58:41Z</time>
    </trkpt>
    <trkpt lat="49.6839" lon="19.032055">
      <ele>1241</ele>
      <time>2026-05-07T10:59:03Z</time>
    </trkpt>
    <trkpt lat="49.683637" lon="19.032304">
      <ele>1232</ele>
      <time>2026-05-07T10:59:36Z</time>
    </trkpt>
    <trkpt lat="49.68344" lon="19.032541">
      <ele>1229</ele>
      <time>2026-05-07T11:00:01Z</time>
    </trkpt>
    <trkpt lat="49.683338" lon="19.03272">
      <ele>1228</ele>
      <time>2026-05-07T11:00:17Z</time>
    </trkpt>
    <trkpt lat="49.683259" lon="19.032909">
      <ele>1227</ele>
      <time>2026-05-07T11:00:32Z</time>
    </trkpt>
    <trkpt lat="49.683079" lon="19.033172">
      <ele>1226</ele>
      <time>2026-05-07T11:00:57Z</time>
    </trkpt>
    <trkpt lat="49.682947" lon="19.033433">
      <ele>1223</ele>
      <time>2026-05-07T11:01:20Z</time>
    </trkpt>
    <trkpt lat="49.682853" lon="19.033773">
      <ele>1219</ele>
      <time>2026-05-07T11:01:44Z</time>
    </trkpt>
    <trkpt lat="49.682713" lon="19.034082">
      <ele>1214</ele>
      <time>2026-05-07T11:02:10Z</time>
    </trkpt>
    <trkpt lat="49.68259" lon="19.034394">
      <ele>1207</ele>
      <time>2026-05-07T11:02:35Z</time>
    </trkpt>
    <trkpt lat="49.682524" lon="19.03458">
      <ele>1203</ele>
      <time>2026-05-07T11:02:49Z</time>
    </trkpt>
    <trkpt lat="49.682479" lon="19.034683">
      <ele>1200</ele>
      <time>2026-05-07T11:02:58Z</time>
    </trkpt>
    <trkpt lat="49.682413" lon="19.034747">
      <ele>1199</ele>
      <time>2026-05-07T11:03:06Z</time>
    </trkpt>
    <trkpt lat="49.682319" lon="19.034812">
      <ele>1196</ele>
      <time>2026-05-07T11:03:17Z</time>
    </trkpt>
    <trkpt lat="49.682063" lon="19.034906">
      <ele>1191</ele>
      <time>2026-05-07T11:03:44Z</time>
    </trkpt>
    <trkpt lat="49.681967" lon="19.034996">
      <ele>1188</ele>
      <time>2026-05-07T11:03:56Z</time>
    </trkpt>
    <trkpt lat="49.681791" lon="19.035219">
      <ele>1182</ele>
      <time>2026-05-07T11:04:20Z</time>
    </trkpt>
    <trkpt lat="49.681636" lon="19.035548">
      <ele>1175</ele>
      <time>2026-05-07T11:04:48Z</time>
    </trkpt>
    <trkpt lat="49.681583" lon="19.03564">
      <ele>1173</ele>
      <time>2026-05-07T11:04:56Z</time>
    </trkpt>
    <trkpt lat="49.681471" lon="19.035731">
      <ele>1172</ele>
      <time>2026-05-07T11:05:09Z</time>
    </trkpt>
    <trkpt lat="49.681382" lon="19.035755">
      <ele>1170</ele>
      <time>2026-05-07T11:05:19Z</time>
    </trkpt>
    <trkpt lat="49.681245" lon="19.035769">
      <ele>1168</ele>
      <time>2026-05-07T11:05:33Z</time>
    </trkpt>
    <trkpt lat="49.681137" lon="19.035841">
      <ele>1166</ele>
      <time>2026-05-07T11:05:45Z</time>
    </trkpt>
    <trkpt lat="49.680806" lon="19.036477">
      <ele>1153</ele>
      <time>2026-05-07T11:06:40Z</time>
    </trkpt>
    <trkpt lat="49.680741" lon="19.036603">
      <ele>1150</ele>
      <time>2026-05-07T11:06:51Z</time>
    </trkpt>
    <trkpt lat="49.680651" lon="19.036734">
      <ele>1146</ele>
      <time>2026-05-07T11:07:05Z</time>
    </trkpt>
    <trkpt lat="49.680502" lon="19.036826">
      <ele>1141</ele>
      <time>2026-05-07T11:07:22Z</time>
    </trkpt>
    <trkpt lat="49.680464" lon="19.036941">
      <ele>1139</ele>
      <time>2026-05-07T11:07:31Z</time>
    </trkpt>
    <trkpt lat="49.68041" lon="19.03711">
      <ele>1134</ele>
      <time>2026-05-07T11:07:44Z</time>
    </trkpt>
    <trkpt lat="49.680358" lon="19.037215">
      <ele>1132</ele>
      <time>2026-05-07T11:07:53Z</time>
    </trkpt>
    <trkpt lat="49.680296" lon="19.037305">
      <ele>1129</ele>
      <time>2026-05-07T11:08:02Z</time>
    </trkpt>
    <trkpt lat="49.680025" lon="19.037338">
      <ele>1125</ele>
      <time>2026-05-07T11:08:30Z</time>
    </trkpt>
    <trkpt lat="49.679889" lon="19.037418">
      <ele>1122</ele>
      <time>2026-05-07T11:08:45Z</time>
    </trkpt>
    <trkpt lat="49.679662" lon="19.037654">
      <ele>1115</ele>
      <time>2026-05-07T11:09:14Z</time>
    </trkpt>
    <trkpt lat="49.679457" lon="19.037754">
      <ele>1112</ele>
      <time>2026-05-07T11:09:36Z</time>
    </trkpt>
    <trkpt lat="49.679214" lon="19.037813">
      <ele>1106</ele>
      <time>2026-05-07T11:10:02Z</time>
    </trkpt>
    <trkpt lat="49.679087" lon="19.037847">
      <ele>1103</ele>
      <time>2026-05-07T11:10:15Z</time>
    </trkpt>
    <trkpt lat="49.678891" lon="19.037971">
      <ele>1096</ele>
      <time>2026-05-07T11:10:38Z</time>
    </trkpt>
    <trkpt lat="49.678733" lon="19.038171">
      <ele>1090</ele>
      <time>2026-05-07T11:11:00Z</time>
    </trkpt>
    <trkpt lat="49.678621" lon="19.038266">
      <ele>1087</ele>
      <time>2026-05-07T11:11:13Z</time>
    </trkpt>
    <trkpt lat="49.6784" lon="19.038403">
      <ele>1081</ele>
      <time>2026-05-07T11:11:38Z</time>
    </trkpt>
    <trkpt lat="49.678234" lon="19.038556">
      <ele>1075</ele>
      <time>2026-05-07T11:11:58Z</time>
    </trkpt>
    <trkpt lat="49.678084" lon="19.038851">
      <ele>1070</ele>
      <time>2026-05-07T11:12:24Z</time>
    </trkpt>
    <trkpt lat="49.677961" lon="19.038987">
      <ele>1066</ele>
      <time>2026-05-07T11:12:40Z</time>
    </trkpt>
    <trkpt lat="49.677813" lon="19.03921">
      <ele>1060</ele>
      <time>2026-05-07T11:13:02Z</time>
    </trkpt>
    <trkpt lat="49.677676" lon="19.039454">
      <ele>1053</ele>
      <time>2026-05-07T11:13:24Z</time>
    </trkpt>
    <trkpt lat="49.677581" lon="19.039669">
      <ele>1048</ele>
      <time>2026-05-07T11:13:42Z</time>
    </trkpt>
    <trkpt lat="49.677543" lon="19.03984">
      <ele>1047</ele>
      <time>2026-05-07T11:13:54Z</time>
    </trkpt>
    <trkpt lat="49.677511" lon="19.040031">
      <ele>1045</ele>
      <time>2026-05-07T11:14:07Z</time>
    </trkpt>
    <trkpt lat="49.677567" lon="19.040361">
      <ele>1045</ele>
      <time>2026-05-07T11:14:30Z</time>
    </trkpt>
    <trkpt lat="49.677583" lon="19.040549">
      <ele>1043</ele>
      <time>2026-05-07T11:14:42Z</time>
    </trkpt>
    <trkpt lat="49.67755" lon="19.040723">
      <ele>1042</ele>
      <time>2026-05-07T11:14:54Z</time>
    </trkpt>
    <trkpt lat="49.677532" lon="19.040916">
      <ele>1041</ele>
      <time>2026-05-07T11:15:07Z</time>
    </trkpt>
    <trkpt lat="49.677489" lon="19.041208">
      <ele>1038</ele>
      <time>2026-05-07T11:15:27Z</time>
    </trkpt>
    <trkpt lat="49.677428" lon="19.041369">
      <ele>1034</ele>
      <time>2026-05-07T11:15:40Z</time>
    </trkpt>
    <trkpt lat="49.677315" lon="19.04149">
      <ele>1029</ele>
      <time>2026-05-07T11:15:55Z</time>
    </trkpt>
    <trkpt lat="49.67722" lon="19.041624">
      <ele>1025</ele>
      <time>2026-05-07T11:16:09Z</time>
    </trkpt>
    <trkpt lat="49.677102" lon="19.041906">
      <ele>1020</ele>
      <time>2026-05-07T11:16:31Z</time>
    </trkpt>
    <trkpt lat="49.677005" lon="19.042042">
      <ele>1017</ele>
      <time>2026-05-07T11:16:45Z</time>
    </trkpt>
    <trkpt lat="49.676913" lon="19.042219">
      <ele>1013</ele>
      <time>2026-05-07T11:17:00Z</time>
    </trkpt>
    <trkpt lat="49.676859" lon="19.042482">
      <ele>1009</ele>
      <time>2026-05-07T11:17:19Z</time>
    </trkpt>
    <trkpt lat="49.676638" lon="19.043003">
      <ele>999</ele>
      <time>2026-05-07T11:18:02Z</time>
    </trkpt>
    <trkpt lat="49.676515" lon="19.043451">
      <ele>991</ele>
      <time>2026-05-07T11:18:35Z</time>
    </trkpt>
    <trkpt lat="49.676354" lon="19.043837">
      <ele>984</ele>
      <time>2026-05-07T11:19:06Z</time>
    </trkpt>
    <trkpt lat="49.676073" lon="19.044422">
      <ele>970</ele>
      <time>2026-05-07T11:19:56Z</time>
    </trkpt>
    <trkpt lat="49.675743" lon="19.045226">
      <ele>961</ele>
      <time>2026-05-07T11:20:59Z</time>
    </trkpt>
    <trkpt lat="49.675588" lon="19.045706">
      <ele>955</ele>
      <time>2026-05-07T11:21:35Z</time>
    </trkpt>
    <trkpt lat="49.675408" lon="19.046256">
      <ele>946</ele>
      <time>2026-05-07T11:22:17Z</time>
    </trkpt>
    <trkpt lat="49.675271" lon="19.046608">
      <ele>942</ele>
      <time>2026-05-07T11:22:45Z</time>
    </trkpt>
    <trkpt lat="49.675141" lon="19.047018">
      <ele>936</ele>
      <time>2026-05-07T11:23:15Z</time>
    </trkpt>
    <trkpt lat="49.675099" lon="19.04727">
      <ele>935</ele>
      <time>2026-05-07T11:23:33Z</time>
    </trkpt>
    <trkpt lat="49.675029" lon="19.047552">
      <ele>933</ele>
      <time>2026-05-07T11:23:53Z</time>
    </trkpt>
    <trkpt lat="49.674891" lon="19.048045">
      <ele>930</ele>
      <time>2026-05-07T11:24:28Z</time>
    </trkpt>
    <trkpt lat="49.674766" lon="19.048421">
      <ele>930</ele>
      <time>2026-05-07T11:24:56Z</time>
    </trkpt>
    <trkpt lat="49.67455" lon="19.048944">
      <ele>930</ele>
      <time>2026-05-07T11:25:38Z</time>
    </trkpt>
    <trkpt lat="49.674373" lon="19.049485">
      <ele>932</ele>
      <time>2026-05-07T11:26:18Z</time>
    </trkpt>
    <trkpt lat="49.674231" lon="19.049743">
      <ele>932</ele>
      <time>2026-05-07T11:26:40Z</time>
    </trkpt>
    <trkpt lat="49.674101" lon="19.050095">
      <ele>931</ele>
      <time>2026-05-07T11:27:07Z</time>
    </trkpt>
    <trkpt lat="49.673941" lon="19.050709">
      <ele>927</ele>
      <time>2026-05-07T11:27:51Z</time>
    </trkpt>
    <trkpt lat="49.67382" lon="19.051174">
      <ele>923</ele>
      <time>2026-05-07T11:28:25Z</time>
    </trkpt>
    <trkpt lat="49.673575" lon="19.051832">
      <ele>913</ele>
      <time>2026-05-07T11:29:16Z</time>
    </trkpt>
    <trkpt lat="49.673426" lon="19.052179">
      <ele>909</ele>
      <time>2026-05-07T11:29:44Z</time>
    </trkpt>
    <trkpt lat="49.673202" lon="19.052651">
      <ele>901</ele>
      <time>2026-05-07T11:30:23Z</time>
    </trkpt>
    <trkpt lat="49.673044" lon="19.053206">
      <ele>888</ele>
      <time>2026-05-07T11:31:05Z</time>
    </trkpt>
    <trkpt lat="49.672936" lon="19.053541">
      <ele>884</ele>
      <time>2026-05-07T11:31:30Z</time>
    </trkpt>
    <trkpt lat="49.672839" lon="19.053742">
      <ele>882</ele>
      <time>2026-05-07T11:31:47Z</time>
    </trkpt>
    <trkpt lat="49.672783" lon="19.05419">
      <ele>878</ele>
      <time>2026-05-07T11:32:17Z</time>
    </trkpt>
    <trkpt lat="49.67275" lon="19.054633">
      <ele>870</ele>
      <time>2026-05-07T11:32:48Z</time>
    </trkpt>
    <trkpt lat="49.67278" lon="19.055022">
      <ele>864</ele>
      <time>2026-05-07T11:33:14Z</time>
    </trkpt>
    <trkpt lat="49.672745" lon="19.055252">
      <ele>861</ele>
      <time>2026-05-07T11:33:30Z</time>
    </trkpt>
    <trkpt lat="49.672674" lon="19.05566">
      <ele>859</ele>
      <time>2026-05-07T11:33:58Z</time>
    </trkpt>
    <trkpt lat="49.672609" lon="19.056111">
      <ele>857</ele>
      <time>2026-05-07T11:34:29Z</time>
    </trkpt>
    <trkpt lat="49.672598" lon="19.056191">
      <ele>856</ele>
      <time>2026-05-07T11:34:34Z</time>
    </trkpt>
    <trkpt lat="49.672437" lon="19.056672">
      <ele>853</ele>
      <time>2026-05-07T11:35:11Z</time>
    </trkpt>
    <trkpt lat="49.671978" lon="19.057511">
      <ele>842</ele>
      <time>2026-05-07T11:36:24Z</time>
    </trkpt>
    <trkpt lat="49.671856" lon="19.057808">
      <ele>839</ele>
      <time>2026-05-07T11:36:48Z</time>
    </trkpt>
    <trkpt lat="49.671692" lon="19.058423">
      <ele>833</ele>
      <time>2026-05-07T11:37:32Z</time>
    </trkpt>
    <trkpt lat="49.671608" lon="19.05882">
      <ele>828</ele>
      <time>2026-05-07T11:38:00Z</time>
    </trkpt>
    <trkpt lat="49.671578" lon="19.059434">
      <ele>821</ele>
      <time>2026-05-07T11:38:41Z</time>
    </trkpt>
    <trkpt lat="49.671546" lon="19.05993">
      <ele>816</ele>
      <time>2026-05-07T11:39:15Z</time>
    </trkpt>
    <trkpt lat="49.671554" lon="19.060303">
      <ele>812</ele>
      <time>2026-05-07T11:39:40Z</time>
    </trkpt>
    <trkpt lat="49.671565" lon="19.060571">
      <ele>809</ele>
      <time>2026-05-07T11:39:58Z</time>
    </trkpt>
    <trkpt lat="49.671492" lon="19.060917">
      <ele>803</ele>
      <time>2026-05-07T11:40:22Z</time>
    </trkpt>
    <trkpt lat="49.67128" lon="19.061336">
      <ele>794</ele>
      <time>2026-05-07T11:40:59Z</time>
    </trkpt>
    <trkpt lat="49.671208" lon="19.061608">
      <ele>789</ele>
      <time>2026-05-07T11:41:19Z</time>
    </trkpt>
    <trkpt lat="49.671141" lon="19.061813">
      <ele>786</ele>
      <time>2026-05-07T11:41:34Z</time>
    </trkpt>
    <trkpt lat="49.671079" lon="19.062095">
      <ele>780</ele>
      <time>2026-05-07T11:41:55Z</time>
    </trkpt>
    <trkpt lat="49.671042" lon="19.062341">
      <ele>775</ele>
      <time>2026-05-07T11:42:12Z</time>
    </trkpt>
    <trkpt lat="49.671046" lon="19.062698">
      <ele>769</ele>
      <time>2026-05-07T11:42:37Z</time>
    </trkpt>
    <trkpt lat="49.671004" lon="19.06313">
      <ele>761</ele>
      <time>2026-05-07T11:43:06Z</time>
    </trkpt>
    <trkpt lat="49.670796" lon="19.064181">
      <ele>752</ele>
      <time>2026-05-07T11:44:20Z</time>
    </trkpt>
    <trkpt lat="49.67071" lon="19.064748">
      <ele>747</ele>
      <time>2026-05-07T11:44:59Z</time>
    </trkpt>
    <trkpt lat="49.67062" lon="19.065498">
      <ele>737</ele>
      <time>2026-05-07T11:45:50Z</time>
    </trkpt>
    <trkpt lat="49.670605" lon="19.066751">
      <ele>722</ele>
      <time>2026-05-07T11:47:14Z</time>
    </trkpt>
    <trkpt lat="49.670503" lon="19.067615">
      <ele>713</ele>
      <time>2026-05-07T11:48:13Z</time>
    </trkpt>
    <trkpt lat="49.670487" lon="19.067843">
      <ele>712</ele>
      <time>2026-05-07T11:48:28Z</time>
    </trkpt>
    <trkpt lat="49.670447" lon="19.068457">
      <ele>708</ele>
      <time>2026-05-07T11:49:09Z</time>
    </trkpt>
    <trkpt lat="49.670397" lon="19.068913">
      <ele>706</ele>
      <time>2026-05-07T11:49:40Z</time>
    </trkpt>
    <trkpt lat="49.67032" lon="19.069449">
      <ele>706</ele>
      <time>2026-05-07T11:50:16Z</time>
    </trkpt>
    <trkpt lat="49.670185" lon="19.069986">
      <ele>703</ele>
      <time>2026-05-07T11:50:55Z</time>
    </trkpt>
    <trkpt lat="49.670126" lon="19.07035">
      <ele>698</ele>
      <time>2026-05-07T11:51:20Z</time>
    </trkpt>
    <trkpt lat="49.670109" lon="19.07067">
      <ele>695</ele>
      <time>2026-05-07T11:51:42Z</time>
    </trkpt>
    <trkpt lat="49.670075" lon="19.070989">
      <ele>691</ele>
      <time>2026-05-07T11:52:03Z</time>
    </trkpt>
    <trkpt lat="49.670004" lon="19.07122">
      <ele>689</ele>
      <time>2026-05-07T11:52:20Z</time>
    </trkpt>
    <trkpt lat="49.669815" lon="19.071448">
      <ele>682</ele>
      <time>2026-05-07T11:52:46Z</time>
    </trkpt>
    <trkpt lat="49.669683" lon="19.071649">
      <ele>677</ele>
      <time>2026-05-07T11:53:05Z</time>
    </trkpt>
    <trkpt lat="49.6696" lon="19.071869">
      <ele>674</ele>
      <time>2026-05-07T11:53:22Z</time>
    </trkpt>
    <trkpt lat="49.669518" lon="19.072174">
      <ele>669</ele>
      <time>2026-05-07T11:53:45Z</time>
    </trkpt>
    <trkpt lat="49.669421" lon="19.07237">
      <ele>665</ele>
      <time>2026-05-07T11:54:02Z</time>
    </trkpt>
    <trkpt lat="49.669336" lon="19.072486">
      <ele>662</ele>
      <time>2026-05-07T11:54:14Z</time>
    </trkpt>
    <trkpt lat="49.669209" lon="19.072786">
      <ele>656</ele>
      <time>2026-05-07T11:54:38Z</time>
    </trkpt>
    <trkpt lat="49.669161" lon="19.073105">
      <ele>651</ele>
      <time>2026-05-07T11:55:00Z</time>
    </trkpt>
    <trkpt lat="49.669056" lon="19.073481">
      <ele>645</ele>
      <time>2026-05-07T11:55:28Z</time>
    </trkpt>
    <trkpt lat="49.668635" lon="19.074832">
      <ele>607</ele>
      <time>2026-05-07T11:57:13Z</time>
    </trkpt>
    <trkpt lat="49.668517" lon="19.074993">
      <ele>600</ele>
      <time>2026-05-07T11:57:31Z</time>
    </trkpt>
    <trkpt lat="49.66834" lon="19.075211">
      <ele>588</ele>
      <time>2026-05-07T11:57:56Z</time>
    </trkpt>
    <trkpt lat="49.667973" lon="19.075801">
      <ele>569</ele>
      <time>2026-05-07T11:58:53Z</time>
    </trkpt>
    <trkpt lat="49.667678" lon="19.076458">
      <ele>554</ele>
      <time>2026-05-07T11:59:48Z</time>
    </trkpt>
    <trkpt lat="49.667626" lon="19.076648">
      <ele>550</ele>
      <time>2026-05-07T12:00:02Z</time>
    </trkpt>
    <trkpt lat="49.667544" lon="19.07674">
      <ele>546</ele>
      <time>2026-05-07T12:00:13Z</time>
    </trkpt>
    <trkpt lat="49.667427" lon="19.076837">
      <ele>542</ele>
      <time>2026-05-07T12:00:27Z</time>
    </trkpt>
    <trkpt lat="49.667348" lon="19.076898">
      <ele>540</ele>
      <time>2026-05-07T12:00:37Z</time>
    </trkpt>
    <trkpt lat="49.667251" lon="19.076941">
      <ele>538</ele>
      <time>2026-05-07T12:00:47Z</time>
    </trkpt>
    <trkpt lat="49.667062" lon="19.076962">
      <ele>535</ele>
      <time>2026-05-07T12:01:07Z</time>
    </trkpt>
    <trkpt lat="49.666921" lon="19.076938">
      <ele>533</ele>
      <time>2026-05-07T12:01:21Z</time>
    </trkpt>
    <trkpt lat="49.66664" lon="19.076916">
      <ele>529</ele>
      <time>2026-05-07T12:01:50Z</time>
    </trkpt>
    <trkpt lat="49.666562" lon="19.076275">
      <ele>533</ele>
      <time>2026-05-07T12:02:34Z</time>
    </trkpt>
    <trkpt lat="49.666549" lon="19.076088">
      <ele>534</ele>
      <time>2026-05-07T12:02:46Z</time>
    </trkpt>
    <trkpt lat="49.666522" lon="19.075643">
      <ele>537</ele>
      <time>2026-05-07T12:03:16Z</time>
    </trkpt>
  </trkseg>
</trk>
</gpx>