<?xml version="1.0" encoding="UTF-8"?><gpx creator="https://mapa-turystyczna.pl" xmlns="http://www.topografix.com/GPX/1/1" version="1.1" xmlns:xsi="http://www.w3.org/2001/XMLSchema-instance" xsi:schemaLocation="http://www.topografix.com/GPX/1/1 http://www.topografix.com/GPX/1/1/gpx.xsd">
  <metadata>
    <link href="https://mapa-turystyczna.pl">
      <text>mapa-turystyczna.pl</text>
    </link>
    <time>2026-05-07T08:43:35Z</time>
    <bounds maxlat="50.476046" maxlon="16.755845" minlat="50.451657" minlon="16.736357"/>
  </metadata>

<trk>
  <name>Trasa przez: Pod Kłodzką Górą</name>
  <link href="https://mapa-turystyczna.pl/route/52it">
    <text>Trasa przez: Pod Kłodzką Górą</text>
  </link>
  <trkseg>
    <trkpt lat="50.476046" lon="16.7364204">
      <ele>592</ele>
      <time>2026-05-07T08:43:35Z</time>
    </trkpt>
    <trkpt lat="50.475951" lon="16.736418">
      <ele>592</ele>
      <time>2026-05-07T08:43:49Z</time>
    </trkpt>
    <trkpt lat="50.47591" lon="16.736401">
      <ele>592</ele>
      <time>2026-05-07T08:43:55Z</time>
    </trkpt>
    <trkpt lat="50.475826" lon="16.736371">
      <ele>591</ele>
      <time>2026-05-07T08:44:08Z</time>
    </trkpt>
    <trkpt lat="50.475767" lon="16.736357">
      <ele>591</ele>
      <time>2026-05-07T08:44:16Z</time>
    </trkpt>
    <trkpt lat="50.475695" lon="16.736401">
      <ele>592</ele>
      <time>2026-05-07T08:44:28Z</time>
    </trkpt>
    <trkpt lat="50.475609" lon="16.736453">
      <ele>592</ele>
      <time>2026-05-07T08:44:41Z</time>
    </trkpt>
    <trkpt lat="50.475537" lon="16.736585">
      <ele>594</ele>
      <time>2026-05-07T08:44:57Z</time>
    </trkpt>
    <trkpt lat="50.475443" lon="16.736896">
      <ele>596</ele>
      <time>2026-05-07T08:45:30Z</time>
    </trkpt>
    <trkpt lat="50.475301" lon="16.737143">
      <ele>600</ele>
      <time>2026-05-07T08:46:01Z</time>
    </trkpt>
    <trkpt lat="50.475064" lon="16.737467">
      <ele>606</ele>
      <time>2026-05-07T08:46:47Z</time>
    </trkpt>
    <trkpt lat="50.474721" lon="16.737985">
      <ele>615</ele>
      <time>2026-05-07T08:47:58Z</time>
    </trkpt>
    <trkpt lat="50.474635" lon="16.738191">
      <ele>616</ele>
      <time>2026-05-07T08:48:21Z</time>
    </trkpt>
    <trkpt lat="50.474564" lon="16.738526">
      <ele>616</ele>
      <time>2026-05-07T08:48:54Z</time>
    </trkpt>
    <trkpt lat="50.47451" lon="16.738686">
      <ele>616</ele>
      <time>2026-05-07T08:49:10Z</time>
    </trkpt>
    <trkpt lat="50.474386" lon="16.738811">
      <ele>618</ele>
      <time>2026-05-07T08:49:32Z</time>
    </trkpt>
    <trkpt lat="50.473944" lon="16.739149">
      <ele>623</ele>
      <time>2026-05-07T08:50:44Z</time>
    </trkpt>
    <trkpt lat="50.473801" lon="16.739233">
      <ele>624</ele>
      <time>2026-05-07T08:51:06Z</time>
    </trkpt>
    <trkpt lat="50.473693" lon="16.739259">
      <ele>625</ele>
      <time>2026-05-07T08:51:22Z</time>
    </trkpt>
    <trkpt lat="50.473558" lon="16.73932">
      <ele>627</ele>
      <time>2026-05-07T08:51:43Z</time>
    </trkpt>
    <trkpt lat="50.473411" lon="16.739339">
      <ele>630</ele>
      <time>2026-05-07T08:52:05Z</time>
    </trkpt>
    <trkpt lat="50.473128" lon="16.739304">
      <ele>633</ele>
      <time>2026-05-07T08:52:46Z</time>
    </trkpt>
    <trkpt lat="50.472985" lon="16.739302">
      <ele>635</ele>
      <time>2026-05-07T08:53:07Z</time>
    </trkpt>
    <trkpt lat="50.47288" lon="16.739329">
      <ele>637</ele>
      <time>2026-05-07T08:53:23Z</time>
    </trkpt>
    <trkpt lat="50.472739" lon="16.739428">
      <ele>640</ele>
      <time>2026-05-07T08:53:46Z</time>
    </trkpt>
    <trkpt lat="50.472667" lon="16.73957">
      <ele>642</ele>
      <time>2026-05-07T08:54:03Z</time>
    </trkpt>
    <trkpt lat="50.472358" lon="16.740308">
      <ele>643</ele>
      <time>2026-05-07T08:55:25Z</time>
    </trkpt>
    <trkpt lat="50.472071" lon="16.740713">
      <ele>642</ele>
      <time>2026-05-07T08:56:21Z</time>
    </trkpt>
    <trkpt lat="50.471489" lon="16.741426">
      <ele>652</ele>
      <time>2026-05-07T08:58:10Z</time>
    </trkpt>
    <trkpt lat="50.471348" lon="16.741584">
      <ele>655</ele>
      <time>2026-05-07T08:58:36Z</time>
    </trkpt>
    <trkpt lat="50.471257" lon="16.741716">
      <ele>658</ele>
      <time>2026-05-07T08:58:54Z</time>
    </trkpt>
    <trkpt lat="50.471178" lon="16.741871">
      <ele>661</ele>
      <time>2026-05-07T08:59:13Z</time>
    </trkpt>
    <trkpt lat="50.47109" lon="16.742019">
      <ele>664</ele>
      <time>2026-05-07T08:59:32Z</time>
    </trkpt>
    <trkpt lat="50.470996" lon="16.742134">
      <ele>667</ele>
      <time>2026-05-07T08:59:50Z</time>
    </trkpt>
    <trkpt lat="50.470712" lon="16.742365">
      <ele>671</ele>
      <time>2026-05-07T09:00:37Z</time>
    </trkpt>
    <trkpt lat="50.470344" lon="16.742802">
      <ele>672</ele>
      <time>2026-05-07T09:01:44Z</time>
    </trkpt>
    <trkpt lat="50.470074" lon="16.743129">
      <ele>671</ele>
      <time>2026-05-07T09:02:34Z</time>
    </trkpt>
    <trkpt lat="50.469924" lon="16.743226">
      <ele>671</ele>
      <time>2026-05-07T09:02:58Z</time>
    </trkpt>
    <trkpt lat="50.469645" lon="16.743325">
      <ele>673</ele>
      <time>2026-05-07T09:03:39Z</time>
    </trkpt>
    <trkpt lat="50.469485" lon="16.743419">
      <ele>673</ele>
      <time>2026-05-07T09:04:04Z</time>
    </trkpt>
    <trkpt lat="50.469003" lon="16.743762">
      <ele>672</ele>
      <time>2026-05-07T09:05:22Z</time>
    </trkpt>
    <trkpt lat="50.468857" lon="16.743963">
      <ele>673</ele>
      <time>2026-05-07T09:05:50Z</time>
    </trkpt>
    <trkpt lat="50.468735" lon="16.744119">
      <ele>673</ele>
      <time>2026-05-07T09:06:13Z</time>
    </trkpt>
    <trkpt lat="50.468626" lon="16.74421">
      <ele>673</ele>
      <time>2026-05-07T09:06:31Z</time>
    </trkpt>
    <trkpt lat="50.468461" lon="16.744323">
      <ele>674</ele>
      <time>2026-05-07T09:06:57Z</time>
    </trkpt>
    <trkpt lat="50.468351" lon="16.744449">
      <ele>676</ele>
      <time>2026-05-07T09:07:17Z</time>
    </trkpt>
    <trkpt lat="50.468278" lon="16.744612">
      <ele>678</ele>
      <time>2026-05-07T09:07:36Z</time>
    </trkpt>
    <trkpt lat="50.468202" lon="16.744872">
      <ele>682</ele>
      <time>2026-05-07T09:08:03Z</time>
    </trkpt>
    <trkpt lat="50.468152" lon="16.745007">
      <ele>685</ele>
      <time>2026-05-07T09:08:18Z</time>
    </trkpt>
    <trkpt lat="50.468071" lon="16.745093">
      <ele>686</ele>
      <time>2026-05-07T09:08:32Z</time>
    </trkpt>
    <trkpt lat="50.467913" lon="16.745134">
      <ele>689</ele>
      <time>2026-05-07T09:08:56Z</time>
    </trkpt>
    <trkpt lat="50.467781" lon="16.74517">
      <ele>692</ele>
      <time>2026-05-07T09:09:16Z</time>
    </trkpt>
    <trkpt lat="50.467685" lon="16.745224">
      <ele>695</ele>
      <time>2026-05-07T09:09:31Z</time>
    </trkpt>
    <trkpt lat="50.467387" lon="16.745256">
      <ele>704</ele>
      <time>2026-05-07T09:10:16Z</time>
    </trkpt>
    <trkpt lat="50.466945" lon="16.745417">
      <ele>721</ele>
      <time>2026-05-07T09:11:26Z</time>
    </trkpt>
    <trkpt lat="50.466465" lon="16.745608">
      <ele>740</ele>
      <time>2026-05-07T09:12:43Z</time>
    </trkpt>
    <trkpt lat="50.466369" lon="16.745664">
      <ele>743</ele>
      <time>2026-05-07T09:12:58Z</time>
    </trkpt>
    <trkpt lat="50.466284" lon="16.745677">
      <ele>745</ele>
      <time>2026-05-07T09:13:11Z</time>
    </trkpt>
    <trkpt lat="50.466193" lon="16.745701">
      <ele>746</ele>
      <time>2026-05-07T09:13:25Z</time>
    </trkpt>
    <trkpt lat="50.466111" lon="16.745768">
      <ele>748</ele>
      <time>2026-05-07T09:13:38Z</time>
    </trkpt>
    <trkpt lat="50.466052" lon="16.745905">
      <ele>748</ele>
      <time>2026-05-07T09:13:54Z</time>
    </trkpt>
    <trkpt lat="50.465978" lon="16.745959">
      <ele>747</ele>
      <time>2026-05-07T09:14:06Z</time>
    </trkpt>
    <trkpt lat="50.465908" lon="16.745948">
      <ele>746</ele>
      <time>2026-05-07T09:14:16Z</time>
    </trkpt>
    <trkpt lat="50.465807" lon="16.745901">
      <ele>745</ele>
      <time>2026-05-07T09:14:31Z</time>
    </trkpt>
    <trkpt lat="50.465702" lon="16.745857">
      <ele>743</ele>
      <time>2026-05-07T09:14:47Z</time>
    </trkpt>
    <trkpt lat="50.465529" lon="16.745835">
      <ele>739</ele>
      <time>2026-05-07T09:15:13Z</time>
    </trkpt>
    <trkpt lat="50.465311" lon="16.745846">
      <ele>735</ele>
      <time>2026-05-07T09:15:46Z</time>
    </trkpt>
    <trkpt lat="50.465125" lon="16.745889">
      <ele>729</ele>
      <time>2026-05-07T09:16:14Z</time>
    </trkpt>
    <trkpt lat="50.46501" lon="16.745911">
      <ele>726</ele>
      <time>2026-05-07T09:16:31Z</time>
    </trkpt>
    <trkpt lat="50.464899" lon="16.745913">
      <ele>723</ele>
      <time>2026-05-07T09:16:48Z</time>
    </trkpt>
    <trkpt lat="50.464799" lon="16.745927">
      <ele>721</ele>
      <time>2026-05-07T09:17:03Z</time>
    </trkpt>
    <trkpt lat="50.464636" lon="16.746015">
      <ele>719</ele>
      <time>2026-05-07T09:17:28Z</time>
    </trkpt>
    <trkpt lat="50.464124" lon="16.7463">
      <ele>724</ele>
      <time>2026-05-07T09:18:48Z</time>
    </trkpt>
    <trkpt lat="50.463878" lon="16.746468">
      <ele>730</ele>
      <time>2026-05-07T09:19:27Z</time>
    </trkpt>
    <trkpt lat="50.463479" lon="16.746906">
      <ele>735</ele>
      <time>2026-05-07T09:20:39Z</time>
    </trkpt>
    <trkpt lat="50.46278" lon="16.74782">
      <ele>741</ele>
      <time>2026-05-07T09:22:52Z</time>
    </trkpt>
    <trkpt lat="50.462331" lon="16.748367">
      <ele>743</ele>
      <time>2026-05-07T09:24:15Z</time>
    </trkpt>
    <trkpt lat="50.461832" lon="16.749239">
      <ele>740</ele>
      <time>2026-05-07T09:26:04Z</time>
    </trkpt>
    <trkpt lat="50.461681" lon="16.749537">
      <ele>736</ele>
      <time>2026-05-07T09:26:39Z</time>
    </trkpt>
    <trkpt lat="50.461353" lon="16.750068">
      <ele>726</ele>
      <time>2026-05-07T09:27:49Z</time>
    </trkpt>
    <trkpt lat="50.461233" lon="16.750207">
      <ele>723</ele>
      <time>2026-05-07T09:28:11Z</time>
    </trkpt>
    <trkpt lat="50.461027" lon="16.750398">
      <ele>720</ele>
      <time>2026-05-07T09:28:47Z</time>
    </trkpt>
    <trkpt lat="50.460935" lon="16.750513">
      <ele>719</ele>
      <time>2026-05-07T09:29:04Z</time>
    </trkpt>
    <trkpt lat="50.460849" lon="16.750647">
      <ele>717</ele>
      <time>2026-05-07T09:29:22Z</time>
    </trkpt>
    <trkpt lat="50.460755" lon="16.750843">
      <ele>715</ele>
      <time>2026-05-07T09:29:45Z</time>
    </trkpt>
    <trkpt lat="50.460569" lon="16.751299">
      <ele>712</ele>
      <time>2026-05-07T09:30:35Z</time>
    </trkpt>
    <trkpt lat="50.460438" lon="16.751592">
      <ele>712</ele>
      <time>2026-05-07T09:31:08Z</time>
    </trkpt>
    <trkpt lat="50.460135" lon="16.752085">
      <ele>713</ele>
      <time>2026-05-07T09:32:12Z</time>
    </trkpt>
    <trkpt lat="50.459878" lon="16.752418">
      <ele>711</ele>
      <time>2026-05-07T09:33:01Z</time>
    </trkpt>
    <trkpt lat="50.459693" lon="16.752651">
      <ele>710</ele>
      <time>2026-05-07T09:33:35Z</time>
    </trkpt>
    <trkpt lat="50.459546" lon="16.752756">
      <ele>709</ele>
      <time>2026-05-07T09:33:59Z</time>
    </trkpt>
    <trkpt lat="50.459102" lon="16.752935">
      <ele>708</ele>
      <time>2026-05-07T09:35:06Z</time>
    </trkpt>
    <trkpt lat="50.458956" lon="16.75297">
      <ele>710</ele>
      <time>2026-05-07T09:35:27Z</time>
    </trkpt>
    <trkpt lat="50.458751" lon="16.753013">
      <ele>711</ele>
      <time>2026-05-07T09:35:58Z</time>
    </trkpt>
    <trkpt lat="50.458658" lon="16.753061">
      <ele>712</ele>
      <time>2026-05-07T09:36:12Z</time>
    </trkpt>
    <trkpt lat="50.458522" lon="16.753147">
      <ele>711</ele>
      <time>2026-05-07T09:36:33Z</time>
    </trkpt>
    <trkpt lat="50.45826" lon="16.75319">
      <ele>712</ele>
      <time>2026-05-07T09:37:12Z</time>
    </trkpt>
    <trkpt lat="50.458139" lon="16.753249">
      <ele>711</ele>
      <time>2026-05-07T09:37:30Z</time>
    </trkpt>
    <trkpt lat="50.457968" lon="16.753399">
      <ele>710</ele>
      <time>2026-05-07T09:37:59Z</time>
    </trkpt>
    <trkpt lat="50.457839" lon="16.753576">
      <ele>709</ele>
      <time>2026-05-07T09:38:24Z</time>
    </trkpt>
    <trkpt lat="50.45774" lon="16.75377">
      <ele>710</ele>
      <time>2026-05-07T09:38:47Z</time>
    </trkpt>
    <trkpt lat="50.457571" lon="16.753941">
      <ele>712</ele>
      <time>2026-05-07T09:39:17Z</time>
    </trkpt>
    <trkpt lat="50.457383" lon="16.754142">
      <ele>712</ele>
      <time>2026-05-07T09:39:50Z</time>
    </trkpt>
    <trkpt lat="50.457152" lon="16.75433">
      <ele>712</ele>
      <time>2026-05-07T09:40:28Z</time>
    </trkpt>
    <trkpt lat="50.456867" lon="16.754534">
      <ele>713</ele>
      <time>2026-05-07T09:41:14Z</time>
    </trkpt>
    <trkpt lat="50.456693" lon="16.754655">
      <ele>713</ele>
      <time>2026-05-07T09:41:41Z</time>
    </trkpt>
    <trkpt lat="50.456346" lon="16.754977">
      <ele>713</ele>
      <time>2026-05-07T09:42:40Z</time>
    </trkpt>
    <trkpt lat="50.456185" lon="16.75504">
      <ele>715</ele>
      <time>2026-05-07T09:43:05Z</time>
    </trkpt>
    <trkpt lat="50.455996" lon="16.755199">
      <ele>718</ele>
      <time>2026-05-07T09:43:36Z</time>
    </trkpt>
    <trkpt lat="50.455709" lon="16.755476">
      <ele>724</ele>
      <time>2026-05-07T09:44:26Z</time>
    </trkpt>
    <trkpt lat="50.45548" lon="16.755599">
      <ele>729</ele>
      <time>2026-05-07T09:45:02Z</time>
    </trkpt>
    <trkpt lat="50.455222" lon="16.755671">
      <ele>733</ele>
      <time>2026-05-07T09:45:41Z</time>
    </trkpt>
    <trkpt lat="50.454886" lon="16.755697">
      <ele>740</ele>
      <time>2026-05-07T09:46:30Z</time>
    </trkpt>
    <trkpt lat="50.454685" lon="16.755738">
      <ele>744</ele>
      <time>2026-05-07T09:47:00Z</time>
    </trkpt>
    <trkpt lat="50.454373" lon="16.755845">
      <ele>748</ele>
      <time>2026-05-07T09:47:47Z</time>
    </trkpt>
    <trkpt lat="50.454252" lon="16.755816">
      <ele>748</ele>
      <time>2026-05-07T09:48:05Z</time>
    </trkpt>
    <trkpt lat="50.454183" lon="16.755743">
      <ele>747</ele>
      <time>2026-05-07T09:48:18Z</time>
    </trkpt>
    <trkpt lat="50.454053" lon="16.755628">
      <ele>747</ele>
      <time>2026-05-07T09:48:39Z</time>
    </trkpt>
    <trkpt lat="50.453781" lon="16.755367">
      <ele>746</ele>
      <time>2026-05-07T09:49:26Z</time>
    </trkpt>
    <trkpt lat="50.453483" lon="16.755186">
      <ele>745</ele>
      <time>2026-05-07T09:50:12Z</time>
    </trkpt>
    <trkpt lat="50.453192" lon="16.755017">
      <ele>744</ele>
      <time>2026-05-07T09:50:58Z</time>
    </trkpt>
    <trkpt lat="50.452801" lon="16.75488">
      <ele>739</ele>
      <time>2026-05-07T09:51:57Z</time>
    </trkpt>
    <trkpt lat="50.45268" lon="16.754856">
      <ele>735</ele>
      <time>2026-05-07T09:52:15Z</time>
    </trkpt>
    <trkpt lat="50.452549" lon="16.754863">
      <ele>731</ele>
      <time>2026-05-07T09:52:35Z</time>
    </trkpt>
    <trkpt lat="50.452525" lon="16.754775">
      <ele>732</ele>
      <time>2026-05-07T09:52:46Z</time>
    </trkpt>
    <trkpt lat="50.452341" lon="16.754291">
      <ele>745</ele>
      <time>2026-05-07T09:53:51Z</time>
    </trkpt>
    <trkpt lat="50.4522" lon="16.753875">
      <ele>750</ele>
      <time>2026-05-07T09:54:43Z</time>
    </trkpt>
    <trkpt lat="50.452044" lon="16.75359">
      <ele>752</ele>
      <time>2026-05-07T09:55:25Z</time>
    </trkpt>
    <trkpt lat="50.451846" lon="16.753456">
      <ele>752</ele>
      <time>2026-05-07T09:56:02Z</time>
    </trkpt>
    <trkpt lat="50.451657" lon="16.7534148">
      <ele>752</ele>
      <time>2026-05-07T09:56:35Z</time>
    </trkpt>
    <trkpt lat="50.451846" lon="16.753456">
      <ele>752</ele>
      <time>2026-05-07T09:56:43Z</time>
    </trkpt>
    <trkpt lat="50.452044" lon="16.75359">
      <ele>752</ele>
      <time>2026-05-07T09:56:53Z</time>
    </trkpt>
    <trkpt lat="50.4522" lon="16.753875">
      <ele>750</ele>
      <time>2026-05-07T09:57:03Z</time>
    </trkpt>
    <trkpt lat="50.452341" lon="16.754291">
      <ele>745</ele>
      <time>2026-05-07T09:57:16Z</time>
    </trkpt>
    <trkpt lat="50.452525" lon="16.754775">
      <ele>732</ele>
      <time>2026-05-07T09:57:32Z</time>
    </trkpt>
    <trkpt lat="50.452549" lon="16.754863">
      <ele>731</ele>
      <time>2026-05-07T09:57:35Z</time>
    </trkpt>
    <trkpt lat="50.45268" lon="16.754856">
      <ele>735</ele>
      <time>2026-05-07T09:57:51Z</time>
    </trkpt>
    <trkpt lat="50.452801" lon="16.75488">
      <ele>739</ele>
      <time>2026-05-07T09:58:05Z</time>
    </trkpt>
    <trkpt lat="50.453192" lon="16.755017">
      <ele>744</ele>
      <time>2026-05-07T09:58:51Z</time>
    </trkpt>
    <trkpt lat="50.453483" lon="16.755186">
      <ele>745</ele>
      <time>2026-05-07T09:59:27Z</time>
    </trkpt>
    <trkpt lat="50.453781" lon="16.755367">
      <ele>746</ele>
      <time>2026-05-07T10:00:03Z</time>
    </trkpt>
    <trkpt lat="50.454053" lon="16.755628">
      <ele>747</ele>
      <time>2026-05-07T10:00:39Z</time>
    </trkpt>
    <trkpt lat="50.454183" lon="16.755743">
      <ele>747</ele>
      <time>2026-05-07T10:00:57Z</time>
    </trkpt>
    <trkpt lat="50.454252" lon="16.755816">
      <ele>748</ele>
      <time>2026-05-07T10:01:06Z</time>
    </trkpt>
    <trkpt lat="50.454373" lon="16.755845">
      <ele>748</ele>
      <time>2026-05-07T10:01:20Z</time>
    </trkpt>
    <trkpt lat="50.454685" lon="16.755738">
      <ele>744</ele>
      <time>2026-05-07T10:01:57Z</time>
    </trkpt>
    <trkpt lat="50.454886" lon="16.755697">
      <ele>740</ele>
      <time>2026-05-07T10:02:20Z</time>
    </trkpt>
    <trkpt lat="50.455222" lon="16.755671">
      <ele>733</ele>
      <time>2026-05-07T10:02:59Z</time>
    </trkpt>
    <trkpt lat="50.45548" lon="16.755599">
      <ele>729</ele>
      <time>2026-05-07T10:03:30Z</time>
    </trkpt>
    <trkpt lat="50.455709" lon="16.755476">
      <ele>724</ele>
      <time>2026-05-07T10:03:58Z</time>
    </trkpt>
    <trkpt lat="50.455996" lon="16.755199">
      <ele>718</ele>
      <time>2026-05-07T10:04:37Z</time>
    </trkpt>
    <trkpt lat="50.456185" lon="16.75504">
      <ele>715</ele>
      <time>2026-05-07T10:05:01Z</time>
    </trkpt>
    <trkpt lat="50.456346" lon="16.754977">
      <ele>713</ele>
      <time>2026-05-07T10:05:20Z</time>
    </trkpt>
    <trkpt lat="50.456693" lon="16.754655">
      <ele>713</ele>
      <time>2026-05-07T10:06:06Z</time>
    </trkpt>
    <trkpt lat="50.456867" lon="16.754534">
      <ele>713</ele>
      <time>2026-05-07T10:06:28Z</time>
    </trkpt>
    <trkpt lat="50.457152" lon="16.75433">
      <ele>712</ele>
      <time>2026-05-07T10:07:04Z</time>
    </trkpt>
    <trkpt lat="50.457383" lon="16.754142">
      <ele>712</ele>
      <time>2026-05-07T10:07:34Z</time>
    </trkpt>
    <trkpt lat="50.457571" lon="16.753941">
      <ele>712</ele>
      <time>2026-05-07T10:08:00Z</time>
    </trkpt>
    <trkpt lat="50.45774" lon="16.75377">
      <ele>710</ele>
      <time>2026-05-07T10:08:23Z</time>
    </trkpt>
    <trkpt lat="50.457839" lon="16.753576">
      <ele>709</ele>
      <time>2026-05-07T10:08:41Z</time>
    </trkpt>
    <trkpt lat="50.457968" lon="16.753399">
      <ele>710</ele>
      <time>2026-05-07T10:09:01Z</time>
    </trkpt>
    <trkpt lat="50.458139" lon="16.753249">
      <ele>711</ele>
      <time>2026-05-07T10:09:23Z</time>
    </trkpt>
    <trkpt lat="50.45826" lon="16.75319">
      <ele>712</ele>
      <time>2026-05-07T10:09:37Z</time>
    </trkpt>
    <trkpt lat="50.458522" lon="16.753147">
      <ele>711</ele>
      <time>2026-05-07T10:10:08Z</time>
    </trkpt>
    <trkpt lat="50.458658" lon="16.753061">
      <ele>712</ele>
      <time>2026-05-07T10:10:24Z</time>
    </trkpt>
    <trkpt lat="50.458751" lon="16.753013">
      <ele>711</ele>
      <time>2026-05-07T10:10:35Z</time>
    </trkpt>
    <trkpt lat="50.458956" lon="16.75297">
      <ele>710</ele>
      <time>2026-05-07T10:10:59Z</time>
    </trkpt>
    <trkpt lat="50.459102" lon="16.752935">
      <ele>708</ele>
      <time>2026-05-07T10:11:16Z</time>
    </trkpt>
    <trkpt lat="50.459546" lon="16.752756">
      <ele>709</ele>
      <time>2026-05-07T10:12:08Z</time>
    </trkpt>
    <trkpt lat="50.459693" lon="16.752651">
      <ele>710</ele>
      <time>2026-05-07T10:12:27Z</time>
    </trkpt>
    <trkpt lat="50.459878" lon="16.752418">
      <ele>711</ele>
      <time>2026-05-07T10:12:54Z</time>
    </trkpt>
    <trkpt lat="50.460135" lon="16.752085">
      <ele>713</ele>
      <time>2026-05-07T10:13:32Z</time>
    </trkpt>
    <trkpt lat="50.460438" lon="16.751592">
      <ele>712</ele>
      <time>2026-05-07T10:14:22Z</time>
    </trkpt>
    <trkpt lat="50.460569" lon="16.751299">
      <ele>712</ele>
      <time>2026-05-07T10:14:48Z</time>
    </trkpt>
    <trkpt lat="50.460755" lon="16.750843">
      <ele>715</ele>
      <time>2026-05-07T10:15:27Z</time>
    </trkpt>
    <trkpt lat="50.460849" lon="16.750647">
      <ele>717</ele>
      <time>2026-05-07T10:15:46Z</time>
    </trkpt>
    <trkpt lat="50.460935" lon="16.750513">
      <ele>719</ele>
      <time>2026-05-07T10:15:59Z</time>
    </trkpt>
    <trkpt lat="50.461027" lon="16.750398">
      <ele>720</ele>
      <time>2026-05-07T10:16:13Z</time>
    </trkpt>
    <trkpt lat="50.461233" lon="16.750207">
      <ele>723</ele>
      <time>2026-05-07T10:16:40Z</time>
    </trkpt>
    <trkpt lat="50.461353" lon="16.750068">
      <ele>726</ele>
      <time>2026-05-07T10:16:58Z</time>
    </trkpt>
    <trkpt lat="50.461681" lon="16.749537">
      <ele>736</ele>
      <time>2026-05-07T10:17:52Z</time>
    </trkpt>
    <trkpt lat="50.461832" lon="16.749239">
      <ele>740</ele>
      <time>2026-05-07T10:18:20Z</time>
    </trkpt>
    <trkpt lat="50.462331" lon="16.748367">
      <ele>743</ele>
      <time>2026-05-07T10:19:46Z</time>
    </trkpt>
    <trkpt lat="50.46278" lon="16.74782">
      <ele>741</ele>
      <time>2026-05-07T10:20:51Z</time>
    </trkpt>
    <trkpt lat="50.463479" lon="16.746906">
      <ele>735</ele>
      <time>2026-05-07T10:22:35Z</time>
    </trkpt>
    <trkpt lat="50.463878" lon="16.746468">
      <ele>730</ele>
      <time>2026-05-07T10:23:31Z</time>
    </trkpt>
    <trkpt lat="50.464124" lon="16.7463">
      <ele>724</ele>
      <time>2026-05-07T10:24:02Z</time>
    </trkpt>
    <trkpt lat="50.464636" lon="16.746015">
      <ele>719</ele>
      <time>2026-05-07T10:25:04Z</time>
    </trkpt>
    <trkpt lat="50.464799" lon="16.745927">
      <ele>721</ele>
      <time>2026-05-07T10:25:24Z</time>
    </trkpt>
    <trkpt lat="50.464899" lon="16.745913">
      <ele>723</ele>
      <time>2026-05-07T10:25:35Z</time>
    </trkpt>
    <trkpt lat="50.46501" lon="16.745911">
      <ele>726</ele>
      <time>2026-05-07T10:25:48Z</time>
    </trkpt>
    <trkpt lat="50.465125" lon="16.745889">
      <ele>729</ele>
      <time>2026-05-07T10:26:02Z</time>
    </trkpt>
    <trkpt lat="50.465311" lon="16.745846">
      <ele>735</ele>
      <time>2026-05-07T10:26:24Z</time>
    </trkpt>
    <trkpt lat="50.465529" lon="16.745835">
      <ele>739</ele>
      <time>2026-05-07T10:26:50Z</time>
    </trkpt>
    <trkpt lat="50.465702" lon="16.745857">
      <ele>743</ele>
      <time>2026-05-07T10:27:10Z</time>
    </trkpt>
    <trkpt lat="50.465807" lon="16.745901">
      <ele>745</ele>
      <time>2026-05-07T10:27:22Z</time>
    </trkpt>
    <trkpt lat="50.465908" lon="16.745948">
      <ele>746</ele>
      <time>2026-05-07T10:27:34Z</time>
    </trkpt>
    <trkpt lat="50.465978" lon="16.745959">
      <ele>747</ele>
      <time>2026-05-07T10:27:42Z</time>
    </trkpt>
    <trkpt lat="50.466052" lon="16.745905">
      <ele>748</ele>
      <time>2026-05-07T10:27:52Z</time>
    </trkpt>
    <trkpt lat="50.466111" lon="16.745768">
      <ele>748</ele>
      <time>2026-05-07T10:28:04Z</time>
    </trkpt>
    <trkpt lat="50.466193" lon="16.745701">
      <ele>746</ele>
      <time>2026-05-07T10:28:14Z</time>
    </trkpt>
    <trkpt lat="50.466284" lon="16.745677">
      <ele>745</ele>
      <time>2026-05-07T10:28:25Z</time>
    </trkpt>
    <trkpt lat="50.466369" lon="16.745664">
      <ele>743</ele>
      <time>2026-05-07T10:28:35Z</time>
    </trkpt>
    <trkpt lat="50.466465" lon="16.745608">
      <ele>740</ele>
      <time>2026-05-07T10:28:47Z</time>
    </trkpt>
    <trkpt lat="50.466945" lon="16.745417">
      <ele>721</ele>
      <time>2026-05-07T10:29:47Z</time>
    </trkpt>
    <trkpt lat="50.467387" lon="16.745256">
      <ele>704</ele>
      <time>2026-05-07T10:30:42Z</time>
    </trkpt>
    <trkpt lat="50.467685" lon="16.745224">
      <ele>695</ele>
      <time>2026-05-07T10:31:17Z</time>
    </trkpt>
    <trkpt lat="50.467781" lon="16.74517">
      <ele>692</ele>
      <time>2026-05-07T10:31:29Z</time>
    </trkpt>
    <trkpt lat="50.467913" lon="16.745134">
      <ele>689</ele>
      <time>2026-05-07T10:31:45Z</time>
    </trkpt>
    <trkpt lat="50.468071" lon="16.745093">
      <ele>686</ele>
      <time>2026-05-07T10:32:03Z</time>
    </trkpt>
    <trkpt lat="50.468152" lon="16.745007">
      <ele>685</ele>
      <time>2026-05-07T10:32:14Z</time>
    </trkpt>
    <trkpt lat="50.468202" lon="16.744872">
      <ele>682</ele>
      <time>2026-05-07T10:32:26Z</time>
    </trkpt>
    <trkpt lat="50.468278" lon="16.744612">
      <ele>678</ele>
      <time>2026-05-07T10:32:47Z</time>
    </trkpt>
    <trkpt lat="50.468351" lon="16.744449">
      <ele>676</ele>
      <time>2026-05-07T10:33:02Z</time>
    </trkpt>
    <trkpt lat="50.468461" lon="16.744323">
      <ele>674</ele>
      <time>2026-05-07T10:33:18Z</time>
    </trkpt>
    <trkpt lat="50.468626" lon="16.74421">
      <ele>673</ele>
      <time>2026-05-07T10:33:38Z</time>
    </trkpt>
    <trkpt lat="50.468735" lon="16.744119">
      <ele>673</ele>
      <time>2026-05-07T10:33:52Z</time>
    </trkpt>
    <trkpt lat="50.468857" lon="16.743963">
      <ele>673</ele>
      <time>2026-05-07T10:34:10Z</time>
    </trkpt>
    <trkpt lat="50.469003" lon="16.743762">
      <ele>672</ele>
      <time>2026-05-07T10:34:32Z</time>
    </trkpt>
    <trkpt lat="50.469485" lon="16.743419">
      <ele>673</ele>
      <time>2026-05-07T10:35:33Z</time>
    </trkpt>
    <trkpt lat="50.469645" lon="16.743325">
      <ele>673</ele>
      <time>2026-05-07T10:35:52Z</time>
    </trkpt>
    <trkpt lat="50.469924" lon="16.743226">
      <ele>671</ele>
      <time>2026-05-07T10:36:25Z</time>
    </trkpt>
    <trkpt lat="50.470074" lon="16.743129">
      <ele>671</ele>
      <time>2026-05-07T10:36:44Z</time>
    </trkpt>
    <trkpt lat="50.470344" lon="16.742802">
      <ele>672</ele>
      <time>2026-05-07T10:37:23Z</time>
    </trkpt>
    <trkpt lat="50.470712" lon="16.742365">
      <ele>671</ele>
      <time>2026-05-07T10:38:15Z</time>
    </trkpt>
    <trkpt lat="50.470996" lon="16.742134">
      <ele>667</ele>
      <time>2026-05-07T10:38:52Z</time>
    </trkpt>
    <trkpt lat="50.47109" lon="16.742019">
      <ele>664</ele>
      <time>2026-05-07T10:39:06Z</time>
    </trkpt>
    <trkpt lat="50.471178" lon="16.741871">
      <ele>661</ele>
      <time>2026-05-07T10:39:21Z</time>
    </trkpt>
    <trkpt lat="50.471257" lon="16.741716">
      <ele>658</ele>
      <time>2026-05-07T10:39:36Z</time>
    </trkpt>
    <trkpt lat="50.471348" lon="16.741584">
      <ele>655</ele>
      <time>2026-05-07T10:39:50Z</time>
    </trkpt>
    <trkpt lat="50.471489" lon="16.741426">
      <ele>652</ele>
      <time>2026-05-07T10:40:10Z</time>
    </trkpt>
    <trkpt lat="50.472071" lon="16.740713">
      <ele>642</ele>
      <time>2026-05-07T10:41:35Z</time>
    </trkpt>
    <trkpt lat="50.472358" lon="16.740308">
      <ele>643</ele>
      <time>2026-05-07T10:42:19Z</time>
    </trkpt>
    <trkpt lat="50.472667" lon="16.73957">
      <ele>642</ele>
      <time>2026-05-07T10:43:23Z</time>
    </trkpt>
    <trkpt lat="50.472739" lon="16.739428">
      <ele>640</ele>
      <time>2026-05-07T10:43:37Z</time>
    </trkpt>
    <trkpt lat="50.47288" lon="16.739329">
      <ele>637</ele>
      <time>2026-05-07T10:43:55Z</time>
    </trkpt>
    <trkpt lat="50.472985" lon="16.739302">
      <ele>635</ele>
      <time>2026-05-07T10:44:07Z</time>
    </trkpt>
    <trkpt lat="50.473128" lon="16.739304">
      <ele>633</ele>
      <time>2026-05-07T10:44:23Z</time>
    </trkpt>
    <trkpt lat="50.473411" lon="16.739339">
      <ele>630</ele>
      <time>2026-05-07T10:44:56Z</time>
    </trkpt>
    <trkpt lat="50.473558" lon="16.73932">
      <ele>627</ele>
      <time>2026-05-07T10:45:13Z</time>
    </trkpt>
    <trkpt lat="50.473693" lon="16.739259">
      <ele>625</ele>
      <time>2026-05-07T10:45:29Z</time>
    </trkpt>
    <trkpt lat="50.473801" lon="16.739233">
      <ele>624</ele>
      <time>2026-05-07T10:45:42Z</time>
    </trkpt>
    <trkpt lat="50.473944" lon="16.739149">
      <ele>623</ele>
      <time>2026-05-07T10:45:59Z</time>
    </trkpt>
    <trkpt lat="50.474386" lon="16.738811">
      <ele>618</ele>
      <time>2026-05-07T10:46:56Z</time>
    </trkpt>
    <trkpt lat="50.47451" lon="16.738686">
      <ele>616</ele>
      <time>2026-05-07T10:47:13Z</time>
    </trkpt>
    <trkpt lat="50.474564" lon="16.738526">
      <ele>616</ele>
      <time>2026-05-07T10:47:26Z</time>
    </trkpt>
    <trkpt lat="50.474635" lon="16.738191">
      <ele>616</ele>
      <time>2026-05-07T10:47:51Z</time>
    </trkpt>
    <trkpt lat="50.474721" lon="16.737985">
      <ele>615</ele>
      <time>2026-05-07T10:48:09Z</time>
    </trkpt>
    <trkpt lat="50.475064" lon="16.737467">
      <ele>606</ele>
      <time>2026-05-07T10:49:04Z</time>
    </trkpt>
    <trkpt lat="50.475301" lon="16.737143">
      <ele>600</ele>
      <time>2026-05-07T10:49:41Z</time>
    </trkpt>
    <trkpt lat="50.475443" lon="16.736896">
      <ele>596</ele>
      <time>2026-05-07T10:50:05Z</time>
    </trkpt>
    <trkpt lat="50.475537" lon="16.736585">
      <ele>594</ele>
      <time>2026-05-07T10:50:31Z</time>
    </trkpt>
    <trkpt lat="50.475609" lon="16.736453">
      <ele>592</ele>
      <time>2026-05-07T10:50:43Z</time>
    </trkpt>
    <trkpt lat="50.475695" lon="16.736401">
      <ele>592</ele>
      <time>2026-05-07T10:50:54Z</time>
    </trkpt>
    <trkpt lat="50.475767" lon="16.736357">
      <ele>591</ele>
      <time>2026-05-07T10:51:03Z</time>
    </trkpt>
    <trkpt lat="50.475826" lon="16.736371">
      <ele>591</ele>
      <time>2026-05-07T10:51:09Z</time>
    </trkpt>
    <trkpt lat="50.47591" lon="16.736401">
      <ele>592</ele>
      <time>2026-05-07T10:51:19Z</time>
    </trkpt>
    <trkpt lat="50.475951" lon="16.736418">
      <ele>592</ele>
      <time>2026-05-07T10:51:24Z</time>
    </trkpt>
    <trkpt lat="50.476046" lon="16.7364204">
      <ele>592</ele>
      <time>2026-05-07T10:51:35Z</time>
    </trkpt>
  </trkseg>
</trk>
</gpx>