<?xml version="1.0" encoding="UTF-8"?><gpx creator="https://mapa-turystyczna.pl" xmlns="http://www.topografix.com/GPX/1/1" version="1.1" xmlns:xsi="http://www.w3.org/2001/XMLSchema-instance" xsi:schemaLocation="http://www.topografix.com/GPX/1/1 http://www.topografix.com/GPX/1/1/gpx.xsd">
  <metadata>
    <link href="https://mapa-turystyczna.pl">
      <text>mapa-turystyczna.pl</text>
    </link>
    <time>2026-05-07T08:43:35Z</time>
    <bounds maxlat="50.452549" maxlon="16.764934" minlat="50.43137" minlon="16.7534115"/>
  </metadata>

<trk>
  <name>Przełęcz Kłodzka – Przełęcz Kłodzka</name>
  <link href="https://mapa-turystyczna.pl/route/dtd5">
    <text>Przełęcz Kłodzka – Przełęcz Kłodzka</text>
  </link>
  <trkseg>
    <trkpt lat="50.43137" lon="16.764934">
      <ele>486</ele>
      <time>2026-05-07T08:43:35Z</time>
    </trkpt>
    <trkpt lat="50.431457" lon="16.764911">
      <ele>488</ele>
      <time>2026-05-07T08:43:50Z</time>
    </trkpt>
    <trkpt lat="50.431597" lon="16.764906">
      <ele>489</ele>
      <time>2026-05-07T08:44:13Z</time>
    </trkpt>
    <trkpt lat="50.431789" lon="16.764913">
      <ele>492</ele>
      <time>2026-05-07T08:44:46Z</time>
    </trkpt>
    <trkpt lat="50.431852" lon="16.764702">
      <ele>494</ele>
      <time>2026-05-07T08:45:11Z</time>
    </trkpt>
    <trkpt lat="50.431946" lon="16.764557">
      <ele>496</ele>
      <time>2026-05-07T08:45:33Z</time>
    </trkpt>
    <trkpt lat="50.432052" lon="16.764447">
      <ele>497</ele>
      <time>2026-05-07T08:45:54Z</time>
    </trkpt>
    <trkpt lat="50.432174" lon="16.764341">
      <ele>498</ele>
      <time>2026-05-07T08:46:18Z</time>
    </trkpt>
    <trkpt lat="50.432475" lon="16.764077">
      <ele>503</ele>
      <time>2026-05-07T08:47:16Z</time>
    </trkpt>
    <trkpt lat="50.432583" lon="16.763983">
      <ele>506</ele>
      <time>2026-05-07T08:47:37Z</time>
    </trkpt>
    <trkpt lat="50.432654" lon="16.763872">
      <ele>508</ele>
      <time>2026-05-07T08:47:54Z</time>
    </trkpt>
    <trkpt lat="50.432687" lon="16.76382">
      <ele>510</ele>
      <time>2026-05-07T08:48:02Z</time>
    </trkpt>
    <trkpt lat="50.432776" lon="16.763656">
      <ele>513</ele>
      <time>2026-05-07T08:48:26Z</time>
    </trkpt>
    <trkpt lat="50.432831" lon="16.763519">
      <ele>514</ele>
      <time>2026-05-07T08:48:43Z</time>
    </trkpt>
    <trkpt lat="50.432959" lon="16.763305">
      <ele>518</ele>
      <time>2026-05-07T08:49:15Z</time>
    </trkpt>
    <trkpt lat="50.43318" lon="16.76285">
      <ele>523</ele>
      <time>2026-05-07T08:50:16Z</time>
    </trkpt>
    <trkpt lat="50.433436" lon="16.762709">
      <ele>531</ele>
      <time>2026-05-07T08:51:03Z</time>
    </trkpt>
    <trkpt lat="50.433608" lon="16.762614">
      <ele>538</ele>
      <time>2026-05-07T08:51:35Z</time>
    </trkpt>
    <trkpt lat="50.433985" lon="16.762343">
      <ele>556</ele>
      <time>2026-05-07T08:52:50Z</time>
    </trkpt>
    <trkpt lat="50.434843" lon="16.761759">
      <ele>598</ele>
      <time>2026-05-07T08:55:38Z</time>
    </trkpt>
    <trkpt lat="50.434984" lon="16.761567">
      <ele>603</ele>
      <time>2026-05-07T08:56:11Z</time>
    </trkpt>
    <trkpt lat="50.435136" lon="16.761426">
      <ele>607</ele>
      <time>2026-05-07T08:56:41Z</time>
    </trkpt>
    <trkpt lat="50.435308" lon="16.761328">
      <ele>611</ele>
      <time>2026-05-07T08:57:12Z</time>
    </trkpt>
    <trkpt lat="50.435722" lon="16.761181">
      <ele>613</ele>
      <time>2026-05-07T08:58:23Z</time>
    </trkpt>
    <trkpt lat="50.435913" lon="16.761113">
      <ele>612</ele>
      <time>2026-05-07T08:58:56Z</time>
    </trkpt>
    <trkpt lat="50.436134" lon="16.76098">
      <ele>607</ele>
      <time>2026-05-07T08:59:36Z</time>
    </trkpt>
    <trkpt lat="50.436335" lon="16.7607">
      <ele>601</ele>
      <time>2026-05-07T09:00:22Z</time>
    </trkpt>
    <trkpt lat="50.436424" lon="16.760644">
      <ele>600</ele>
      <time>2026-05-07T09:00:38Z</time>
    </trkpt>
    <trkpt lat="50.436562" lon="16.760647">
      <ele>599</ele>
      <time>2026-05-07T09:01:01Z</time>
    </trkpt>
    <trkpt lat="50.436665" lon="16.760708">
      <ele>599</ele>
      <time>2026-05-07T09:01:20Z</time>
    </trkpt>
    <trkpt lat="50.436753" lon="16.760794">
      <ele>599</ele>
      <time>2026-05-07T09:01:37Z</time>
    </trkpt>
    <trkpt lat="50.436839" lon="16.760891">
      <ele>600</ele>
      <time>2026-05-07T09:01:55Z</time>
    </trkpt>
    <trkpt lat="50.436873" lon="16.76093">
      <ele>600</ele>
      <time>2026-05-07T09:02:02Z</time>
    </trkpt>
    <trkpt lat="50.43708" lon="16.761264">
      <ele>603</ele>
      <time>2026-05-07T09:02:52Z</time>
    </trkpt>
    <trkpt lat="50.437155" lon="16.7614">
      <ele>604</ele>
      <time>2026-05-07T09:03:11Z</time>
    </trkpt>
    <trkpt lat="50.437198" lon="16.761459">
      <ele>605</ele>
      <time>2026-05-07T09:03:21Z</time>
    </trkpt>
    <trkpt lat="50.437251" lon="16.761527">
      <ele>606</ele>
      <time>2026-05-07T09:03:32Z</time>
    </trkpt>
    <trkpt lat="50.437375" lon="16.761465">
      <ele>608</ele>
      <time>2026-05-07T09:03:54Z</time>
    </trkpt>
    <trkpt lat="50.437474" lon="16.761473">
      <ele>610</ele>
      <time>2026-05-07T09:04:11Z</time>
    </trkpt>
    <trkpt lat="50.437613" lon="16.761567">
      <ele>613</ele>
      <time>2026-05-07T09:04:37Z</time>
    </trkpt>
    <trkpt lat="50.437906" lon="16.761781">
      <ele>618</ele>
      <time>2026-05-07T09:05:31Z</time>
    </trkpt>
    <trkpt lat="50.438048" lon="16.761832">
      <ele>620</ele>
      <time>2026-05-07T09:05:56Z</time>
    </trkpt>
    <trkpt lat="50.438346" lon="16.761862">
      <ele>624</ele>
      <time>2026-05-07T09:06:46Z</time>
    </trkpt>
    <trkpt lat="50.438505" lon="16.761922">
      <ele>627</ele>
      <time>2026-05-07T09:07:14Z</time>
    </trkpt>
    <trkpt lat="50.438757" lon="16.762096">
      <ele>631</ele>
      <time>2026-05-07T09:08:00Z</time>
    </trkpt>
    <trkpt lat="50.438887" lon="16.762152">
      <ele>632</ele>
      <time>2026-05-07T09:08:23Z</time>
    </trkpt>
    <trkpt lat="50.43906" lon="16.762224">
      <ele>631</ele>
      <time>2026-05-07T09:08:53Z</time>
    </trkpt>
    <trkpt lat="50.439249" lon="16.762369">
      <ele>629</ele>
      <time>2026-05-07T09:09:28Z</time>
    </trkpt>
    <trkpt lat="50.439458" lon="16.762441">
      <ele>628</ele>
      <time>2026-05-07T09:10:04Z</time>
    </trkpt>
    <trkpt lat="50.439577" lon="16.76232">
      <ele>632</ele>
      <time>2026-05-07T09:10:28Z</time>
    </trkpt>
    <trkpt lat="50.439656" lon="16.762186">
      <ele>636</ele>
      <time>2026-05-07T09:10:49Z</time>
    </trkpt>
    <trkpt lat="50.439707" lon="16.762001">
      <ele>640</ele>
      <time>2026-05-07T09:11:11Z</time>
    </trkpt>
    <trkpt lat="50.43975" lon="16.761851">
      <ele>643</ele>
      <time>2026-05-07T09:11:29Z</time>
    </trkpt>
    <trkpt lat="50.439762" lon="16.761693">
      <ele>645</ele>
      <time>2026-05-07T09:11:47Z</time>
    </trkpt>
    <trkpt lat="50.439794" lon="16.761599">
      <ele>647</ele>
      <time>2026-05-07T09:11:58Z</time>
    </trkpt>
    <trkpt lat="50.439847" lon="16.761524">
      <ele>649</ele>
      <time>2026-05-07T09:12:10Z</time>
    </trkpt>
    <trkpt lat="50.439991" lon="16.761435">
      <ele>652</ele>
      <time>2026-05-07T09:12:37Z</time>
    </trkpt>
    <trkpt lat="50.440081" lon="16.761333">
      <ele>654</ele>
      <time>2026-05-07T09:12:56Z</time>
    </trkpt>
    <trkpt lat="50.440134" lon="16.761272">
      <ele>656</ele>
      <time>2026-05-07T09:13:07Z</time>
    </trkpt>
    <trkpt lat="50.440191" lon="16.761218">
      <ele>657</ele>
      <time>2026-05-07T09:13:18Z</time>
    </trkpt>
    <trkpt lat="50.440548" lon="16.76104">
      <ele>659</ele>
      <time>2026-05-07T09:14:21Z</time>
    </trkpt>
    <trkpt lat="50.440666" lon="16.760981">
      <ele>660</ele>
      <time>2026-05-07T09:14:42Z</time>
    </trkpt>
    <trkpt lat="50.440893" lon="16.760867">
      <ele>663</ele>
      <time>2026-05-07T09:15:22Z</time>
    </trkpt>
    <trkpt lat="50.4412" lon="16.760712">
      <ele>672</ele>
      <time>2026-05-07T09:16:17Z</time>
    </trkpt>
    <trkpt lat="50.441628" lon="16.760409">
      <ele>690</ele>
      <time>2026-05-07T09:17:40Z</time>
    </trkpt>
    <trkpt lat="50.4417" lon="16.760351">
      <ele>693</ele>
      <time>2026-05-07T09:17:55Z</time>
    </trkpt>
    <trkpt lat="50.44176" lon="16.760308">
      <ele>695</ele>
      <time>2026-05-07T09:18:06Z</time>
    </trkpt>
    <trkpt lat="50.441801" lon="16.760274">
      <ele>696</ele>
      <time>2026-05-07T09:18:14Z</time>
    </trkpt>
    <trkpt lat="50.441993" lon="16.760232">
      <ele>702</ele>
      <time>2026-05-07T09:18:48Z</time>
    </trkpt>
    <trkpt lat="50.442104" lon="16.760148">
      <ele>706</ele>
      <time>2026-05-07T09:19:09Z</time>
    </trkpt>
    <trkpt lat="50.442256" lon="16.75995">
      <ele>712</ele>
      <time>2026-05-07T09:19:43Z</time>
    </trkpt>
    <trkpt lat="50.442482" lon="16.759523">
      <ele>721</ele>
      <time>2026-05-07T09:20:44Z</time>
    </trkpt>
    <trkpt lat="50.442651" lon="16.759174">
      <ele>725</ele>
      <time>2026-05-07T09:21:31Z</time>
    </trkpt>
    <trkpt lat="50.442817" lon="16.758884">
      <ele>730</ele>
      <time>2026-05-07T09:22:13Z</time>
    </trkpt>
    <trkpt lat="50.442986" lon="16.758574">
      <ele>733</ele>
      <time>2026-05-07T09:22:57Z</time>
    </trkpt>
    <trkpt lat="50.443157" lon="16.758275">
      <ele>735</ele>
      <time>2026-05-07T09:23:40Z</time>
    </trkpt>
    <trkpt lat="50.443331" lon="16.757828">
      <ele>733</ele>
      <time>2026-05-07T09:24:36Z</time>
    </trkpt>
    <trkpt lat="50.443575" lon="16.757329">
      <ele>719</ele>
      <time>2026-05-07T09:25:46Z</time>
    </trkpt>
    <trkpt lat="50.443696" lon="16.757156">
      <ele>715</ele>
      <time>2026-05-07T09:26:14Z</time>
    </trkpt>
    <trkpt lat="50.443857" lon="16.757042">
      <ele>712</ele>
      <time>2026-05-07T09:26:44Z</time>
    </trkpt>
    <trkpt lat="50.444066" lon="16.756896">
      <ele>711</ele>
      <time>2026-05-07T09:27:22Z</time>
    </trkpt>
    <trkpt lat="50.444183" lon="16.756848">
      <ele>710</ele>
      <time>2026-05-07T09:27:43Z</time>
    </trkpt>
    <trkpt lat="50.444282" lon="16.756808">
      <ele>711</ele>
      <time>2026-05-07T09:28:00Z</time>
    </trkpt>
    <trkpt lat="50.444506" lon="16.756742">
      <ele>713</ele>
      <time>2026-05-07T09:28:38Z</time>
    </trkpt>
    <trkpt lat="50.444765" lon="16.756771">
      <ele>713</ele>
      <time>2026-05-07T09:29:22Z</time>
    </trkpt>
    <trkpt lat="50.445011" lon="16.7568">
      <ele>712</ele>
      <time>2026-05-07T09:30:03Z</time>
    </trkpt>
    <trkpt lat="50.445488" lon="16.756932">
      <ele>715</ele>
      <time>2026-05-07T09:31:24Z</time>
    </trkpt>
    <trkpt lat="50.446641" lon="16.757514">
      <ele>731</ele>
      <time>2026-05-07T09:34:48Z</time>
    </trkpt>
    <trkpt lat="50.446927" lon="16.757589">
      <ele>736</ele>
      <time>2026-05-07T09:35:37Z</time>
    </trkpt>
    <trkpt lat="50.447346" lon="16.757653">
      <ele>745</ele>
      <time>2026-05-07T09:36:49Z</time>
    </trkpt>
    <trkpt lat="50.447524" lon="16.757779">
      <ele>747</ele>
      <time>2026-05-07T09:37:22Z</time>
    </trkpt>
    <trkpt lat="50.447657" lon="16.757828">
      <ele>747</ele>
      <time>2026-05-07T09:37:45Z</time>
    </trkpt>
    <trkpt lat="50.447812" lon="16.757833">
      <ele>748</ele>
      <time>2026-05-07T09:38:11Z</time>
    </trkpt>
    <trkpt lat="50.44794" lon="16.757736">
      <ele>748</ele>
      <time>2026-05-07T09:38:34Z</time>
    </trkpt>
    <trkpt lat="50.448251" lon="16.757463">
      <ele>747</ele>
      <time>2026-05-07T09:39:34Z</time>
    </trkpt>
    <trkpt lat="50.448507" lon="16.757168">
      <ele>744</ele>
      <time>2026-05-07T09:40:27Z</time>
    </trkpt>
    <trkpt lat="50.448788" lon="16.75678">
      <ele>742</ele>
      <time>2026-05-07T09:41:30Z</time>
    </trkpt>
    <trkpt lat="50.448943" lon="16.7565">
      <ele>740</ele>
      <time>2026-05-07T09:42:10Z</time>
    </trkpt>
    <trkpt lat="50.449033" lon="16.75621">
      <ele>738</ele>
      <time>2026-05-07T09:42:44Z</time>
    </trkpt>
    <trkpt lat="50.449123" lon="16.755934">
      <ele>738</ele>
      <time>2026-05-07T09:43:17Z</time>
    </trkpt>
    <trkpt lat="50.449269" lon="16.755714">
      <ele>738</ele>
      <time>2026-05-07T09:43:51Z</time>
    </trkpt>
    <trkpt lat="50.44936" lon="16.755628">
      <ele>738</ele>
      <time>2026-05-07T09:44:09Z</time>
    </trkpt>
    <trkpt lat="50.449582" lon="16.755668">
      <ele>736</ele>
      <time>2026-05-07T09:44:46Z</time>
    </trkpt>
    <trkpt lat="50.44966" lon="16.755679">
      <ele>735</ele>
      <time>2026-05-07T09:44:59Z</time>
    </trkpt>
    <trkpt lat="50.44982" lon="16.755647">
      <ele>734</ele>
      <time>2026-05-07T09:45:26Z</time>
    </trkpt>
    <trkpt lat="50.450128" lon="16.755561">
      <ele>733</ele>
      <time>2026-05-07T09:46:19Z</time>
    </trkpt>
    <trkpt lat="50.450309" lon="16.755481">
      <ele>733</ele>
      <time>2026-05-07T09:46:50Z</time>
    </trkpt>
    <trkpt lat="50.450611" lon="16.755258">
      <ele>734</ele>
      <time>2026-05-07T09:47:46Z</time>
    </trkpt>
    <trkpt lat="50.450805" lon="16.755178">
      <ele>732</ele>
      <time>2026-05-07T09:48:20Z</time>
    </trkpt>
    <trkpt lat="50.451208" lon="16.755159">
      <ele>726</ele>
      <time>2026-05-07T09:49:28Z</time>
    </trkpt>
    <trkpt lat="50.45143" lon="16.755143">
      <ele>726</ele>
      <time>2026-05-07T09:50:05Z</time>
    </trkpt>
    <trkpt lat="50.451547" lon="16.755183">
      <ele>727</ele>
      <time>2026-05-07T09:50:25Z</time>
    </trkpt>
    <trkpt lat="50.451744" lon="16.755293">
      <ele>730</ele>
      <time>2026-05-07T09:51:00Z</time>
    </trkpt>
    <trkpt lat="50.451972" lon="16.755358">
      <ele>735</ele>
      <time>2026-05-07T09:51:39Z</time>
    </trkpt>
    <trkpt lat="50.452101" lon="16.755331">
      <ele>737</ele>
      <time>2026-05-07T09:52:02Z</time>
    </trkpt>
    <trkpt lat="50.452263" lon="16.755259">
      <ele>738</ele>
      <time>2026-05-07T09:52:30Z</time>
    </trkpt>
    <trkpt lat="50.452426" lon="16.755087">
      <ele>736</ele>
      <time>2026-05-07T09:53:03Z</time>
    </trkpt>
    <trkpt lat="50.452549" lon="16.754863">
      <ele>731</ele>
      <time>2026-05-07T09:53:35Z</time>
    </trkpt>
    <trkpt lat="50.452525" lon="16.754775">
      <ele>732</ele>
      <time>2026-05-07T09:53:46Z</time>
    </trkpt>
    <trkpt lat="50.452341" lon="16.754291">
      <ele>745</ele>
      <time>2026-05-07T09:54:50Z</time>
    </trkpt>
    <trkpt lat="50.4522" lon="16.753875">
      <ele>750</ele>
      <time>2026-05-07T09:55:42Z</time>
    </trkpt>
    <trkpt lat="50.452044" lon="16.75359">
      <ele>752</ele>
      <time>2026-05-07T09:56:23Z</time>
    </trkpt>
    <trkpt lat="50.451846" lon="16.753456">
      <ele>752</ele>
      <time>2026-05-07T09:57:00Z</time>
    </trkpt>
    <trkpt lat="50.451642" lon="16.7534115">
      <ele>752</ele>
      <time>2026-05-07T09:57:35Z</time>
    </trkpt>
    <trkpt lat="50.451846" lon="16.753456">
      <ele>752</ele>
      <time>2026-05-07T09:57:44Z</time>
    </trkpt>
    <trkpt lat="50.452044" lon="16.75359">
      <ele>752</ele>
      <time>2026-05-07T09:57:53Z</time>
    </trkpt>
    <trkpt lat="50.4522" lon="16.753875">
      <ele>750</ele>
      <time>2026-05-07T09:58:03Z</time>
    </trkpt>
    <trkpt lat="50.452341" lon="16.754291">
      <ele>745</ele>
      <time>2026-05-07T09:58:16Z</time>
    </trkpt>
    <trkpt lat="50.452525" lon="16.754775">
      <ele>732</ele>
      <time>2026-05-07T09:58:32Z</time>
    </trkpt>
    <trkpt lat="50.452549" lon="16.754863">
      <ele>731</ele>
      <time>2026-05-07T09:58:35Z</time>
    </trkpt>
    <trkpt lat="50.452426" lon="16.755087">
      <ele>736</ele>
      <time>2026-05-07T09:58:58Z</time>
    </trkpt>
    <trkpt lat="50.452263" lon="16.755259">
      <ele>738</ele>
      <time>2026-05-07T09:59:22Z</time>
    </trkpt>
    <trkpt lat="50.452101" lon="16.755331">
      <ele>737</ele>
      <time>2026-05-07T09:59:42Z</time>
    </trkpt>
    <trkpt lat="50.451972" lon="16.755358">
      <ele>735</ele>
      <time>2026-05-07T09:59:57Z</time>
    </trkpt>
    <trkpt lat="50.451744" lon="16.755293">
      <ele>730</ele>
      <time>2026-05-07T10:00:26Z</time>
    </trkpt>
    <trkpt lat="50.451547" lon="16.755183">
      <ele>727</ele>
      <time>2026-05-07T10:00:51Z</time>
    </trkpt>
    <trkpt lat="50.45143" lon="16.755143">
      <ele>726</ele>
      <time>2026-05-07T10:01:05Z</time>
    </trkpt>
    <trkpt lat="50.451208" lon="16.755159">
      <ele>726</ele>
      <time>2026-05-07T10:01:32Z</time>
    </trkpt>
    <trkpt lat="50.450805" lon="16.755178">
      <ele>732</ele>
      <time>2026-05-07T10:02:20Z</time>
    </trkpt>
    <trkpt lat="50.450611" lon="16.755258">
      <ele>734</ele>
      <time>2026-05-07T10:02:44Z</time>
    </trkpt>
    <trkpt lat="50.450309" lon="16.755481">
      <ele>733</ele>
      <time>2026-05-07T10:03:24Z</time>
    </trkpt>
    <trkpt lat="50.450128" lon="16.755561">
      <ele>733</ele>
      <time>2026-05-07T10:03:47Z</time>
    </trkpt>
    <trkpt lat="50.44982" lon="16.755647">
      <ele>734</ele>
      <time>2026-05-07T10:04:24Z</time>
    </trkpt>
    <trkpt lat="50.44966" lon="16.755679">
      <ele>735</ele>
      <time>2026-05-07T10:04:43Z</time>
    </trkpt>
    <trkpt lat="50.449582" lon="16.755668">
      <ele>736</ele>
      <time>2026-05-07T10:04:53Z</time>
    </trkpt>
    <trkpt lat="50.44936" lon="16.755628">
      <ele>738</ele>
      <time>2026-05-07T10:05:20Z</time>
    </trkpt>
    <trkpt lat="50.449269" lon="16.755714">
      <ele>738</ele>
      <time>2026-05-07T10:05:32Z</time>
    </trkpt>
    <trkpt lat="50.449123" lon="16.755934">
      <ele>738</ele>
      <time>2026-05-07T10:05:56Z</time>
    </trkpt>
    <trkpt lat="50.449033" lon="16.75621">
      <ele>738</ele>
      <time>2026-05-07T10:06:20Z</time>
    </trkpt>
    <trkpt lat="50.448943" lon="16.7565">
      <ele>740</ele>
      <time>2026-05-07T10:06:45Z</time>
    </trkpt>
    <trkpt lat="50.448788" lon="16.75678">
      <ele>742</ele>
      <time>2026-05-07T10:07:13Z</time>
    </trkpt>
    <trkpt lat="50.448507" lon="16.757168">
      <ele>744</ele>
      <time>2026-05-07T10:07:58Z</time>
    </trkpt>
    <trkpt lat="50.448251" lon="16.757463">
      <ele>747</ele>
      <time>2026-05-07T10:08:36Z</time>
    </trkpt>
    <trkpt lat="50.44794" lon="16.757736">
      <ele>748</ele>
      <time>2026-05-07T10:09:18Z</time>
    </trkpt>
    <trkpt lat="50.447812" lon="16.757833">
      <ele>748</ele>
      <time>2026-05-07T10:09:35Z</time>
    </trkpt>
    <trkpt lat="50.447657" lon="16.757828">
      <ele>747</ele>
      <time>2026-05-07T10:09:54Z</time>
    </trkpt>
    <trkpt lat="50.447524" lon="16.757779">
      <ele>747</ele>
      <time>2026-05-07T10:10:10Z</time>
    </trkpt>
    <trkpt lat="50.447346" lon="16.757653">
      <ele>745</ele>
      <time>2026-05-07T10:10:34Z</time>
    </trkpt>
    <trkpt lat="50.446927" lon="16.757589">
      <ele>736</ele>
      <time>2026-05-07T10:11:25Z</time>
    </trkpt>
    <trkpt lat="50.446641" lon="16.757514">
      <ele>731</ele>
      <time>2026-05-07T10:12:00Z</time>
    </trkpt>
    <trkpt lat="50.445488" lon="16.756932">
      <ele>715</ele>
      <time>2026-05-07T10:14:26Z</time>
    </trkpt>
    <trkpt lat="50.445011" lon="16.7568">
      <ele>712</ele>
      <time>2026-05-07T10:15:24Z</time>
    </trkpt>
    <trkpt lat="50.444765" lon="16.756771">
      <ele>713</ele>
      <time>2026-05-07T10:15:53Z</time>
    </trkpt>
    <trkpt lat="50.444506" lon="16.756742">
      <ele>713</ele>
      <time>2026-05-07T10:16:24Z</time>
    </trkpt>
    <trkpt lat="50.444282" lon="16.756808">
      <ele>711</ele>
      <time>2026-05-07T10:16:52Z</time>
    </trkpt>
    <trkpt lat="50.444183" lon="16.756848">
      <ele>710</ele>
      <time>2026-05-07T10:17:04Z</time>
    </trkpt>
    <trkpt lat="50.444066" lon="16.756896">
      <ele>711</ele>
      <time>2026-05-07T10:17:18Z</time>
    </trkpt>
    <trkpt lat="50.443857" lon="16.757042">
      <ele>712</ele>
      <time>2026-05-07T10:17:46Z</time>
    </trkpt>
    <trkpt lat="50.443696" lon="16.757156">
      <ele>715</ele>
      <time>2026-05-07T10:18:07Z</time>
    </trkpt>
    <trkpt lat="50.443575" lon="16.757329">
      <ele>719</ele>
      <time>2026-05-07T10:18:27Z</time>
    </trkpt>
    <trkpt lat="50.443331" lon="16.757828">
      <ele>733</ele>
      <time>2026-05-07T10:19:17Z</time>
    </trkpt>
    <trkpt lat="50.443157" lon="16.758275">
      <ele>735</ele>
      <time>2026-05-07T10:19:57Z</time>
    </trkpt>
    <trkpt lat="50.442986" lon="16.758574">
      <ele>733</ele>
      <time>2026-05-07T10:20:28Z</time>
    </trkpt>
    <trkpt lat="50.442817" lon="16.758884">
      <ele>730</ele>
      <time>2026-05-07T10:20:59Z</time>
    </trkpt>
    <trkpt lat="50.442651" lon="16.759174">
      <ele>725</ele>
      <time>2026-05-07T10:21:29Z</time>
    </trkpt>
    <trkpt lat="50.442482" lon="16.759523">
      <ele>721</ele>
      <time>2026-05-07T10:22:03Z</time>
    </trkpt>
    <trkpt lat="50.442256" lon="16.75995">
      <ele>712</ele>
      <time>2026-05-07T10:22:46Z</time>
    </trkpt>
    <trkpt lat="50.442104" lon="16.760148">
      <ele>706</ele>
      <time>2026-05-07T10:23:11Z</time>
    </trkpt>
    <trkpt lat="50.441993" lon="16.760232">
      <ele>702</ele>
      <time>2026-05-07T10:23:26Z</time>
    </trkpt>
    <trkpt lat="50.441801" lon="16.760274">
      <ele>696</ele>
      <time>2026-05-07T10:23:50Z</time>
    </trkpt>
    <trkpt lat="50.44176" lon="16.760308">
      <ele>695</ele>
      <time>2026-05-07T10:23:56Z</time>
    </trkpt>
    <trkpt lat="50.4417" lon="16.760351">
      <ele>693</ele>
      <time>2026-05-07T10:24:04Z</time>
    </trkpt>
    <trkpt lat="50.441628" lon="16.760409">
      <ele>690</ele>
      <time>2026-05-07T10:24:14Z</time>
    </trkpt>
    <trkpt lat="50.4412" lon="16.760712">
      <ele>672</ele>
      <time>2026-05-07T10:25:13Z</time>
    </trkpt>
    <trkpt lat="50.440893" lon="16.760867">
      <ele>663</ele>
      <time>2026-05-07T10:25:53Z</time>
    </trkpt>
    <trkpt lat="50.440666" lon="16.760981">
      <ele>660</ele>
      <time>2026-05-07T10:26:22Z</time>
    </trkpt>
    <trkpt lat="50.440548" lon="16.76104">
      <ele>659</ele>
      <time>2026-05-07T10:26:37Z</time>
    </trkpt>
    <trkpt lat="50.440191" lon="16.761218">
      <ele>657</ele>
      <time>2026-05-07T10:27:21Z</time>
    </trkpt>
    <trkpt lat="50.440134" lon="16.761272">
      <ele>656</ele>
      <time>2026-05-07T10:27:29Z</time>
    </trkpt>
    <trkpt lat="50.440081" lon="16.761333">
      <ele>654</ele>
      <time>2026-05-07T10:27:37Z</time>
    </trkpt>
    <trkpt lat="50.439991" lon="16.761435">
      <ele>652</ele>
      <time>2026-05-07T10:27:51Z</time>
    </trkpt>
    <trkpt lat="50.439847" lon="16.761524">
      <ele>649</ele>
      <time>2026-05-07T10:28:10Z</time>
    </trkpt>
    <trkpt lat="50.439794" lon="16.761599">
      <ele>647</ele>
      <time>2026-05-07T10:28:18Z</time>
    </trkpt>
    <trkpt lat="50.439762" lon="16.761693">
      <ele>645</ele>
      <time>2026-05-07T10:28:27Z</time>
    </trkpt>
    <trkpt lat="50.43975" lon="16.761851">
      <ele>643</ele>
      <time>2026-05-07T10:28:39Z</time>
    </trkpt>
    <trkpt lat="50.439707" lon="16.762001">
      <ele>640</ele>
      <time>2026-05-07T10:28:52Z</time>
    </trkpt>
    <trkpt lat="50.439656" lon="16.762186">
      <ele>636</ele>
      <time>2026-05-07T10:29:08Z</time>
    </trkpt>
    <trkpt lat="50.439577" lon="16.76232">
      <ele>632</ele>
      <time>2026-05-07T10:29:23Z</time>
    </trkpt>
    <trkpt lat="50.439458" lon="16.762441">
      <ele>628</ele>
      <time>2026-05-07T10:29:40Z</time>
    </trkpt>
    <trkpt lat="50.439249" lon="16.762369">
      <ele>629</ele>
      <time>2026-05-07T10:30:06Z</time>
    </trkpt>
    <trkpt lat="50.43906" lon="16.762224">
      <ele>631</ele>
      <time>2026-05-07T10:30:31Z</time>
    </trkpt>
    <trkpt lat="50.438887" lon="16.762152">
      <ele>632</ele>
      <time>2026-05-07T10:30:52Z</time>
    </trkpt>
    <trkpt lat="50.438757" lon="16.762096">
      <ele>631</ele>
      <time>2026-05-07T10:31:08Z</time>
    </trkpt>
    <trkpt lat="50.438505" lon="16.761922">
      <ele>627</ele>
      <time>2026-05-07T10:31:42Z</time>
    </trkpt>
    <trkpt lat="50.438346" lon="16.761862">
      <ele>624</ele>
      <time>2026-05-07T10:32:01Z</time>
    </trkpt>
    <trkpt lat="50.438048" lon="16.761832">
      <ele>620</ele>
      <time>2026-05-07T10:32:37Z</time>
    </trkpt>
    <trkpt lat="50.437906" lon="16.761781">
      <ele>618</ele>
      <time>2026-05-07T10:32:55Z</time>
    </trkpt>
    <trkpt lat="50.437613" lon="16.761567">
      <ele>613</ele>
      <time>2026-05-07T10:33:34Z</time>
    </trkpt>
    <trkpt lat="50.437474" lon="16.761473">
      <ele>610</ele>
      <time>2026-05-07T10:33:52Z</time>
    </trkpt>
    <trkpt lat="50.437375" lon="16.761465">
      <ele>608</ele>
      <time>2026-05-07T10:34:04Z</time>
    </trkpt>
    <trkpt lat="50.437251" lon="16.761527">
      <ele>606</ele>
      <time>2026-05-07T10:34:20Z</time>
    </trkpt>
    <trkpt lat="50.437198" lon="16.761459">
      <ele>605</ele>
      <time>2026-05-07T10:34:28Z</time>
    </trkpt>
    <trkpt lat="50.437155" lon="16.7614">
      <ele>604</ele>
      <time>2026-05-07T10:34:35Z</time>
    </trkpt>
    <trkpt lat="50.43708" lon="16.761264">
      <ele>603</ele>
      <time>2026-05-07T10:34:49Z</time>
    </trkpt>
    <trkpt lat="50.436873" lon="16.76093">
      <ele>600</ele>
      <time>2026-05-07T10:35:24Z</time>
    </trkpt>
    <trkpt lat="50.436839" lon="16.760891">
      <ele>600</ele>
      <time>2026-05-07T10:35:29Z</time>
    </trkpt>
    <trkpt lat="50.436753" lon="16.760794">
      <ele>599</ele>
      <time>2026-05-07T10:35:42Z</time>
    </trkpt>
    <trkpt lat="50.436665" lon="16.760708">
      <ele>599</ele>
      <time>2026-05-07T10:35:55Z</time>
    </trkpt>
    <trkpt lat="50.436562" lon="16.760647">
      <ele>599</ele>
      <time>2026-05-07T10:36:08Z</time>
    </trkpt>
    <trkpt lat="50.436424" lon="16.760644">
      <ele>600</ele>
      <time>2026-05-07T10:36:24Z</time>
    </trkpt>
    <trkpt lat="50.436335" lon="16.7607">
      <ele>601</ele>
      <time>2026-05-07T10:36:36Z</time>
    </trkpt>
    <trkpt lat="50.436134" lon="16.76098">
      <ele>607</ele>
      <time>2026-05-07T10:37:08Z</time>
    </trkpt>
    <trkpt lat="50.435913" lon="16.761113">
      <ele>612</ele>
      <time>2026-05-07T10:37:37Z</time>
    </trkpt>
    <trkpt lat="50.435722" lon="16.761181">
      <ele>613</ele>
      <time>2026-05-07T10:38:01Z</time>
    </trkpt>
    <trkpt lat="50.435308" lon="16.761328">
      <ele>611</ele>
      <time>2026-05-07T10:38:51Z</time>
    </trkpt>
    <trkpt lat="50.435136" lon="16.761426">
      <ele>607</ele>
      <time>2026-05-07T10:39:14Z</time>
    </trkpt>
    <trkpt lat="50.434984" lon="16.761567">
      <ele>603</ele>
      <time>2026-05-07T10:39:35Z</time>
    </trkpt>
    <trkpt lat="50.434843" lon="16.761759">
      <ele>598</ele>
      <time>2026-05-07T10:39:58Z</time>
    </trkpt>
    <trkpt lat="50.433985" lon="16.762343">
      <ele>556</ele>
      <time>2026-05-07T10:41:59Z</time>
    </trkpt>
    <trkpt lat="50.433608" lon="16.762614">
      <ele>538</ele>
      <time>2026-05-07T10:42:52Z</time>
    </trkpt>
    <trkpt lat="50.433436" lon="16.762709">
      <ele>531</ele>
      <time>2026-05-07T10:43:15Z</time>
    </trkpt>
    <trkpt lat="50.43318" lon="16.76285">
      <ele>523</ele>
      <time>2026-05-07T10:43:48Z</time>
    </trkpt>
    <trkpt lat="50.432959" lon="16.763305">
      <ele>518</ele>
      <time>2026-05-07T10:44:32Z</time>
    </trkpt>
    <trkpt lat="50.432831" lon="16.763519">
      <ele>514</ele>
      <time>2026-05-07T10:44:55Z</time>
    </trkpt>
    <trkpt lat="50.432776" lon="16.763656">
      <ele>513</ele>
      <time>2026-05-07T10:45:07Z</time>
    </trkpt>
    <trkpt lat="50.432687" lon="16.76382">
      <ele>510</ele>
      <time>2026-05-07T10:45:24Z</time>
    </trkpt>
    <trkpt lat="50.432654" lon="16.763872">
      <ele>508</ele>
      <time>2026-05-07T10:45:30Z</time>
    </trkpt>
    <trkpt lat="50.432583" lon="16.763983">
      <ele>506</ele>
      <time>2026-05-07T10:45:42Z</time>
    </trkpt>
    <trkpt lat="50.432475" lon="16.764077">
      <ele>503</ele>
      <time>2026-05-07T10:45:57Z</time>
    </trkpt>
    <trkpt lat="50.432174" lon="16.764341">
      <ele>498</ele>
      <time>2026-05-07T10:46:39Z</time>
    </trkpt>
    <trkpt lat="50.432052" lon="16.764447">
      <ele>497</ele>
      <time>2026-05-07T10:46:55Z</time>
    </trkpt>
    <trkpt lat="50.431946" lon="16.764557">
      <ele>496</ele>
      <time>2026-05-07T10:47:11Z</time>
    </trkpt>
    <trkpt lat="50.431852" lon="16.764702">
      <ele>494</ele>
      <time>2026-05-07T10:47:27Z</time>
    </trkpt>
    <trkpt lat="50.431789" lon="16.764913">
      <ele>492</ele>
      <time>2026-05-07T10:47:44Z</time>
    </trkpt>
    <trkpt lat="50.431597" lon="16.764906">
      <ele>489</ele>
      <time>2026-05-07T10:48:08Z</time>
    </trkpt>
    <trkpt lat="50.431457" lon="16.764911">
      <ele>488</ele>
      <time>2026-05-07T10:48:24Z</time>
    </trkpt>
    <trkpt lat="50.43137" lon="16.764934">
      <ele>486</ele>
      <time>2026-05-07T10:48:35Z</time>
    </trkpt>
  </trkseg>
</trk>
</gpx>