<?xml version="1.0" encoding="UTF-8"?><gpx creator="https://mapa-turystyczna.pl" xmlns="http://www.topografix.com/GPX/1/1" version="1.1" xmlns:xsi="http://www.w3.org/2001/XMLSchema-instance" xsi:schemaLocation="http://www.topografix.com/GPX/1/1 http://www.topografix.com/GPX/1/1/gpx.xsd">
  <metadata>
    <link href="https://mapa-turystyczna.pl">
      <text>mapa-turystyczna.pl</text>
    </link>
    <time>2026-05-07T08:43:26Z</time>
    <bounds maxlat="50.264366" maxlon="17.01332" minlat="50.25995" minlon="16.99504"/>
  </metadata>

<trk>
  <name>Bielice, leśniczówka – Bielice, leśniczówka</name>
  <link href="https://mapa-turystyczna.pl/route/3wv5">
    <text>Bielice, leśniczówka – Bielice, leśniczówka</text>
  </link>
  <trkseg>
    <trkpt lat="50.263886" lon="16.99504">
      <ele>745</ele>
      <time>2026-05-07T08:43:26Z</time>
    </trkpt>
    <trkpt lat="50.263888" lon="16.995077">
      <ele>744</ele>
      <time>2026-05-07T08:43:30Z</time>
    </trkpt>
    <trkpt lat="50.263893" lon="16.995459">
      <ele>741</ele>
      <time>2026-05-07T08:44:13Z</time>
    </trkpt>
    <trkpt lat="50.263826" lon="16.995741">
      <ele>742</ele>
      <time>2026-05-07T08:44:47Z</time>
    </trkpt>
    <trkpt lat="50.263741" lon="16.995994">
      <ele>744</ele>
      <time>2026-05-07T08:45:19Z</time>
    </trkpt>
    <trkpt lat="50.263599" lon="16.996175">
      <ele>749</ele>
      <time>2026-05-07T08:45:52Z</time>
    </trkpt>
    <trkpt lat="50.263385" lon="16.996311">
      <ele>753</ele>
      <time>2026-05-07T08:46:34Z</time>
    </trkpt>
    <trkpt lat="50.262974" lon="16.996394">
      <ele>758</ele>
      <time>2026-05-07T08:47:47Z</time>
    </trkpt>
    <trkpt lat="50.26268" lon="16.996492">
      <ele>761</ele>
      <time>2026-05-07T08:48:40Z</time>
    </trkpt>
    <trkpt lat="50.262343" lon="16.996595">
      <ele>765</ele>
      <time>2026-05-07T08:49:40Z</time>
    </trkpt>
    <trkpt lat="50.262065" lon="16.996657">
      <ele>772</ele>
      <time>2026-05-07T08:50:31Z</time>
    </trkpt>
    <trkpt lat="50.26189" lon="16.996724">
      <ele>777</ele>
      <time>2026-05-07T08:51:03Z</time>
    </trkpt>
    <trkpt lat="50.261778" lon="16.996837">
      <ele>780</ele>
      <time>2026-05-07T08:51:27Z</time>
    </trkpt>
    <trkpt lat="50.261729" lon="16.996929">
      <ele>780</ele>
      <time>2026-05-07T08:51:41Z</time>
    </trkpt>
    <trkpt lat="50.261497" lon="16.997362">
      <ele>783</ele>
      <time>2026-05-07T08:52:44Z</time>
    </trkpt>
    <trkpt lat="50.261345" lon="16.997593">
      <ele>786</ele>
      <time>2026-05-07T08:53:22Z</time>
    </trkpt>
    <trkpt lat="50.260979" lon="16.998084">
      <ele>795</ele>
      <time>2026-05-07T08:54:48Z</time>
    </trkpt>
    <trkpt lat="50.260677" lon="16.998428">
      <ele>800</ele>
      <time>2026-05-07T08:55:54Z</time>
    </trkpt>
    <trkpt lat="50.260542" lon="16.998759">
      <ele>804</ele>
      <time>2026-05-07T08:56:38Z</time>
    </trkpt>
    <trkpt lat="50.260409" lon="16.999235">
      <ele>810</ele>
      <time>2026-05-07T08:57:37Z</time>
    </trkpt>
    <trkpt lat="50.260258" lon="17.000197">
      <ele>817</ele>
      <time>2026-05-07T08:59:29Z</time>
    </trkpt>
    <trkpt lat="50.260162" lon="17.000703">
      <ele>822</ele>
      <time>2026-05-07T09:00:29Z</time>
    </trkpt>
    <trkpt lat="50.259985" lon="17.001359">
      <ele>829</ele>
      <time>2026-05-07T09:01:50Z</time>
    </trkpt>
    <trkpt lat="50.259999" lon="17.001748">
      <ele>833</ele>
      <time>2026-05-07T09:02:34Z</time>
    </trkpt>
    <trkpt lat="50.260075" lon="17.002061">
      <ele>835</ele>
      <time>2026-05-07T09:03:11Z</time>
    </trkpt>
    <trkpt lat="50.26021" lon="17.002495">
      <ele>837</ele>
      <time>2026-05-07T09:04:06Z</time>
    </trkpt>
    <trkpt lat="50.260395" lon="17.002886">
      <ele>839</ele>
      <time>2026-05-07T09:05:00Z</time>
    </trkpt>
    <trkpt lat="50.260685" lon="17.003318">
      <ele>843</ele>
      <time>2026-05-07T09:06:11Z</time>
    </trkpt>
    <trkpt lat="50.260947" lon="17.003727">
      <ele>843</ele>
      <time>2026-05-07T09:07:16Z</time>
    </trkpt>
    <trkpt lat="50.261091" lon="17.003971">
      <ele>844</ele>
      <time>2026-05-07T09:07:53Z</time>
    </trkpt>
    <trkpt lat="50.261141" lon="17.004168">
      <ele>846</ele>
      <time>2026-05-07T09:08:17Z</time>
    </trkpt>
    <trkpt lat="50.261058" lon="17.004462">
      <ele>852</ele>
      <time>2026-05-07T09:08:55Z</time>
    </trkpt>
    <trkpt lat="50.260991" lon="17.004808">
      <ele>857</ele>
      <time>2026-05-07T09:09:36Z</time>
    </trkpt>
    <trkpt lat="50.26092" lon="17.005337">
      <ele>866</ele>
      <time>2026-05-07T09:10:38Z</time>
    </trkpt>
    <trkpt lat="50.260858" lon="17.005661">
      <ele>871</ele>
      <time>2026-05-07T09:11:17Z</time>
    </trkpt>
    <trkpt lat="50.260813" lon="17.0059">
      <ele>873</ele>
      <time>2026-05-07T09:11:45Z</time>
    </trkpt>
    <trkpt lat="50.260745" lon="17.006152">
      <ele>876</ele>
      <time>2026-05-07T09:12:16Z</time>
    </trkpt>
    <trkpt lat="50.260652" lon="17.00646">
      <ele>881</ele>
      <time>2026-05-07T09:12:55Z</time>
    </trkpt>
    <trkpt lat="50.260607" lon="17.00672">
      <ele>883</ele>
      <time>2026-05-07T09:13:26Z</time>
    </trkpt>
    <trkpt lat="50.260513" lon="17.007072">
      <ele>886</ele>
      <time>2026-05-07T09:14:09Z</time>
    </trkpt>
    <trkpt lat="50.260372" lon="17.007569">
      <ele>889</ele>
      <time>2026-05-07T09:15:10Z</time>
    </trkpt>
    <trkpt lat="50.259985" lon="17.009044">
      <ele>901</ele>
      <time>2026-05-07T09:18:10Z</time>
    </trkpt>
    <trkpt lat="50.259967" lon="17.009121">
      <ele>901</ele>
      <time>2026-05-07T09:18:19Z</time>
    </trkpt>
    <trkpt lat="50.25995" lon="17.009176">
      <ele>901</ele>
      <time>2026-05-07T09:18:26Z</time>
    </trkpt>
    <trkpt lat="50.260325" lon="17.009928">
      <ele>903</ele>
      <time>2026-05-07T09:19:37Z</time>
    </trkpt>
    <trkpt lat="50.26041" lon="17.010073">
      <ele>902</ele>
      <time>2026-05-07T09:19:52Z</time>
    </trkpt>
    <trkpt lat="50.260525" lon="17.010204">
      <ele>902</ele>
      <time>2026-05-07T09:20:09Z</time>
    </trkpt>
    <trkpt lat="50.260826" lon="17.010451">
      <ele>905</ele>
      <time>2026-05-07T09:20:49Z</time>
    </trkpt>
    <trkpt lat="50.261159" lon="17.010725">
      <ele>908</ele>
      <time>2026-05-07T09:21:33Z</time>
    </trkpt>
    <trkpt lat="50.261774" lon="17.011375">
      <ele>918</ele>
      <time>2026-05-07T09:23:00Z</time>
    </trkpt>
    <trkpt lat="50.261971" lon="17.011511">
      <ele>924</ele>
      <time>2026-05-07T09:23:26Z</time>
    </trkpt>
    <trkpt lat="50.262337" lon="17.011788">
      <ele>937</ele>
      <time>2026-05-07T09:24:55Z</time>
    </trkpt>
    <trkpt lat="50.262552" lon="17.011999">
      <ele>945</ele>
      <time>2026-05-07T09:25:50Z</time>
    </trkpt>
    <trkpt lat="50.262667" lon="17.01208">
      <ele>950</ele>
      <time>2026-05-07T09:26:18Z</time>
    </trkpt>
    <trkpt lat="50.262769" lon="17.01217">
      <ele>956</ele>
      <time>2026-05-07T09:26:45Z</time>
    </trkpt>
    <trkpt lat="50.263065" lon="17.012615">
      <ele>968</ele>
      <time>2026-05-07T09:28:14Z</time>
    </trkpt>
    <trkpt lat="50.26345" lon="17.01312">
      <ele>981</ele>
      <time>2026-05-07T09:30:02Z</time>
    </trkpt>
    <trkpt lat="50.26357" lon="17.013238">
      <ele>985</ele>
      <time>2026-05-07T09:30:32Z</time>
    </trkpt>
    <trkpt lat="50.263692" lon="17.013299">
      <ele>986</ele>
      <time>2026-05-07T09:30:59Z</time>
    </trkpt>
    <trkpt lat="50.263769" lon="17.01332">
      <ele>986</ele>
      <time>2026-05-07T09:31:16Z</time>
    </trkpt>
    <trkpt lat="50.263987" lon="17.013256">
      <ele>984</ele>
      <time>2026-05-07T09:32:02Z</time>
    </trkpt>
    <trkpt lat="50.264031" lon="17.013253">
      <ele>984</ele>
      <time>2026-05-07T09:32:12Z</time>
    </trkpt>
    <trkpt lat="50.26406" lon="17.013234">
      <ele>983</ele>
      <time>2026-05-07T09:32:18Z</time>
    </trkpt>
    <trkpt lat="50.264082" lon="17.013211">
      <ele>983</ele>
      <time>2026-05-07T09:32:24Z</time>
    </trkpt>
    <trkpt lat="50.264115" lon="17.013193">
      <ele>984</ele>
      <time>2026-05-07T09:32:31Z</time>
    </trkpt>
    <trkpt lat="50.264134" lon="17.013186">
      <ele>984</ele>
      <time>2026-05-07T09:32:35Z</time>
    </trkpt>
    <trkpt lat="50.264152" lon="17.013192">
      <ele>984</ele>
      <time>2026-05-07T09:32:39Z</time>
    </trkpt>
    <trkpt lat="50.264173" lon="17.013208">
      <ele>985</ele>
      <time>2026-05-07T09:32:44Z</time>
    </trkpt>
    <trkpt lat="50.264205" lon="17.013213">
      <ele>986</ele>
      <time>2026-05-07T09:32:51Z</time>
    </trkpt>
    <trkpt lat="50.264238" lon="17.013202">
      <ele>986</ele>
      <time>2026-05-07T09:32:58Z</time>
    </trkpt>
    <trkpt lat="50.264293" lon="17.013217">
      <ele>987</ele>
      <time>2026-05-07T09:33:10Z</time>
    </trkpt>
    <trkpt lat="50.264366" lon="17.013234">
      <ele>989</ele>
      <time>2026-05-07T09:33:26Z</time>
    </trkpt>
    <trkpt lat="50.264293" lon="17.013217">
      <ele>987</ele>
      <time>2026-05-07T09:33:34Z</time>
    </trkpt>
    <trkpt lat="50.264238" lon="17.013202">
      <ele>986</ele>
      <time>2026-05-07T09:33:40Z</time>
    </trkpt>
    <trkpt lat="50.264205" lon="17.013213">
      <ele>986</ele>
      <time>2026-05-07T09:33:43Z</time>
    </trkpt>
    <trkpt lat="50.264173" lon="17.013208">
      <ele>985</ele>
      <time>2026-05-07T09:33:47Z</time>
    </trkpt>
    <trkpt lat="50.264152" lon="17.013192">
      <ele>984</ele>
      <time>2026-05-07T09:33:49Z</time>
    </trkpt>
    <trkpt lat="50.264134" lon="17.013186">
      <ele>984</ele>
      <time>2026-05-07T09:33:51Z</time>
    </trkpt>
    <trkpt lat="50.264115" lon="17.013193">
      <ele>984</ele>
      <time>2026-05-07T09:33:53Z</time>
    </trkpt>
    <trkpt lat="50.264082" lon="17.013211">
      <ele>983</ele>
      <time>2026-05-07T09:33:57Z</time>
    </trkpt>
    <trkpt lat="50.26406" lon="17.013234">
      <ele>983</ele>
      <time>2026-05-07T09:34:00Z</time>
    </trkpt>
    <trkpt lat="50.264031" lon="17.013253">
      <ele>984</ele>
      <time>2026-05-07T09:34:03Z</time>
    </trkpt>
    <trkpt lat="50.263987" lon="17.013256">
      <ele>984</ele>
      <time>2026-05-07T09:34:08Z</time>
    </trkpt>
    <trkpt lat="50.263769" lon="17.01332">
      <ele>986</ele>
      <time>2026-05-07T09:34:31Z</time>
    </trkpt>
    <trkpt lat="50.263692" lon="17.013299">
      <ele>986</ele>
      <time>2026-05-07T09:34:39Z</time>
    </trkpt>
    <trkpt lat="50.26357" lon="17.013238">
      <ele>985</ele>
      <time>2026-05-07T09:34:53Z</time>
    </trkpt>
    <trkpt lat="50.26345" lon="17.01312">
      <ele>981</ele>
      <time>2026-05-07T09:35:08Z</time>
    </trkpt>
    <trkpt lat="50.263065" lon="17.012615">
      <ele>968</ele>
      <time>2026-05-07T09:36:02Z</time>
    </trkpt>
    <trkpt lat="50.262769" lon="17.01217">
      <ele>956</ele>
      <time>2026-05-07T09:36:47Z</time>
    </trkpt>
    <trkpt lat="50.262667" lon="17.01208">
      <ele>950</ele>
      <time>2026-05-07T09:37:00Z</time>
    </trkpt>
    <trkpt lat="50.262552" lon="17.011999">
      <ele>945</ele>
      <time>2026-05-07T09:37:14Z</time>
    </trkpt>
    <trkpt lat="50.262337" lon="17.011788">
      <ele>937</ele>
      <time>2026-05-07T09:37:42Z</time>
    </trkpt>
    <trkpt lat="50.261971" lon="17.011511">
      <ele>924</ele>
      <time>2026-05-07T09:38:26Z</time>
    </trkpt>
    <trkpt lat="50.261774" lon="17.011375">
      <ele>918</ele>
      <time>2026-05-07T09:38:52Z</time>
    </trkpt>
    <trkpt lat="50.261159" lon="17.010725">
      <ele>908</ele>
      <time>2026-05-07T09:40:19Z</time>
    </trkpt>
    <trkpt lat="50.260826" lon="17.010451">
      <ele>905</ele>
      <time>2026-05-07T09:41:03Z</time>
    </trkpt>
    <trkpt lat="50.260525" lon="17.010204">
      <ele>902</ele>
      <time>2026-05-07T09:41:43Z</time>
    </trkpt>
    <trkpt lat="50.26041" lon="17.010073">
      <ele>902</ele>
      <time>2026-05-07T09:42:00Z</time>
    </trkpt>
    <trkpt lat="50.260325" lon="17.009928">
      <ele>903</ele>
      <time>2026-05-07T09:42:15Z</time>
    </trkpt>
    <trkpt lat="50.25995" lon="17.009176">
      <ele>901</ele>
      <time>2026-05-07T09:43:26Z</time>
    </trkpt>
    <trkpt lat="50.259967" lon="17.009121">
      <ele>901</ele>
      <time>2026-05-07T09:43:30Z</time>
    </trkpt>
    <trkpt lat="50.259985" lon="17.009044">
      <ele>901</ele>
      <time>2026-05-07T09:43:35Z</time>
    </trkpt>
    <trkpt lat="50.260372" lon="17.007569">
      <ele>889</ele>
      <time>2026-05-07T09:45:18Z</time>
    </trkpt>
    <trkpt lat="50.260513" lon="17.007072">
      <ele>886</ele>
      <time>2026-05-07T09:45:53Z</time>
    </trkpt>
    <trkpt lat="50.260607" lon="17.00672">
      <ele>883</ele>
      <time>2026-05-07T09:46:18Z</time>
    </trkpt>
    <trkpt lat="50.260652" lon="17.00646">
      <ele>881</ele>
      <time>2026-05-07T09:46:35Z</time>
    </trkpt>
    <trkpt lat="50.260745" lon="17.006152">
      <ele>876</ele>
      <time>2026-05-07T09:46:57Z</time>
    </trkpt>
    <trkpt lat="50.260813" lon="17.0059">
      <ele>873</ele>
      <time>2026-05-07T09:47:15Z</time>
    </trkpt>
    <trkpt lat="50.260858" lon="17.005661">
      <ele>871</ele>
      <time>2026-05-07T09:47:31Z</time>
    </trkpt>
    <trkpt lat="50.26092" lon="17.005337">
      <ele>866</ele>
      <time>2026-05-07T09:47:53Z</time>
    </trkpt>
    <trkpt lat="50.260991" lon="17.004808">
      <ele>857</ele>
      <time>2026-05-07T09:48:29Z</time>
    </trkpt>
    <trkpt lat="50.261058" lon="17.004462">
      <ele>852</ele>
      <time>2026-05-07T09:48:52Z</time>
    </trkpt>
    <trkpt lat="50.261141" lon="17.004168">
      <ele>846</ele>
      <time>2026-05-07T09:49:14Z</time>
    </trkpt>
    <trkpt lat="50.261091" lon="17.003971">
      <ele>844</ele>
      <time>2026-05-07T09:49:28Z</time>
    </trkpt>
    <trkpt lat="50.260947" lon="17.003727">
      <ele>843</ele>
      <time>2026-05-07T09:49:49Z</time>
    </trkpt>
    <trkpt lat="50.260685" lon="17.003318">
      <ele>843</ele>
      <time>2026-05-07T09:50:26Z</time>
    </trkpt>
    <trkpt lat="50.260395" lon="17.002886">
      <ele>839</ele>
      <time>2026-05-07T09:51:06Z</time>
    </trkpt>
    <trkpt lat="50.26021" lon="17.002495">
      <ele>837</ele>
      <time>2026-05-07T09:51:38Z</time>
    </trkpt>
    <trkpt lat="50.260075" lon="17.002061">
      <ele>835</ele>
      <time>2026-05-07T09:52:09Z</time>
    </trkpt>
    <trkpt lat="50.259999" lon="17.001748">
      <ele>833</ele>
      <time>2026-05-07T09:52:30Z</time>
    </trkpt>
    <trkpt lat="50.259985" lon="17.001359">
      <ele>829</ele>
      <time>2026-05-07T09:52:55Z</time>
    </trkpt>
    <trkpt lat="50.260162" lon="17.000703">
      <ele>822</ele>
      <time>2026-05-07T09:53:42Z</time>
    </trkpt>
    <trkpt lat="50.260258" lon="17.000197">
      <ele>817</ele>
      <time>2026-05-07T09:54:16Z</time>
    </trkpt>
    <trkpt lat="50.260409" lon="16.999235">
      <ele>810</ele>
      <time>2026-05-07T09:55:20Z</time>
    </trkpt>
    <trkpt lat="50.260542" lon="16.998759">
      <ele>804</ele>
      <time>2026-05-07T09:55:53Z</time>
    </trkpt>
    <trkpt lat="50.260677" lon="16.998428">
      <ele>800</ele>
      <time>2026-05-07T09:56:19Z</time>
    </trkpt>
    <trkpt lat="50.260979" lon="16.998084">
      <ele>795</ele>
      <time>2026-05-07T09:56:57Z</time>
    </trkpt>
    <trkpt lat="50.261345" lon="16.997593">
      <ele>786</ele>
      <time>2026-05-07T09:57:46Z</time>
    </trkpt>
    <trkpt lat="50.261497" lon="16.997362">
      <ele>783</ele>
      <time>2026-05-07T09:58:07Z</time>
    </trkpt>
    <trkpt lat="50.261729" lon="16.996929">
      <ele>780</ele>
      <time>2026-05-07T09:58:43Z</time>
    </trkpt>
    <trkpt lat="50.261778" lon="16.996837">
      <ele>780</ele>
      <time>2026-05-07T09:58:51Z</time>
    </trkpt>
    <trkpt lat="50.26189" lon="16.996724">
      <ele>777</ele>
      <time>2026-05-07T09:59:05Z</time>
    </trkpt>
    <trkpt lat="50.262065" lon="16.996657">
      <ele>772</ele>
      <time>2026-05-07T09:59:23Z</time>
    </trkpt>
    <trkpt lat="50.262343" lon="16.996595">
      <ele>765</ele>
      <time>2026-05-07T09:59:52Z</time>
    </trkpt>
    <trkpt lat="50.26268" lon="16.996492">
      <ele>761</ele>
      <time>2026-05-07T10:00:27Z</time>
    </trkpt>
    <trkpt lat="50.262974" lon="16.996394">
      <ele>758</ele>
      <time>2026-05-07T10:00:57Z</time>
    </trkpt>
    <trkpt lat="50.263385" lon="16.996311">
      <ele>753</ele>
      <time>2026-05-07T10:01:39Z</time>
    </trkpt>
    <trkpt lat="50.263599" lon="16.996175">
      <ele>749</ele>
      <time>2026-05-07T10:02:02Z</time>
    </trkpt>
    <trkpt lat="50.263741" lon="16.995994">
      <ele>744</ele>
      <time>2026-05-07T10:02:21Z</time>
    </trkpt>
    <trkpt lat="50.263826" lon="16.995741">
      <ele>742</ele>
      <time>2026-05-07T10:02:40Z</time>
    </trkpt>
    <trkpt lat="50.263893" lon="16.995459">
      <ele>741</ele>
      <time>2026-05-07T10:02:59Z</time>
    </trkpt>
    <trkpt lat="50.263888" lon="16.995077">
      <ele>744</ele>
      <time>2026-05-07T10:03:24Z</time>
    </trkpt>
    <trkpt lat="50.263886" lon="16.99504">
      <ele>745</ele>
      <time>2026-05-07T10:03:26Z</time>
    </trkpt>
  </trkseg>
</trk>
</gpx>