<?xml version="1.0" encoding="UTF-8"?><gpx creator="https://mapa-turystyczna.pl" xmlns="http://www.topografix.com/GPX/1/1" version="1.1" xmlns:xsi="http://www.w3.org/2001/XMLSchema-instance" xsi:schemaLocation="http://www.topografix.com/GPX/1/1 http://www.topografix.com/GPX/1/1/gpx.xsd">
  <metadata>
    <link href="https://mapa-turystyczna.pl">
      <text>mapa-turystyczna.pl</text>
    </link>
    <time>2026-05-07T08:43:27Z</time>
    <bounds maxlat="50.310164" maxlon="17.020015" minlat="50.25995" minlon="16.949956"/>
  </metadata>

<trk>
  <name>Trasa przez: Kowadło</name>
  <link href="https://mapa-turystyczna.pl/route/zw90">
    <text>Trasa przez: Kowadło</text>
  </link>
  <trkseg>
    <trkpt lat="50.303016" lon="16.949956">
      <ele>574</ele>
      <time>2026-05-07T08:43:27Z</time>
    </trkpt>
    <trkpt lat="50.302896" lon="16.950971">
      <ele>578</ele>
      <time>2026-05-07T08:45:05Z</time>
    </trkpt>
    <trkpt lat="50.302914" lon="16.951197">
      <ele>578</ele>
      <time>2026-05-07T08:45:27Z</time>
    </trkpt>
    <trkpt lat="50.303" lon="16.95178">
      <ele>580</ele>
      <time>2026-05-07T08:46:20Z</time>
    </trkpt>
    <trkpt lat="50.303061" lon="16.952081">
      <ele>581</ele>
      <time>2026-05-07T08:46:48Z</time>
    </trkpt>
    <trkpt lat="50.303347" lon="16.952965">
      <ele>585</ele>
      <time>2026-05-07T08:48:16Z</time>
    </trkpt>
    <trkpt lat="50.303456" lon="16.95342">
      <ele>586</ele>
      <time>2026-05-07T08:48:59Z</time>
    </trkpt>
    <trkpt lat="50.30356" lon="16.954012">
      <ele>590</ele>
      <time>2026-05-07T08:49:54Z</time>
    </trkpt>
    <trkpt lat="50.303669" lon="16.954474">
      <ele>590</ele>
      <time>2026-05-07T08:50:38Z</time>
    </trkpt>
    <trkpt lat="50.303759" lon="16.95535">
      <ele>590</ele>
      <time>2026-05-07T08:51:57Z</time>
    </trkpt>
    <trkpt lat="50.303794" lon="16.955541">
      <ele>590</ele>
      <time>2026-05-07T08:52:14Z</time>
    </trkpt>
    <trkpt lat="50.303953" lon="16.956072">
      <ele>589</ele>
      <time>2026-05-07T08:53:06Z</time>
    </trkpt>
    <trkpt lat="50.304203" lon="16.956658">
      <ele>588</ele>
      <time>2026-05-07T08:54:09Z</time>
    </trkpt>
    <trkpt lat="50.30424" lon="16.956797">
      <ele>588</ele>
      <time>2026-05-07T08:54:22Z</time>
    </trkpt>
    <trkpt lat="50.30426" lon="16.956874">
      <ele>587</ele>
      <time>2026-05-07T08:54:30Z</time>
    </trkpt>
    <trkpt lat="50.30431" lon="16.957221">
      <ele>588</ele>
      <time>2026-05-07T08:55:01Z</time>
    </trkpt>
    <trkpt lat="50.304322" lon="16.957423">
      <ele>589</ele>
      <time>2026-05-07T08:55:19Z</time>
    </trkpt>
    <trkpt lat="50.304308" lon="16.95831">
      <ele>591</ele>
      <time>2026-05-07T08:56:38Z</time>
    </trkpt>
    <trkpt lat="50.30431" lon="16.958334">
      <ele>591</ele>
      <time>2026-05-07T08:56:40Z</time>
    </trkpt>
    <trkpt lat="50.304319" lon="16.958437">
      <ele>591</ele>
      <time>2026-05-07T08:56:50Z</time>
    </trkpt>
    <trkpt lat="50.304341" lon="16.958544">
      <ele>591</ele>
      <time>2026-05-07T08:57:00Z</time>
    </trkpt>
    <trkpt lat="50.304406" lon="16.95875">
      <ele>591</ele>
      <time>2026-05-07T08:57:20Z</time>
    </trkpt>
    <trkpt lat="50.304433" lon="16.958878">
      <ele>591</ele>
      <time>2026-05-07T08:57:32Z</time>
    </trkpt>
    <trkpt lat="50.304582" lon="16.958769">
      <ele>590</ele>
      <time>2026-05-07T08:57:55Z</time>
    </trkpt>
    <trkpt lat="50.304658" lon="16.958672">
      <ele>589</ele>
      <time>2026-05-07T08:58:08Z</time>
    </trkpt>
    <trkpt lat="50.304814" lon="16.95844">
      <ele>588</ele>
      <time>2026-05-07T08:58:38Z</time>
    </trkpt>
    <trkpt lat="50.304966" lon="16.958175">
      <ele>587</ele>
      <time>2026-05-07T08:59:10Z</time>
    </trkpt>
    <trkpt lat="50.305015" lon="16.958112">
      <ele>587</ele>
      <time>2026-05-07T08:59:19Z</time>
    </trkpt>
    <trkpt lat="50.305166" lon="16.958035">
      <ele>588</ele>
      <time>2026-05-07T08:59:41Z</time>
    </trkpt>
    <trkpt lat="50.30519" lon="16.958009">
      <ele>589</ele>
      <time>2026-05-07T08:59:45Z</time>
    </trkpt>
    <trkpt lat="50.305204" lon="16.957969">
      <ele>589</ele>
      <time>2026-05-07T08:59:49Z</time>
    </trkpt>
    <trkpt lat="50.305275" lon="16.958013">
      <ele>590</ele>
      <time>2026-05-07T09:00:00Z</time>
    </trkpt>
    <trkpt lat="50.305364" lon="16.958125">
      <ele>593</ele>
      <time>2026-05-07T09:00:16Z</time>
    </trkpt>
    <trkpt lat="50.305414" lon="16.958255">
      <ele>595</ele>
      <time>2026-05-07T09:00:30Z</time>
    </trkpt>
    <trkpt lat="50.305444" lon="16.958376">
      <ele>596</ele>
      <time>2026-05-07T09:00:42Z</time>
    </trkpt>
    <trkpt lat="50.305452" lon="16.958522">
      <ele>596</ele>
      <time>2026-05-07T09:00:55Z</time>
    </trkpt>
    <trkpt lat="50.305449" lon="16.958688">
      <ele>596</ele>
      <time>2026-05-07T09:01:09Z</time>
    </trkpt>
    <trkpt lat="50.305452" lon="16.958843">
      <ele>595</ele>
      <time>2026-05-07T09:01:23Z</time>
    </trkpt>
    <trkpt lat="50.305473" lon="16.959031">
      <ele>596</ele>
      <time>2026-05-07T09:01:40Z</time>
    </trkpt>
    <trkpt lat="50.305513" lon="16.959164">
      <ele>597</ele>
      <time>2026-05-07T09:01:53Z</time>
    </trkpt>
    <trkpt lat="50.305603" lon="16.959289">
      <ele>599</ele>
      <time>2026-05-07T09:02:10Z</time>
    </trkpt>
    <trkpt lat="50.305718" lon="16.959368">
      <ele>602</ele>
      <time>2026-05-07T09:02:28Z</time>
    </trkpt>
    <trkpt lat="50.305777" lon="16.959464">
      <ele>604</ele>
      <time>2026-05-07T09:02:40Z</time>
    </trkpt>
    <trkpt lat="50.305793" lon="16.959594">
      <ele>606</ele>
      <time>2026-05-07T09:02:52Z</time>
    </trkpt>
    <trkpt lat="50.305774" lon="16.959748">
      <ele>608</ele>
      <time>2026-05-07T09:03:06Z</time>
    </trkpt>
    <trkpt lat="50.305678" lon="16.95989">
      <ele>607</ele>
      <time>2026-05-07T09:03:25Z</time>
    </trkpt>
    <trkpt lat="50.305452" lon="16.960136">
      <ele>604</ele>
      <time>2026-05-07T09:04:03Z</time>
    </trkpt>
    <trkpt lat="50.305236" lon="16.96037">
      <ele>604</ele>
      <time>2026-05-07T09:04:39Z</time>
    </trkpt>
    <trkpt lat="50.305073" lon="16.960633">
      <ele>607</ele>
      <time>2026-05-07T09:05:12Z</time>
    </trkpt>
    <trkpt lat="50.30498" lon="16.960883">
      <ele>611</ele>
      <time>2026-05-07T09:05:38Z</time>
    </trkpt>
    <trkpt lat="50.304833" lon="16.9611">
      <ele>611</ele>
      <time>2026-05-07T09:06:06Z</time>
    </trkpt>
    <trkpt lat="50.304711" lon="16.961275">
      <ele>610</ele>
      <time>2026-05-07T09:06:29Z</time>
    </trkpt>
    <trkpt lat="50.304574" lon="16.961684">
      <ele>612</ele>
      <time>2026-05-07T09:07:10Z</time>
    </trkpt>
    <trkpt lat="50.304336" lon="16.962167">
      <ele>613</ele>
      <time>2026-05-07T09:08:05Z</time>
    </trkpt>
    <trkpt lat="50.30423" lon="16.962387">
      <ele>612</ele>
      <time>2026-05-07T09:08:29Z</time>
    </trkpt>
    <trkpt lat="50.304158" lon="16.96273">
      <ele>615</ele>
      <time>2026-05-07T09:09:01Z</time>
    </trkpt>
    <trkpt lat="50.304143" lon="16.962981">
      <ele>617</ele>
      <time>2026-05-07T09:09:24Z</time>
    </trkpt>
    <trkpt lat="50.304147" lon="16.963262">
      <ele>620</ele>
      <time>2026-05-07T09:09:49Z</time>
    </trkpt>
    <trkpt lat="50.304183" lon="16.963585">
      <ele>622</ele>
      <time>2026-05-07T09:10:18Z</time>
    </trkpt>
    <trkpt lat="50.304278" lon="16.964199">
      <ele>624</ele>
      <time>2026-05-07T09:11:15Z</time>
    </trkpt>
    <trkpt lat="50.30435" lon="16.964431">
      <ele>624</ele>
      <time>2026-05-07T09:11:37Z</time>
    </trkpt>
    <trkpt lat="50.304433" lon="16.964634">
      <ele>624</ele>
      <time>2026-05-07T09:11:59Z</time>
    </trkpt>
    <trkpt lat="50.304542" lon="16.964816">
      <ele>624</ele>
      <time>2026-05-07T09:12:21Z</time>
    </trkpt>
    <trkpt lat="50.304721" lon="16.96493">
      <ele>626</ele>
      <time>2026-05-07T09:12:48Z</time>
    </trkpt>
    <trkpt lat="50.305038" lon="16.965063">
      <ele>628</ele>
      <time>2026-05-07T09:13:34Z</time>
    </trkpt>
    <trkpt lat="50.305447" lon="16.965258">
      <ele>630</ele>
      <time>2026-05-07T09:14:33Z</time>
    </trkpt>
    <trkpt lat="50.305692" lon="16.965431">
      <ele>631</ele>
      <time>2026-05-07T09:15:10Z</time>
    </trkpt>
    <trkpt lat="50.305963" lon="16.965638">
      <ele>632</ele>
      <time>2026-05-07T09:15:52Z</time>
    </trkpt>
    <trkpt lat="50.306406" lon="16.966002">
      <ele>637</ele>
      <time>2026-05-07T09:17:02Z</time>
    </trkpt>
    <trkpt lat="50.30666" lon="16.966151">
      <ele>637</ele>
      <time>2026-05-07T09:17:40Z</time>
    </trkpt>
    <trkpt lat="50.30716" lon="16.966347">
      <ele>639</ele>
      <time>2026-05-07T09:18:52Z</time>
    </trkpt>
    <trkpt lat="50.307623" lon="16.966659">
      <ele>639</ele>
      <time>2026-05-07T09:20:02Z</time>
    </trkpt>
    <trkpt lat="50.307865" lon="16.966744">
      <ele>639</ele>
      <time>2026-05-07T09:20:36Z</time>
    </trkpt>
    <trkpt lat="50.308113" lon="16.966846">
      <ele>639</ele>
      <time>2026-05-07T09:21:12Z</time>
    </trkpt>
    <trkpt lat="50.308307" lon="16.967024">
      <ele>640</ele>
      <time>2026-05-07T09:21:43Z</time>
    </trkpt>
    <trkpt lat="50.308444" lon="16.967191">
      <ele>640</ele>
      <time>2026-05-07T09:22:07Z</time>
    </trkpt>
    <trkpt lat="50.308484" lon="16.96729">
      <ele>640</ele>
      <time>2026-05-07T09:22:18Z</time>
    </trkpt>
    <trkpt lat="50.308592" lon="16.967451">
      <ele>640</ele>
      <time>2026-05-07T09:22:38Z</time>
    </trkpt>
    <trkpt lat="50.308641" lon="16.967503">
      <ele>640</ele>
      <time>2026-05-07T09:22:46Z</time>
    </trkpt>
    <trkpt lat="50.308797" lon="16.967593">
      <ele>641</ele>
      <time>2026-05-07T09:23:10Z</time>
    </trkpt>
    <trkpt lat="50.308915" lon="16.967653">
      <ele>642</ele>
      <time>2026-05-07T09:23:27Z</time>
    </trkpt>
    <trkpt lat="50.309022" lon="16.967733">
      <ele>642</ele>
      <time>2026-05-07T09:23:43Z</time>
    </trkpt>
    <trkpt lat="50.30911" lon="16.968">
      <ele>643</ele>
      <time>2026-05-07T09:24:10Z</time>
    </trkpt>
    <trkpt lat="50.309152" lon="16.968179">
      <ele>643</ele>
      <time>2026-05-07T09:24:27Z</time>
    </trkpt>
    <trkpt lat="50.309196" lon="16.968311">
      <ele>644</ele>
      <time>2026-05-07T09:24:40Z</time>
    </trkpt>
    <trkpt lat="50.30928" lon="16.968442">
      <ele>646</ele>
      <time>2026-05-07T09:24:57Z</time>
    </trkpt>
    <trkpt lat="50.309501" lon="16.968626">
      <ele>650</ele>
      <time>2026-05-07T09:25:32Z</time>
    </trkpt>
    <trkpt lat="50.309511" lon="16.968593">
      <ele>649</ele>
      <time>2026-05-07T09:25:35Z</time>
    </trkpt>
    <trkpt lat="50.309573" lon="16.968801">
      <ele>653</ele>
      <time>2026-05-07T09:25:56Z</time>
    </trkpt>
    <trkpt lat="50.309653" lon="16.969064">
      <ele>657</ele>
      <time>2026-05-07T09:26:22Z</time>
    </trkpt>
    <trkpt lat="50.30977" lon="16.969339">
      <ele>662</ele>
      <time>2026-05-07T09:26:52Z</time>
    </trkpt>
    <trkpt lat="50.309847" lon="16.969733">
      <ele>667</ele>
      <time>2026-05-07T09:27:30Z</time>
    </trkpt>
    <trkpt lat="50.30996" lon="16.97006">
      <ele>671</ele>
      <time>2026-05-07T09:28:03Z</time>
    </trkpt>
    <trkpt lat="50.310017" lon="16.970332">
      <ele>674</ele>
      <time>2026-05-07T09:28:29Z</time>
    </trkpt>
    <trkpt lat="50.310107" lon="16.970645">
      <ele>677</ele>
      <time>2026-05-07T09:28:59Z</time>
    </trkpt>
    <trkpt lat="50.310159" lon="16.971133">
      <ele>682</ele>
      <time>2026-05-07T09:29:44Z</time>
    </trkpt>
    <trkpt lat="50.310164" lon="16.971621">
      <ele>684</ele>
      <time>2026-05-07T09:30:27Z</time>
    </trkpt>
    <trkpt lat="50.310081" lon="16.971602">
      <ele>687</ele>
      <time>2026-05-07T09:30:40Z</time>
    </trkpt>
    <trkpt lat="50.309967" lon="16.971564">
      <ele>688</ele>
      <time>2026-05-07T09:30:57Z</time>
    </trkpt>
    <trkpt lat="50.309888" lon="16.971586">
      <ele>690</ele>
      <time>2026-05-07T09:31:08Z</time>
    </trkpt>
    <trkpt lat="50.309775" lon="16.971636">
      <ele>693</ele>
      <time>2026-05-07T09:31:26Z</time>
    </trkpt>
    <trkpt lat="50.308894" lon="16.972349">
      <ele>702</ele>
      <time>2026-05-07T09:33:50Z</time>
    </trkpt>
    <trkpt lat="50.308389" lon="16.973027">
      <ele>701</ele>
      <time>2026-05-07T09:35:26Z</time>
    </trkpt>
    <trkpt lat="50.308342" lon="16.973127">
      <ele>701</ele>
      <time>2026-05-07T09:35:37Z</time>
    </trkpt>
    <trkpt lat="50.308163" lon="16.973512">
      <ele>701</ele>
      <time>2026-05-07T09:36:21Z</time>
    </trkpt>
    <trkpt lat="50.307802" lon="16.97456">
      <ele>703</ele>
      <time>2026-05-07T09:38:11Z</time>
    </trkpt>
    <trkpt lat="50.307687" lon="16.97509">
      <ele>703</ele>
      <time>2026-05-07T09:39:02Z</time>
    </trkpt>
    <trkpt lat="50.307542" lon="16.975673">
      <ele>705</ele>
      <time>2026-05-07T09:40:00Z</time>
    </trkpt>
    <trkpt lat="50.307317" lon="16.97628">
      <ele>705</ele>
      <time>2026-05-07T09:41:05Z</time>
    </trkpt>
    <trkpt lat="50.307174" lon="16.976652">
      <ele>704</ele>
      <time>2026-05-07T09:41:45Z</time>
    </trkpt>
    <trkpt lat="50.306992" lon="16.977505">
      <ele>706</ele>
      <time>2026-05-07T09:43:08Z</time>
    </trkpt>
    <trkpt lat="50.306603" lon="16.979312">
      <ele>718</ele>
      <time>2026-05-07T09:46:05Z</time>
    </trkpt>
    <trkpt lat="50.306442" lon="16.979957">
      <ele>726</ele>
      <time>2026-05-07T09:47:09Z</time>
    </trkpt>
    <trkpt lat="50.306244" lon="16.98082">
      <ele>738</ele>
      <time>2026-05-07T09:48:35Z</time>
    </trkpt>
    <trkpt lat="50.306196" lon="16.98111">
      <ele>744</ele>
      <time>2026-05-07T09:49:04Z</time>
    </trkpt>
    <trkpt lat="50.30608" lon="16.981645">
      <ele>755</ele>
      <time>2026-05-07T09:49:58Z</time>
    </trkpt>
    <trkpt lat="50.306031" lon="16.982186">
      <ele>763</ele>
      <time>2026-05-07T09:50:50Z</time>
    </trkpt>
    <trkpt lat="50.305987" lon="16.982449">
      <ele>766</ele>
      <time>2026-05-07T09:51:15Z</time>
    </trkpt>
    <trkpt lat="50.305989" lon="16.982698">
      <ele>769</ele>
      <time>2026-05-07T09:51:38Z</time>
    </trkpt>
    <trkpt lat="50.305959" lon="16.982865">
      <ele>771</ele>
      <time>2026-05-07T09:51:54Z</time>
    </trkpt>
    <trkpt lat="50.305911" lon="16.983111">
      <ele>773</ele>
      <time>2026-05-07T09:52:18Z</time>
    </trkpt>
    <trkpt lat="50.305889" lon="16.983282">
      <ele>774</ele>
      <time>2026-05-07T09:52:34Z</time>
    </trkpt>
    <trkpt lat="50.305845" lon="16.983421">
      <ele>775</ele>
      <time>2026-05-07T09:52:49Z</time>
    </trkpt>
    <trkpt lat="50.305771" lon="16.98362">
      <ele>775</ele>
      <time>2026-05-07T09:53:10Z</time>
    </trkpt>
    <trkpt lat="50.305669" lon="16.983835">
      <ele>776</ele>
      <time>2026-05-07T09:53:35Z</time>
    </trkpt>
    <trkpt lat="50.305525" lon="16.984074">
      <ele>776</ele>
      <time>2026-05-07T09:54:05Z</time>
    </trkpt>
    <trkpt lat="50.30523" lon="16.98437">
      <ele>778</ele>
      <time>2026-05-07T09:54:56Z</time>
    </trkpt>
    <trkpt lat="50.305124" lon="16.984493">
      <ele>778</ele>
      <time>2026-05-07T09:55:15Z</time>
    </trkpt>
    <trkpt lat="50.305063" lon="16.984647">
      <ele>779</ele>
      <time>2026-05-07T09:55:32Z</time>
    </trkpt>
    <trkpt lat="50.304993" lon="16.984831">
      <ele>779</ele>
      <time>2026-05-07T09:55:51Z</time>
    </trkpt>
    <trkpt lat="50.304886" lon="16.98506">
      <ele>780</ele>
      <time>2026-05-07T09:56:18Z</time>
    </trkpt>
    <trkpt lat="50.30479" lon="16.985258">
      <ele>782</ele>
      <time>2026-05-07T09:56:41Z</time>
    </trkpt>
    <trkpt lat="50.304762" lon="16.985439">
      <ele>783</ele>
      <time>2026-05-07T09:56:58Z</time>
    </trkpt>
    <trkpt lat="50.304746" lon="16.985627">
      <ele>784</ele>
      <time>2026-05-07T09:57:15Z</time>
    </trkpt>
    <trkpt lat="50.304749" lon="16.985818">
      <ele>786</ele>
      <time>2026-05-07T09:57:33Z</time>
    </trkpt>
    <trkpt lat="50.304709" lon="16.986019">
      <ele>788</ele>
      <time>2026-05-07T09:57:53Z</time>
    </trkpt>
    <trkpt lat="50.304657" lon="16.986313">
      <ele>790</ele>
      <time>2026-05-07T09:58:21Z</time>
    </trkpt>
    <trkpt lat="50.304583" lon="16.986596">
      <ele>792</ele>
      <time>2026-05-07T09:58:49Z</time>
    </trkpt>
    <trkpt lat="50.304448" lon="16.986934">
      <ele>796</ele>
      <time>2026-05-07T09:59:26Z</time>
    </trkpt>
    <trkpt lat="50.304291" lon="16.987201">
      <ele>796</ele>
      <time>2026-05-07T10:00:00Z</time>
    </trkpt>
    <trkpt lat="50.304208" lon="16.987457">
      <ele>795</ele>
      <time>2026-05-07T10:00:26Z</time>
    </trkpt>
    <trkpt lat="50.304162" lon="16.987535">
      <ele>795</ele>
      <time>2026-05-07T10:00:36Z</time>
    </trkpt>
    <trkpt lat="50.304081" lon="16.987743">
      <ele>795</ele>
      <time>2026-05-07T10:00:59Z</time>
    </trkpt>
    <trkpt lat="50.304042" lon="16.98787">
      <ele>794</ele>
      <time>2026-05-07T10:01:12Z</time>
    </trkpt>
    <trkpt lat="50.303977" lon="16.987969">
      <ele>792</ele>
      <time>2026-05-07T10:01:25Z</time>
    </trkpt>
    <trkpt lat="50.303918" lon="16.98802">
      <ele>791</ele>
      <time>2026-05-07T10:01:35Z</time>
    </trkpt>
    <trkpt lat="50.303863" lon="16.988136">
      <ele>789</ele>
      <time>2026-05-07T10:01:48Z</time>
    </trkpt>
    <trkpt lat="50.303837" lon="16.988266">
      <ele>787</ele>
      <time>2026-05-07T10:02:01Z</time>
    </trkpt>
    <trkpt lat="50.303789" lon="16.988392">
      <ele>786</ele>
      <time>2026-05-07T10:02:15Z</time>
    </trkpt>
    <trkpt lat="50.303696" lon="16.988607">
      <ele>784</ele>
      <time>2026-05-07T10:02:39Z</time>
    </trkpt>
    <trkpt lat="50.303639" lon="16.988808">
      <ele>783</ele>
      <time>2026-05-07T10:02:59Z</time>
    </trkpt>
    <trkpt lat="50.303572" lon="16.989076">
      <ele>782</ele>
      <time>2026-05-07T10:03:26Z</time>
    </trkpt>
    <trkpt lat="50.303567" lon="16.989095">
      <ele>782</ele>
      <time>2026-05-07T10:03:28Z</time>
    </trkpt>
    <trkpt lat="50.303395" lon="16.98973">
      <ele>780</ele>
      <time>2026-05-07T10:04:31Z</time>
    </trkpt>
    <trkpt lat="50.303093" lon="16.990625">
      <ele>779</ele>
      <time>2026-05-07T10:06:05Z</time>
    </trkpt>
    <trkpt lat="50.302671" lon="16.99213">
      <ele>784</ele>
      <time>2026-05-07T10:08:37Z</time>
    </trkpt>
    <trkpt lat="50.302531" lon="16.992751">
      <ele>790</ele>
      <time>2026-05-07T10:09:38Z</time>
    </trkpt>
    <trkpt lat="50.302374" lon="16.993414">
      <ele>793</ele>
      <time>2026-05-07T10:10:43Z</time>
    </trkpt>
    <trkpt lat="50.302346" lon="16.993779">
      <ele>795</ele>
      <time>2026-05-07T10:11:17Z</time>
    </trkpt>
    <trkpt lat="50.302328" lon="16.994107">
      <ele>796</ele>
      <time>2026-05-07T10:11:48Z</time>
    </trkpt>
    <trkpt lat="50.302322" lon="16.994533">
      <ele>799</ele>
      <time>2026-05-07T10:12:27Z</time>
    </trkpt>
    <trkpt lat="50.302363" lon="16.994851">
      <ele>802</ele>
      <time>2026-05-07T10:12:57Z</time>
    </trkpt>
    <trkpt lat="50.302396" lon="16.995161">
      <ele>805</ele>
      <time>2026-05-07T10:13:26Z</time>
    </trkpt>
    <trkpt lat="50.302413" lon="16.995428">
      <ele>807</ele>
      <time>2026-05-07T10:13:51Z</time>
    </trkpt>
    <trkpt lat="50.3024" lon="16.995656">
      <ele>808</ele>
      <time>2026-05-07T10:14:12Z</time>
    </trkpt>
    <trkpt lat="50.302289" lon="16.996257">
      <ele>807</ele>
      <time>2026-05-07T10:15:10Z</time>
    </trkpt>
    <trkpt lat="50.30225" lon="16.996742">
      <ele>803</ele>
      <time>2026-05-07T10:15:55Z</time>
    </trkpt>
    <trkpt lat="50.302252" lon="16.997213">
      <ele>799</ele>
      <time>2026-05-07T10:16:39Z</time>
    </trkpt>
    <trkpt lat="50.302317" lon="16.997626">
      <ele>801</ele>
      <time>2026-05-07T10:17:19Z</time>
    </trkpt>
    <trkpt lat="50.302459" lon="16.998148">
      <ele>807</ele>
      <time>2026-05-07T10:18:12Z</time>
    </trkpt>
    <trkpt lat="50.302479" lon="16.998319">
      <ele>810</ele>
      <time>2026-05-07T10:18:28Z</time>
    </trkpt>
    <trkpt lat="50.302522" lon="16.998517">
      <ele>812</ele>
      <time>2026-05-07T10:18:47Z</time>
    </trkpt>
    <trkpt lat="50.302566" lon="16.998643">
      <ele>813</ele>
      <time>2026-05-07T10:19:01Z</time>
    </trkpt>
    <trkpt lat="50.30259" lon="16.99878">
      <ele>815</ele>
      <time>2026-05-07T10:19:14Z</time>
    </trkpt>
    <trkpt lat="50.302596" lon="16.999015">
      <ele>818</ele>
      <time>2026-05-07T10:19:36Z</time>
    </trkpt>
    <trkpt lat="50.302614" lon="16.999142">
      <ele>820</ele>
      <time>2026-05-07T10:19:48Z</time>
    </trkpt>
    <trkpt lat="50.302636" lon="16.999309">
      <ele>822</ele>
      <time>2026-05-07T10:20:04Z</time>
    </trkpt>
    <trkpt lat="50.302716" lon="16.999517">
      <ele>825</ele>
      <time>2026-05-07T10:20:27Z</time>
    </trkpt>
    <trkpt lat="50.302868" lon="16.999866">
      <ele>830</ele>
      <time>2026-05-07T10:20:56Z</time>
    </trkpt>
    <trkpt lat="50.303024" lon="17.000291">
      <ele>836</ele>
      <time>2026-05-07T10:21:31Z</time>
    </trkpt>
    <trkpt lat="50.303055" lon="17.000445">
      <ele>838</ele>
      <time>2026-05-07T10:21:42Z</time>
    </trkpt>
    <trkpt lat="50.303084" lon="17.00065">
      <ele>841</ele>
      <time>2026-05-07T10:21:57Z</time>
    </trkpt>
    <trkpt lat="50.303086" lon="17.000867">
      <ele>842</ele>
      <time>2026-05-07T10:22:12Z</time>
    </trkpt>
    <trkpt lat="50.303035" lon="17.001069">
      <ele>845</ele>
      <time>2026-05-07T10:22:27Z</time>
    </trkpt>
    <trkpt lat="50.302629" lon="17.001866">
      <ele>850</ele>
      <time>2026-05-07T10:23:37Z</time>
    </trkpt>
    <trkpt lat="50.302309" lon="17.002404">
      <ele>850</ele>
      <time>2026-05-07T10:24:27Z</time>
    </trkpt>
    <trkpt lat="50.302162" lon="17.002596">
      <ele>848</ele>
      <time>2026-05-07T10:24:48Z</time>
    </trkpt>
    <trkpt lat="50.301834" lon="17.002835">
      <ele>846</ele>
      <time>2026-05-07T10:25:27Z</time>
    </trkpt>
    <trkpt lat="50.301754" lon="17.003019">
      <ele>845</ele>
      <time>2026-05-07T10:25:52Z</time>
    </trkpt>
    <trkpt lat="50.301645" lon="17.003171">
      <ele>845</ele>
      <time>2026-05-07T10:26:18Z</time>
    </trkpt>
    <trkpt lat="50.301529" lon="17.003381">
      <ele>846</ele>
      <time>2026-05-07T10:26:49Z</time>
    </trkpt>
    <trkpt lat="50.301405" lon="17.00351">
      <ele>847</ele>
      <time>2026-05-07T10:27:15Z</time>
    </trkpt>
    <trkpt lat="50.301218" lon="17.003726">
      <ele>850</ele>
      <time>2026-05-07T10:27:56Z</time>
    </trkpt>
    <trkpt lat="50.301008" lon="17.00398">
      <ele>853</ele>
      <time>2026-05-07T10:28:43Z</time>
    </trkpt>
    <trkpt lat="50.300757" lon="17.004329">
      <ele>855</ele>
      <time>2026-05-07T10:29:42Z</time>
    </trkpt>
    <trkpt lat="50.300427" lon="17.004654">
      <ele>862</ele>
      <time>2026-05-07T10:30:52Z</time>
    </trkpt>
    <trkpt lat="50.300383" lon="17.004721">
      <ele>863</ele>
      <time>2026-05-07T10:31:03Z</time>
    </trkpt>
    <trkpt lat="50.300324" lon="17.004895">
      <ele>864</ele>
      <time>2026-05-07T10:31:25Z</time>
    </trkpt>
    <trkpt lat="50.300232" lon="17.005047">
      <ele>864</ele>
      <time>2026-05-07T10:31:49Z</time>
    </trkpt>
    <trkpt lat="50.300128" lon="17.00515">
      <ele>866</ele>
      <time>2026-05-07T10:32:10Z</time>
    </trkpt>
    <trkpt lat="50.299779" lon="17.00534">
      <ele>870</ele>
      <time>2026-05-07T10:33:16Z</time>
    </trkpt>
    <trkpt lat="50.299505" lon="17.00547">
      <ele>871</ele>
      <time>2026-05-07T10:34:06Z</time>
    </trkpt>
    <trkpt lat="50.299307" lon="17.005609">
      <ele>873</ele>
      <time>2026-05-07T10:34:44Z</time>
    </trkpt>
    <trkpt lat="50.299019" lon="17.005804">
      <ele>877</ele>
      <time>2026-05-07T10:35:40Z</time>
    </trkpt>
    <trkpt lat="50.298478" lon="17.005944">
      <ele>885</ele>
      <time>2026-05-07T10:37:17Z</time>
    </trkpt>
    <trkpt lat="50.298228" lon="17.005968">
      <ele>888</ele>
      <time>2026-05-07T10:38:02Z</time>
    </trkpt>
    <trkpt lat="50.298012" lon="17.005975">
      <ele>891</ele>
      <time>2026-05-07T10:38:40Z</time>
    </trkpt>
    <trkpt lat="50.297702" lon="17.006085">
      <ele>891</ele>
      <time>2026-05-07T10:39:36Z</time>
    </trkpt>
    <trkpt lat="50.297457" lon="17.006141">
      <ele>892</ele>
      <time>2026-05-07T10:40:19Z</time>
    </trkpt>
    <trkpt lat="50.297407" lon="17.006166">
      <ele>893</ele>
      <time>2026-05-07T10:40:29Z</time>
    </trkpt>
    <trkpt lat="50.297179" lon="17.005928">
      <ele>902</ele>
      <time>2026-05-07T10:41:19Z</time>
    </trkpt>
    <trkpt lat="50.296921" lon="17.005465">
      <ele>915</ele>
      <time>2026-05-07T10:42:31Z</time>
    </trkpt>
    <trkpt lat="50.296331" lon="17.005278">
      <ele>926</ele>
      <time>2026-05-07T10:44:18Z</time>
    </trkpt>
    <trkpt lat="50.296083" lon="17.005745">
      <ele>922</ele>
      <time>2026-05-07T10:45:27Z</time>
    </trkpt>
    <trkpt lat="50.295972" lon="17.006641">
      <ele>914</ele>
      <time>2026-05-07T10:46:44Z</time>
    </trkpt>
    <trkpt lat="50.295861" lon="17.007548">
      <ele>916</ele>
      <time>2026-05-07T10:48:01Z</time>
    </trkpt>
    <trkpt lat="50.295787" lon="17.008085">
      <ele>918</ele>
      <time>2026-05-07T10:48:47Z</time>
    </trkpt>
    <trkpt lat="50.295738" lon="17.008245">
      <ele>919</ele>
      <time>2026-05-07T10:49:02Z</time>
    </trkpt>
    <trkpt lat="50.295671" lon="17.008409">
      <ele>918</ele>
      <time>2026-05-07T10:49:18Z</time>
    </trkpt>
    <trkpt lat="50.295323" lon="17.008996">
      <ele>905</ele>
      <time>2026-05-07T10:50:27Z</time>
    </trkpt>
    <trkpt lat="50.294192" lon="17.009527">
      <ele>913</ele>
      <time>2026-05-07T10:52:40Z</time>
    </trkpt>
    <trkpt lat="50.293512" lon="17.009755">
      <ele>915</ele>
      <time>2026-05-07T10:53:58Z</time>
    </trkpt>
    <trkpt lat="50.293425" lon="17.009798">
      <ele>915</ele>
      <time>2026-05-07T10:54:08Z</time>
    </trkpt>
    <trkpt lat="50.293367" lon="17.009862">
      <ele>915</ele>
      <time>2026-05-07T10:54:16Z</time>
    </trkpt>
    <trkpt lat="50.292867" lon="17.010305">
      <ele>915</ele>
      <time>2026-05-07T10:55:21Z</time>
    </trkpt>
    <trkpt lat="50.291628" lon="17.011705">
      <ele>895</ele>
      <time>2026-05-07T10:58:14Z</time>
    </trkpt>
    <trkpt lat="50.291265" lon="17.012068">
      <ele>892</ele>
      <time>2026-05-07T10:59:02Z</time>
    </trkpt>
    <trkpt lat="50.291152" lon="17.01216">
      <ele>892</ele>
      <time>2026-05-07T10:59:17Z</time>
    </trkpt>
    <trkpt lat="50.291089" lon="17.012157">
      <ele>892</ele>
      <time>2026-05-07T10:59:24Z</time>
    </trkpt>
    <trkpt lat="50.290986" lon="17.012185">
      <ele>893</ele>
      <time>2026-05-07T10:59:36Z</time>
    </trkpt>
    <trkpt lat="50.290917" lon="17.012261">
      <ele>895</ele>
      <time>2026-05-07T10:59:45Z</time>
    </trkpt>
    <trkpt lat="50.290622" lon="17.012497">
      <ele>904</ele>
      <time>2026-05-07T11:00:24Z</time>
    </trkpt>
    <trkpt lat="50.290496" lon="17.012573">
      <ele>907</ele>
      <time>2026-05-07T11:00:39Z</time>
    </trkpt>
    <trkpt lat="50.289857" lon="17.012907">
      <ele>915</ele>
      <time>2026-05-07T11:01:55Z</time>
    </trkpt>
    <trkpt lat="50.289652" lon="17.013038">
      <ele>917</ele>
      <time>2026-05-07T11:02:20Z</time>
    </trkpt>
    <trkpt lat="50.28944" lon="17.013263">
      <ele>920</ele>
      <time>2026-05-07T11:02:49Z</time>
    </trkpt>
    <trkpt lat="50.289074" lon="17.01374">
      <ele>921</ele>
      <time>2026-05-07T11:03:43Z</time>
    </trkpt>
    <trkpt lat="50.288525" lon="17.014568">
      <ele>924</ele>
      <time>2026-05-07T11:05:08Z</time>
    </trkpt>
    <trkpt lat="50.288441" lon="17.014683">
      <ele>925</ele>
      <time>2026-05-07T11:05:21Z</time>
    </trkpt>
    <trkpt lat="50.288289" lon="17.014779">
      <ele>925</ele>
      <time>2026-05-07T11:05:39Z</time>
    </trkpt>
    <trkpt lat="50.288109" lon="17.014868">
      <ele>925</ele>
      <time>2026-05-07T11:06:01Z</time>
    </trkpt>
    <trkpt lat="50.287556" lon="17.015084">
      <ele>920</ele>
      <time>2026-05-07T11:07:05Z</time>
    </trkpt>
    <trkpt lat="50.287425" lon="17.015158">
      <ele>919</ele>
      <time>2026-05-07T11:07:21Z</time>
    </trkpt>
    <trkpt lat="50.287009" lon="17.015546">
      <ele>913</ele>
      <time>2026-05-07T11:08:15Z</time>
    </trkpt>
    <trkpt lat="50.286698" lon="17.015816">
      <ele>908</ele>
      <time>2026-05-07T11:08:56Z</time>
    </trkpt>
    <trkpt lat="50.286487" lon="17.015918">
      <ele>906</ele>
      <time>2026-05-07T11:09:20Z</time>
    </trkpt>
    <trkpt lat="50.285921" lon="17.016162">
      <ele>903</ele>
      <time>2026-05-07T11:10:27Z</time>
    </trkpt>
    <trkpt lat="50.285711" lon="17.016266">
      <ele>901</ele>
      <time>2026-05-07T11:10:51Z</time>
    </trkpt>
    <trkpt lat="50.285336" lon="17.016504">
      <ele>898</ele>
      <time>2026-05-07T11:11:37Z</time>
    </trkpt>
    <trkpt lat="50.28517" lon="17.016529">
      <ele>897</ele>
      <time>2026-05-07T11:11:56Z</time>
    </trkpt>
    <trkpt lat="50.284647" lon="17.016556">
      <ele>900</ele>
      <time>2026-05-07T11:12:55Z</time>
    </trkpt>
    <trkpt lat="50.284262" lon="17.016525">
      <ele>902</ele>
      <time>2026-05-07T11:13:38Z</time>
    </trkpt>
    <trkpt lat="50.283867" lon="17.016523">
      <ele>902</ele>
      <time>2026-05-07T11:14:22Z</time>
    </trkpt>
    <trkpt lat="50.283412" lon="17.016599">
      <ele>908</ele>
      <time>2026-05-07T11:15:14Z</time>
    </trkpt>
    <trkpt lat="50.283298" lon="17.016617">
      <ele>908</ele>
      <time>2026-05-07T11:15:27Z</time>
    </trkpt>
    <trkpt lat="50.283212" lon="17.016631">
      <ele>909</ele>
      <time>2026-05-07T11:15:39Z</time>
    </trkpt>
    <trkpt lat="50.283139" lon="17.016637">
      <ele>909</ele>
      <time>2026-05-07T11:15:49Z</time>
    </trkpt>
    <trkpt lat="50.283072" lon="17.016677">
      <ele>910</ele>
      <time>2026-05-07T11:15:59Z</time>
    </trkpt>
    <trkpt lat="50.282995" lon="17.01676">
      <ele>910</ele>
      <time>2026-05-07T11:16:12Z</time>
    </trkpt>
    <trkpt lat="50.282909" lon="17.016867">
      <ele>910</ele>
      <time>2026-05-07T11:16:27Z</time>
    </trkpt>
    <trkpt lat="50.282751" lon="17.016945">
      <ele>910</ele>
      <time>2026-05-07T11:16:48Z</time>
    </trkpt>
    <trkpt lat="50.282337" lon="17.017174">
      <ele>914</ele>
      <time>2026-05-07T11:17:44Z</time>
    </trkpt>
    <trkpt lat="50.282122" lon="17.017235">
      <ele>915</ele>
      <time>2026-05-07T11:18:12Z</time>
    </trkpt>
    <trkpt lat="50.281955" lon="17.017284">
      <ele>915</ele>
      <time>2026-05-07T11:18:33Z</time>
    </trkpt>
    <trkpt lat="50.281025" lon="17.017448">
      <ele>920</ele>
      <time>2026-05-07T11:20:32Z</time>
    </trkpt>
    <trkpt lat="50.2808" lon="17.017511">
      <ele>921</ele>
      <time>2026-05-07T11:21:01Z</time>
    </trkpt>
    <trkpt lat="50.280631" lon="17.017584">
      <ele>922</ele>
      <time>2026-05-07T11:21:23Z</time>
    </trkpt>
    <trkpt lat="50.280401" lon="17.017702">
      <ele>924</ele>
      <time>2026-05-07T11:21:54Z</time>
    </trkpt>
    <trkpt lat="50.280281" lon="17.017795">
      <ele>924</ele>
      <time>2026-05-07T11:22:11Z</time>
    </trkpt>
    <trkpt lat="50.280107" lon="17.017969">
      <ele>924</ele>
      <time>2026-05-07T11:22:37Z</time>
    </trkpt>
    <trkpt lat="50.279829" lon="17.01832">
      <ele>927</ele>
      <time>2026-05-07T11:23:23Z</time>
    </trkpt>
    <trkpt lat="50.279703" lon="17.018501">
      <ele>930</ele>
      <time>2026-05-07T11:23:45Z</time>
    </trkpt>
    <trkpt lat="50.279612" lon="17.0186">
      <ele>931</ele>
      <time>2026-05-07T11:23:59Z</time>
    </trkpt>
    <trkpt lat="50.279198" lon="17.018944">
      <ele>936</ele>
      <time>2026-05-07T11:24:58Z</time>
    </trkpt>
    <trkpt lat="50.279052" lon="17.019128">
      <ele>936</ele>
      <time>2026-05-07T11:25:22Z</time>
    </trkpt>
    <trkpt lat="50.278716" lon="17.019678">
      <ele>940</ele>
      <time>2026-05-07T11:26:24Z</time>
    </trkpt>
    <trkpt lat="50.27863" lon="17.019872">
      <ele>942</ele>
      <time>2026-05-07T11:26:43Z</time>
    </trkpt>
    <trkpt lat="50.278524" lon="17.01992">
      <ele>941</ele>
      <time>2026-05-07T11:26:57Z</time>
    </trkpt>
    <trkpt lat="50.278403" lon="17.019975">
      <ele>940</ele>
      <time>2026-05-07T11:27:13Z</time>
    </trkpt>
    <trkpt lat="50.278278" lon="17.020015">
      <ele>939</ele>
      <time>2026-05-07T11:27:30Z</time>
    </trkpt>
    <trkpt lat="50.278161" lon="17.019925">
      <ele>937</ele>
      <time>2026-05-07T11:27:46Z</time>
    </trkpt>
    <trkpt lat="50.277984" lon="17.019759">
      <ele>934</ele>
      <time>2026-05-07T11:28:13Z</time>
    </trkpt>
    <trkpt lat="50.277618" lon="17.019568">
      <ele>929</ele>
      <time>2026-05-07T11:29:02Z</time>
    </trkpt>
    <trkpt lat="50.277115" lon="17.019269">
      <ele>918</ele>
      <time>2026-05-07T11:30:11Z</time>
    </trkpt>
    <trkpt lat="50.276571" lon="17.019087">
      <ele>907</ele>
      <time>2026-05-07T11:31:23Z</time>
    </trkpt>
    <trkpt lat="50.275424" lon="17.018518">
      <ele>888</ele>
      <time>2026-05-07T11:33:57Z</time>
    </trkpt>
    <trkpt lat="50.273929" lon="17.017832">
      <ele>877</ele>
      <time>2026-05-07T11:37:15Z</time>
    </trkpt>
    <trkpt lat="50.273526" lon="17.017785">
      <ele>872</ele>
      <time>2026-05-07T11:38:07Z</time>
    </trkpt>
    <trkpt lat="50.273023" lon="17.017788">
      <ele>866</ele>
      <time>2026-05-07T11:39:11Z</time>
    </trkpt>
    <trkpt lat="50.272192" lon="17.017916">
      <ele>856</ele>
      <time>2026-05-07T11:40:57Z</time>
    </trkpt>
    <trkpt lat="50.271982" lon="17.018032">
      <ele>848</ele>
      <time>2026-05-07T11:41:27Z</time>
    </trkpt>
    <trkpt lat="50.271768" lon="17.018038">
      <ele>853</ele>
      <time>2026-05-07T11:42:13Z</time>
    </trkpt>
    <trkpt lat="50.271565" lon="17.018079">
      <ele>854</ele>
      <time>2026-05-07T11:42:56Z</time>
    </trkpt>
    <trkpt lat="50.271371" lon="17.018075">
      <ele>855</ele>
      <time>2026-05-07T11:43:36Z</time>
    </trkpt>
    <trkpt lat="50.271216" lon="17.018072">
      <ele>859</ele>
      <time>2026-05-07T11:44:09Z</time>
    </trkpt>
    <trkpt lat="50.270957" lon="17.018041">
      <ele>865</ele>
      <time>2026-05-07T11:45:05Z</time>
    </trkpt>
    <trkpt lat="50.270702" lon="17.017979">
      <ele>869</ele>
      <time>2026-05-07T11:46:00Z</time>
    </trkpt>
    <trkpt lat="50.270226" lon="17.017741">
      <ele>878</ele>
      <time>2026-05-07T11:47:46Z</time>
    </trkpt>
    <trkpt lat="50.270115" lon="17.017717">
      <ele>880</ele>
      <time>2026-05-07T11:48:09Z</time>
    </trkpt>
    <trkpt lat="50.269923" lon="17.017586">
      <ele>885</ele>
      <time>2026-05-07T11:48:54Z</time>
    </trkpt>
    <trkpt lat="50.269514" lon="17.017382">
      <ele>893</ele>
      <time>2026-05-07T11:50:25Z</time>
    </trkpt>
    <trkpt lat="50.269164" lon="17.017293">
      <ele>898</ele>
      <time>2026-05-07T11:51:40Z</time>
    </trkpt>
    <trkpt lat="50.268923" lon="17.017267">
      <ele>903</ele>
      <time>2026-05-07T11:52:32Z</time>
    </trkpt>
    <trkpt lat="50.268659" lon="17.017321">
      <ele>910</ele>
      <time>2026-05-07T11:53:29Z</time>
    </trkpt>
    <trkpt lat="50.268588" lon="17.017316">
      <ele>911</ele>
      <time>2026-05-07T11:53:44Z</time>
    </trkpt>
    <trkpt lat="50.268187" lon="17.017118">
      <ele>917</ele>
      <time>2026-05-07T11:55:13Z</time>
    </trkpt>
    <trkpt lat="50.26764" lon="17.016736">
      <ele>926</ele>
      <time>2026-05-07T11:57:19Z</time>
    </trkpt>
    <trkpt lat="50.267565" lon="17.016693">
      <ele>928</ele>
      <time>2026-05-07T11:57:36Z</time>
    </trkpt>
    <trkpt lat="50.267372" lon="17.016581">
      <ele>930</ele>
      <time>2026-05-07T11:58:19Z</time>
    </trkpt>
    <trkpt lat="50.266996" lon="17.01623">
      <ele>932</ele>
      <time>2026-05-07T11:59:51Z</time>
    </trkpt>
    <trkpt lat="50.266843" lon="17.016035">
      <ele>934</ele>
      <time>2026-05-07T12:00:33Z</time>
    </trkpt>
    <trkpt lat="50.266414" lon="17.015581">
      <ele>943</ele>
      <time>2026-05-07T12:02:22Z</time>
    </trkpt>
    <trkpt lat="50.265857" lon="17.01511">
      <ele>952</ele>
      <time>2026-05-07T12:04:36Z</time>
    </trkpt>
    <trkpt lat="50.265578" lon="17.014809">
      <ele>959</ele>
      <time>2026-05-07T12:05:48Z</time>
    </trkpt>
    <trkpt lat="50.265324" lon="17.014457">
      <ele>965</ele>
      <time>2026-05-07T12:07:00Z</time>
    </trkpt>
    <trkpt lat="50.264969" lon="17.013807">
      <ele>973</ele>
      <time>2026-05-07T12:08:56Z</time>
    </trkpt>
    <trkpt lat="50.264908" lon="17.013727">
      <ele>974</ele>
      <time>2026-05-07T12:09:12Z</time>
    </trkpt>
    <trkpt lat="50.264625" lon="17.013471">
      <ele>979</ele>
      <time>2026-05-07T12:10:21Z</time>
    </trkpt>
    <trkpt lat="50.264366" lon="17.013234">
      <ele>989</ele>
      <time>2026-05-07T12:11:27Z</time>
    </trkpt>
    <trkpt lat="50.264293" lon="17.013217">
      <ele>987</ele>
      <time>2026-05-07T12:11:35Z</time>
    </trkpt>
    <trkpt lat="50.264238" lon="17.013202">
      <ele>986</ele>
      <time>2026-05-07T12:11:41Z</time>
    </trkpt>
    <trkpt lat="50.264205" lon="17.013213">
      <ele>985</ele>
      <time>2026-05-07T12:11:44Z</time>
    </trkpt>
    <trkpt lat="50.264173" lon="17.013208">
      <ele>985</ele>
      <time>2026-05-07T12:11:48Z</time>
    </trkpt>
    <trkpt lat="50.264152" lon="17.013192">
      <ele>984</ele>
      <time>2026-05-07T12:11:50Z</time>
    </trkpt>
    <trkpt lat="50.264134" lon="17.013186">
      <ele>984</ele>
      <time>2026-05-07T12:11:52Z</time>
    </trkpt>
    <trkpt lat="50.264115" lon="17.013193">
      <ele>984</ele>
      <time>2026-05-07T12:11:54Z</time>
    </trkpt>
    <trkpt lat="50.264082" lon="17.013211">
      <ele>983</ele>
      <time>2026-05-07T12:11:58Z</time>
    </trkpt>
    <trkpt lat="50.26406" lon="17.013234">
      <ele>983</ele>
      <time>2026-05-07T12:12:01Z</time>
    </trkpt>
    <trkpt lat="50.264031" lon="17.013253">
      <ele>984</ele>
      <time>2026-05-07T12:12:04Z</time>
    </trkpt>
    <trkpt lat="50.263987" lon="17.013256">
      <ele>984</ele>
      <time>2026-05-07T12:12:09Z</time>
    </trkpt>
    <trkpt lat="50.263769" lon="17.01332">
      <ele>986</ele>
      <time>2026-05-07T12:12:32Z</time>
    </trkpt>
    <trkpt lat="50.263692" lon="17.013299">
      <ele>986</ele>
      <time>2026-05-07T12:12:40Z</time>
    </trkpt>
    <trkpt lat="50.26357" lon="17.013238">
      <ele>985</ele>
      <time>2026-05-07T12:12:54Z</time>
    </trkpt>
    <trkpt lat="50.26345" lon="17.01312">
      <ele>981</ele>
      <time>2026-05-07T12:13:09Z</time>
    </trkpt>
    <trkpt lat="50.263065" lon="17.012615">
      <ele>968</ele>
      <time>2026-05-07T12:14:03Z</time>
    </trkpt>
    <trkpt lat="50.262769" lon="17.01217">
      <ele>956</ele>
      <time>2026-05-07T12:14:48Z</time>
    </trkpt>
    <trkpt lat="50.262667" lon="17.01208">
      <ele>950</ele>
      <time>2026-05-07T12:15:01Z</time>
    </trkpt>
    <trkpt lat="50.262552" lon="17.011999">
      <ele>945</ele>
      <time>2026-05-07T12:15:15Z</time>
    </trkpt>
    <trkpt lat="50.262337" lon="17.011788">
      <ele>937</ele>
      <time>2026-05-07T12:15:43Z</time>
    </trkpt>
    <trkpt lat="50.261971" lon="17.011511">
      <ele>924</ele>
      <time>2026-05-07T12:16:27Z</time>
    </trkpt>
    <trkpt lat="50.261774" lon="17.011375">
      <ele>918</ele>
      <time>2026-05-07T12:16:53Z</time>
    </trkpt>
    <trkpt lat="50.261159" lon="17.010725">
      <ele>908</ele>
      <time>2026-05-07T12:18:20Z</time>
    </trkpt>
    <trkpt lat="50.260826" lon="17.010451">
      <ele>905</ele>
      <time>2026-05-07T12:19:04Z</time>
    </trkpt>
    <trkpt lat="50.260525" lon="17.010204">
      <ele>902</ele>
      <time>2026-05-07T12:19:44Z</time>
    </trkpt>
    <trkpt lat="50.26041" lon="17.010073">
      <ele>902</ele>
      <time>2026-05-07T12:20:01Z</time>
    </trkpt>
    <trkpt lat="50.260325" lon="17.009928">
      <ele>903</ele>
      <time>2026-05-07T12:20:16Z</time>
    </trkpt>
    <trkpt lat="50.25995" lon="17.009176">
      <ele>901</ele>
      <time>2026-05-07T12:21:27Z</time>
    </trkpt>
    <trkpt lat="50.259967" lon="17.009121">
      <ele>901</ele>
      <time>2026-05-07T12:21:31Z</time>
    </trkpt>
    <trkpt lat="50.259985" lon="17.009044">
      <ele>901</ele>
      <time>2026-05-07T12:21:36Z</time>
    </trkpt>
    <trkpt lat="50.260372" lon="17.007569">
      <ele>889</ele>
      <time>2026-05-07T12:23:19Z</time>
    </trkpt>
    <trkpt lat="50.260513" lon="17.007072">
      <ele>886</ele>
      <time>2026-05-07T12:23:54Z</time>
    </trkpt>
    <trkpt lat="50.260607" lon="17.00672">
      <ele>883</ele>
      <time>2026-05-07T12:24:19Z</time>
    </trkpt>
    <trkpt lat="50.260652" lon="17.00646">
      <ele>881</ele>
      <time>2026-05-07T12:24:36Z</time>
    </trkpt>
    <trkpt lat="50.260745" lon="17.006152">
      <ele>876</ele>
      <time>2026-05-07T12:24:58Z</time>
    </trkpt>
    <trkpt lat="50.260813" lon="17.0059">
      <ele>873</ele>
      <time>2026-05-07T12:25:16Z</time>
    </trkpt>
    <trkpt lat="50.260858" lon="17.005661">
      <ele>871</ele>
      <time>2026-05-07T12:25:32Z</time>
    </trkpt>
    <trkpt lat="50.26092" lon="17.005337">
      <ele>866</ele>
      <time>2026-05-07T12:25:54Z</time>
    </trkpt>
    <trkpt lat="50.260991" lon="17.004808">
      <ele>857</ele>
      <time>2026-05-07T12:26:30Z</time>
    </trkpt>
    <trkpt lat="50.261058" lon="17.004462">
      <ele>852</ele>
      <time>2026-05-07T12:26:53Z</time>
    </trkpt>
    <trkpt lat="50.261141" lon="17.004168">
      <ele>845</ele>
      <time>2026-05-07T12:27:15Z</time>
    </trkpt>
    <trkpt lat="50.261091" lon="17.003971">
      <ele>844</ele>
      <time>2026-05-07T12:27:29Z</time>
    </trkpt>
    <trkpt lat="50.260947" lon="17.003727">
      <ele>843</ele>
      <time>2026-05-07T12:27:50Z</time>
    </trkpt>
    <trkpt lat="50.260685" lon="17.003318">
      <ele>843</ele>
      <time>2026-05-07T12:28:27Z</time>
    </trkpt>
    <trkpt lat="50.260395" lon="17.002886">
      <ele>839</ele>
      <time>2026-05-07T12:29:07Z</time>
    </trkpt>
    <trkpt lat="50.26021" lon="17.002495">
      <ele>837</ele>
      <time>2026-05-07T12:29:39Z</time>
    </trkpt>
    <trkpt lat="50.260075" lon="17.002061">
      <ele>834</ele>
      <time>2026-05-07T12:30:10Z</time>
    </trkpt>
    <trkpt lat="50.259999" lon="17.001748">
      <ele>833</ele>
      <time>2026-05-07T12:30:31Z</time>
    </trkpt>
    <trkpt lat="50.259985" lon="17.001359">
      <ele>829</ele>
      <time>2026-05-07T12:30:56Z</time>
    </trkpt>
    <trkpt lat="50.260162" lon="17.000703">
      <ele>822</ele>
      <time>2026-05-07T12:31:43Z</time>
    </trkpt>
    <trkpt lat="50.260258" lon="17.000197">
      <ele>817</ele>
      <time>2026-05-07T12:32:17Z</time>
    </trkpt>
    <trkpt lat="50.260409" lon="16.999235">
      <ele>810</ele>
      <time>2026-05-07T12:33:21Z</time>
    </trkpt>
    <trkpt lat="50.260542" lon="16.998759">
      <ele>804</ele>
      <time>2026-05-07T12:33:54Z</time>
    </trkpt>
    <trkpt lat="50.260677" lon="16.998428">
      <ele>800</ele>
      <time>2026-05-07T12:34:20Z</time>
    </trkpt>
    <trkpt lat="50.260979" lon="16.998084">
      <ele>795</ele>
      <time>2026-05-07T12:34:58Z</time>
    </trkpt>
    <trkpt lat="50.261345" lon="16.997593">
      <ele>786</ele>
      <time>2026-05-07T12:35:47Z</time>
    </trkpt>
    <trkpt lat="50.261497" lon="16.997362">
      <ele>783</ele>
      <time>2026-05-07T12:36:08Z</time>
    </trkpt>
    <trkpt lat="50.261729" lon="16.996929">
      <ele>780</ele>
      <time>2026-05-07T12:36:44Z</time>
    </trkpt>
    <trkpt lat="50.261778" lon="16.996837">
      <ele>780</ele>
      <time>2026-05-07T12:36:52Z</time>
    </trkpt>
    <trkpt lat="50.26189" lon="16.996724">
      <ele>777</ele>
      <time>2026-05-07T12:37:06Z</time>
    </trkpt>
    <trkpt lat="50.262065" lon="16.996657">
      <ele>772</ele>
      <time>2026-05-07T12:37:24Z</time>
    </trkpt>
    <trkpt lat="50.262343" lon="16.996595">
      <ele>765</ele>
      <time>2026-05-07T12:37:53Z</time>
    </trkpt>
    <trkpt lat="50.26268" lon="16.996492">
      <ele>761</ele>
      <time>2026-05-07T12:38:28Z</time>
    </trkpt>
    <trkpt lat="50.262974" lon="16.996394">
      <ele>758</ele>
      <time>2026-05-07T12:38:58Z</time>
    </trkpt>
    <trkpt lat="50.263385" lon="16.996311">
      <ele>753</ele>
      <time>2026-05-07T12:39:40Z</time>
    </trkpt>
    <trkpt lat="50.263599" lon="16.996175">
      <ele>748</ele>
      <time>2026-05-07T12:40:03Z</time>
    </trkpt>
    <trkpt lat="50.263741" lon="16.995994">
      <ele>744</ele>
      <time>2026-05-07T12:40:22Z</time>
    </trkpt>
    <trkpt lat="50.263826" lon="16.995741">
      <ele>742</ele>
      <time>2026-05-07T12:40:41Z</time>
    </trkpt>
    <trkpt lat="50.263893" lon="16.995459">
      <ele>741</ele>
      <time>2026-05-07T12:41:00Z</time>
    </trkpt>
    <trkpt lat="50.263888" lon="16.995077">
      <ele>744</ele>
      <time>2026-05-07T12:41:25Z</time>
    </trkpt>
    <trkpt lat="50.263886" lon="16.99504">
      <ele>745</ele>
      <time>2026-05-07T12:41:27Z</time>
    </trkpt>
    <trkpt lat="50.263345" lon="16.994429">
      <ele>750</ele>
      <time>2026-05-07T12:42:33Z</time>
    </trkpt>
    <trkpt lat="50.263037" lon="16.994021">
      <ele>749</ele>
      <time>2026-05-07T12:43:13Z</time>
    </trkpt>
    <trkpt lat="50.263001" lon="16.993922">
      <ele>748</ele>
      <time>2026-05-07T12:43:20Z</time>
    </trkpt>
    <trkpt lat="50.263021" lon="16.993607">
      <ele>750</ele>
      <time>2026-05-07T12:43:40Z</time>
    </trkpt>
    <trkpt lat="50.262776" lon="16.993246">
      <ele>751</ele>
      <time>2026-05-07T12:44:13Z</time>
    </trkpt>
    <trkpt lat="50.262674" lon="16.993022">
      <ele>753</ele>
      <time>2026-05-07T12:44:30Z</time>
    </trkpt>
    <trkpt lat="50.262513" lon="16.992623">
      <ele>751</ele>
      <time>2026-05-07T12:45:00Z</time>
    </trkpt>
    <trkpt lat="50.262332" lon="16.991772">
      <ele>755</ele>
      <time>2026-05-07T12:45:57Z</time>
    </trkpt>
    <trkpt lat="50.262265" lon="16.991484">
      <ele>757</ele>
      <time>2026-05-07T12:46:16Z</time>
    </trkpt>
    <trkpt lat="50.262216" lon="16.991325">
      <ele>757</ele>
      <time>2026-05-07T12:46:27Z</time>
    </trkpt>
    <trkpt lat="50.262291" lon="16.991376">
      <ele>759</ele>
      <time>2026-05-07T12:46:42Z</time>
    </trkpt>
    <trkpt lat="50.262568" lon="16.991726">
      <ele>760</ele>
      <time>2026-05-07T12:47:45Z</time>
    </trkpt>
    <trkpt lat="50.262953" lon="16.992001">
      <ele>772</ele>
      <time>2026-05-07T12:49:02Z</time>
    </trkpt>
    <trkpt lat="50.263376" lon="16.992216">
      <ele>786</ele>
      <time>2026-05-07T12:50:24Z</time>
    </trkpt>
    <trkpt lat="50.263588" lon="16.992407">
      <ele>789</ele>
      <time>2026-05-07T12:51:07Z</time>
    </trkpt>
    <trkpt lat="50.26414" lon="16.992642">
      <ele>803</ele>
      <time>2026-05-07T12:52:51Z</time>
    </trkpt>
    <trkpt lat="50.264477" lon="16.992722">
      <ele>812</ele>
      <time>2026-05-07T12:53:53Z</time>
    </trkpt>
    <trkpt lat="50.264923" lon="16.992998">
      <ele>815</ele>
      <time>2026-05-07T12:55:18Z</time>
    </trkpt>
    <trkpt lat="50.265299" lon="16.993307">
      <ele>812</ele>
      <time>2026-05-07T12:56:33Z</time>
    </trkpt>
    <trkpt lat="50.265465" lon="16.993387">
      <ele>816</ele>
      <time>2026-05-07T12:57:05Z</time>
    </trkpt>
    <trkpt lat="50.265844" lon="16.993594">
      <ele>823</ele>
      <time>2026-05-07T12:58:16Z</time>
    </trkpt>
    <trkpt lat="50.26605" lon="16.993794">
      <ele>823</ele>
      <time>2026-05-07T12:58:59Z</time>
    </trkpt>
    <trkpt lat="50.266214" lon="16.993884">
      <ele>825</ele>
      <time>2026-05-07T12:59:30Z</time>
    </trkpt>
    <trkpt lat="50.266339" lon="16.993886">
      <ele>827</ele>
      <time>2026-05-07T12:59:53Z</time>
    </trkpt>
    <trkpt lat="50.266483" lon="16.993846">
      <ele>829</ele>
      <time>2026-05-07T13:00:19Z</time>
    </trkpt>
    <trkpt lat="50.266618" lon="16.993642">
      <ele>832</ele>
      <time>2026-05-07T13:00:52Z</time>
    </trkpt>
    <trkpt lat="50.266698" lon="16.993527">
      <ele>834</ele>
      <time>2026-05-07T13:01:12Z</time>
    </trkpt>
    <trkpt lat="50.266778" lon="16.993344">
      <ele>835</ele>
      <time>2026-05-07T13:01:37Z</time>
    </trkpt>
    <trkpt lat="50.266854" lon="16.993087">
      <ele>838</ele>
      <time>2026-05-07T13:02:09Z</time>
    </trkpt>
    <trkpt lat="50.267013" lon="16.9926">
      <ele>841</ele>
      <time>2026-05-07T13:03:11Z</time>
    </trkpt>
    <trkpt lat="50.267085" lon="16.992288">
      <ele>842</ele>
      <time>2026-05-07T13:03:49Z</time>
    </trkpt>
    <trkpt lat="50.267176" lon="16.991928">
      <ele>844</ele>
      <time>2026-05-07T13:04:33Z</time>
    </trkpt>
    <trkpt lat="50.267268" lon="16.991477">
      <ele>845</ele>
      <time>2026-05-07T13:05:26Z</time>
    </trkpt>
    <trkpt lat="50.267327" lon="16.991008">
      <ele>846</ele>
      <time>2026-05-07T13:06:21Z</time>
    </trkpt>
    <trkpt lat="50.267327" lon="16.990751">
      <ele>851</ele>
      <time>2026-05-07T13:06:51Z</time>
    </trkpt>
    <trkpt lat="50.267327" lon="16.990472">
      <ele>856</ele>
      <time>2026-05-07T13:07:23Z</time>
    </trkpt>
    <trkpt lat="50.267296" lon="16.990069">
      <ele>861</ele>
      <time>2026-05-07T13:08:10Z</time>
    </trkpt>
    <trkpt lat="50.267331" lon="16.989586">
      <ele>863</ele>
      <time>2026-05-07T13:09:05Z</time>
    </trkpt>
    <trkpt lat="50.267325" lon="16.989334">
      <ele>864</ele>
      <time>2026-05-07T13:09:33Z</time>
    </trkpt>
    <trkpt lat="50.267249" lon="16.988687">
      <ele>870</ele>
      <time>2026-05-07T13:10:49Z</time>
    </trkpt>
    <trkpt lat="50.267255" lon="16.988385">
      <ele>873</ele>
      <time>2026-05-07T13:11:23Z</time>
    </trkpt>
    <trkpt lat="50.267257" lon="16.987917">
      <ele>881</ele>
      <time>2026-05-07T13:12:17Z</time>
    </trkpt>
    <trkpt lat="50.267308" lon="16.987594">
      <ele>885</ele>
      <time>2026-05-07T13:12:56Z</time>
    </trkpt>
    <trkpt lat="50.267336" lon="16.987374">
      <ele>889</ele>
      <time>2026-05-07T13:13:22Z</time>
    </trkpt>
    <trkpt lat="50.267385" lon="16.987103">
      <ele>892</ele>
      <time>2026-05-07T13:13:54Z</time>
    </trkpt>
    <trkpt lat="50.267449" lon="16.986727">
      <ele>895</ele>
      <time>2026-05-07T13:14:38Z</time>
    </trkpt>
    <trkpt lat="50.267464" lon="16.986537">
      <ele>897</ele>
      <time>2026-05-07T13:15:00Z</time>
    </trkpt>
    <trkpt lat="50.26748" lon="16.986309">
      <ele>899</ele>
      <time>2026-05-07T13:15:26Z</time>
    </trkpt>
    <trkpt lat="50.26754" lon="16.985907">
      <ele>901</ele>
      <time>2026-05-07T13:16:13Z</time>
    </trkpt>
    <trkpt lat="50.267599" lon="16.985478">
      <ele>903</ele>
      <time>2026-05-07T13:17:03Z</time>
    </trkpt>
    <trkpt lat="50.267685" lon="16.985204">
      <ele>903</ele>
      <time>2026-05-07T13:17:37Z</time>
    </trkpt>
    <trkpt lat="50.267759" lon="16.984989">
      <ele>903</ele>
      <time>2026-05-07T13:18:05Z</time>
    </trkpt>
    <trkpt lat="50.267869" lon="16.984826">
      <ele>905</ele>
      <time>2026-05-07T13:18:32Z</time>
    </trkpt>
    <trkpt lat="50.267999" lon="16.984657">
      <ele>906</ele>
      <time>2026-05-07T13:19:02Z</time>
    </trkpt>
    <trkpt lat="50.268131" lon="16.98448">
      <ele>907</ele>
      <time>2026-05-07T13:19:33Z</time>
    </trkpt>
    <trkpt lat="50.268234" lon="16.984284">
      <ele>908</ele>
      <time>2026-05-07T13:20:01Z</time>
    </trkpt>
    <trkpt lat="50.268307" lon="16.984098">
      <ele>909</ele>
      <time>2026-05-07T13:20:26Z</time>
    </trkpt>
    <trkpt lat="50.268276" lon="16.983911">
      <ele>909</ele>
      <time>2026-05-07T13:20:48Z</time>
    </trkpt>
    <trkpt lat="50.26828" lon="16.983705">
      <ele>909</ele>
      <time>2026-05-07T13:21:11Z</time>
    </trkpt>
    <trkpt lat="50.268335" lon="16.983383">
      <ele>910</ele>
      <time>2026-05-07T13:21:49Z</time>
    </trkpt>
    <trkpt lat="50.2684" lon="16.983122">
      <ele>910</ele>
      <time>2026-05-07T13:22:21Z</time>
    </trkpt>
    <trkpt lat="50.26844" lon="16.982932">
      <ele>911</ele>
      <time>2026-05-07T13:22:43Z</time>
    </trkpt>
    <trkpt lat="50.268486" lon="16.982621">
      <ele>911</ele>
      <time>2026-05-07T13:23:20Z</time>
    </trkpt>
    <trkpt lat="50.268507" lon="16.982286">
      <ele>911</ele>
      <time>2026-05-07T13:23:58Z</time>
    </trkpt>
    <trkpt lat="50.268512" lon="16.98183">
      <ele>911</ele>
      <time>2026-05-07T13:24:49Z</time>
    </trkpt>
    <trkpt lat="50.268575" lon="16.981663">
      <ele>911</ele>
      <time>2026-05-07T13:25:11Z</time>
    </trkpt>
    <trkpt lat="50.26859" lon="16.981604">
      <ele>912</ele>
      <time>2026-05-07T13:25:18Z</time>
    </trkpt>
    <trkpt lat="50.268733" lon="16.981336">
      <ele>917</ele>
      <time>2026-05-07T13:25:59Z</time>
    </trkpt>
    <trkpt lat="50.268921" lon="16.981076">
      <ele>922</ele>
      <time>2026-05-07T13:26:44Z</time>
    </trkpt>
    <trkpt lat="50.269079" lon="16.980926">
      <ele>927</ele>
      <time>2026-05-07T13:27:17Z</time>
    </trkpt>
    <trkpt lat="50.269419" lon="16.980767">
      <ele>936</ele>
      <time>2026-05-07T13:28:22Z</time>
    </trkpt>
    <trkpt lat="50.269635" lon="16.980647">
      <ele>943</ele>
      <time>2026-05-07T13:29:04Z</time>
    </trkpt>
    <trkpt lat="50.269713" lon="16.980526">
      <ele>947</ele>
      <time>2026-05-07T13:29:24Z</time>
    </trkpt>
    <trkpt lat="50.269772" lon="16.980314">
      <ele>951</ele>
      <time>2026-05-07T13:29:51Z</time>
    </trkpt>
    <trkpt lat="50.269861" lon="16.97989">
      <ele>958</ele>
      <time>2026-05-07T13:30:43Z</time>
    </trkpt>
    <trkpt lat="50.269977" lon="16.979732">
      <ele>962</ele>
      <time>2026-05-07T13:31:11Z</time>
    </trkpt>
    <trkpt lat="50.270053" lon="16.9797">
      <ele>964</ele>
      <time>2026-05-07T13:31:25Z</time>
    </trkpt>
    <trkpt lat="50.270171" lon="16.979687">
      <ele>968</ele>
      <time>2026-05-07T13:31:47Z</time>
    </trkpt>
    <trkpt lat="50.270274" lon="16.979606">
      <ele>971</ele>
      <time>2026-05-07T13:32:08Z</time>
    </trkpt>
    <trkpt lat="50.270811" lon="16.979407">
      <ele>987</ele>
      <time>2026-05-07T13:33:49Z</time>
    </trkpt>
    <trkpt lat="50.271009" lon="16.979416">
      <ele>993</ele>
      <time>2026-05-07T13:34:25Z</time>
    </trkpt>
    <trkpt lat="50.271347" lon="16.979499">
      <ele>1004</ele>
      <time>2026-05-07T13:35:29Z</time>
    </trkpt>
    <trkpt lat="50.271498" lon="16.979483">
      <ele>1009</ele>
      <time>2026-05-07T13:35:56Z</time>
    </trkpt>
    <trkpt lat="50.271587" lon="16.97941">
      <ele>1011</ele>
      <time>2026-05-07T13:36:14Z</time>
    </trkpt>
    <trkpt lat="50.271908" lon="16.978922">
      <ele>1023</ele>
      <time>2026-05-07T13:37:36Z</time>
    </trkpt>
    <trkpt lat="50.272028" lon="16.978807">
      <ele>1025</ele>
      <time>2026-05-07T13:38:01Z</time>
    </trkpt>
    <trkpt lat="50.272119" lon="16.978804">
      <ele>1027</ele>
      <time>2026-05-07T13:38:17Z</time>
    </trkpt>
    <trkpt lat="50.272336" lon="16.978788">
      <ele>1030</ele>
      <time>2026-05-07T13:38:56Z</time>
    </trkpt>
    <trkpt lat="50.272506" lon="16.978799">
      <ele>1033</ele>
      <time>2026-05-07T13:39:27Z</time>
    </trkpt>
    <trkpt lat="50.272707" lon="16.978828">
      <ele>1034</ele>
      <time>2026-05-07T13:40:02Z</time>
    </trkpt>
    <trkpt lat="50.272787" lon="16.978785">
      <ele>1034</ele>
      <time>2026-05-07T13:40:17Z</time>
    </trkpt>
    <trkpt lat="50.272914" lon="16.978638">
      <ele>1034</ele>
      <time>2026-05-07T13:40:45Z</time>
    </trkpt>
    <trkpt lat="50.273024" lon="16.97841">
      <ele>1034</ele>
      <time>2026-05-07T13:41:18Z</time>
    </trkpt>
    <trkpt lat="50.273099" lon="16.978163">
      <ele>1034</ele>
      <time>2026-05-07T13:41:49Z</time>
    </trkpt>
    <trkpt lat="50.273139" lon="16.977967">
      <ele>1034</ele>
      <time>2026-05-07T13:42:12Z</time>
    </trkpt>
    <trkpt lat="50.273161" lon="16.977742">
      <ele>1034</ele>
      <time>2026-05-07T13:42:38Z</time>
    </trkpt>
    <trkpt lat="50.273164" lon="16.977407">
      <ele>1033</ele>
      <time>2026-05-07T13:43:16Z</time>
    </trkpt>
    <trkpt lat="50.273158" lon="16.977173">
      <ele>1032</ele>
      <time>2026-05-07T13:43:42Z</time>
    </trkpt>
    <trkpt lat="50.273161" lon="16.976902">
      <ele>1031</ele>
      <time>2026-05-07T13:44:13Z</time>
    </trkpt>
    <trkpt lat="50.273158" lon="16.976642">
      <ele>1031</ele>
      <time>2026-05-07T13:44:42Z</time>
    </trkpt>
    <trkpt lat="50.273147" lon="16.976315">
      <ele>1030</ele>
      <time>2026-05-07T13:45:19Z</time>
    </trkpt>
    <trkpt lat="50.273149" lon="16.975999">
      <ele>1029</ele>
      <time>2026-05-07T13:45:55Z</time>
    </trkpt>
    <trkpt lat="50.273149" lon="16.975658">
      <ele>1029</ele>
      <time>2026-05-07T13:46:34Z</time>
    </trkpt>
    <trkpt lat="50.273134" lon="16.975392">
      <ele>1028</ele>
      <time>2026-05-07T13:47:04Z</time>
    </trkpt>
    <trkpt lat="50.27313" lon="16.975073">
      <ele>1028</ele>
      <time>2026-05-07T13:47:40Z</time>
    </trkpt>
    <trkpt lat="50.273137" lon="16.974671">
      <ele>1026</ele>
      <time>2026-05-07T13:48:26Z</time>
    </trkpt>
    <trkpt lat="50.273127" lon="16.974437">
      <ele>1024</ele>
      <time>2026-05-07T13:48:52Z</time>
    </trkpt>
    <trkpt lat="50.273112" lon="16.974175">
      <ele>1023</ele>
      <time>2026-05-07T13:49:22Z</time>
    </trkpt>
    <trkpt lat="50.273089" lon="16.973896">
      <ele>1023</ele>
      <time>2026-05-07T13:49:54Z</time>
    </trkpt>
    <trkpt lat="50.273032" lon="16.973512">
      <ele>1024</ele>
      <time>2026-05-07T13:50:38Z</time>
    </trkpt>
    <trkpt lat="50.272989" lon="16.973043">
      <ele>1023</ele>
      <time>2026-05-07T13:51:32Z</time>
    </trkpt>
    <trkpt lat="50.272957" lon="16.9727">
      <ele>1024</ele>
      <time>2026-05-07T13:52:11Z</time>
    </trkpt>
    <trkpt lat="50.272919" lon="16.972463">
      <ele>1025</ele>
      <time>2026-05-07T13:52:39Z</time>
    </trkpt>
    <trkpt lat="50.272885" lon="16.971959">
      <ele>1028</ele>
      <time>2026-05-07T13:53:37Z</time>
    </trkpt>
    <trkpt lat="50.272839" lon="16.971479">
      <ele>1034</ele>
      <time>2026-05-07T13:54:32Z</time>
    </trkpt>
    <trkpt lat="50.272803" lon="16.971235">
      <ele>1039</ele>
      <time>2026-05-07T13:55:02Z</time>
    </trkpt>
    <trkpt lat="50.272799" lon="16.971063">
      <ele>1042</ele>
      <time>2026-05-07T13:55:22Z</time>
    </trkpt>
    <trkpt lat="50.272777" lon="16.970859">
      <ele>1045</ele>
      <time>2026-05-07T13:55:46Z</time>
    </trkpt>
    <trkpt lat="50.27277" lon="16.970669">
      <ele>1047</ele>
      <time>2026-05-07T13:56:07Z</time>
    </trkpt>
    <trkpt lat="50.272791" lon="16.970546">
      <ele>1048</ele>
      <time>2026-05-07T13:56:22Z</time>
    </trkpt>
    <trkpt lat="50.272768" lon="16.970449">
      <ele>1049</ele>
      <time>2026-05-07T13:56:34Z</time>
    </trkpt>
    <trkpt lat="50.272732" lon="16.970336">
      <ele>1050</ele>
      <time>2026-05-07T13:56:48Z</time>
    </trkpt>
    <trkpt lat="50.272703" lon="16.970041">
      <ele>1053</ele>
      <time>2026-05-07T13:57:22Z</time>
    </trkpt>
    <trkpt lat="50.272648" lon="16.969752">
      <ele>1056</ele>
      <time>2026-05-07T13:57:57Z</time>
    </trkpt>
    <trkpt lat="50.272628" lon="16.969475">
      <ele>1059</ele>
      <time>2026-05-07T13:58:28Z</time>
    </trkpt>
    <trkpt lat="50.272607" lon="16.969199">
      <ele>1062</ele>
      <time>2026-05-07T13:59:00Z</time>
    </trkpt>
    <trkpt lat="50.272578" lon="16.968993">
      <ele>1063</ele>
      <time>2026-05-07T13:59:24Z</time>
    </trkpt>
    <trkpt lat="50.272552" lon="16.968821">
      <ele>1064</ele>
      <time>2026-05-07T13:59:44Z</time>
    </trkpt>
    <trkpt lat="50.272546" lon="16.968563">
      <ele>1066</ele>
      <time>2026-05-07T14:00:14Z</time>
    </trkpt>
    <trkpt lat="50.27258" lon="16.968341">
      <ele>1067</ele>
      <time>2026-05-07T14:00:40Z</time>
    </trkpt>
    <trkpt lat="50.272567" lon="16.968004">
      <ele>1069</ele>
      <time>2026-05-07T14:01:18Z</time>
    </trkpt>
    <trkpt lat="50.272556" lon="16.967797">
      <ele>1071</ele>
      <time>2026-05-07T14:01:41Z</time>
    </trkpt>
    <trkpt lat="50.272489" lon="16.96756">
      <ele>1073</ele>
      <time>2026-05-07T14:02:11Z</time>
    </trkpt>
    <trkpt lat="50.272457" lon="16.967347">
      <ele>1074</ele>
      <time>2026-05-07T14:02:36Z</time>
    </trkpt>
    <trkpt lat="50.272485" lon="16.96715">
      <ele>1075</ele>
      <time>2026-05-07T14:02:59Z</time>
    </trkpt>
    <trkpt lat="50.272489" lon="16.966953">
      <ele>1077</ele>
      <time>2026-05-07T14:03:21Z</time>
    </trkpt>
    <trkpt lat="50.27245" lon="16.966768">
      <ele>1078</ele>
      <time>2026-05-07T14:03:43Z</time>
    </trkpt>
    <trkpt lat="50.272448" lon="16.966514">
      <ele>1079</ele>
      <time>2026-05-07T14:04:12Z</time>
    </trkpt>
    <trkpt lat="50.272441" lon="16.966375">
      <ele>1080</ele>
      <time>2026-05-07T14:04:28Z</time>
    </trkpt>
    <trkpt lat="50.272447" lon="16.966188">
      <ele>1081</ele>
      <time>2026-05-07T14:04:49Z</time>
    </trkpt>
    <trkpt lat="50.272417" lon="16.96601">
      <ele>1082</ele>
      <time>2026-05-07T14:05:10Z</time>
    </trkpt>
    <trkpt lat="50.272399" lon="16.965897">
      <ele>1082</ele>
      <time>2026-05-07T14:05:23Z</time>
    </trkpt>
    <trkpt lat="50.272364" lon="16.96575">
      <ele>1083</ele>
      <time>2026-05-07T14:05:41Z</time>
    </trkpt>
    <trkpt lat="50.272256" lon="16.96538">
      <ele>1083</ele>
      <time>2026-05-07T14:06:27Z</time>
    </trkpt>
    <trkpt lat="50.271975" lon="16.964393">
      <ele>1080</ele>
      <time>2026-05-07T14:07:27Z</time>
    </trkpt>
    <trkpt lat="50.272256" lon="16.96538">
      <ele>1083</ele>
      <time>2026-05-07T14:08:27Z</time>
    </trkpt>
    <trkpt lat="50.272359" lon="16.965377">
      <ele>1082</ele>
      <time>2026-05-07T14:08:37Z</time>
    </trkpt>
    <trkpt lat="50.272498" lon="16.965428">
      <ele>1082</ele>
      <time>2026-05-07T14:08:51Z</time>
    </trkpt>
    <trkpt lat="50.272594" lon="16.965546">
      <ele>1080</ele>
      <time>2026-05-07T14:09:03Z</time>
    </trkpt>
    <trkpt lat="50.272921" lon="16.965722">
      <ele>1074</ele>
      <time>2026-05-07T14:09:38Z</time>
    </trkpt>
    <trkpt lat="50.273038" lon="16.965714">
      <ele>1072</ele>
      <time>2026-05-07T14:09:50Z</time>
    </trkpt>
    <trkpt lat="50.273156" lon="16.965618">
      <ele>1070</ele>
      <time>2026-05-07T14:10:03Z</time>
    </trkpt>
    <trkpt lat="50.273341" lon="16.965546">
      <ele>1067</ele>
      <time>2026-05-07T14:10:22Z</time>
    </trkpt>
    <trkpt lat="50.273452" lon="16.965562">
      <ele>1065</ele>
      <time>2026-05-07T14:10:33Z</time>
    </trkpt>
    <trkpt lat="50.27363" lon="16.965492">
      <ele>1061</ele>
      <time>2026-05-07T14:10:51Z</time>
    </trkpt>
    <trkpt lat="50.273769" lon="16.965413">
      <ele>1057</ele>
      <time>2026-05-07T14:11:06Z</time>
    </trkpt>
    <trkpt lat="50.273894" lon="16.965296">
      <ele>1054</ele>
      <time>2026-05-07T14:11:21Z</time>
    </trkpt>
    <trkpt lat="50.27407" lon="16.96528">
      <ele>1050</ele>
      <time>2026-05-07T14:11:39Z</time>
    </trkpt>
    <trkpt lat="50.274387" lon="16.965321">
      <ele>1043</ele>
      <time>2026-05-07T14:12:11Z</time>
    </trkpt>
    <trkpt lat="50.274502" lon="16.965351">
      <ele>1040</ele>
      <time>2026-05-07T14:12:23Z</time>
    </trkpt>
    <trkpt lat="50.274606" lon="16.965372">
      <ele>1036</ele>
      <time>2026-05-07T14:12:33Z</time>
    </trkpt>
    <trkpt lat="50.274729" lon="16.965346">
      <ele>1033</ele>
      <time>2026-05-07T14:12:46Z</time>
    </trkpt>
    <trkpt lat="50.274859" lon="16.965372">
      <ele>1030</ele>
      <time>2026-05-07T14:12:59Z</time>
    </trkpt>
    <trkpt lat="50.274979" lon="16.965522">
      <ele>1027</ele>
      <time>2026-05-07T14:13:14Z</time>
    </trkpt>
    <trkpt lat="50.274993" lon="16.965734">
      <ele>1027</ele>
      <time>2026-05-07T14:13:28Z</time>
    </trkpt>
    <trkpt lat="50.275022" lon="16.965926">
      <ele>1026</ele>
      <time>2026-05-07T14:13:40Z</time>
    </trkpt>
    <trkpt lat="50.275073" lon="16.966185">
      <ele>1024</ele>
      <time>2026-05-07T14:13:58Z</time>
    </trkpt>
    <trkpt lat="50.275131" lon="16.966523">
      <ele>1021</ele>
      <time>2026-05-07T14:14:20Z</time>
    </trkpt>
    <trkpt lat="50.275177" lon="16.966869">
      <ele>1019</ele>
      <time>2026-05-07T14:14:42Z</time>
    </trkpt>
    <trkpt lat="50.275182" lon="16.967336">
      <ele>1018</ele>
      <time>2026-05-07T14:15:12Z</time>
    </trkpt>
    <trkpt lat="50.27539" lon="16.967524">
      <ele>1010</ele>
      <time>2026-05-07T14:15:36Z</time>
    </trkpt>
    <trkpt lat="50.275483" lon="16.967603">
      <ele>1006</ele>
      <time>2026-05-07T14:15:47Z</time>
    </trkpt>
    <trkpt lat="50.275627" lon="16.967666">
      <ele>1001</ele>
      <time>2026-05-07T14:16:03Z</time>
    </trkpt>
    <trkpt lat="50.275734" lon="16.967687">
      <ele>997</ele>
      <time>2026-05-07T14:16:14Z</time>
    </trkpt>
    <trkpt lat="50.275864" lon="16.967728">
      <ele>993</ele>
      <time>2026-05-07T14:16:28Z</time>
    </trkpt>
    <trkpt lat="50.276027" lon="16.96787">
      <ele>986</ele>
      <time>2026-05-07T14:16:47Z</time>
    </trkpt>
    <trkpt lat="50.276222" lon="16.967925">
      <ele>977</ele>
      <time>2026-05-07T14:17:08Z</time>
    </trkpt>
    <trkpt lat="50.276363" lon="16.968037">
      <ele>969</ele>
      <time>2026-05-07T14:17:25Z</time>
    </trkpt>
    <trkpt lat="50.276507" lon="16.9682">
      <ele>962</ele>
      <time>2026-05-07T14:17:44Z</time>
    </trkpt>
    <trkpt lat="50.276654" lon="16.968258">
      <ele>957</ele>
      <time>2026-05-07T14:17:59Z</time>
    </trkpt>
    <trkpt lat="50.276854" lon="16.96835">
      <ele>949</ele>
      <time>2026-05-07T14:18:21Z</time>
    </trkpt>
    <trkpt lat="50.277064" lon="16.968442">
      <ele>942</ele>
      <time>2026-05-07T14:18:44Z</time>
    </trkpt>
    <trkpt lat="50.277328" lon="16.968596">
      <ele>932</ele>
      <time>2026-05-07T14:19:13Z</time>
    </trkpt>
    <trkpt lat="50.277621" lon="16.96873">
      <ele>919</ele>
      <time>2026-05-07T14:19:45Z</time>
    </trkpt>
    <trkpt lat="50.277741" lon="16.96883">
      <ele>913</ele>
      <time>2026-05-07T14:19:59Z</time>
    </trkpt>
    <trkpt lat="50.277915" lon="16.968901">
      <ele>907</ele>
      <time>2026-05-07T14:20:18Z</time>
    </trkpt>
    <trkpt lat="50.278144" lon="16.969064">
      <ele>900</ele>
      <time>2026-05-07T14:20:43Z</time>
    </trkpt>
    <trkpt lat="50.278416" lon="16.969168">
      <ele>891</ele>
      <time>2026-05-07T14:21:12Z</time>
    </trkpt>
    <trkpt lat="50.278456" lon="16.969401">
      <ele>887</ele>
      <time>2026-05-07T14:21:28Z</time>
    </trkpt>
    <trkpt lat="50.278509" lon="16.969781">
      <ele>883</ele>
      <time>2026-05-07T14:21:53Z</time>
    </trkpt>
    <trkpt lat="50.27873" lon="16.970599">
      <ele>871</ele>
      <time>2026-05-07T14:22:50Z</time>
    </trkpt>
    <trkpt lat="50.278874" lon="16.971128">
      <ele>866</ele>
      <time>2026-05-07T14:23:26Z</time>
    </trkpt>
    <trkpt lat="50.278965" lon="16.971591">
      <ele>863</ele>
      <time>2026-05-07T14:23:57Z</time>
    </trkpt>
    <trkpt lat="50.278986" lon="16.971954">
      <ele>859</ele>
      <time>2026-05-07T14:24:20Z</time>
    </trkpt>
    <trkpt lat="50.278984" lon="16.972359">
      <ele>855</ele>
      <time>2026-05-07T14:24:46Z</time>
    </trkpt>
    <trkpt lat="50.278992" lon="16.972505">
      <ele>855</ele>
      <time>2026-05-07T14:24:55Z</time>
    </trkpt>
    <trkpt lat="50.279064" lon="16.972601">
      <ele>854</ele>
      <time>2026-05-07T14:25:04Z</time>
    </trkpt>
    <trkpt lat="50.279117" lon="16.972601">
      <ele>853</ele>
      <time>2026-05-07T14:25:10Z</time>
    </trkpt>
    <trkpt lat="50.279192" lon="16.972555">
      <ele>852</ele>
      <time>2026-05-07T14:25:18Z</time>
    </trkpt>
    <trkpt lat="50.279344" lon="16.972347">
      <ele>852</ele>
      <time>2026-05-07T14:25:37Z</time>
    </trkpt>
    <trkpt lat="50.279641" lon="16.972048">
      <ele>849</ele>
      <time>2026-05-07T14:26:12Z</time>
    </trkpt>
    <trkpt lat="50.27982" lon="16.971805">
      <ele>846</ele>
      <time>2026-05-07T14:26:36Z</time>
    </trkpt>
    <trkpt lat="50.279967" lon="16.9716">
      <ele>844</ele>
      <time>2026-05-07T14:26:55Z</time>
    </trkpt>
    <trkpt lat="50.280112" lon="16.971328">
      <ele>842</ele>
      <time>2026-05-07T14:27:18Z</time>
    </trkpt>
    <trkpt lat="50.280257" lon="16.970991">
      <ele>839</ele>
      <time>2026-05-07T14:27:44Z</time>
    </trkpt>
    <trkpt lat="50.280404" lon="16.970701">
      <ele>836</ele>
      <time>2026-05-07T14:28:07Z</time>
    </trkpt>
    <trkpt lat="50.280496" lon="16.970582">
      <ele>832</ele>
      <time>2026-05-07T14:28:19Z</time>
    </trkpt>
    <trkpt lat="50.280635" lon="16.970462">
      <ele>829</ele>
      <time>2026-05-07T14:28:35Z</time>
    </trkpt>
    <trkpt lat="50.280747" lon="16.970426">
      <ele>827</ele>
      <time>2026-05-07T14:28:47Z</time>
    </trkpt>
    <trkpt lat="50.280811" lon="16.970388">
      <ele>826</ele>
      <time>2026-05-07T14:28:53Z</time>
    </trkpt>
    <trkpt lat="50.280885" lon="16.97027">
      <ele>824</ele>
      <time>2026-05-07T14:29:04Z</time>
    </trkpt>
    <trkpt lat="50.280954" lon="16.970101">
      <ele>823</ele>
      <time>2026-05-07T14:29:17Z</time>
    </trkpt>
    <trkpt lat="50.280987" lon="16.969979">
      <ele>822</ele>
      <time>2026-05-07T14:29:25Z</time>
    </trkpt>
    <trkpt lat="50.281014" lon="16.969739">
      <ele>821</ele>
      <time>2026-05-07T14:29:40Z</time>
    </trkpt>
    <trkpt lat="50.281042" lon="16.969443">
      <ele>819</ele>
      <time>2026-05-07T14:29:59Z</time>
    </trkpt>
    <trkpt lat="50.281089" lon="16.969122">
      <ele>818</ele>
      <time>2026-05-07T14:30:20Z</time>
    </trkpt>
    <trkpt lat="50.281139" lon="16.96883">
      <ele>817</ele>
      <time>2026-05-07T14:30:39Z</time>
    </trkpt>
    <trkpt lat="50.281183" lon="16.968594">
      <ele>816</ele>
      <time>2026-05-07T14:30:55Z</time>
    </trkpt>
    <trkpt lat="50.281266" lon="16.968104">
      <ele>814</ele>
      <time>2026-05-07T14:31:27Z</time>
    </trkpt>
    <trkpt lat="50.281342" lon="16.967696">
      <ele>812</ele>
      <time>2026-05-07T14:31:54Z</time>
    </trkpt>
    <trkpt lat="50.281436" lon="16.967316">
      <ele>810</ele>
      <time>2026-05-07T14:32:19Z</time>
    </trkpt>
    <trkpt lat="50.281508" lon="16.966998">
      <ele>808</ele>
      <time>2026-05-07T14:32:41Z</time>
    </trkpt>
    <trkpt lat="50.281586" lon="16.966731">
      <ele>805</ele>
      <time>2026-05-07T14:32:59Z</time>
    </trkpt>
    <trkpt lat="50.281711" lon="16.96636">
      <ele>801</ele>
      <time>2026-05-07T14:33:26Z</time>
    </trkpt>
    <trkpt lat="50.28186" lon="16.965981">
      <ele>797</ele>
      <time>2026-05-07T14:33:54Z</time>
    </trkpt>
    <trkpt lat="50.282065" lon="16.96571">
      <ele>794</ele>
      <time>2026-05-07T14:34:21Z</time>
    </trkpt>
    <trkpt lat="50.282323" lon="16.965472">
      <ele>790</ele>
      <time>2026-05-07T14:34:51Z</time>
    </trkpt>
    <trkpt lat="50.282469" lon="16.965311">
      <ele>788</ele>
      <time>2026-05-07T14:35:08Z</time>
    </trkpt>
    <trkpt lat="50.28264" lon="16.965045">
      <ele>786</ele>
      <time>2026-05-07T14:35:32Z</time>
    </trkpt>
    <trkpt lat="50.282862" lon="16.964726">
      <ele>784</ele>
      <time>2026-05-07T14:36:02Z</time>
    </trkpt>
    <trkpt lat="50.28295" lon="16.964642">
      <ele>783</ele>
      <time>2026-05-07T14:36:12Z</time>
    </trkpt>
    <trkpt lat="50.283212" lon="16.964471">
      <ele>779</ele>
      <time>2026-05-07T14:36:40Z</time>
    </trkpt>
    <trkpt lat="50.283699" lon="16.964203">
      <ele>776</ele>
      <time>2026-05-07T14:37:31Z</time>
    </trkpt>
    <trkpt lat="50.283881" lon="16.964049">
      <ele>772</ele>
      <time>2026-05-07T14:37:52Z</time>
    </trkpt>
    <trkpt lat="50.284094" lon="16.963753">
      <ele>766</ele>
      <time>2026-05-07T14:38:21Z</time>
    </trkpt>
    <trkpt lat="50.284297" lon="16.963511">
      <ele>762</ele>
      <time>2026-05-07T14:38:46Z</time>
    </trkpt>
    <trkpt lat="50.284574" lon="16.963165">
      <ele>759</ele>
      <time>2026-05-07T14:39:21Z</time>
    </trkpt>
    <trkpt lat="50.284835" lon="16.962702">
      <ele>755</ele>
      <time>2026-05-07T14:40:00Z</time>
    </trkpt>
    <trkpt lat="50.284987" lon="16.962318">
      <ele>753</ele>
      <time>2026-05-07T14:40:29Z</time>
    </trkpt>
    <trkpt lat="50.285054" lon="16.962038">
      <ele>751</ele>
      <time>2026-05-07T14:40:48Z</time>
    </trkpt>
    <trkpt lat="50.28504" lon="16.96178">
      <ele>749</ele>
      <time>2026-05-07T14:41:04Z</time>
    </trkpt>
    <trkpt lat="50.28499" lon="16.961429">
      <ele>747</ele>
      <time>2026-05-07T14:41:27Z</time>
    </trkpt>
    <trkpt lat="50.284987" lon="16.960912">
      <ele>745</ele>
      <time>2026-05-07T14:41:59Z</time>
    </trkpt>
    <trkpt lat="50.285032" lon="16.960545">
      <ele>742</ele>
      <time>2026-05-07T14:42:23Z</time>
    </trkpt>
    <trkpt lat="50.285222" lon="16.959973">
      <ele>736</ele>
      <time>2026-05-07T14:43:04Z</time>
    </trkpt>
    <trkpt lat="50.28544" lon="16.959794">
      <ele>732</ele>
      <time>2026-05-07T14:43:29Z</time>
    </trkpt>
    <trkpt lat="50.285747" lon="16.959652">
      <ele>728</ele>
      <time>2026-05-07T14:44:00Z</time>
    </trkpt>
    <trkpt lat="50.286115" lon="16.959448">
      <ele>725</ele>
      <time>2026-05-07T14:44:39Z</time>
    </trkpt>
    <trkpt lat="50.286448" lon="16.959298">
      <ele>720</ele>
      <time>2026-05-07T14:45:13Z</time>
    </trkpt>
    <trkpt lat="50.286674" lon="16.959124">
      <ele>716</ele>
      <time>2026-05-07T14:45:39Z</time>
    </trkpt>
    <trkpt lat="50.28705" lon="16.95878">
      <ele>712</ele>
      <time>2026-05-07T14:46:22Z</time>
    </trkpt>
    <trkpt lat="50.287367" lon="16.958497">
      <ele>708</ele>
      <time>2026-05-07T14:46:58Z</time>
    </trkpt>
    <trkpt lat="50.28774" lon="16.95821">
      <ele>702</ele>
      <time>2026-05-07T14:47:39Z</time>
    </trkpt>
    <trkpt lat="50.287973" lon="16.957969">
      <ele>698</ele>
      <time>2026-05-07T14:48:07Z</time>
    </trkpt>
    <trkpt lat="50.288657" lon="16.95808">
      <ele>694</ele>
      <time>2026-05-07T14:49:15Z</time>
    </trkpt>
    <trkpt lat="50.289032" lon="16.958129">
      <ele>688</ele>
      <time>2026-05-07T14:49:52Z</time>
    </trkpt>
    <trkpt lat="50.289329" lon="16.958259">
      <ele>685</ele>
      <time>2026-05-07T14:50:23Z</time>
    </trkpt>
    <trkpt lat="50.289792" lon="16.958365">
      <ele>682</ele>
      <time>2026-05-07T14:51:09Z</time>
    </trkpt>
    <trkpt lat="50.290324" lon="16.958316">
      <ele>675</ele>
      <time>2026-05-07T14:52:02Z</time>
    </trkpt>
    <trkpt lat="50.290964" lon="16.958226">
      <ele>677</ele>
      <time>2026-05-07T14:53:05Z</time>
    </trkpt>
    <trkpt lat="50.291985" lon="16.958308">
      <ele>666</ele>
      <time>2026-05-07T14:54:47Z</time>
    </trkpt>
    <trkpt lat="50.292777" lon="16.9583">
      <ele>666</ele>
      <time>2026-05-07T14:56:05Z</time>
    </trkpt>
    <trkpt lat="50.293777" lon="16.958365">
      <ele>664</ele>
      <time>2026-05-07T14:57:44Z</time>
    </trkpt>
    <trkpt lat="50.294811" lon="16.958601">
      <ele>658</ele>
      <time>2026-05-07T14:59:27Z</time>
    </trkpt>
    <trkpt lat="50.295131" lon="16.958651">
      <ele>652</ele>
      <time>2026-05-07T14:59:59Z</time>
    </trkpt>
    <trkpt lat="50.295745" lon="16.958593">
      <ele>647</ele>
      <time>2026-05-07T15:01:00Z</time>
    </trkpt>
    <trkpt lat="50.297589" lon="16.958349">
      <ele>633</ele>
      <time>2026-05-07T15:04:03Z</time>
    </trkpt>
    <trkpt lat="50.297979" lon="16.958357">
      <ele>630</ele>
      <time>2026-05-07T15:04:41Z</time>
    </trkpt>
    <trkpt lat="50.298713" lon="16.958357">
      <ele>627</ele>
      <time>2026-05-07T15:05:54Z</time>
    </trkpt>
    <trkpt lat="50.299432" lon="16.958292">
      <ele>620</ele>
      <time>2026-05-07T15:07:05Z</time>
    </trkpt>
    <trkpt lat="50.299817" lon="16.958235">
      <ele>618</ele>
      <time>2026-05-07T15:07:43Z</time>
    </trkpt>
    <trkpt lat="50.300177" lon="16.958137">
      <ele>614</ele>
      <time>2026-05-07T15:08:19Z</time>
    </trkpt>
    <trkpt lat="50.300515" lon="16.957949">
      <ele>612</ele>
      <time>2026-05-07T15:08:55Z</time>
    </trkpt>
    <trkpt lat="50.301148" lon="16.957437">
      <ele>609</ele>
      <time>2026-05-07T15:10:05Z</time>
    </trkpt>
    <trkpt lat="50.301596" lon="16.957105">
      <ele>606</ele>
      <time>2026-05-07T15:10:54Z</time>
    </trkpt>
    <trkpt lat="50.301949" lon="16.956789">
      <ele>605</ele>
      <time>2026-05-07T15:11:34Z</time>
    </trkpt>
    <trkpt lat="50.302227" lon="16.956477">
      <ele>603</ele>
      <time>2026-05-07T15:12:08Z</time>
    </trkpt>
    <trkpt lat="50.302707" lon="16.95583">
      <ele>599</ele>
      <time>2026-05-07T15:13:11Z</time>
    </trkpt>
    <trkpt lat="50.302978" lon="16.955406">
      <ele>598</ele>
      <time>2026-05-07T15:13:48Z</time>
    </trkpt>
    <trkpt lat="50.303145" lon="16.954786">
      <ele>597</ele>
      <time>2026-05-07T15:14:31Z</time>
    </trkpt>
    <trkpt lat="50.303229" lon="16.954339">
      <ele>596</ele>
      <time>2026-05-07T15:15:00Z</time>
    </trkpt>
    <trkpt lat="50.303249" lon="16.954177">
      <ele>596</ele>
      <time>2026-05-07T15:15:10Z</time>
    </trkpt>
    <trkpt lat="50.303262" lon="16.953728">
      <ele>594</ele>
      <time>2026-05-07T15:15:39Z</time>
    </trkpt>
    <trkpt lat="50.303268" lon="16.953498">
      <ele>591</ele>
      <time>2026-05-07T15:15:54Z</time>
    </trkpt>
    <trkpt lat="50.303255" lon="16.953307">
      <ele>590</ele>
      <time>2026-05-07T15:16:06Z</time>
    </trkpt>
    <trkpt lat="50.303247" lon="16.953226">
      <ele>589</ele>
      <time>2026-05-07T15:16:11Z</time>
    </trkpt>
    <trkpt lat="50.30323" lon="16.953119">
      <ele>588</ele>
      <time>2026-05-07T15:16:18Z</time>
    </trkpt>
    <trkpt lat="50.303102" lon="16.952683">
      <ele>585</ele>
      <time>2026-05-07T15:16:48Z</time>
    </trkpt>
    <trkpt lat="50.303045" lon="16.952456">
      <ele>584</ele>
      <time>2026-05-07T15:17:04Z</time>
    </trkpt>
    <trkpt lat="50.302988" lon="16.952218">
      <ele>583</ele>
      <time>2026-05-07T15:17:20Z</time>
    </trkpt>
    <trkpt lat="50.302922" lon="16.951856">
      <ele>582</ele>
      <time>2026-05-07T15:17:43Z</time>
    </trkpt>
    <trkpt lat="50.302868" lon="16.951403">
      <ele>580</ele>
      <time>2026-05-07T15:18:13Z</time>
    </trkpt>
    <trkpt lat="50.302881" lon="16.95125">
      <ele>579</ele>
      <time>2026-05-07T15:18:22Z</time>
    </trkpt>
    <trkpt lat="50.302914" lon="16.951197">
      <ele>578</ele>
      <time>2026-05-07T15:18:27Z</time>
    </trkpt>
    <trkpt lat="50.302896" lon="16.950971">
      <ele>578</ele>
      <time>2026-05-07T15:18:38Z</time>
    </trkpt>
    <trkpt lat="50.303016" lon="16.949956">
      <ele>574</ele>
      <time>2026-05-07T15:19:27Z</time>
    </trkpt>
  </trkseg>
</trk>
</gpx>