<?xml version="1.0" encoding="UTF-8"?><gpx creator="https://mapa-turystyczna.pl" xmlns="http://www.topografix.com/GPX/1/1" version="1.1" xmlns:xsi="http://www.w3.org/2001/XMLSchema-instance" xsi:schemaLocation="http://www.topografix.com/GPX/1/1 http://www.topografix.com/GPX/1/1/gpx.xsd">
  <metadata>
    <link href="https://mapa-turystyczna.pl">
      <text>mapa-turystyczna.pl</text>
    </link>
    <time>2026-05-07T08:43:10Z</time>
    <bounds maxlat="50.739242" maxlon="15.750442" minlat="50.69547" minlon="15.72386"/>
  </metadata>

<trk>
  <name>Pec pod Sněžkou – Pec pod Sněžkou</name>
  <link href="https://mapa-turystyczna.pl/route/wwft">
    <text>Pec pod Sněžkou – Pec pod Sněžkou</text>
  </link>
  <trkseg>
    <trkpt lat="50.69547" lon="15.739161">
      <ele>767</ele>
      <time>2026-05-07T08:43:10Z</time>
    </trkpt>
    <trkpt lat="50.695588" lon="15.738994">
      <ele>766</ele>
      <time>2026-05-07T08:43:35Z</time>
    </trkpt>
    <trkpt lat="50.695636" lon="15.738955">
      <ele>766</ele>
      <time>2026-05-07T08:43:44Z</time>
    </trkpt>
    <trkpt lat="50.695739" lon="15.73887">
      <ele>767</ele>
      <time>2026-05-07T08:44:02Z</time>
    </trkpt>
    <trkpt lat="50.695831" lon="15.738809">
      <ele>768</ele>
      <time>2026-05-07T08:44:18Z</time>
    </trkpt>
    <trkpt lat="50.696003" lon="15.738694">
      <ele>768</ele>
      <time>2026-05-07T08:44:48Z</time>
    </trkpt>
    <trkpt lat="50.696191" lon="15.738553">
      <ele>768</ele>
      <time>2026-05-07T08:45:21Z</time>
    </trkpt>
    <trkpt lat="50.696409" lon="15.738389">
      <ele>769</ele>
      <time>2026-05-07T08:45:59Z</time>
    </trkpt>
    <trkpt lat="50.696568" lon="15.738221">
      <ele>770</ele>
      <time>2026-05-07T08:46:30Z</time>
    </trkpt>
    <trkpt lat="50.696711" lon="15.738045">
      <ele>772</ele>
      <time>2026-05-07T08:46:59Z</time>
    </trkpt>
    <trkpt lat="50.696772" lon="15.737958">
      <ele>773</ele>
      <time>2026-05-07T08:47:12Z</time>
    </trkpt>
    <trkpt lat="50.697049" lon="15.737585">
      <ele>776</ele>
      <time>2026-05-07T08:48:10Z</time>
    </trkpt>
    <trkpt lat="50.697091" lon="15.737531">
      <ele>776</ele>
      <time>2026-05-07T08:48:18Z</time>
    </trkpt>
    <trkpt lat="50.697143" lon="15.737471">
      <ele>776</ele>
      <time>2026-05-07T08:48:28Z</time>
    </trkpt>
    <trkpt lat="50.69728" lon="15.737354">
      <ele>775</ele>
      <time>2026-05-07T08:48:51Z</time>
    </trkpt>
    <trkpt lat="50.697432" lon="15.737172">
      <ele>775</ele>
      <time>2026-05-07T08:49:19Z</time>
    </trkpt>
    <trkpt lat="50.69754" lon="15.73708">
      <ele>775</ele>
      <time>2026-05-07T08:49:38Z</time>
    </trkpt>
    <trkpt lat="50.697639" lon="15.737007">
      <ele>776</ele>
      <time>2026-05-07T08:49:54Z</time>
    </trkpt>
    <trkpt lat="50.697877" lon="15.736853">
      <ele>778</ele>
      <time>2026-05-07T08:50:33Z</time>
    </trkpt>
    <trkpt lat="50.698147" lon="15.736706">
      <ele>781</ele>
      <time>2026-05-07T08:51:16Z</time>
    </trkpt>
    <trkpt lat="50.698249" lon="15.73665">
      <ele>782</ele>
      <time>2026-05-07T08:51:32Z</time>
    </trkpt>
    <trkpt lat="50.698254" lon="15.736648">
      <ele>782</ele>
      <time>2026-05-07T08:51:32Z</time>
    </trkpt>
    <trkpt lat="50.698273" lon="15.736637">
      <ele>782</ele>
      <time>2026-05-07T08:51:35Z</time>
    </trkpt>
    <trkpt lat="50.698456" lon="15.736541">
      <ele>784</ele>
      <time>2026-05-07T08:52:04Z</time>
    </trkpt>
    <trkpt lat="50.698492" lon="15.736522">
      <ele>784</ele>
      <time>2026-05-07T08:52:10Z</time>
    </trkpt>
    <trkpt lat="50.699019" lon="15.736234">
      <ele>788</ele>
      <time>2026-05-07T08:53:33Z</time>
    </trkpt>
    <trkpt lat="50.699082" lon="15.736205">
      <ele>788</ele>
      <time>2026-05-07T08:53:43Z</time>
    </trkpt>
    <trkpt lat="50.699101" lon="15.736186">
      <ele>788</ele>
      <time>2026-05-07T08:53:47Z</time>
    </trkpt>
    <trkpt lat="50.699149" lon="15.73618">
      <ele>788</ele>
      <time>2026-05-07T08:53:54Z</time>
    </trkpt>
    <trkpt lat="50.699212" lon="15.736144">
      <ele>788</ele>
      <time>2026-05-07T08:54:04Z</time>
    </trkpt>
    <trkpt lat="50.699381" lon="15.736049">
      <ele>789</ele>
      <time>2026-05-07T08:54:31Z</time>
    </trkpt>
    <trkpt lat="50.699435" lon="15.735939">
      <ele>792</ele>
      <time>2026-05-07T08:54:44Z</time>
    </trkpt>
    <trkpt lat="50.699553" lon="15.735838">
      <ele>795</ele>
      <time>2026-05-07T08:55:05Z</time>
    </trkpt>
    <trkpt lat="50.699855" lon="15.735591">
      <ele>799</ele>
      <time>2026-05-07T08:55:56Z</time>
    </trkpt>
    <trkpt lat="50.700004" lon="15.735505">
      <ele>801</ele>
      <time>2026-05-07T08:56:20Z</time>
    </trkpt>
    <trkpt lat="50.700384" lon="15.735302">
      <ele>805</ele>
      <time>2026-05-07T08:57:20Z</time>
    </trkpt>
    <trkpt lat="50.700567" lon="15.735205">
      <ele>807</ele>
      <time>2026-05-07T08:57:49Z</time>
    </trkpt>
    <trkpt lat="50.7007" lon="15.735124">
      <ele>807</ele>
      <time>2026-05-07T08:58:10Z</time>
    </trkpt>
    <trkpt lat="50.700898" lon="15.73505">
      <ele>804</ele>
      <time>2026-05-07T08:58:42Z</time>
    </trkpt>
    <trkpt lat="50.701014" lon="15.734984">
      <ele>804</ele>
      <time>2026-05-07T08:59:01Z</time>
    </trkpt>
    <trkpt lat="50.701407" lon="15.734772">
      <ele>808</ele>
      <time>2026-05-07T09:00:06Z</time>
    </trkpt>
    <trkpt lat="50.701638" lon="15.734614">
      <ele>812</ele>
      <time>2026-05-07T09:00:45Z</time>
    </trkpt>
    <trkpt lat="50.702353" lon="15.734116">
      <ele>818</ele>
      <time>2026-05-07T09:02:47Z</time>
    </trkpt>
    <trkpt lat="50.70288" lon="15.7338">
      <ele>823</ele>
      <time>2026-05-07T09:04:15Z</time>
    </trkpt>
    <trkpt lat="50.703066" lon="15.733728">
      <ele>823</ele>
      <time>2026-05-07T09:04:45Z</time>
    </trkpt>
    <trkpt lat="50.703377" lon="15.733643">
      <ele>825</ele>
      <time>2026-05-07T09:05:34Z</time>
    </trkpt>
    <trkpt lat="50.703868" lon="15.733448">
      <ele>830</ele>
      <time>2026-05-07T09:06:53Z</time>
    </trkpt>
    <trkpt lat="50.704511" lon="15.733193">
      <ele>830</ele>
      <time>2026-05-07T09:08:36Z</time>
    </trkpt>
    <trkpt lat="50.704557" lon="15.733074">
      <ele>833</ele>
      <time>2026-05-07T09:08:51Z</time>
    </trkpt>
    <trkpt lat="50.704577" lon="15.733036">
      <ele>834</ele>
      <time>2026-05-07T09:08:56Z</time>
    </trkpt>
    <trkpt lat="50.704601" lon="15.733004">
      <ele>835</ele>
      <time>2026-05-07T09:09:01Z</time>
    </trkpt>
    <trkpt lat="50.704627" lon="15.732977">
      <ele>836</ele>
      <time>2026-05-07T09:09:06Z</time>
    </trkpt>
    <trkpt lat="50.704663" lon="15.732953">
      <ele>837</ele>
      <time>2026-05-07T09:09:12Z</time>
    </trkpt>
    <trkpt lat="50.704701" lon="15.732937">
      <ele>837</ele>
      <time>2026-05-07T09:09:18Z</time>
    </trkpt>
    <trkpt lat="50.70474" lon="15.73293">
      <ele>837</ele>
      <time>2026-05-07T09:09:24Z</time>
    </trkpt>
    <trkpt lat="50.704778" lon="15.73293">
      <ele>837</ele>
      <time>2026-05-07T09:09:30Z</time>
    </trkpt>
    <trkpt lat="50.704816" lon="15.732936">
      <ele>836</ele>
      <time>2026-05-07T09:09:36Z</time>
    </trkpt>
    <trkpt lat="50.704854" lon="15.732946">
      <ele>836</ele>
      <time>2026-05-07T09:09:42Z</time>
    </trkpt>
    <trkpt lat="50.704889" lon="15.732969">
      <ele>835</ele>
      <time>2026-05-07T09:09:48Z</time>
    </trkpt>
    <trkpt lat="50.704907" lon="15.732987">
      <ele>834</ele>
      <time>2026-05-07T09:09:52Z</time>
    </trkpt>
    <trkpt lat="50.704924" lon="15.733008">
      <ele>834</ele>
      <time>2026-05-07T09:09:55Z</time>
    </trkpt>
    <trkpt lat="50.704954" lon="15.733057">
      <ele>832</ele>
      <time>2026-05-07T09:10:02Z</time>
    </trkpt>
    <trkpt lat="50.704968" lon="15.733087">
      <ele>831</ele>
      <time>2026-05-07T09:10:06Z</time>
    </trkpt>
    <trkpt lat="50.704978" lon="15.733121">
      <ele>831</ele>
      <time>2026-05-07T09:10:10Z</time>
    </trkpt>
    <trkpt lat="50.704985" lon="15.733157">
      <ele>830</ele>
      <time>2026-05-07T09:10:14Z</time>
    </trkpt>
    <trkpt lat="50.704988" lon="15.733195">
      <ele>829</ele>
      <time>2026-05-07T09:10:18Z</time>
    </trkpt>
    <trkpt lat="50.704991" lon="15.733254">
      <ele>828</ele>
      <time>2026-05-07T09:10:24Z</time>
    </trkpt>
    <trkpt lat="50.704992" lon="15.733313">
      <ele>826</ele>
      <time>2026-05-07T09:10:30Z</time>
    </trkpt>
    <trkpt lat="50.70499" lon="15.733358">
      <ele>826</ele>
      <time>2026-05-07T09:10:34Z</time>
    </trkpt>
    <trkpt lat="50.704982" lon="15.733402">
      <ele>826</ele>
      <time>2026-05-07T09:10:39Z</time>
    </trkpt>
    <trkpt lat="50.704968" lon="15.733442">
      <ele>826</ele>
      <time>2026-05-07T09:10:43Z</time>
    </trkpt>
    <trkpt lat="50.705104" lon="15.733433">
      <ele>828</ele>
      <time>2026-05-07T09:11:05Z</time>
    </trkpt>
    <trkpt lat="50.705158" lon="15.733413">
      <ele>829</ele>
      <time>2026-05-07T09:11:13Z</time>
    </trkpt>
    <trkpt lat="50.705273" lon="15.733342">
      <ele>831</ele>
      <time>2026-05-07T09:11:33Z</time>
    </trkpt>
    <trkpt lat="50.705371" lon="15.733243">
      <ele>833</ele>
      <time>2026-05-07T09:11:51Z</time>
    </trkpt>
    <trkpt lat="50.705493" lon="15.733049">
      <ele>837</ele>
      <time>2026-05-07T09:12:18Z</time>
    </trkpt>
    <trkpt lat="50.705572" lon="15.732892">
      <ele>838</ele>
      <time>2026-05-07T09:12:38Z</time>
    </trkpt>
    <trkpt lat="50.705602" lon="15.732842">
      <ele>839</ele>
      <time>2026-05-07T09:12:45Z</time>
    </trkpt>
    <trkpt lat="50.70574" lon="15.732719">
      <ele>841</ele>
      <time>2026-05-07T09:13:10Z</time>
    </trkpt>
    <trkpt lat="50.705986" lon="15.732432">
      <ele>846</ele>
      <time>2026-05-07T09:13:52Z</time>
    </trkpt>
    <trkpt lat="50.706081" lon="15.732384">
      <ele>846</ele>
      <time>2026-05-07T09:14:06Z</time>
    </trkpt>
    <trkpt lat="50.706484" lon="15.732257">
      <ele>840</ele>
      <time>2026-05-07T09:15:02Z</time>
    </trkpt>
    <trkpt lat="50.706672" lon="15.732161">
      <ele>841</ele>
      <time>2026-05-07T09:15:29Z</time>
    </trkpt>
    <trkpt lat="50.706828" lon="15.732031">
      <ele>844</ele>
      <time>2026-05-07T09:15:54Z</time>
    </trkpt>
    <trkpt lat="50.707101" lon="15.731703">
      <ele>847</ele>
      <time>2026-05-07T09:16:41Z</time>
    </trkpt>
    <trkpt lat="50.707292" lon="15.731426">
      <ele>850</ele>
      <time>2026-05-07T09:17:16Z</time>
    </trkpt>
    <trkpt lat="50.707432" lon="15.731142">
      <ele>850</ele>
      <time>2026-05-07T09:17:47Z</time>
    </trkpt>
    <trkpt lat="50.707538" lon="15.730901">
      <ele>853</ele>
      <time>2026-05-07T09:18:13Z</time>
    </trkpt>
    <trkpt lat="50.70759" lon="15.730899">
      <ele>853</ele>
      <time>2026-05-07T09:18:20Z</time>
    </trkpt>
    <trkpt lat="50.707719" lon="15.73087">
      <ele>852</ele>
      <time>2026-05-07T09:18:38Z</time>
    </trkpt>
    <trkpt lat="50.707756" lon="15.730862">
      <ele>852</ele>
      <time>2026-05-07T09:18:43Z</time>
    </trkpt>
    <trkpt lat="50.70779" lon="15.730808">
      <ele>852</ele>
      <time>2026-05-07T09:18:50Z</time>
    </trkpt>
    <trkpt lat="50.707818" lon="15.730764">
      <ele>853</ele>
      <time>2026-05-07T09:18:55Z</time>
    </trkpt>
    <trkpt lat="50.70794" lon="15.73051">
      <ele>854</ele>
      <time>2026-05-07T09:19:23Z</time>
    </trkpt>
    <trkpt lat="50.708098" lon="15.730199">
      <ele>857</ele>
      <time>2026-05-07T09:19:57Z</time>
    </trkpt>
    <trkpt lat="50.708183" lon="15.729998">
      <ele>859</ele>
      <time>2026-05-07T09:20:18Z</time>
    </trkpt>
    <trkpt lat="50.708369" lon="15.729373">
      <ele>869</ele>
      <time>2026-05-07T09:21:19Z</time>
    </trkpt>
    <trkpt lat="50.708533" lon="15.728741">
      <ele>874</ele>
      <time>2026-05-07T09:22:19Z</time>
    </trkpt>
    <trkpt lat="50.708617" lon="15.728501">
      <ele>875</ele>
      <time>2026-05-07T09:22:42Z</time>
    </trkpt>
    <trkpt lat="50.708721" lon="15.728328">
      <ele>880</ele>
      <time>2026-05-07T09:23:04Z</time>
    </trkpt>
    <trkpt lat="50.708846" lon="15.728129">
      <ele>885</ele>
      <time>2026-05-07T09:23:29Z</time>
    </trkpt>
    <trkpt lat="50.708926" lon="15.727944">
      <ele>887</ele>
      <time>2026-05-07T09:23:48Z</time>
    </trkpt>
    <trkpt lat="50.709054" lon="15.727577">
      <ele>891</ele>
      <time>2026-05-07T09:24:25Z</time>
    </trkpt>
    <trkpt lat="50.709139" lon="15.727383">
      <ele>892</ele>
      <time>2026-05-07T09:24:45Z</time>
    </trkpt>
    <trkpt lat="50.709471" lon="15.726913">
      <ele>897</ele>
      <time>2026-05-07T09:25:47Z</time>
    </trkpt>
    <trkpt lat="50.709841" lon="15.726439">
      <ele>897</ele>
      <time>2026-05-07T09:26:52Z</time>
    </trkpt>
    <trkpt lat="50.710161" lon="15.726091">
      <ele>898</ele>
      <time>2026-05-07T09:27:45Z</time>
    </trkpt>
    <trkpt lat="50.710643" lon="15.72553">
      <ele>901</ele>
      <time>2026-05-07T09:29:06Z</time>
    </trkpt>
    <trkpt lat="50.711026" lon="15.725226">
      <ele>905</ele>
      <time>2026-05-07T09:30:05Z</time>
    </trkpt>
    <trkpt lat="50.711418" lon="15.72482">
      <ele>909</ele>
      <time>2026-05-07T09:31:09Z</time>
    </trkpt>
    <trkpt lat="50.711871" lon="15.72445">
      <ele>908</ele>
      <time>2026-05-07T09:32:19Z</time>
    </trkpt>
    <trkpt lat="50.712248" lon="15.724277">
      <ele>910</ele>
      <time>2026-05-07T09:33:13Z</time>
    </trkpt>
    <trkpt lat="50.712601" lon="15.724176">
      <ele>913</ele>
      <time>2026-05-07T09:34:02Z</time>
    </trkpt>
    <trkpt lat="50.712947" lon="15.724137">
      <ele>915</ele>
      <time>2026-05-07T09:34:49Z</time>
    </trkpt>
    <trkpt lat="50.713123" lon="15.724154">
      <ele>915</ele>
      <time>2026-05-07T09:35:13Z</time>
    </trkpt>
    <trkpt lat="50.713267" lon="15.724156">
      <ele>915</ele>
      <time>2026-05-07T09:35:33Z</time>
    </trkpt>
    <trkpt lat="50.713658" lon="15.72407">
      <ele>910</ele>
      <time>2026-05-07T09:36:27Z</time>
    </trkpt>
    <trkpt lat="50.714045" lon="15.723985">
      <ele>908</ele>
      <time>2026-05-07T09:37:21Z</time>
    </trkpt>
    <trkpt lat="50.714352" lon="15.723874">
      <ele>905</ele>
      <time>2026-05-07T09:38:04Z</time>
    </trkpt>
    <trkpt lat="50.714492" lon="15.723862">
      <ele>905</ele>
      <time>2026-05-07T09:38:23Z</time>
    </trkpt>
    <trkpt lat="50.71468" lon="15.723947">
      <ele>907</ele>
      <time>2026-05-07T09:38:50Z</time>
    </trkpt>
    <trkpt lat="50.714925" lon="15.724151">
      <ele>914</ele>
      <time>2026-05-07T09:39:28Z</time>
    </trkpt>
    <trkpt lat="50.715014" lon="15.72417">
      <ele>915</ele>
      <time>2026-05-07T09:39:41Z</time>
    </trkpt>
    <trkpt lat="50.715104" lon="15.724154">
      <ele>915</ele>
      <time>2026-05-07T09:39:53Z</time>
    </trkpt>
    <trkpt lat="50.715701" lon="15.724023">
      <ele>919</ele>
      <time>2026-05-07T09:41:16Z</time>
    </trkpt>
    <trkpt lat="50.715986" lon="15.723961">
      <ele>923</ele>
      <time>2026-05-07T09:41:55Z</time>
    </trkpt>
    <trkpt lat="50.716257" lon="15.72386">
      <ele>915</ele>
      <time>2026-05-07T09:42:34Z</time>
    </trkpt>
    <trkpt lat="50.716376" lon="15.723871">
      <ele>911</ele>
      <time>2026-05-07T09:42:51Z</time>
    </trkpt>
    <trkpt lat="50.716478" lon="15.724008">
      <ele>909</ele>
      <time>2026-05-07T09:43:10Z</time>
    </trkpt>
    <trkpt lat="50.71678" lon="15.724393">
      <ele>926</ele>
      <time>2026-05-07T09:44:33Z</time>
    </trkpt>
    <trkpt lat="50.716875" lon="15.724509">
      <ele>930</ele>
      <time>2026-05-07T09:44:58Z</time>
    </trkpt>
    <trkpt lat="50.717004" lon="15.724633">
      <ele>930</ele>
      <time>2026-05-07T09:45:28Z</time>
    </trkpt>
    <trkpt lat="50.717068" lon="15.724645">
      <ele>930</ele>
      <time>2026-05-07T09:45:41Z</time>
    </trkpt>
    <trkpt lat="50.7172" lon="15.724606">
      <ele>927</ele>
      <time>2026-05-07T09:46:08Z</time>
    </trkpt>
    <trkpt lat="50.717748" lon="15.724438">
      <ele>928</ele>
      <time>2026-05-07T09:47:59Z</time>
    </trkpt>
    <trkpt lat="50.717896" lon="15.72442">
      <ele>928</ele>
      <time>2026-05-07T09:48:29Z</time>
    </trkpt>
    <trkpt lat="50.718023" lon="15.724443">
      <ele>928</ele>
      <time>2026-05-07T09:48:54Z</time>
    </trkpt>
    <trkpt lat="50.718121" lon="15.72449">
      <ele>928</ele>
      <time>2026-05-07T09:49:14Z</time>
    </trkpt>
    <trkpt lat="50.718231" lon="15.724569">
      <ele>927</ele>
      <time>2026-05-07T09:49:38Z</time>
    </trkpt>
    <trkpt lat="50.71835" lon="15.724685">
      <ele>927</ele>
      <time>2026-05-07T09:50:06Z</time>
    </trkpt>
    <trkpt lat="50.718674" lon="15.725087">
      <ele>924</ele>
      <time>2026-05-07T09:51:29Z</time>
    </trkpt>
    <trkpt lat="50.718752" lon="15.725144">
      <ele>924</ele>
      <time>2026-05-07T09:51:46Z</time>
    </trkpt>
    <trkpt lat="50.71884" lon="15.725184">
      <ele>925</ele>
      <time>2026-05-07T09:52:04Z</time>
    </trkpt>
    <trkpt lat="50.718907" lon="15.725214">
      <ele>925</ele>
      <time>2026-05-07T09:52:18Z</time>
    </trkpt>
    <trkpt lat="50.719192" lon="15.725232">
      <ele>929</ele>
      <time>2026-05-07T09:53:15Z</time>
    </trkpt>
    <trkpt lat="50.719265" lon="15.725249">
      <ele>930</ele>
      <time>2026-05-07T09:53:30Z</time>
    </trkpt>
    <trkpt lat="50.719335" lon="15.725265">
      <ele>931</ele>
      <time>2026-05-07T09:53:44Z</time>
    </trkpt>
    <trkpt lat="50.719351" lon="15.725276">
      <ele>932</ele>
      <time>2026-05-07T09:53:47Z</time>
    </trkpt>
    <trkpt lat="50.719466" lon="15.725346">
      <ele>933</ele>
      <time>2026-05-07T09:54:12Z</time>
    </trkpt>
    <trkpt lat="50.719544" lon="15.72542">
      <ele>934</ele>
      <time>2026-05-07T09:54:30Z</time>
    </trkpt>
    <trkpt lat="50.719781" lon="15.725557">
      <ele>937</ele>
      <time>2026-05-07T09:55:21Z</time>
    </trkpt>
    <trkpt lat="50.720015" lon="15.725658">
      <ele>939</ele>
      <time>2026-05-07T09:56:09Z</time>
    </trkpt>
    <trkpt lat="50.720333" lon="15.725754">
      <ele>944</ele>
      <time>2026-05-07T09:57:14Z</time>
    </trkpt>
    <trkpt lat="50.720406" lon="15.725836">
      <ele>944</ele>
      <time>2026-05-07T09:57:32Z</time>
    </trkpt>
    <trkpt lat="50.72056" lon="15.726036">
      <ele>945</ele>
      <time>2026-05-07T09:58:12Z</time>
    </trkpt>
    <trkpt lat="50.720693" lon="15.726164">
      <ele>946</ele>
      <time>2026-05-07T09:58:43Z</time>
    </trkpt>
    <trkpt lat="50.720774" lon="15.726197">
      <ele>946</ele>
      <time>2026-05-07T09:58:59Z</time>
    </trkpt>
    <trkpt lat="50.721001" lon="15.726243">
      <ele>946</ele>
      <time>2026-05-07T09:59:45Z</time>
    </trkpt>
    <trkpt lat="50.721199" lon="15.726353">
      <ele>947</ele>
      <time>2026-05-07T10:00:27Z</time>
    </trkpt>
    <trkpt lat="50.72147" lon="15.726597">
      <ele>945</ele>
      <time>2026-05-07T10:01:29Z</time>
    </trkpt>
    <trkpt lat="50.721553" lon="15.726668">
      <ele>944</ele>
      <time>2026-05-07T10:01:48Z</time>
    </trkpt>
    <trkpt lat="50.721698" lon="15.726734">
      <ele>944</ele>
      <time>2026-05-07T10:02:18Z</time>
    </trkpt>
    <trkpt lat="50.721837" lon="15.726799">
      <ele>944</ele>
      <time>2026-05-07T10:02:47Z</time>
    </trkpt>
    <trkpt lat="50.721988" lon="15.726907">
      <ele>945</ele>
      <time>2026-05-07T10:03:20Z</time>
    </trkpt>
    <trkpt lat="50.722167" lon="15.727011">
      <ele>944</ele>
      <time>2026-05-07T10:03:58Z</time>
    </trkpt>
    <trkpt lat="50.722202" lon="15.7271">
      <ele>945</ele>
      <time>2026-05-07T10:04:11Z</time>
    </trkpt>
    <trkpt lat="50.722285" lon="15.727239">
      <ele>945</ele>
      <time>2026-05-07T10:04:35Z</time>
    </trkpt>
    <trkpt lat="50.722589" lon="15.728092">
      <ele>953</ele>
      <time>2026-05-07T10:06:39Z</time>
    </trkpt>
    <trkpt lat="50.722814" lon="15.728534">
      <ele>956</ele>
      <time>2026-05-07T10:07:51Z</time>
    </trkpt>
    <trkpt lat="50.722992" lon="15.728851">
      <ele>961</ele>
      <time>2026-05-07T10:08:45Z</time>
    </trkpt>
    <trkpt lat="50.723356" lon="15.729152">
      <ele>964</ele>
      <time>2026-05-07T10:10:07Z</time>
    </trkpt>
    <trkpt lat="50.723691" lon="15.72952">
      <ele>967</ele>
      <time>2026-05-07T10:11:28Z</time>
    </trkpt>
    <trkpt lat="50.72446" lon="15.730189">
      <ele>988</ele>
      <time>2026-05-07T10:14:27Z</time>
    </trkpt>
    <trkpt lat="50.724643" lon="15.730268">
      <ele>992</ele>
      <time>2026-05-07T10:15:05Z</time>
    </trkpt>
    <trkpt lat="50.724779" lon="15.730306">
      <ele>994</ele>
      <time>2026-05-07T10:15:33Z</time>
    </trkpt>
    <trkpt lat="50.724923" lon="15.730308">
      <ele>994</ele>
      <time>2026-05-07T10:16:02Z</time>
    </trkpt>
    <trkpt lat="50.725024" lon="15.730322">
      <ele>995</ele>
      <time>2026-05-07T10:16:22Z</time>
    </trkpt>
    <trkpt lat="50.725101" lon="15.730356">
      <ele>995</ele>
      <time>2026-05-07T10:16:38Z</time>
    </trkpt>
    <trkpt lat="50.725161" lon="15.730394">
      <ele>995</ele>
      <time>2026-05-07T10:16:51Z</time>
    </trkpt>
    <trkpt lat="50.72523" lon="15.730479">
      <ele>996</ele>
      <time>2026-05-07T10:17:08Z</time>
    </trkpt>
    <trkpt lat="50.725322" lon="15.73066">
      <ele>1000</ele>
      <time>2026-05-07T10:17:38Z</time>
    </trkpt>
    <trkpt lat="50.72537" lon="15.730684">
      <ele>1000</ele>
      <time>2026-05-07T10:17:48Z</time>
    </trkpt>
    <trkpt lat="50.725435" lon="15.73071">
      <ele>1001</ele>
      <time>2026-05-07T10:18:02Z</time>
    </trkpt>
    <trkpt lat="50.72556" lon="15.7307">
      <ele>1001</ele>
      <time>2026-05-07T10:18:27Z</time>
    </trkpt>
    <trkpt lat="50.725665" lon="15.730703">
      <ele>1000</ele>
      <time>2026-05-07T10:18:48Z</time>
    </trkpt>
    <trkpt lat="50.725775" lon="15.730731">
      <ele>999</ele>
      <time>2026-05-07T10:19:10Z</time>
    </trkpt>
    <trkpt lat="50.725941" lon="15.730793">
      <ele>997</ele>
      <time>2026-05-07T10:19:44Z</time>
    </trkpt>
    <trkpt lat="50.726061" lon="15.730862">
      <ele>997</ele>
      <time>2026-05-07T10:20:09Z</time>
    </trkpt>
    <trkpt lat="50.726381" lon="15.731018">
      <ele>1003</ele>
      <time>2026-05-07T10:21:17Z</time>
    </trkpt>
    <trkpt lat="50.726573" lon="15.7312">
      <ele>1013</ele>
      <time>2026-05-07T10:22:05Z</time>
    </trkpt>
    <trkpt lat="50.726713" lon="15.731261">
      <ele>1018</ele>
      <time>2026-05-07T10:22:35Z</time>
    </trkpt>
    <trkpt lat="50.727131" lon="15.731383">
      <ele>1027</ele>
      <time>2026-05-07T10:24:01Z</time>
    </trkpt>
    <trkpt lat="50.727486" lon="15.731437">
      <ele>1031</ele>
      <time>2026-05-07T10:25:13Z</time>
    </trkpt>
    <trkpt lat="50.727578" lon="15.731459">
      <ele>1034</ele>
      <time>2026-05-07T10:25:32Z</time>
    </trkpt>
    <trkpt lat="50.727666" lon="15.731456">
      <ele>1036</ele>
      <time>2026-05-07T10:25:50Z</time>
    </trkpt>
    <trkpt lat="50.727775" lon="15.731426">
      <ele>1038</ele>
      <time>2026-05-07T10:26:12Z</time>
    </trkpt>
    <trkpt lat="50.727854" lon="15.731426">
      <ele>1040</ele>
      <time>2026-05-07T10:26:28Z</time>
    </trkpt>
    <trkpt lat="50.727894" lon="15.73143">
      <ele>1041</ele>
      <time>2026-05-07T10:26:37Z</time>
    </trkpt>
    <trkpt lat="50.727934" lon="15.731467">
      <ele>1043</ele>
      <time>2026-05-07T10:26:47Z</time>
    </trkpt>
    <trkpt lat="50.727908" lon="15.731547">
      <ele>1046</ele>
      <time>2026-05-07T10:26:59Z</time>
    </trkpt>
    <trkpt lat="50.727864" lon="15.731608">
      <ele>1047</ele>
      <time>2026-05-07T10:27:11Z</time>
    </trkpt>
    <trkpt lat="50.727697" lon="15.731742">
      <ele>1049</ele>
      <time>2026-05-07T10:27:48Z</time>
    </trkpt>
    <trkpt lat="50.727617" lon="15.731787">
      <ele>1048</ele>
      <time>2026-05-07T10:28:05Z</time>
    </trkpt>
    <trkpt lat="50.727509" lon="15.731853">
      <ele>1049</ele>
      <time>2026-05-07T10:28:28Z</time>
    </trkpt>
    <trkpt lat="50.727376" lon="15.731948">
      <ele>1052</ele>
      <time>2026-05-07T10:28:58Z</time>
    </trkpt>
    <trkpt lat="50.727253" lon="15.732032">
      <ele>1054</ele>
      <time>2026-05-07T10:29:25Z</time>
    </trkpt>
    <trkpt lat="50.727017" lon="15.732201">
      <ele>1062</ele>
      <time>2026-05-07T10:30:18Z</time>
    </trkpt>
    <trkpt lat="50.726779" lon="15.7324">
      <ele>1066</ele>
      <time>2026-05-07T10:31:12Z</time>
    </trkpt>
    <trkpt lat="50.726746" lon="15.732455">
      <ele>1067</ele>
      <time>2026-05-07T10:31:22Z</time>
    </trkpt>
    <trkpt lat="50.726737" lon="15.732531">
      <ele>1070</ele>
      <time>2026-05-07T10:31:33Z</time>
    </trkpt>
    <trkpt lat="50.726755" lon="15.732636">
      <ele>1073</ele>
      <time>2026-05-07T10:31:48Z</time>
    </trkpt>
    <trkpt lat="50.726833" lon="15.732664">
      <ele>1075</ele>
      <time>2026-05-07T10:32:04Z</time>
    </trkpt>
    <trkpt lat="50.727273" lon="15.732757">
      <ele>1084</ele>
      <time>2026-05-07T10:33:34Z</time>
    </trkpt>
    <trkpt lat="50.727614" lon="15.732878">
      <ele>1096</ele>
      <time>2026-05-07T10:34:47Z</time>
    </trkpt>
    <trkpt lat="50.72801" lon="15.733011">
      <ele>1108</ele>
      <time>2026-05-07T10:36:10Z</time>
    </trkpt>
    <trkpt lat="50.728421" lon="15.733114">
      <ele>1120</ele>
      <time>2026-05-07T10:37:36Z</time>
    </trkpt>
    <trkpt lat="50.728615" lon="15.733132">
      <ele>1127</ele>
      <time>2026-05-07T10:38:16Z</time>
    </trkpt>
    <trkpt lat="50.72882" lon="15.73314">
      <ele>1129</ele>
      <time>2026-05-07T10:38:57Z</time>
    </trkpt>
    <trkpt lat="50.729047" lon="15.733173">
      <ele>1134</ele>
      <time>2026-05-07T10:39:43Z</time>
    </trkpt>
    <trkpt lat="50.729258" lon="15.733216">
      <ele>1139</ele>
      <time>2026-05-07T10:40:27Z</time>
    </trkpt>
    <trkpt lat="50.729404" lon="15.733297">
      <ele>1144</ele>
      <time>2026-05-07T10:40:59Z</time>
    </trkpt>
    <trkpt lat="50.729539" lon="15.733444">
      <ele>1151</ele>
      <time>2026-05-07T10:41:34Z</time>
    </trkpt>
    <trkpt lat="50.729614" lon="15.733487">
      <ele>1154</ele>
      <time>2026-05-07T10:41:51Z</time>
    </trkpt>
    <trkpt lat="50.729732" lon="15.733489">
      <ele>1156</ele>
      <time>2026-05-07T10:42:15Z</time>
    </trkpt>
    <trkpt lat="50.729949" lon="15.733456">
      <ele>1162</ele>
      <time>2026-05-07T10:42:59Z</time>
    </trkpt>
    <trkpt lat="50.730289" lon="15.733475">
      <ele>1168</ele>
      <time>2026-05-07T10:44:08Z</time>
    </trkpt>
    <trkpt lat="50.730492" lon="15.733522">
      <ele>1178</ele>
      <time>2026-05-07T10:44:52Z</time>
    </trkpt>
    <trkpt lat="50.730558" lon="15.733539">
      <ele>1180</ele>
      <time>2026-05-07T10:45:06Z</time>
    </trkpt>
    <trkpt lat="50.730617" lon="15.73352">
      <ele>1182</ele>
      <time>2026-05-07T10:45:18Z</time>
    </trkpt>
    <trkpt lat="50.730752" lon="15.733427">
      <ele>1182</ele>
      <time>2026-05-07T10:45:47Z</time>
    </trkpt>
    <trkpt lat="50.730814" lon="15.733394">
      <ele>1182</ele>
      <time>2026-05-07T10:46:00Z</time>
    </trkpt>
    <trkpt lat="50.730881" lon="15.733392">
      <ele>1184</ele>
      <time>2026-05-07T10:46:14Z</time>
    </trkpt>
    <trkpt lat="50.730925" lon="15.733382">
      <ele>1186</ele>
      <time>2026-05-07T10:46:24Z</time>
    </trkpt>
    <trkpt lat="50.730975" lon="15.733356">
      <ele>1187</ele>
      <time>2026-05-07T10:46:34Z</time>
    </trkpt>
    <trkpt lat="50.731058" lon="15.733318">
      <ele>1188</ele>
      <time>2026-05-07T10:46:52Z</time>
    </trkpt>
    <trkpt lat="50.731362" lon="15.733159">
      <ele>1191</ele>
      <time>2026-05-07T10:47:56Z</time>
    </trkpt>
    <trkpt lat="50.731509" lon="15.733094">
      <ele>1190</ele>
      <time>2026-05-07T10:48:26Z</time>
    </trkpt>
    <trkpt lat="50.73162" lon="15.733071">
      <ele>1191</ele>
      <time>2026-05-07T10:48:48Z</time>
    </trkpt>
    <trkpt lat="50.731765" lon="15.733075">
      <ele>1194</ele>
      <time>2026-05-07T10:49:18Z</time>
    </trkpt>
    <trkpt lat="50.731878" lon="15.733102">
      <ele>1199</ele>
      <time>2026-05-07T10:49:42Z</time>
    </trkpt>
    <trkpt lat="50.732037" lon="15.733168">
      <ele>1207</ele>
      <time>2026-05-07T10:50:18Z</time>
    </trkpt>
    <trkpt lat="50.732138" lon="15.733203">
      <ele>1214</ele>
      <time>2026-05-07T10:50:42Z</time>
    </trkpt>
    <trkpt lat="50.732285" lon="15.7332">
      <ele>1220</ele>
      <time>2026-05-07T10:51:13Z</time>
    </trkpt>
    <trkpt lat="50.732409" lon="15.73318">
      <ele>1222</ele>
      <time>2026-05-07T10:51:38Z</time>
    </trkpt>
    <trkpt lat="50.732595" lon="15.733194">
      <ele>1227</ele>
      <time>2026-05-07T10:52:16Z</time>
    </trkpt>
    <trkpt lat="50.732777" lon="15.733382">
      <ele>1236</ele>
      <time>2026-05-07T10:53:02Z</time>
    </trkpt>
    <trkpt lat="50.732802" lon="15.733388">
      <ele>1237</ele>
      <time>2026-05-07T10:53:08Z</time>
    </trkpt>
    <trkpt lat="50.732855" lon="15.733276">
      <ele>1236</ele>
      <time>2026-05-07T10:53:25Z</time>
    </trkpt>
    <trkpt lat="50.732888" lon="15.733044">
      <ele>1233</ele>
      <time>2026-05-07T10:53:56Z</time>
    </trkpt>
    <trkpt lat="50.732892" lon="15.732954">
      <ele>1232</ele>
      <time>2026-05-07T10:54:07Z</time>
    </trkpt>
    <trkpt lat="50.732907" lon="15.732625">
      <ele>1231</ele>
      <time>2026-05-07T10:54:49Z</time>
    </trkpt>
    <trkpt lat="50.732833" lon="15.73219">
      <ele>1229</ele>
      <time>2026-05-07T10:55:46Z</time>
    </trkpt>
    <trkpt lat="50.732775" lon="15.731987">
      <ele>1231</ele>
      <time>2026-05-07T10:56:14Z</time>
    </trkpt>
    <trkpt lat="50.732727" lon="15.731702">
      <ele>1237</ele>
      <time>2026-05-07T10:56:53Z</time>
    </trkpt>
    <trkpt lat="50.732704" lon="15.731518">
      <ele>1239</ele>
      <time>2026-05-07T10:57:16Z</time>
    </trkpt>
    <trkpt lat="50.732715" lon="15.731411">
      <ele>1242</ele>
      <time>2026-05-07T10:57:31Z</time>
    </trkpt>
    <trkpt lat="50.732755" lon="15.73126">
      <ele>1246</ele>
      <time>2026-05-07T10:57:53Z</time>
    </trkpt>
    <trkpt lat="50.732814" lon="15.731113">
      <ele>1251</ele>
      <time>2026-05-07T10:58:16Z</time>
    </trkpt>
    <trkpt lat="50.732875" lon="15.730984">
      <ele>1253</ele>
      <time>2026-05-07T10:58:37Z</time>
    </trkpt>
    <trkpt lat="50.732913" lon="15.730929">
      <ele>1254</ele>
      <time>2026-05-07T10:58:48Z</time>
    </trkpt>
    <trkpt lat="50.732946" lon="15.7309">
      <ele>1256</ele>
      <time>2026-05-07T10:58:55Z</time>
    </trkpt>
    <trkpt lat="50.73304" lon="15.730841">
      <ele>1260</ele>
      <time>2026-05-07T10:59:17Z</time>
    </trkpt>
    <trkpt lat="50.733085" lon="15.730823">
      <ele>1262</ele>
      <time>2026-05-07T10:59:27Z</time>
    </trkpt>
    <trkpt lat="50.733107" lon="15.730837">
      <ele>1263</ele>
      <time>2026-05-07T10:59:32Z</time>
    </trkpt>
    <trkpt lat="50.733119" lon="15.730872">
      <ele>1264</ele>
      <time>2026-05-07T10:59:37Z</time>
    </trkpt>
    <trkpt lat="50.733119" lon="15.730946">
      <ele>1265</ele>
      <time>2026-05-07T10:59:47Z</time>
    </trkpt>
    <trkpt lat="50.733109" lon="15.730998">
      <ele>1265</ele>
      <time>2026-05-07T10:59:54Z</time>
    </trkpt>
    <trkpt lat="50.733063" lon="15.731157">
      <ele>1265</ele>
      <time>2026-05-07T11:00:16Z</time>
    </trkpt>
    <trkpt lat="50.733096" lon="15.731404">
      <ele>1265</ele>
      <time>2026-05-07T11:00:48Z</time>
    </trkpt>
    <trkpt lat="50.733152" lon="15.73159">
      <ele>1267</ele>
      <time>2026-05-07T11:01:14Z</time>
    </trkpt>
    <trkpt lat="50.733165" lon="15.731611">
      <ele>1267</ele>
      <time>2026-05-07T11:01:18Z</time>
    </trkpt>
    <trkpt lat="50.733183" lon="15.731614">
      <ele>1268</ele>
      <time>2026-05-07T11:01:22Z</time>
    </trkpt>
    <trkpt lat="50.733211" lon="15.731581">
      <ele>1270</ele>
      <time>2026-05-07T11:01:29Z</time>
    </trkpt>
    <trkpt lat="50.733289" lon="15.731386">
      <ele>1275</ele>
      <time>2026-05-07T11:02:00Z</time>
    </trkpt>
    <trkpt lat="50.733321" lon="15.731339">
      <ele>1276</ele>
      <time>2026-05-07T11:02:09Z</time>
    </trkpt>
    <trkpt lat="50.733374" lon="15.731302">
      <ele>1279</ele>
      <time>2026-05-07T11:02:21Z</time>
    </trkpt>
    <trkpt lat="50.7336" lon="15.731177">
      <ele>1290</ele>
      <time>2026-05-07T11:03:13Z</time>
    </trkpt>
    <trkpt lat="50.733925" lon="15.730989">
      <ele>1299</ele>
      <time>2026-05-07T11:04:24Z</time>
    </trkpt>
    <trkpt lat="50.733946" lon="15.730981">
      <ele>1299</ele>
      <time>2026-05-07T11:04:28Z</time>
    </trkpt>
    <trkpt lat="50.733971" lon="15.730988">
      <ele>1300</ele>
      <time>2026-05-07T11:04:33Z</time>
    </trkpt>
    <trkpt lat="50.734065" lon="15.731011">
      <ele>1304</ele>
      <time>2026-05-07T11:04:53Z</time>
    </trkpt>
    <trkpt lat="50.734116" lon="15.731003">
      <ele>1305</ele>
      <time>2026-05-07T11:05:04Z</time>
    </trkpt>
    <trkpt lat="50.734194" lon="15.730962">
      <ele>1306</ele>
      <time>2026-05-07T11:05:20Z</time>
    </trkpt>
    <trkpt lat="50.73434" lon="15.730888">
      <ele>1309</ele>
      <time>2026-05-07T11:05:51Z</time>
    </trkpt>
    <trkpt lat="50.73446" lon="15.730802">
      <ele>1311</ele>
      <time>2026-05-07T11:06:18Z</time>
    </trkpt>
    <trkpt lat="50.7346" lon="15.730729">
      <ele>1316</ele>
      <time>2026-05-07T11:06:48Z</time>
    </trkpt>
    <trkpt lat="50.734906" lon="15.730589">
      <ele>1325</ele>
      <time>2026-05-07T11:07:54Z</time>
    </trkpt>
    <trkpt lat="50.735119" lon="15.730521">
      <ele>1334</ele>
      <time>2026-05-07T11:08:40Z</time>
    </trkpt>
    <trkpt lat="50.735301" lon="15.730413">
      <ele>1340</ele>
      <time>2026-05-07T11:09:20Z</time>
    </trkpt>
    <trkpt lat="50.735493" lon="15.730264">
      <ele>1342</ele>
      <time>2026-05-07T11:10:03Z</time>
    </trkpt>
    <trkpt lat="50.736336" lon="15.729817">
      <ele>1356</ele>
      <time>2026-05-07T11:13:02Z</time>
    </trkpt>
    <trkpt lat="50.736771" lon="15.729676">
      <ele>1365</ele>
      <time>2026-05-07T11:14:31Z</time>
    </trkpt>
    <trkpt lat="50.737113" lon="15.72953">
      <ele>1368</ele>
      <time>2026-05-07T11:15:42Z</time>
    </trkpt>
    <trkpt lat="50.737426" lon="15.729386">
      <ele>1369</ele>
      <time>2026-05-07T11:16:47Z</time>
    </trkpt>
    <trkpt lat="50.737638" lon="15.72929">
      <ele>1369</ele>
      <time>2026-05-07T11:17:31Z</time>
    </trkpt>
    <trkpt lat="50.737848" lon="15.729221">
      <ele>1371</ele>
      <time>2026-05-07T11:18:14Z</time>
    </trkpt>
    <trkpt lat="50.737986" lon="15.729333">
      <ele>1376</ele>
      <time>2026-05-07T11:18:46Z</time>
    </trkpt>
    <trkpt lat="50.738102" lon="15.72938">
      <ele>1379</ele>
      <time>2026-05-07T11:19:10Z</time>
    </trkpt>
    <trkpt lat="50.738159" lon="15.729376">
      <ele>1380</ele>
      <time>2026-05-07T11:19:22Z</time>
    </trkpt>
    <trkpt lat="50.738397" lon="15.72924">
      <ele>1383</ele>
      <time>2026-05-07T11:20:12Z</time>
    </trkpt>
    <trkpt lat="50.738659" lon="15.729177">
      <ele>1386</ele>
      <time>2026-05-07T11:21:05Z</time>
    </trkpt>
    <trkpt lat="50.738955" lon="15.729009">
      <ele>1389</ele>
      <time>2026-05-07T11:22:08Z</time>
    </trkpt>
    <trkpt lat="50.739119" lon="15.728902">
      <ele>1392</ele>
      <time>2026-05-07T11:22:44Z</time>
    </trkpt>
    <trkpt lat="50.739176" lon="15.728864">
      <ele>1393</ele>
      <time>2026-05-07T11:22:56Z</time>
    </trkpt>
    <trkpt lat="50.739242" lon="15.72883">
      <ele>1393</ele>
      <time>2026-05-07T11:23:10Z</time>
    </trkpt>
    <trkpt lat="50.739222" lon="15.729084">
      <ele>1395</ele>
      <time>2026-05-07T11:24:10Z</time>
    </trkpt>
    <trkpt lat="50.739173" lon="15.72921">
      <ele>1393</ele>
      <time>2026-05-07T11:24:25Z</time>
    </trkpt>
    <trkpt lat="50.738905" lon="15.729966">
      <ele>1392</ele>
      <time>2026-05-07T11:25:50Z</time>
    </trkpt>
    <trkpt lat="50.738795" lon="15.730276">
      <ele>1393</ele>
      <time>2026-05-07T11:26:24Z</time>
    </trkpt>
    <trkpt lat="50.738735" lon="15.73045">
      <ele>1394</ele>
      <time>2026-05-07T11:26:44Z</time>
    </trkpt>
    <trkpt lat="50.738708" lon="15.730536">
      <ele>1394</ele>
      <time>2026-05-07T11:26:53Z</time>
    </trkpt>
    <trkpt lat="50.738683" lon="15.730589">
      <ele>1395</ele>
      <time>2026-05-07T11:27:00Z</time>
    </trkpt>
    <trkpt lat="50.738646" lon="15.730657">
      <ele>1395</ele>
      <time>2026-05-07T11:27:09Z</time>
    </trkpt>
    <trkpt lat="50.738598" lon="15.730728">
      <ele>1396</ele>
      <time>2026-05-07T11:27:19Z</time>
    </trkpt>
    <trkpt lat="50.738514" lon="15.730812">
      <ele>1397</ele>
      <time>2026-05-07T11:27:34Z</time>
    </trkpt>
    <trkpt lat="50.738411" lon="15.730916">
      <ele>1400</ele>
      <time>2026-05-07T11:27:54Z</time>
    </trkpt>
    <trkpt lat="50.738265" lon="15.731045">
      <ele>1402</ele>
      <time>2026-05-07T11:28:20Z</time>
    </trkpt>
    <trkpt lat="50.738191" lon="15.731118">
      <ele>1403</ele>
      <time>2026-05-07T11:28:33Z</time>
    </trkpt>
    <trkpt lat="50.738152" lon="15.731155">
      <ele>1403</ele>
      <time>2026-05-07T11:28:40Z</time>
    </trkpt>
    <trkpt lat="50.738121" lon="15.731202">
      <ele>1404</ele>
      <time>2026-05-07T11:28:47Z</time>
    </trkpt>
    <trkpt lat="50.73808" lon="15.731271">
      <ele>1406</ele>
      <time>2026-05-07T11:28:57Z</time>
    </trkpt>
    <trkpt lat="50.738043" lon="15.73139">
      <ele>1408</ele>
      <time>2026-05-07T11:29:10Z</time>
    </trkpt>
    <trkpt lat="50.738013" lon="15.731404">
      <ele>1408</ele>
      <time>2026-05-07T11:29:18Z</time>
    </trkpt>
    <trkpt lat="50.73794" lon="15.731445">
      <ele>1408</ele>
      <time>2026-05-07T11:29:39Z</time>
    </trkpt>
    <trkpt lat="50.737757" lon="15.731635">
      <ele>1410</ele>
      <time>2026-05-07T11:30:38Z</time>
    </trkpt>
    <trkpt lat="50.737684" lon="15.731778">
      <ele>1412</ele>
      <time>2026-05-07T11:31:09Z</time>
    </trkpt>
    <trkpt lat="50.737438" lon="15.732079">
      <ele>1415</ele>
      <time>2026-05-07T11:32:32Z</time>
    </trkpt>
    <trkpt lat="50.737309" lon="15.732229">
      <ele>1418</ele>
      <time>2026-05-07T11:33:15Z</time>
    </trkpt>
    <trkpt lat="50.737191" lon="15.732377">
      <ele>1420</ele>
      <time>2026-05-07T11:33:55Z</time>
    </trkpt>
    <trkpt lat="50.737127" lon="15.732449">
      <ele>1421</ele>
      <time>2026-05-07T11:34:17Z</time>
    </trkpt>
    <trkpt lat="50.737064" lon="15.732524">
      <ele>1423</ele>
      <time>2026-05-07T11:34:38Z</time>
    </trkpt>
    <trkpt lat="50.737018" lon="15.732575">
      <ele>1424</ele>
      <time>2026-05-07T11:34:53Z</time>
    </trkpt>
    <trkpt lat="50.736981" lon="15.732618">
      <ele>1426</ele>
      <time>2026-05-07T11:35:06Z</time>
    </trkpt>
    <trkpt lat="50.736952" lon="15.732653">
      <ele>1427</ele>
      <time>2026-05-07T11:35:16Z</time>
    </trkpt>
    <trkpt lat="50.736893" lon="15.732764">
      <ele>1429</ele>
      <time>2026-05-07T11:35:41Z</time>
    </trkpt>
    <trkpt lat="50.736888" lon="15.732799">
      <ele>1430</ele>
      <time>2026-05-07T11:35:48Z</time>
    </trkpt>
    <trkpt lat="50.736848" lon="15.732885">
      <ele>1432</ele>
      <time>2026-05-07T11:36:06Z</time>
    </trkpt>
    <trkpt lat="50.736828" lon="15.73293">
      <ele>1433</ele>
      <time>2026-05-07T11:36:16Z</time>
    </trkpt>
    <trkpt lat="50.736821" lon="15.732956">
      <ele>1434</ele>
      <time>2026-05-07T11:36:21Z</time>
    </trkpt>
    <trkpt lat="50.73682" lon="15.732998">
      <ele>1434</ele>
      <time>2026-05-07T11:36:28Z</time>
    </trkpt>
    <trkpt lat="50.736816" lon="15.733071">
      <ele>1435</ele>
      <time>2026-05-07T11:36:41Z</time>
    </trkpt>
    <trkpt lat="50.736815" lon="15.7332">
      <ele>1438</ele>
      <time>2026-05-07T11:37:03Z</time>
    </trkpt>
    <trkpt lat="50.736818" lon="15.733464">
      <ele>1443</ele>
      <time>2026-05-07T11:37:49Z</time>
    </trkpt>
    <trkpt lat="50.736815" lon="15.733501">
      <ele>1443</ele>
      <time>2026-05-07T11:37:56Z</time>
    </trkpt>
    <trkpt lat="50.736811" lon="15.733518">
      <ele>1444</ele>
      <time>2026-05-07T11:37:59Z</time>
    </trkpt>
    <trkpt lat="50.7368" lon="15.733532">
      <ele>1445</ele>
      <time>2026-05-07T11:38:03Z</time>
    </trkpt>
    <trkpt lat="50.736788" lon="15.733537">
      <ele>1445</ele>
      <time>2026-05-07T11:38:07Z</time>
    </trkpt>
    <trkpt lat="50.736764" lon="15.73352">
      <ele>1445</ele>
      <time>2026-05-07T11:38:14Z</time>
    </trkpt>
    <trkpt lat="50.736741" lon="15.733505">
      <ele>1446</ele>
      <time>2026-05-07T11:38:20Z</time>
    </trkpt>
    <trkpt lat="50.736723" lon="15.733497">
      <ele>1446</ele>
      <time>2026-05-07T11:38:25Z</time>
    </trkpt>
    <trkpt lat="50.736709" lon="15.733502">
      <ele>1447</ele>
      <time>2026-05-07T11:38:29Z</time>
    </trkpt>
    <trkpt lat="50.736704" lon="15.733517">
      <ele>1447</ele>
      <time>2026-05-07T11:38:33Z</time>
    </trkpt>
    <trkpt lat="50.736705" lon="15.733532">
      <ele>1448</ele>
      <time>2026-05-07T11:38:35Z</time>
    </trkpt>
    <trkpt lat="50.736704" lon="15.733589">
      <ele>1449</ele>
      <time>2026-05-07T11:38:45Z</time>
    </trkpt>
    <trkpt lat="50.736708" lon="15.733704">
      <ele>1452</ele>
      <time>2026-05-07T11:39:06Z</time>
    </trkpt>
    <trkpt lat="50.736716" lon="15.733885">
      <ele>1456</ele>
      <time>2026-05-07T11:39:38Z</time>
    </trkpt>
    <trkpt lat="50.736728" lon="15.734071">
      <ele>1458</ele>
      <time>2026-05-07T11:40:10Z</time>
    </trkpt>
    <trkpt lat="50.736738" lon="15.734266">
      <ele>1460</ele>
      <time>2026-05-07T11:40:43Z</time>
    </trkpt>
    <trkpt lat="50.736743" lon="15.734477">
      <ele>1463</ele>
      <time>2026-05-07T11:41:20Z</time>
    </trkpt>
    <trkpt lat="50.736754" lon="15.734634">
      <ele>1466</ele>
      <time>2026-05-07T11:41:47Z</time>
    </trkpt>
    <trkpt lat="50.736762" lon="15.734717">
      <ele>1467</ele>
      <time>2026-05-07T11:42:01Z</time>
    </trkpt>
    <trkpt lat="50.736766" lon="15.734799">
      <ele>1469</ele>
      <time>2026-05-07T11:42:16Z</time>
    </trkpt>
    <trkpt lat="50.736764" lon="15.734814">
      <ele>1469</ele>
      <time>2026-05-07T11:42:19Z</time>
    </trkpt>
    <trkpt lat="50.73676" lon="15.734823">
      <ele>1470</ele>
      <time>2026-05-07T11:42:21Z</time>
    </trkpt>
    <trkpt lat="50.736751" lon="15.73482">
      <ele>1470</ele>
      <time>2026-05-07T11:42:23Z</time>
    </trkpt>
    <trkpt lat="50.736745" lon="15.734812">
      <ele>1470</ele>
      <time>2026-05-07T11:42:25Z</time>
    </trkpt>
    <trkpt lat="50.736725" lon="15.734789">
      <ele>1471</ele>
      <time>2026-05-07T11:42:32Z</time>
    </trkpt>
    <trkpt lat="50.736704" lon="15.734757">
      <ele>1472</ele>
      <time>2026-05-07T11:42:40Z</time>
    </trkpt>
    <trkpt lat="50.736651" lon="15.73468">
      <ele>1473</ele>
      <time>2026-05-07T11:43:00Z</time>
    </trkpt>
    <trkpt lat="50.7366" lon="15.734618">
      <ele>1474</ele>
      <time>2026-05-07T11:43:17Z</time>
    </trkpt>
    <trkpt lat="50.736546" lon="15.734584">
      <ele>1476</ele>
      <time>2026-05-07T11:43:33Z</time>
    </trkpt>
    <trkpt lat="50.736491" lon="15.734541">
      <ele>1478</ele>
      <time>2026-05-07T11:43:50Z</time>
    </trkpt>
    <trkpt lat="50.736391" lon="15.734497">
      <ele>1482</ele>
      <time>2026-05-07T11:44:19Z</time>
    </trkpt>
    <trkpt lat="50.736291" lon="15.734444">
      <ele>1480</ele>
      <time>2026-05-07T11:44:48Z</time>
    </trkpt>
    <trkpt lat="50.73618" lon="15.734404">
      <ele>1478</ele>
      <time>2026-05-07T11:45:19Z</time>
    </trkpt>
    <trkpt lat="50.736149" lon="15.734399">
      <ele>1477</ele>
      <time>2026-05-07T11:45:27Z</time>
    </trkpt>
    <trkpt lat="50.736131" lon="15.734409">
      <ele>1477</ele>
      <time>2026-05-07T11:45:32Z</time>
    </trkpt>
    <trkpt lat="50.736123" lon="15.734438">
      <ele>1478</ele>
      <time>2026-05-07T11:45:38Z</time>
    </trkpt>
    <trkpt lat="50.736123" lon="15.734499">
      <ele>1479</ele>
      <time>2026-05-07T11:45:49Z</time>
    </trkpt>
    <trkpt lat="50.736131" lon="15.734547">
      <ele>1481</ele>
      <time>2026-05-07T11:45:57Z</time>
    </trkpt>
    <trkpt lat="50.736152" lon="15.73458">
      <ele>1482</ele>
      <time>2026-05-07T11:46:06Z</time>
    </trkpt>
    <trkpt lat="50.736176" lon="15.734627">
      <ele>1483</ele>
      <time>2026-05-07T11:46:16Z</time>
    </trkpt>
    <trkpt lat="50.736211" lon="15.734695">
      <ele>1485</ele>
      <time>2026-05-07T11:46:32Z</time>
    </trkpt>
    <trkpt lat="50.736242" lon="15.734779">
      <ele>1487</ele>
      <time>2026-05-07T11:46:49Z</time>
    </trkpt>
    <trkpt lat="50.736286" lon="15.734869">
      <ele>1489</ele>
      <time>2026-05-07T11:47:09Z</time>
    </trkpt>
    <trkpt lat="50.736316" lon="15.734961">
      <ele>1491</ele>
      <time>2026-05-07T11:47:27Z</time>
    </trkpt>
    <trkpt lat="50.736328" lon="15.735024">
      <ele>1492</ele>
      <time>2026-05-07T11:47:38Z</time>
    </trkpt>
    <trkpt lat="50.736336" lon="15.735088">
      <ele>1494</ele>
      <time>2026-05-07T11:47:50Z</time>
    </trkpt>
    <trkpt lat="50.73634" lon="15.735291">
      <ele>1499</ele>
      <time>2026-05-07T11:48:26Z</time>
    </trkpt>
    <trkpt lat="50.736341" lon="15.735469">
      <ele>1504</ele>
      <time>2026-05-07T11:48:58Z</time>
    </trkpt>
    <trkpt lat="50.73634" lon="15.735789">
      <ele>1509</ele>
      <time>2026-05-07T11:49:54Z</time>
    </trkpt>
    <trkpt lat="50.736334" lon="15.7358">
      <ele>1509</ele>
      <time>2026-05-07T11:49:56Z</time>
    </trkpt>
    <trkpt lat="50.736327" lon="15.7358">
      <ele>1509</ele>
      <time>2026-05-07T11:49:58Z</time>
    </trkpt>
    <trkpt lat="50.736311" lon="15.735788">
      <ele>1509</ele>
      <time>2026-05-07T11:50:03Z</time>
    </trkpt>
    <trkpt lat="50.736287" lon="15.735767">
      <ele>1508</ele>
      <time>2026-05-07T11:50:11Z</time>
    </trkpt>
    <trkpt lat="50.736264" lon="15.735768">
      <ele>1508</ele>
      <time>2026-05-07T11:50:17Z</time>
    </trkpt>
    <trkpt lat="50.73623" lon="15.735774">
      <ele>1507</ele>
      <time>2026-05-07T11:50:26Z</time>
    </trkpt>
    <trkpt lat="50.736227" lon="15.735791">
      <ele>1507</ele>
      <time>2026-05-07T11:50:29Z</time>
    </trkpt>
    <trkpt lat="50.736225" lon="15.735808">
      <ele>1508</ele>
      <time>2026-05-07T11:50:32Z</time>
    </trkpt>
    <trkpt lat="50.736229" lon="15.735829">
      <ele>1508</ele>
      <time>2026-05-07T11:50:36Z</time>
    </trkpt>
    <trkpt lat="50.736262" lon="15.736068">
      <ele>1513</ele>
      <time>2026-05-07T11:51:19Z</time>
    </trkpt>
    <trkpt lat="50.736297" lon="15.736277">
      <ele>1518</ele>
      <time>2026-05-07T11:51:57Z</time>
    </trkpt>
    <trkpt lat="50.73635" lon="15.736567">
      <ele>1528</ele>
      <time>2026-05-07T11:52:53Z</time>
    </trkpt>
    <trkpt lat="50.73642" lon="15.736876">
      <ele>1538</ele>
      <time>2026-05-07T11:53:53Z</time>
    </trkpt>
    <trkpt lat="50.736438" lon="15.736983">
      <ele>1541</ele>
      <time>2026-05-07T11:54:13Z</time>
    </trkpt>
    <trkpt lat="50.73646" lon="15.737141">
      <ele>1545</ele>
      <time>2026-05-07T11:54:43Z</time>
    </trkpt>
    <trkpt lat="50.736467" lon="15.737303">
      <ele>1550</ele>
      <time>2026-05-07T11:55:13Z</time>
    </trkpt>
    <trkpt lat="50.736472" lon="15.73746">
      <ele>1555</ele>
      <time>2026-05-07T11:55:42Z</time>
    </trkpt>
    <trkpt lat="50.736459" lon="15.737561">
      <ele>1559</ele>
      <time>2026-05-07T11:56:01Z</time>
    </trkpt>
    <trkpt lat="50.736448" lon="15.737662">
      <ele>1562</ele>
      <time>2026-05-07T11:56:20Z</time>
    </trkpt>
    <trkpt lat="50.736436" lon="15.737787">
      <ele>1566</ele>
      <time>2026-05-07T11:56:43Z</time>
    </trkpt>
    <trkpt lat="50.736425" lon="15.737917">
      <ele>1568</ele>
      <time>2026-05-07T11:57:06Z</time>
    </trkpt>
    <trkpt lat="50.736429" lon="15.738062">
      <ele>1570</ele>
      <time>2026-05-07T11:57:31Z</time>
    </trkpt>
    <trkpt lat="50.736427" lon="15.738195">
      <ele>1573</ele>
      <time>2026-05-07T11:57:54Z</time>
    </trkpt>
    <trkpt lat="50.736426" lon="15.738445">
      <ele>1577</ele>
      <time>2026-05-07T11:58:38Z</time>
    </trkpt>
    <trkpt lat="50.736414" lon="15.738618">
      <ele>1581</ele>
      <time>2026-05-07T11:59:08Z</time>
    </trkpt>
    <trkpt lat="50.736404" lon="15.738709">
      <ele>1583</ele>
      <time>2026-05-07T11:59:25Z</time>
    </trkpt>
    <trkpt lat="50.736387" lon="15.738861">
      <ele>1586</ele>
      <time>2026-05-07T11:59:52Z</time>
    </trkpt>
    <trkpt lat="50.736364" lon="15.739026">
      <ele>1589</ele>
      <time>2026-05-07T12:00:21Z</time>
    </trkpt>
    <trkpt lat="50.736301" lon="15.73936">
      <ele>1594</ele>
      <time>2026-05-07T12:01:21Z</time>
    </trkpt>
    <trkpt lat="50.736286" lon="15.739437">
      <ele>1596</ele>
      <time>2026-05-07T12:01:35Z</time>
    </trkpt>
    <trkpt lat="50.736225" lon="15.739473">
      <ele>1596</ele>
      <time>2026-05-07T12:01:52Z</time>
    </trkpt>
    <trkpt lat="50.736115" lon="15.739531">
      <ele>1597</ele>
      <time>2026-05-07T12:02:23Z</time>
    </trkpt>
    <trkpt lat="50.736139" lon="15.739905">
      <ele>1599</ele>
      <time>2026-05-07T12:03:27Z</time>
    </trkpt>
    <trkpt lat="50.736145" lon="15.740154">
      <ele>1603</ele>
      <time>2026-05-07T12:04:10Z</time>
    </trkpt>
    <trkpt lat="50.735931" lon="15.739973">
      <ele>1597</ele>
      <time>2026-05-07T12:04:36Z</time>
    </trkpt>
    <trkpt lat="50.735878" lon="15.73991">
      <ele>1595</ele>
      <time>2026-05-07T12:04:43Z</time>
    </trkpt>
    <trkpt lat="50.73581" lon="15.739832">
      <ele>1592</ele>
      <time>2026-05-07T12:04:53Z</time>
    </trkpt>
    <trkpt lat="50.73575" lon="15.740063">
      <ele>1595</ele>
      <time>2026-05-07T12:05:10Z</time>
    </trkpt>
    <trkpt lat="50.735721" lon="15.740168">
      <ele>1594</ele>
      <time>2026-05-07T12:05:17Z</time>
    </trkpt>
    <trkpt lat="50.735672" lon="15.740274">
      <ele>1593</ele>
      <time>2026-05-07T12:05:26Z</time>
    </trkpt>
    <trkpt lat="50.735572" lon="15.740416">
      <ele>1591</ele>
      <time>2026-05-07T12:05:41Z</time>
    </trkpt>
    <trkpt lat="50.735362" lon="15.740727">
      <ele>1582</ele>
      <time>2026-05-07T12:06:12Z</time>
    </trkpt>
    <trkpt lat="50.735344" lon="15.740747">
      <ele>1581</ele>
      <time>2026-05-07T12:06:15Z</time>
    </trkpt>
    <trkpt lat="50.735308" lon="15.740768">
      <ele>1580</ele>
      <time>2026-05-07T12:06:19Z</time>
    </trkpt>
    <trkpt lat="50.734958" lon="15.740824">
      <ele>1572</ele>
      <time>2026-05-07T12:06:57Z</time>
    </trkpt>
    <trkpt lat="50.734984" lon="15.740994">
      <ele>1571</ele>
      <time>2026-05-07T12:07:09Z</time>
    </trkpt>
    <trkpt lat="50.735042" lon="15.741146">
      <ele>1571</ele>
      <time>2026-05-07T12:07:20Z</time>
    </trkpt>
    <trkpt lat="50.735099" lon="15.741277">
      <ele>1569</ele>
      <time>2026-05-07T12:07:31Z</time>
    </trkpt>
    <trkpt lat="50.734842" lon="15.741499">
      <ele>1561</ele>
      <time>2026-05-07T12:08:03Z</time>
    </trkpt>
    <trkpt lat="50.734721" lon="15.741591">
      <ele>1558</ele>
      <time>2026-05-07T12:08:18Z</time>
    </trkpt>
    <trkpt lat="50.734612" lon="15.741648">
      <ele>1555</ele>
      <time>2026-05-07T12:08:30Z</time>
    </trkpt>
    <trkpt lat="50.734431" lon="15.741656">
      <ele>1551</ele>
      <time>2026-05-07T12:08:50Z</time>
    </trkpt>
    <trkpt lat="50.734285" lon="15.741639">
      <ele>1547</ele>
      <time>2026-05-07T12:09:05Z</time>
    </trkpt>
    <trkpt lat="50.734138" lon="15.741587">
      <ele>1544</ele>
      <time>2026-05-07T12:09:22Z</time>
    </trkpt>
    <trkpt lat="50.734005" lon="15.74161">
      <ele>1540</ele>
      <time>2026-05-07T12:09:36Z</time>
    </trkpt>
    <trkpt lat="50.733236" lon="15.741357">
      <ele>1516</ele>
      <time>2026-05-07T12:11:02Z</time>
    </trkpt>
    <trkpt lat="50.733129" lon="15.741276">
      <ele>1511</ele>
      <time>2026-05-07T12:11:16Z</time>
    </trkpt>
    <trkpt lat="50.733022" lon="15.741159">
      <ele>1508</ele>
      <time>2026-05-07T12:11:30Z</time>
    </trkpt>
    <trkpt lat="50.732541" lon="15.740846">
      <ele>1491</ele>
      <time>2026-05-07T12:12:27Z</time>
    </trkpt>
    <trkpt lat="50.732384" lon="15.740671">
      <ele>1487</ele>
      <time>2026-05-07T12:12:48Z</time>
    </trkpt>
    <trkpt lat="50.73233" lon="15.740622">
      <ele>1485</ele>
      <time>2026-05-07T12:12:54Z</time>
    </trkpt>
    <trkpt lat="50.732289" lon="15.740591">
      <ele>1484</ele>
      <time>2026-05-07T12:12:59Z</time>
    </trkpt>
    <trkpt lat="50.732255" lon="15.740585">
      <ele>1483</ele>
      <time>2026-05-07T12:13:03Z</time>
    </trkpt>
    <trkpt lat="50.732221" lon="15.740608">
      <ele>1482</ele>
      <time>2026-05-07T12:13:07Z</time>
    </trkpt>
    <trkpt lat="50.732167" lon="15.740737">
      <ele>1479</ele>
      <time>2026-05-07T12:13:18Z</time>
    </trkpt>
    <trkpt lat="50.732111" lon="15.740792">
      <ele>1476</ele>
      <time>2026-05-07T12:13:25Z</time>
    </trkpt>
    <trkpt lat="50.731869" lon="15.74073">
      <ele>1468</ele>
      <time>2026-05-07T12:13:52Z</time>
    </trkpt>
    <trkpt lat="50.731811" lon="15.740744">
      <ele>1466</ele>
      <time>2026-05-07T12:13:59Z</time>
    </trkpt>
    <trkpt lat="50.731768" lon="15.74085">
      <ele>1463</ele>
      <time>2026-05-07T12:14:07Z</time>
    </trkpt>
    <trkpt lat="50.73172" lon="15.741">
      <ele>1460</ele>
      <time>2026-05-07T12:14:19Z</time>
    </trkpt>
    <trkpt lat="50.731677" lon="15.741038">
      <ele>1458</ele>
      <time>2026-05-07T12:14:25Z</time>
    </trkpt>
    <trkpt lat="50.731561" lon="15.740984">
      <ele>1455</ele>
      <time>2026-05-07T12:14:38Z</time>
    </trkpt>
    <trkpt lat="50.731518" lon="15.740984">
      <ele>1454</ele>
      <time>2026-05-07T12:14:42Z</time>
    </trkpt>
    <trkpt lat="50.731394" lon="15.741027">
      <ele>1450</ele>
      <time>2026-05-07T12:14:56Z</time>
    </trkpt>
    <trkpt lat="50.731277" lon="15.741077">
      <ele>1446</ele>
      <time>2026-05-07T12:15:10Z</time>
    </trkpt>
    <trkpt lat="50.731066" lon="15.740974">
      <ele>1441</ele>
      <time>2026-05-07T12:15:34Z</time>
    </trkpt>
    <trkpt lat="50.730796" lon="15.740804">
      <ele>1435</ele>
      <time>2026-05-07T12:16:05Z</time>
    </trkpt>
    <trkpt lat="50.73059" lon="15.74067">
      <ele>1430</ele>
      <time>2026-05-07T12:16:29Z</time>
    </trkpt>
    <trkpt lat="50.730526" lon="15.740648">
      <ele>1429</ele>
      <time>2026-05-07T12:16:36Z</time>
    </trkpt>
    <trkpt lat="50.730491" lon="15.740666">
      <ele>1427</ele>
      <time>2026-05-07T12:16:40Z</time>
    </trkpt>
    <trkpt lat="50.730466" lon="15.740698">
      <ele>1426</ele>
      <time>2026-05-07T12:16:44Z</time>
    </trkpt>
    <trkpt lat="50.730382" lon="15.740804">
      <ele>1422</ele>
      <time>2026-05-07T12:16:56Z</time>
    </trkpt>
    <trkpt lat="50.730333" lon="15.740822">
      <ele>1420</ele>
      <time>2026-05-07T12:17:01Z</time>
    </trkpt>
    <trkpt lat="50.73009" lon="15.740852">
      <ele>1413</ele>
      <time>2026-05-07T12:17:28Z</time>
    </trkpt>
    <trkpt lat="50.730039" lon="15.74088">
      <ele>1411</ele>
      <time>2026-05-07T12:17:34Z</time>
    </trkpt>
    <trkpt lat="50.729971" lon="15.740961">
      <ele>1409</ele>
      <time>2026-05-07T12:17:43Z</time>
    </trkpt>
    <trkpt lat="50.729939" lon="15.74098">
      <ele>1408</ele>
      <time>2026-05-07T12:17:47Z</time>
    </trkpt>
    <trkpt lat="50.729888" lon="15.740966">
      <ele>1406</ele>
      <time>2026-05-07T12:17:52Z</time>
    </trkpt>
    <trkpt lat="50.729828" lon="15.740958">
      <ele>1405</ele>
      <time>2026-05-07T12:17:59Z</time>
    </trkpt>
    <trkpt lat="50.729789" lon="15.740986">
      <ele>1403</ele>
      <time>2026-05-07T12:18:04Z</time>
    </trkpt>
    <trkpt lat="50.729742" lon="15.74103">
      <ele>1401</ele>
      <time>2026-05-07T12:18:10Z</time>
    </trkpt>
    <trkpt lat="50.729695" lon="15.741041">
      <ele>1400</ele>
      <time>2026-05-07T12:18:15Z</time>
    </trkpt>
    <trkpt lat="50.729614" lon="15.741029">
      <ele>1398</ele>
      <time>2026-05-07T12:18:24Z</time>
    </trkpt>
    <trkpt lat="50.729554" lon="15.741034">
      <ele>1397</ele>
      <time>2026-05-07T12:18:30Z</time>
    </trkpt>
    <trkpt lat="50.729475" lon="15.741073">
      <ele>1394</ele>
      <time>2026-05-07T12:18:39Z</time>
    </trkpt>
    <trkpt lat="50.729442" lon="15.741121">
      <ele>1393</ele>
      <time>2026-05-07T12:18:44Z</time>
    </trkpt>
    <trkpt lat="50.729421" lon="15.741177">
      <ele>1392</ele>
      <time>2026-05-07T12:18:48Z</time>
    </trkpt>
    <trkpt lat="50.729408" lon="15.741237">
      <ele>1391</ele>
      <time>2026-05-07T12:18:53Z</time>
    </trkpt>
    <trkpt lat="50.729378" lon="15.7413">
      <ele>1390</ele>
      <time>2026-05-07T12:18:58Z</time>
    </trkpt>
    <trkpt lat="50.729332" lon="15.741346">
      <ele>1388</ele>
      <time>2026-05-07T12:19:04Z</time>
    </trkpt>
    <trkpt lat="50.729299" lon="15.741415">
      <ele>1387</ele>
      <time>2026-05-07T12:19:10Z</time>
    </trkpt>
    <trkpt lat="50.729142" lon="15.741339">
      <ele>1385</ele>
      <time>2026-05-07T12:19:27Z</time>
    </trkpt>
    <trkpt lat="50.729103" lon="15.741358">
      <ele>1384</ele>
      <time>2026-05-07T12:19:31Z</time>
    </trkpt>
    <trkpt lat="50.729049" lon="15.741415">
      <ele>1382</ele>
      <time>2026-05-07T12:19:38Z</time>
    </trkpt>
    <trkpt lat="50.728827" lon="15.741512">
      <ele>1377</ele>
      <time>2026-05-07T12:20:02Z</time>
    </trkpt>
    <trkpt lat="50.728336" lon="15.741746">
      <ele>1371</ele>
      <time>2026-05-07T12:20:55Z</time>
    </trkpt>
    <trkpt lat="50.727778" lon="15.741996">
      <ele>1364</ele>
      <time>2026-05-07T12:21:54Z</time>
    </trkpt>
    <trkpt lat="50.727548" lon="15.742088">
      <ele>1362</ele>
      <time>2026-05-07T12:22:19Z</time>
    </trkpt>
    <trkpt lat="50.727362" lon="15.742184">
      <ele>1362</ele>
      <time>2026-05-07T12:22:39Z</time>
    </trkpt>
    <trkpt lat="50.727198" lon="15.742252">
      <ele>1362</ele>
      <time>2026-05-07T12:22:56Z</time>
    </trkpt>
    <trkpt lat="50.727031" lon="15.742334">
      <ele>1362</ele>
      <time>2026-05-07T12:23:14Z</time>
    </trkpt>
    <trkpt lat="50.726928" lon="15.742396">
      <ele>1362</ele>
      <time>2026-05-07T12:23:25Z</time>
    </trkpt>
    <trkpt lat="50.726859" lon="15.742481">
      <ele>1363</ele>
      <time>2026-05-07T12:23:34Z</time>
    </trkpt>
    <trkpt lat="50.726667" lon="15.7426">
      <ele>1364</ele>
      <time>2026-05-07T12:23:55Z</time>
    </trkpt>
    <trkpt lat="50.726559" lon="15.742701">
      <ele>1365</ele>
      <time>2026-05-07T12:24:08Z</time>
    </trkpt>
    <trkpt lat="50.726455" lon="15.742758">
      <ele>1366</ele>
      <time>2026-05-07T12:24:19Z</time>
    </trkpt>
    <trkpt lat="50.726343" lon="15.742805">
      <ele>1367</ele>
      <time>2026-05-07T12:24:31Z</time>
    </trkpt>
    <trkpt lat="50.726205" lon="15.742848">
      <ele>1369</ele>
      <time>2026-05-07T12:24:45Z</time>
    </trkpt>
    <trkpt lat="50.726017" lon="15.742867">
      <ele>1371</ele>
      <time>2026-05-07T12:25:05Z</time>
    </trkpt>
    <trkpt lat="50.725724" lon="15.742856">
      <ele>1376</ele>
      <time>2026-05-07T12:25:35Z</time>
    </trkpt>
    <trkpt lat="50.725436" lon="15.742788">
      <ele>1377</ele>
      <time>2026-05-07T12:26:05Z</time>
    </trkpt>
    <trkpt lat="50.72505" lon="15.742704">
      <ele>1378</ele>
      <time>2026-05-07T12:26:45Z</time>
    </trkpt>
    <trkpt lat="50.724858" lon="15.742737">
      <ele>1378</ele>
      <time>2026-05-07T12:27:04Z</time>
    </trkpt>
    <trkpt lat="50.724646" lon="15.742816">
      <ele>1378</ele>
      <time>2026-05-07T12:27:27Z</time>
    </trkpt>
    <trkpt lat="50.724494" lon="15.742901">
      <ele>1378</ele>
      <time>2026-05-07T12:27:43Z</time>
    </trkpt>
    <trkpt lat="50.724012" lon="15.743093">
      <ele>1377</ele>
      <time>2026-05-07T12:28:34Z</time>
    </trkpt>
    <trkpt lat="50.723927" lon="15.743238">
      <ele>1377</ele>
      <time>2026-05-07T12:28:47Z</time>
    </trkpt>
    <trkpt lat="50.723836" lon="15.743392">
      <ele>1377</ele>
      <time>2026-05-07T12:29:00Z</time>
    </trkpt>
    <trkpt lat="50.723738" lon="15.743507">
      <ele>1376</ele>
      <time>2026-05-07T12:29:13Z</time>
    </trkpt>
    <trkpt lat="50.723531" lon="15.743699">
      <ele>1376</ele>
      <time>2026-05-07T12:29:37Z</time>
    </trkpt>
    <trkpt lat="50.723263" lon="15.743901">
      <ele>1376</ele>
      <time>2026-05-07T12:30:08Z</time>
    </trkpt>
    <trkpt lat="50.722977" lon="15.74406">
      <ele>1372</ele>
      <time>2026-05-07T12:30:39Z</time>
    </trkpt>
    <trkpt lat="50.722725" lon="15.744251">
      <ele>1369</ele>
      <time>2026-05-07T12:31:07Z</time>
    </trkpt>
    <trkpt lat="50.722612" lon="15.744325">
      <ele>1368</ele>
      <time>2026-05-07T12:31:20Z</time>
    </trkpt>
    <trkpt lat="50.721991" lon="15.744671">
      <ele>1363</ele>
      <time>2026-05-07T12:32:27Z</time>
    </trkpt>
    <trkpt lat="50.721844" lon="15.744722">
      <ele>1362</ele>
      <time>2026-05-07T12:32:43Z</time>
    </trkpt>
    <trkpt lat="50.721682" lon="15.744758">
      <ele>1362</ele>
      <time>2026-05-07T12:32:59Z</time>
    </trkpt>
    <trkpt lat="50.721534" lon="15.744825">
      <ele>1362</ele>
      <time>2026-05-07T12:33:15Z</time>
    </trkpt>
    <trkpt lat="50.721186" lon="15.744825">
      <ele>1363</ele>
      <time>2026-05-07T12:33:51Z</time>
    </trkpt>
    <trkpt lat="50.720529" lon="15.744998">
      <ele>1364</ele>
      <time>2026-05-07T12:34:59Z</time>
    </trkpt>
    <trkpt lat="50.720297" lon="15.745056">
      <ele>1363</ele>
      <time>2026-05-07T12:35:23Z</time>
    </trkpt>
    <trkpt lat="50.719798" lon="15.744989">
      <ele>1362</ele>
      <time>2026-05-07T12:36:14Z</time>
    </trkpt>
    <trkpt lat="50.719454" lon="15.744929">
      <ele>1360</ele>
      <time>2026-05-07T12:36:49Z</time>
    </trkpt>
    <trkpt lat="50.719298" lon="15.744902">
      <ele>1360</ele>
      <time>2026-05-07T12:37:05Z</time>
    </trkpt>
    <trkpt lat="50.719185" lon="15.744831">
      <ele>1361</ele>
      <time>2026-05-07T12:37:18Z</time>
    </trkpt>
    <trkpt lat="50.718689" lon="15.744815">
      <ele>1354</ele>
      <time>2026-05-07T12:38:09Z</time>
    </trkpt>
    <trkpt lat="50.718402" lon="15.744769">
      <ele>1350</ele>
      <time>2026-05-07T12:38:38Z</time>
    </trkpt>
    <trkpt lat="50.718293" lon="15.744766">
      <ele>1349</ele>
      <time>2026-05-07T12:38:50Z</time>
    </trkpt>
    <trkpt lat="50.718105" lon="15.74481">
      <ele>1346</ele>
      <time>2026-05-07T12:39:09Z</time>
    </trkpt>
    <trkpt lat="50.71801" lon="15.744872">
      <ele>1344</ele>
      <time>2026-05-07T12:39:20Z</time>
    </trkpt>
    <trkpt lat="50.71794" lon="15.744979">
      <ele>1343</ele>
      <time>2026-05-07T12:39:30Z</time>
    </trkpt>
    <trkpt lat="50.717772" lon="15.74519">
      <ele>1339</ele>
      <time>2026-05-07T12:39:52Z</time>
    </trkpt>
    <trkpt lat="50.71775" lon="15.745214">
      <ele>1338</ele>
      <time>2026-05-07T12:39:55Z</time>
    </trkpt>
    <trkpt lat="50.717721" lon="15.745246">
      <ele>1338</ele>
      <time>2026-05-07T12:39:59Z</time>
    </trkpt>
    <trkpt lat="50.717688" lon="15.745284">
      <ele>1337</ele>
      <time>2026-05-07T12:40:03Z</time>
    </trkpt>
    <trkpt lat="50.717262" lon="15.745746">
      <ele>1328</ele>
      <time>2026-05-07T12:40:56Z</time>
    </trkpt>
    <trkpt lat="50.717215" lon="15.745797">
      <ele>1327</ele>
      <time>2026-05-07T12:41:02Z</time>
    </trkpt>
    <trkpt lat="50.717106" lon="15.745907">
      <ele>1324</ele>
      <time>2026-05-07T12:41:16Z</time>
    </trkpt>
    <trkpt lat="50.71649" lon="15.746701">
      <ele>1318</ele>
      <time>2026-05-07T12:42:37Z</time>
    </trkpt>
    <trkpt lat="50.715962" lon="15.747353">
      <ele>1312</ele>
      <time>2026-05-07T12:43:46Z</time>
    </trkpt>
    <trkpt lat="50.715682" lon="15.747578">
      <ele>1310</ele>
      <time>2026-05-07T12:44:18Z</time>
    </trkpt>
    <trkpt lat="50.715404" lon="15.7478">
      <ele>1308</ele>
      <time>2026-05-07T12:44:50Z</time>
    </trkpt>
    <trkpt lat="50.715265" lon="15.747859">
      <ele>1306</ele>
      <time>2026-05-07T12:45:05Z</time>
    </trkpt>
    <trkpt lat="50.714971" lon="15.747982">
      <ele>1301</ele>
      <time>2026-05-07T12:45:36Z</time>
    </trkpt>
    <trkpt lat="50.714237" lon="15.748387">
      <ele>1295</ele>
      <time>2026-05-07T12:46:56Z</time>
    </trkpt>
    <trkpt lat="50.712893" lon="15.74919">
      <ele>1277</ele>
      <time>2026-05-07T12:49:23Z</time>
    </trkpt>
    <trkpt lat="50.71254" lon="15.749374">
      <ele>1275</ele>
      <time>2026-05-07T12:50:01Z</time>
    </trkpt>
    <trkpt lat="50.712386" lon="15.749464">
      <ele>1273</ele>
      <time>2026-05-07T12:50:18Z</time>
    </trkpt>
    <trkpt lat="50.712174" lon="15.749588">
      <ele>1271</ele>
      <time>2026-05-07T12:50:41Z</time>
    </trkpt>
    <trkpt lat="50.711672" lon="15.749939">
      <ele>1269</ele>
      <time>2026-05-07T12:51:37Z</time>
    </trkpt>
    <trkpt lat="50.711549" lon="15.750033">
      <ele>1267</ele>
      <time>2026-05-07T12:51:51Z</time>
    </trkpt>
    <trkpt lat="50.711152" lon="15.750345">
      <ele>1264</ele>
      <time>2026-05-07T12:52:37Z</time>
    </trkpt>
    <trkpt lat="50.711008" lon="15.750418">
      <ele>1263</ele>
      <time>2026-05-07T12:52:52Z</time>
    </trkpt>
    <trkpt lat="50.710861" lon="15.750442">
      <ele>1261</ele>
      <time>2026-05-07T12:53:07Z</time>
    </trkpt>
    <trkpt lat="50.710769" lon="15.750381">
      <ele>1260</ele>
      <time>2026-05-07T12:53:18Z</time>
    </trkpt>
    <trkpt lat="50.710582" lon="15.75013">
      <ele>1257</ele>
      <time>2026-05-07T12:53:43Z</time>
    </trkpt>
    <trkpt lat="50.710379" lon="15.749863">
      <ele>1255</ele>
      <time>2026-05-07T12:54:10Z</time>
    </trkpt>
    <trkpt lat="50.710334" lon="15.749757">
      <ele>1253</ele>
      <time>2026-05-07T12:54:18Z</time>
    </trkpt>
    <trkpt lat="50.710242" lon="15.74954">
      <ele>1250</ele>
      <time>2026-05-07T12:54:34Z</time>
    </trkpt>
    <trkpt lat="50.710213" lon="15.749406">
      <ele>1249</ele>
      <time>2026-05-07T12:54:43Z</time>
    </trkpt>
    <trkpt lat="50.710211" lon="15.749287">
      <ele>1247</ele>
      <time>2026-05-07T12:54:50Z</time>
    </trkpt>
    <trkpt lat="50.710231" lon="15.749121">
      <ele>1245</ele>
      <time>2026-05-07T12:55:00Z</time>
    </trkpt>
    <trkpt lat="50.710247" lon="15.748977">
      <ele>1244</ele>
      <time>2026-05-07T12:55:09Z</time>
    </trkpt>
    <trkpt lat="50.710219" lon="15.748709">
      <ele>1242</ele>
      <time>2026-05-07T12:55:26Z</time>
    </trkpt>
    <trkpt lat="50.710183" lon="15.748528">
      <ele>1241</ele>
      <time>2026-05-07T12:55:38Z</time>
    </trkpt>
    <trkpt lat="50.710151" lon="15.748411">
      <ele>1240</ele>
      <time>2026-05-07T12:55:45Z</time>
    </trkpt>
    <trkpt lat="50.710045" lon="15.748135">
      <ele>1238</ele>
      <time>2026-05-07T12:56:05Z</time>
    </trkpt>
    <trkpt lat="50.709962" lon="15.747991">
      <ele>1236</ele>
      <time>2026-05-07T12:56:17Z</time>
    </trkpt>
    <trkpt lat="50.709735" lon="15.747763">
      <ele>1233</ele>
      <time>2026-05-07T12:56:43Z</time>
    </trkpt>
    <trkpt lat="50.709633" lon="15.747598">
      <ele>1228</ele>
      <time>2026-05-07T12:56:58Z</time>
    </trkpt>
    <trkpt lat="50.709533" lon="15.747327">
      <ele>1222</ele>
      <time>2026-05-07T12:57:17Z</time>
    </trkpt>
    <trkpt lat="50.709389" lon="15.746816">
      <ele>1212</ele>
      <time>2026-05-07T12:57:52Z</time>
    </trkpt>
    <trkpt lat="50.709228" lon="15.746306">
      <ele>1208</ele>
      <time>2026-05-07T12:58:27Z</time>
    </trkpt>
    <trkpt lat="50.709136" lon="15.746049">
      <ele>1206</ele>
      <time>2026-05-07T12:58:45Z</time>
    </trkpt>
    <trkpt lat="50.709084" lon="15.74593">
      <ele>1203</ele>
      <time>2026-05-07T12:58:54Z</time>
    </trkpt>
    <trkpt lat="50.709017" lon="15.745805">
      <ele>1201</ele>
      <time>2026-05-07T12:59:04Z</time>
    </trkpt>
    <trkpt lat="50.708893" lon="15.745673">
      <ele>1200</ele>
      <time>2026-05-07T12:59:19Z</time>
    </trkpt>
    <trkpt lat="50.708722" lon="15.745509">
      <ele>1195</ele>
      <time>2026-05-07T12:59:39Z</time>
    </trkpt>
    <trkpt lat="50.708613" lon="15.745418">
      <ele>1191</ele>
      <time>2026-05-07T12:59:51Z</time>
    </trkpt>
    <trkpt lat="50.708551" lon="15.745318">
      <ele>1189</ele>
      <time>2026-05-07T13:00:00Z</time>
    </trkpt>
    <trkpt lat="50.708539" lon="15.745142">
      <ele>1186</ele>
      <time>2026-05-07T13:00:11Z</time>
    </trkpt>
    <trkpt lat="50.708544" lon="15.745001">
      <ele>1184</ele>
      <time>2026-05-07T13:00:19Z</time>
    </trkpt>
    <trkpt lat="50.708572" lon="15.744782">
      <ele>1181</ele>
      <time>2026-05-07T13:00:33Z</time>
    </trkpt>
    <trkpt lat="50.708589" lon="15.744606">
      <ele>1178</ele>
      <time>2026-05-07T13:00:44Z</time>
    </trkpt>
    <trkpt lat="50.708612" lon="15.744553">
      <ele>1177</ele>
      <time>2026-05-07T13:00:48Z</time>
    </trkpt>
    <trkpt lat="50.708723" lon="15.74444">
      <ele>1176</ele>
      <time>2026-05-07T13:01:01Z</time>
    </trkpt>
    <trkpt lat="50.708809" lon="15.744417">
      <ele>1176</ele>
      <time>2026-05-07T13:01:09Z</time>
    </trkpt>
    <trkpt lat="50.7089" lon="15.744412">
      <ele>1176</ele>
      <time>2026-05-07T13:01:18Z</time>
    </trkpt>
    <trkpt lat="50.70898" lon="15.744381">
      <ele>1175</ele>
      <time>2026-05-07T13:01:26Z</time>
    </trkpt>
    <trkpt lat="50.70907" lon="15.744302">
      <ele>1172</ele>
      <time>2026-05-07T13:01:36Z</time>
    </trkpt>
    <trkpt lat="50.709168" lon="15.744231">
      <ele>1170</ele>
      <time>2026-05-07T13:01:47Z</time>
    </trkpt>
    <trkpt lat="50.709265" lon="15.74424">
      <ele>1167</ele>
      <time>2026-05-07T13:01:56Z</time>
    </trkpt>
    <trkpt lat="50.709583" lon="15.744235">
      <ele>1158</ele>
      <time>2026-05-07T13:02:28Z</time>
    </trkpt>
    <trkpt lat="50.709733" lon="15.744279">
      <ele>1155</ele>
      <time>2026-05-07T13:02:43Z</time>
    </trkpt>
    <trkpt lat="50.709876" lon="15.744361">
      <ele>1155</ele>
      <time>2026-05-07T13:02:57Z</time>
    </trkpt>
    <trkpt lat="50.710003" lon="15.744384">
      <ele>1152</ele>
      <time>2026-05-07T13:03:10Z</time>
    </trkpt>
    <trkpt lat="50.710131" lon="15.744386">
      <ele>1147</ele>
      <time>2026-05-07T13:03:23Z</time>
    </trkpt>
    <trkpt lat="50.710174" lon="15.744353">
      <ele>1144</ele>
      <time>2026-05-07T13:03:28Z</time>
    </trkpt>
    <trkpt lat="50.710149" lon="15.744226">
      <ele>1140</ele>
      <time>2026-05-07T13:03:37Z</time>
    </trkpt>
    <trkpt lat="50.709949" lon="15.743819">
      <ele>1130</ele>
      <time>2026-05-07T13:04:09Z</time>
    </trkpt>
    <trkpt lat="50.709776" lon="15.743464">
      <ele>1122</ele>
      <time>2026-05-07T13:04:38Z</time>
    </trkpt>
    <trkpt lat="50.709579" lon="15.743055">
      <ele>1111</ele>
      <time>2026-05-07T13:05:10Z</time>
    </trkpt>
    <trkpt lat="50.709473" lon="15.742794">
      <ele>1104</ele>
      <time>2026-05-07T13:05:30Z</time>
    </trkpt>
    <trkpt lat="50.709284" lon="15.74241">
      <ele>1095</ele>
      <time>2026-05-07T13:06:00Z</time>
    </trkpt>
    <trkpt lat="50.708991" lon="15.741877">
      <ele>1089</ele>
      <time>2026-05-07T13:06:44Z</time>
    </trkpt>
    <trkpt lat="50.708833" lon="15.741598">
      <ele>1088</ele>
      <time>2026-05-07T13:07:07Z</time>
    </trkpt>
    <trkpt lat="50.708754" lon="15.741432">
      <ele>1086</ele>
      <time>2026-05-07T13:07:19Z</time>
    </trkpt>
    <trkpt lat="50.708606" lon="15.741109">
      <ele>1082</ele>
      <time>2026-05-07T13:07:44Z</time>
    </trkpt>
    <trkpt lat="50.708478" lon="15.74083">
      <ele>1079</ele>
      <time>2026-05-07T13:08:05Z</time>
    </trkpt>
    <trkpt lat="50.708354" lon="15.740543">
      <ele>1075</ele>
      <time>2026-05-07T13:08:26Z</time>
    </trkpt>
    <trkpt lat="50.708237" lon="15.740256">
      <ele>1067</ele>
      <time>2026-05-07T13:08:48Z</time>
    </trkpt>
    <trkpt lat="50.708158" lon="15.74015">
      <ele>1064</ele>
      <time>2026-05-07T13:08:58Z</time>
    </trkpt>
    <trkpt lat="50.70798" lon="15.740042">
      <ele>1064</ele>
      <time>2026-05-07T13:09:17Z</time>
    </trkpt>
    <trkpt lat="50.707717" lon="15.739852">
      <ele>1061</ele>
      <time>2026-05-07T13:09:44Z</time>
    </trkpt>
    <trkpt lat="50.707551" lon="15.739675">
      <ele>1057</ele>
      <time>2026-05-07T13:10:04Z</time>
    </trkpt>
    <trkpt lat="50.70741" lon="15.739545">
      <ele>1053</ele>
      <time>2026-05-07T13:10:20Z</time>
    </trkpt>
    <trkpt lat="50.707203" lon="15.73939">
      <ele>1047</ele>
      <time>2026-05-07T13:10:43Z</time>
    </trkpt>
    <trkpt lat="50.707035" lon="15.739299">
      <ele>1041</ele>
      <time>2026-05-07T13:11:01Z</time>
    </trkpt>
    <trkpt lat="50.706874" lon="15.739243">
      <ele>1037</ele>
      <time>2026-05-07T13:11:17Z</time>
    </trkpt>
    <trkpt lat="50.706585" lon="15.739156">
      <ele>1031</ele>
      <time>2026-05-07T13:11:45Z</time>
    </trkpt>
    <trkpt lat="50.706184" lon="15.739068">
      <ele>1024</ele>
      <time>2026-05-07T13:12:25Z</time>
    </trkpt>
    <trkpt lat="50.7061" lon="15.73904">
      <ele>1022</ele>
      <time>2026-05-07T13:12:33Z</time>
    </trkpt>
    <trkpt lat="50.70607" lon="15.738984">
      <ele>1020</ele>
      <time>2026-05-07T13:12:38Z</time>
    </trkpt>
    <trkpt lat="50.706079" lon="15.738933">
      <ele>1019</ele>
      <time>2026-05-07T13:12:41Z</time>
    </trkpt>
    <trkpt lat="50.706163" lon="15.738758">
      <ele>1015</ele>
      <time>2026-05-07T13:12:55Z</time>
    </trkpt>
    <trkpt lat="50.706291" lon="15.73849">
      <ele>1007</ele>
      <time>2026-05-07T13:13:17Z</time>
    </trkpt>
    <trkpt lat="50.706463" lon="15.738233">
      <ele>1001</ele>
      <time>2026-05-07T13:13:40Z</time>
    </trkpt>
    <trkpt lat="50.706552" lon="15.738092">
      <ele>998</ele>
      <time>2026-05-07T13:13:52Z</time>
    </trkpt>
    <trkpt lat="50.706694" lon="15.737923">
      <ele>996</ele>
      <time>2026-05-07T13:14:09Z</time>
    </trkpt>
    <trkpt lat="50.706956" lon="15.737641">
      <ele>992</ele>
      <time>2026-05-07T13:14:40Z</time>
    </trkpt>
    <trkpt lat="50.707049" lon="15.737525">
      <ele>988</ele>
      <time>2026-05-07T13:14:52Z</time>
    </trkpt>
    <trkpt lat="50.707076" lon="15.737437">
      <ele>985</ele>
      <time>2026-05-07T13:14:58Z</time>
    </trkpt>
    <trkpt lat="50.70707" lon="15.737373">
      <ele>983</ele>
      <time>2026-05-07T13:15:03Z</time>
    </trkpt>
    <trkpt lat="50.707031" lon="15.737305">
      <ele>980</ele>
      <time>2026-05-07T13:15:09Z</time>
    </trkpt>
    <trkpt lat="50.70697" lon="15.737231">
      <ele>977</ele>
      <time>2026-05-07T13:15:17Z</time>
    </trkpt>
    <trkpt lat="50.706852" lon="15.737125">
      <ele>973</ele>
      <time>2026-05-07T13:15:30Z</time>
    </trkpt>
    <trkpt lat="50.706626" lon="15.737076">
      <ele>969</ele>
      <time>2026-05-07T13:15:52Z</time>
    </trkpt>
    <trkpt lat="50.706474" lon="15.737003">
      <ele>964</ele>
      <time>2026-05-07T13:16:08Z</time>
    </trkpt>
    <trkpt lat="50.706309" lon="15.736952">
      <ele>960</ele>
      <time>2026-05-07T13:16:25Z</time>
    </trkpt>
    <trkpt lat="50.706141" lon="15.736924">
      <ele>957</ele>
      <time>2026-05-07T13:16:41Z</time>
    </trkpt>
    <trkpt lat="50.705993" lon="15.736856">
      <ele>953</ele>
      <time>2026-05-07T13:16:56Z</time>
    </trkpt>
    <trkpt lat="50.7058" lon="15.736729">
      <ele>948</ele>
      <time>2026-05-07T13:17:17Z</time>
    </trkpt>
    <trkpt lat="50.705673" lon="15.736654">
      <ele>942</ele>
      <time>2026-05-07T13:17:31Z</time>
    </trkpt>
    <trkpt lat="50.705484" lon="15.736588">
      <ele>936</ele>
      <time>2026-05-07T13:17:50Z</time>
    </trkpt>
    <trkpt lat="50.705243" lon="15.736592">
      <ele>932</ele>
      <time>2026-05-07T13:18:13Z</time>
    </trkpt>
    <trkpt lat="50.70508" lon="15.736633">
      <ele>930</ele>
      <time>2026-05-07T13:18:29Z</time>
    </trkpt>
    <trkpt lat="50.70493" lon="15.736701">
      <ele>929</ele>
      <time>2026-05-07T13:18:44Z</time>
    </trkpt>
    <trkpt lat="50.704673" lon="15.7368">
      <ele>925</ele>
      <time>2026-05-07T13:19:10Z</time>
    </trkpt>
    <trkpt lat="50.704225" lon="15.73712">
      <ele>916</ele>
      <time>2026-05-07T13:20:02Z</time>
    </trkpt>
    <trkpt lat="50.703978" lon="15.737324">
      <ele>915</ele>
      <time>2026-05-07T13:20:31Z</time>
    </trkpt>
    <trkpt lat="50.703763" lon="15.737462">
      <ele>915</ele>
      <time>2026-05-07T13:20:55Z</time>
    </trkpt>
    <trkpt lat="50.703588" lon="15.737537">
      <ele>912</ele>
      <time>2026-05-07T13:21:14Z</time>
    </trkpt>
    <trkpt lat="50.703244" lon="15.737645">
      <ele>907</ele>
      <time>2026-05-07T13:21:51Z</time>
    </trkpt>
    <trkpt lat="50.702884" lon="15.737744">
      <ele>900</ele>
      <time>2026-05-07T13:22:30Z</time>
    </trkpt>
    <trkpt lat="50.702676" lon="15.737785">
      <ele>897</ele>
      <time>2026-05-07T13:22:52Z</time>
    </trkpt>
    <trkpt lat="50.702468" lon="15.737783">
      <ele>894</ele>
      <time>2026-05-07T13:23:14Z</time>
    </trkpt>
    <trkpt lat="50.702274" lon="15.737794">
      <ele>891</ele>
      <time>2026-05-07T13:23:35Z</time>
    </trkpt>
    <trkpt lat="50.701995" lon="15.737826">
      <ele>886</ele>
      <time>2026-05-07T13:24:04Z</time>
    </trkpt>
    <trkpt lat="50.701652" lon="15.737849">
      <ele>877</ele>
      <time>2026-05-07T13:24:41Z</time>
    </trkpt>
    <trkpt lat="50.701353" lon="15.737807">
      <ele>866</ele>
      <time>2026-05-07T13:25:14Z</time>
    </trkpt>
    <trkpt lat="50.701083" lon="15.737807">
      <ele>860</ele>
      <time>2026-05-07T13:25:43Z</time>
    </trkpt>
    <trkpt lat="50.700807" lon="15.737816">
      <ele>855</ele>
      <time>2026-05-07T13:26:12Z</time>
    </trkpt>
    <trkpt lat="50.700608" lon="15.73783">
      <ele>853</ele>
      <time>2026-05-07T13:26:33Z</time>
    </trkpt>
    <trkpt lat="50.700227" lon="15.737796">
      <ele>850</ele>
      <time>2026-05-07T13:27:13Z</time>
    </trkpt>
    <trkpt lat="50.69975" lon="15.73778">
      <ele>837</ele>
      <time>2026-05-07T13:28:04Z</time>
    </trkpt>
    <trkpt lat="50.699578" lon="15.737788">
      <ele>830</ele>
      <time>2026-05-07T13:28:23Z</time>
    </trkpt>
    <trkpt lat="50.699435" lon="15.737824">
      <ele>825</ele>
      <time>2026-05-07T13:28:39Z</time>
    </trkpt>
    <trkpt lat="50.699167" lon="15.737972">
      <ele>821</ele>
      <time>2026-05-07T13:29:09Z</time>
    </trkpt>
    <trkpt lat="50.698077" lon="15.738794">
      <ele>802</ele>
      <time>2026-05-07T13:31:17Z</time>
    </trkpt>
    <trkpt lat="50.697679" lon="15.73902">
      <ele>796</ele>
      <time>2026-05-07T13:32:01Z</time>
    </trkpt>
    <trkpt lat="50.69753" lon="15.738998">
      <ele>790</ele>
      <time>2026-05-07T13:32:18Z</time>
    </trkpt>
    <trkpt lat="50.697503" lon="15.738954">
      <ele>788</ele>
      <time>2026-05-07T13:32:22Z</time>
    </trkpt>
    <trkpt lat="50.697257" lon="15.738544">
      <ele>774</ele>
      <time>2026-05-07T13:33:02Z</time>
    </trkpt>
    <trkpt lat="50.697201" lon="15.738426">
      <ele>772</ele>
      <time>2026-05-07T13:33:12Z</time>
    </trkpt>
    <trkpt lat="50.697157" lon="15.738277">
      <ele>771</ele>
      <time>2026-05-07T13:33:23Z</time>
    </trkpt>
    <trkpt lat="50.697049" lon="15.737585">
      <ele>776</ele>
      <time>2026-05-07T13:34:10Z</time>
    </trkpt>
    <trkpt lat="50.696772" lon="15.737958">
      <ele>773</ele>
      <time>2026-05-07T13:34:45Z</time>
    </trkpt>
    <trkpt lat="50.696711" lon="15.738045">
      <ele>772</ele>
      <time>2026-05-07T13:34:53Z</time>
    </trkpt>
    <trkpt lat="50.696568" lon="15.738221">
      <ele>770</ele>
      <time>2026-05-07T13:35:10Z</time>
    </trkpt>
    <trkpt lat="50.696409" lon="15.738389">
      <ele>768</ele>
      <time>2026-05-07T13:35:28Z</time>
    </trkpt>
    <trkpt lat="50.696191" lon="15.738553">
      <ele>768</ele>
      <time>2026-05-07T13:35:51Z</time>
    </trkpt>
    <trkpt lat="50.696003" lon="15.738694">
      <ele>768</ele>
      <time>2026-05-07T13:36:11Z</time>
    </trkpt>
    <trkpt lat="50.695831" lon="15.738809">
      <ele>768</ele>
      <time>2026-05-07T13:36:29Z</time>
    </trkpt>
    <trkpt lat="50.695739" lon="15.73887">
      <ele>767</ele>
      <time>2026-05-07T13:36:39Z</time>
    </trkpt>
    <trkpt lat="50.695636" lon="15.738955">
      <ele>766</ele>
      <time>2026-05-07T13:36:50Z</time>
    </trkpt>
    <trkpt lat="50.695588" lon="15.738994">
      <ele>766</ele>
      <time>2026-05-07T13:36:55Z</time>
    </trkpt>
    <trkpt lat="50.69547" lon="15.739161">
      <ele>767</ele>
      <time>2026-05-07T13:37:10Z</time>
    </trkpt>
  </trkseg>
</trk>
</gpx>