<?xml version="1.0" encoding="UTF-8"?><gpx creator="https://mapa-turystyczna.pl" xmlns="http://www.topografix.com/GPX/1/1" version="1.1" xmlns:xsi="http://www.w3.org/2001/XMLSchema-instance" xsi:schemaLocation="http://www.topografix.com/GPX/1/1 http://www.topografix.com/GPX/1/1/gpx.xsd">
  <metadata>
    <link href="https://mapa-turystyczna.pl">
      <text>mapa-turystyczna.pl</text>
    </link>
    <time>2026-05-07T08:43:19Z</time>
    <bounds maxlat="50.266293" maxlon="17.002044" minlat="50.238652" minlon="16.9764959"/>
  </metadata>

<trk>
  <name>Bielice – Bielice</name>
  <link href="https://mapa-turystyczna.pl/route/wiq2">
    <text>Bielice – Bielice</text>
  </link>
  <trkseg>
    <trkpt lat="50.266293" lon="17.002044">
      <ele>711</ele>
      <time>2026-05-07T08:43:19Z</time>
    </trkpt>
    <trkpt lat="50.266125" lon="17.00189">
      <ele>712</ele>
      <time>2026-05-07T08:43:40Z</time>
    </trkpt>
    <trkpt lat="50.265859" lon="17.001552">
      <ele>713</ele>
      <time>2026-05-07T08:44:18Z</time>
    </trkpt>
    <trkpt lat="50.265698" lon="17.001397">
      <ele>714</ele>
      <time>2026-05-07T08:44:38Z</time>
    </trkpt>
    <trkpt lat="50.26555" lon="17.001279">
      <ele>716</ele>
      <time>2026-05-07T08:44:57Z</time>
    </trkpt>
    <trkpt lat="50.265161" lon="17.001002">
      <ele>718</ele>
      <time>2026-05-07T08:45:43Z</time>
    </trkpt>
    <trkpt lat="50.265111" lon="17.000957">
      <ele>719</ele>
      <time>2026-05-07T08:45:50Z</time>
    </trkpt>
    <trkpt lat="50.265074" lon="17.000913">
      <ele>719</ele>
      <time>2026-05-07T08:45:55Z</time>
    </trkpt>
    <trkpt lat="50.265027" lon="17.000852">
      <ele>719</ele>
      <time>2026-05-07T08:46:01Z</time>
    </trkpt>
    <trkpt lat="50.264958" lon="17.00075">
      <ele>719</ele>
      <time>2026-05-07T08:46:12Z</time>
    </trkpt>
    <trkpt lat="50.264887" lon="17.000588">
      <ele>718</ele>
      <time>2026-05-07T08:46:26Z</time>
    </trkpt>
    <trkpt lat="50.264829" lon="17.000384">
      <ele>717</ele>
      <time>2026-05-07T08:46:41Z</time>
    </trkpt>
    <trkpt lat="50.264681" lon="16.999682">
      <ele>719</ele>
      <time>2026-05-07T08:47:33Z</time>
    </trkpt>
    <trkpt lat="50.264591" lon="16.999245">
      <ele>719</ele>
      <time>2026-05-07T08:48:05Z</time>
    </trkpt>
    <trkpt lat="50.264531" lon="16.998961">
      <ele>720</ele>
      <time>2026-05-07T08:48:26Z</time>
    </trkpt>
    <trkpt lat="50.264506" lon="16.998782">
      <ele>720</ele>
      <time>2026-05-07T08:48:39Z</time>
    </trkpt>
    <trkpt lat="50.264456" lon="16.99837">
      <ele>719</ele>
      <time>2026-05-07T08:49:08Z</time>
    </trkpt>
    <trkpt lat="50.264422" lon="16.998149">
      <ele>720</ele>
      <time>2026-05-07T08:49:24Z</time>
    </trkpt>
    <trkpt lat="50.264393" lon="16.998039">
      <ele>720</ele>
      <time>2026-05-07T08:49:32Z</time>
    </trkpt>
    <trkpt lat="50.264309" lon="16.997802">
      <ele>721</ele>
      <time>2026-05-07T08:49:51Z</time>
    </trkpt>
    <trkpt lat="50.264291" lon="16.997714">
      <ele>722</ele>
      <time>2026-05-07T08:49:58Z</time>
    </trkpt>
    <trkpt lat="50.264289" lon="16.997634">
      <ele>722</ele>
      <time>2026-05-07T08:50:03Z</time>
    </trkpt>
    <trkpt lat="50.264296" lon="16.997523">
      <ele>723</ele>
      <time>2026-05-07T08:50:11Z</time>
    </trkpt>
    <trkpt lat="50.264318" lon="16.99737">
      <ele>724</ele>
      <time>2026-05-07T08:50:22Z</time>
    </trkpt>
    <trkpt lat="50.264318" lon="16.997229">
      <ele>724</ele>
      <time>2026-05-07T08:50:32Z</time>
    </trkpt>
    <trkpt lat="50.264287" lon="16.996895">
      <ele>728</ele>
      <time>2026-05-07T08:50:56Z</time>
    </trkpt>
    <trkpt lat="50.264253" lon="16.996305">
      <ele>732</ele>
      <time>2026-05-07T08:51:37Z</time>
    </trkpt>
    <trkpt lat="50.264243" lon="16.99607">
      <ele>733</ele>
      <time>2026-05-07T08:51:54Z</time>
    </trkpt>
    <trkpt lat="50.264219" lon="16.995836">
      <ele>734</ele>
      <time>2026-05-07T08:52:10Z</time>
    </trkpt>
    <trkpt lat="50.264204" lon="16.995729">
      <ele>735</ele>
      <time>2026-05-07T08:52:18Z</time>
    </trkpt>
    <trkpt lat="50.264178" lon="16.995627">
      <ele>736</ele>
      <time>2026-05-07T08:52:26Z</time>
    </trkpt>
    <trkpt lat="50.264152" lon="16.995544">
      <ele>736</ele>
      <time>2026-05-07T08:52:32Z</time>
    </trkpt>
    <trkpt lat="50.264135" lon="16.995493">
      <ele>737</ele>
      <time>2026-05-07T08:52:36Z</time>
    </trkpt>
    <trkpt lat="50.264084" lon="16.995366">
      <ele>740</ele>
      <time>2026-05-07T08:52:47Z</time>
    </trkpt>
    <trkpt lat="50.264016" lon="16.995223">
      <ele>742</ele>
      <time>2026-05-07T08:53:00Z</time>
    </trkpt>
    <trkpt lat="50.263964" lon="16.995137">
      <ele>743</ele>
      <time>2026-05-07T08:53:08Z</time>
    </trkpt>
    <trkpt lat="50.263886" lon="16.99504">
      <ele>745</ele>
      <time>2026-05-07T08:53:19Z</time>
    </trkpt>
    <trkpt lat="50.263345" lon="16.994429">
      <ele>750</ele>
      <time>2026-05-07T08:54:25Z</time>
    </trkpt>
    <trkpt lat="50.263037" lon="16.994021">
      <ele>749</ele>
      <time>2026-05-07T08:55:05Z</time>
    </trkpt>
    <trkpt lat="50.263001" lon="16.993922">
      <ele>749</ele>
      <time>2026-05-07T08:55:12Z</time>
    </trkpt>
    <trkpt lat="50.263021" lon="16.993607">
      <ele>750</ele>
      <time>2026-05-07T08:55:32Z</time>
    </trkpt>
    <trkpt lat="50.262776" lon="16.993246">
      <ele>751</ele>
      <time>2026-05-07T08:56:05Z</time>
    </trkpt>
    <trkpt lat="50.262674" lon="16.993022">
      <ele>753</ele>
      <time>2026-05-07T08:56:22Z</time>
    </trkpt>
    <trkpt lat="50.262513" lon="16.992623">
      <ele>751</ele>
      <time>2026-05-07T08:56:52Z</time>
    </trkpt>
    <trkpt lat="50.262332" lon="16.991772">
      <ele>755</ele>
      <time>2026-05-07T08:57:49Z</time>
    </trkpt>
    <trkpt lat="50.262265" lon="16.991484">
      <ele>757</ele>
      <time>2026-05-07T08:58:08Z</time>
    </trkpt>
    <trkpt lat="50.262216" lon="16.991325">
      <ele>757</ele>
      <time>2026-05-07T08:58:19Z</time>
    </trkpt>
    <trkpt lat="50.262139" lon="16.991106">
      <ele>757</ele>
      <time>2026-05-07T08:58:38Z</time>
    </trkpt>
    <trkpt lat="50.26201" lon="16.990847">
      <ele>761</ele>
      <time>2026-05-07T08:59:03Z</time>
    </trkpt>
    <trkpt lat="50.261795" lon="16.990505">
      <ele>763</ele>
      <time>2026-05-07T08:59:39Z</time>
    </trkpt>
    <trkpt lat="50.261701" lon="16.990395">
      <ele>764</ele>
      <time>2026-05-07T08:59:53Z</time>
    </trkpt>
    <trkpt lat="50.26156" lon="16.990309">
      <ele>764</ele>
      <time>2026-05-07T09:00:10Z</time>
    </trkpt>
    <trkpt lat="50.261382" lon="16.990302">
      <ele>761</ele>
      <time>2026-05-07T09:00:32Z</time>
    </trkpt>
    <trkpt lat="50.261034" lon="16.990365">
      <ele>758</ele>
      <time>2026-05-07T09:01:13Z</time>
    </trkpt>
    <trkpt lat="50.260859" lon="16.99036">
      <ele>758</ele>
      <time>2026-05-07T09:01:34Z</time>
    </trkpt>
    <trkpt lat="50.260651" lon="16.990249">
      <ele>760</ele>
      <time>2026-05-07T09:01:59Z</time>
    </trkpt>
    <trkpt lat="50.260475" lon="16.990095">
      <ele>760</ele>
      <time>2026-05-07T09:02:23Z</time>
    </trkpt>
    <trkpt lat="50.260246" lon="16.989796">
      <ele>760</ele>
      <time>2026-05-07T09:02:58Z</time>
    </trkpt>
    <trkpt lat="50.260182" lon="16.989753">
      <ele>760</ele>
      <time>2026-05-07T09:03:06Z</time>
    </trkpt>
    <trkpt lat="50.260084" lon="16.989763">
      <ele>759</ele>
      <time>2026-05-07T09:03:18Z</time>
    </trkpt>
    <trkpt lat="50.259915" lon="16.989805">
      <ele>758</ele>
      <time>2026-05-07T09:03:38Z</time>
    </trkpt>
    <trkpt lat="50.259541" lon="16.989988">
      <ele>756</ele>
      <time>2026-05-07T09:04:24Z</time>
    </trkpt>
    <trkpt lat="50.259371" lon="16.990116">
      <ele>758</ele>
      <time>2026-05-07T09:04:47Z</time>
    </trkpt>
    <trkpt lat="50.259163" lon="16.990358">
      <ele>762</ele>
      <time>2026-05-07T09:05:17Z</time>
    </trkpt>
    <trkpt lat="50.25897" lon="16.99052">
      <ele>764</ele>
      <time>2026-05-07T09:05:43Z</time>
    </trkpt>
    <trkpt lat="50.25875" lon="16.990603">
      <ele>768</ele>
      <time>2026-05-07T09:06:10Z</time>
    </trkpt>
    <trkpt lat="50.258566" lon="16.990669">
      <ele>771</ele>
      <time>2026-05-07T09:06:33Z</time>
    </trkpt>
    <trkpt lat="50.258452" lon="16.990743">
      <ele>771</ele>
      <time>2026-05-07T09:06:47Z</time>
    </trkpt>
    <trkpt lat="50.257975" lon="16.991149">
      <ele>766</ele>
      <time>2026-05-07T09:07:51Z</time>
    </trkpt>
    <trkpt lat="50.257727" lon="16.991316">
      <ele>767</ele>
      <time>2026-05-07T09:08:23Z</time>
    </trkpt>
    <trkpt lat="50.257593" lon="16.991389">
      <ele>767</ele>
      <time>2026-05-07T09:08:40Z</time>
    </trkpt>
    <trkpt lat="50.257477" lon="16.991468">
      <ele>767</ele>
      <time>2026-05-07T09:08:55Z</time>
    </trkpt>
    <trkpt lat="50.257224" lon="16.99166">
      <ele>766</ele>
      <time>2026-05-07T09:09:28Z</time>
    </trkpt>
    <trkpt lat="50.25678" lon="16.991936">
      <ele>772</ele>
      <time>2026-05-07T09:10:24Z</time>
    </trkpt>
    <trkpt lat="50.256566" lon="16.992132">
      <ele>776</ele>
      <time>2026-05-07T09:10:54Z</time>
    </trkpt>
    <trkpt lat="50.256428" lon="16.992474">
      <ele>776</ele>
      <time>2026-05-07T09:11:24Z</time>
    </trkpt>
    <trkpt lat="50.256358" lon="16.992741">
      <ele>773</ele>
      <time>2026-05-07T09:11:46Z</time>
    </trkpt>
    <trkpt lat="50.256255" lon="16.993055">
      <ele>774</ele>
      <time>2026-05-07T09:12:13Z</time>
    </trkpt>
    <trkpt lat="50.255888" lon="16.993634">
      <ele>776</ele>
      <time>2026-05-07T09:13:14Z</time>
    </trkpt>
    <trkpt lat="50.255765" lon="16.993886">
      <ele>775</ele>
      <time>2026-05-07T09:13:38Z</time>
    </trkpt>
    <trkpt lat="50.255667" lon="16.994344">
      <ele>775</ele>
      <time>2026-05-07T09:14:14Z</time>
    </trkpt>
    <trkpt lat="50.255636" lon="16.994648">
      <ele>776</ele>
      <time>2026-05-07T09:14:37Z</time>
    </trkpt>
    <trkpt lat="50.255583" lon="16.994841">
      <ele>778</ele>
      <time>2026-05-07T09:14:53Z</time>
    </trkpt>
    <trkpt lat="50.255436" lon="16.995125">
      <ele>783</ele>
      <time>2026-05-07T09:15:21Z</time>
    </trkpt>
    <trkpt lat="50.255108" lon="16.995593">
      <ele>788</ele>
      <time>2026-05-07T09:16:14Z</time>
    </trkpt>
    <trkpt lat="50.254768" lon="16.996128">
      <ele>793</ele>
      <time>2026-05-07T09:17:11Z</time>
    </trkpt>
    <trkpt lat="50.254568" lon="16.99664">
      <ele>792</ele>
      <time>2026-05-07T09:17:56Z</time>
    </trkpt>
    <trkpt lat="50.254446" lon="16.996882">
      <ele>792</ele>
      <time>2026-05-07T09:18:19Z</time>
    </trkpt>
    <trkpt lat="50.254343" lon="16.99677">
      <ele>794</ele>
      <time>2026-05-07T09:18:47Z</time>
    </trkpt>
    <trkpt lat="50.254269" lon="16.996729">
      <ele>795</ele>
      <time>2026-05-07T09:19:04Z</time>
    </trkpt>
    <trkpt lat="50.254153" lon="16.996711">
      <ele>797</ele>
      <time>2026-05-07T09:19:30Z</time>
    </trkpt>
    <trkpt lat="50.253941" lon="16.996637">
      <ele>800</ele>
      <time>2026-05-07T09:20:18Z</time>
    </trkpt>
    <trkpt lat="50.253826" lon="16.996437">
      <ele>805</ele>
      <time>2026-05-07T09:20:58Z</time>
    </trkpt>
    <trkpt lat="50.253575" lon="16.99608">
      <ele>813</ele>
      <time>2026-05-07T09:22:14Z</time>
    </trkpt>
    <trkpt lat="50.253345" lon="16.995839">
      <ele>816</ele>
      <time>2026-05-07T09:23:15Z</time>
    </trkpt>
    <trkpt lat="50.253203" lon="16.995761">
      <ele>820</ele>
      <time>2026-05-07T09:23:49Z</time>
    </trkpt>
    <trkpt lat="50.253057" lon="16.995723">
      <ele>824</ele>
      <time>2026-05-07T09:24:23Z</time>
    </trkpt>
    <trkpt lat="50.25283" lon="16.99571">
      <ele>832</ele>
      <time>2026-05-07T09:25:16Z</time>
    </trkpt>
    <trkpt lat="50.252642" lon="16.995721">
      <ele>837</ele>
      <time>2026-05-07T09:25:58Z</time>
    </trkpt>
    <trkpt lat="50.252551" lon="16.995707">
      <ele>840</ele>
      <time>2026-05-07T09:26:19Z</time>
    </trkpt>
    <trkpt lat="50.252385" lon="16.995493">
      <ele>844</ele>
      <time>2026-05-07T09:27:07Z</time>
    </trkpt>
    <trkpt lat="50.252229" lon="16.995332">
      <ele>848</ele>
      <time>2026-05-07T09:27:49Z</time>
    </trkpt>
    <trkpt lat="50.252119" lon="16.995243">
      <ele>851</ele>
      <time>2026-05-07T09:28:17Z</time>
    </trkpt>
    <trkpt lat="50.252019" lon="16.995203">
      <ele>853</ele>
      <time>2026-05-07T09:28:40Z</time>
    </trkpt>
    <trkpt lat="50.251863" lon="16.995171">
      <ele>857</ele>
      <time>2026-05-07T09:29:16Z</time>
    </trkpt>
    <trkpt lat="50.251736" lon="16.995088">
      <ele>860</ele>
      <time>2026-05-07T09:29:46Z</time>
    </trkpt>
    <trkpt lat="50.251621" lon="16.995056">
      <ele>862</ele>
      <time>2026-05-07T09:30:13Z</time>
    </trkpt>
    <trkpt lat="50.251282" lon="16.994954">
      <ele>868</ele>
      <time>2026-05-07T09:31:30Z</time>
    </trkpt>
    <trkpt lat="50.251011" lon="16.994894">
      <ele>875</ele>
      <time>2026-05-07T09:32:32Z</time>
    </trkpt>
    <trkpt lat="50.250969" lon="16.994866">
      <ele>876</ele>
      <time>2026-05-07T09:32:42Z</time>
    </trkpt>
    <trkpt lat="50.250428" lon="16.994495">
      <ele>890</ele>
      <time>2026-05-07T09:34:55Z</time>
    </trkpt>
    <trkpt lat="50.25022" lon="16.994275">
      <ele>895</ele>
      <time>2026-05-07T09:35:51Z</time>
    </trkpt>
    <trkpt lat="50.250127" lon="16.994103">
      <ele>898</ele>
      <time>2026-05-07T09:36:23Z</time>
    </trkpt>
    <trkpt lat="50.250078" lon="16.993991">
      <ele>900</ele>
      <time>2026-05-07T09:36:43Z</time>
    </trkpt>
    <trkpt lat="50.250025" lon="16.993895">
      <ele>901</ele>
      <time>2026-05-07T09:37:01Z</time>
    </trkpt>
    <trkpt lat="50.249987" lon="16.993827">
      <ele>902</ele>
      <time>2026-05-07T09:37:14Z</time>
    </trkpt>
    <trkpt lat="50.249819" lon="16.993665">
      <ele>906</ele>
      <time>2026-05-07T09:37:58Z</time>
    </trkpt>
    <trkpt lat="50.249647" lon="16.993538">
      <ele>911</ele>
      <time>2026-05-07T09:38:41Z</time>
    </trkpt>
    <trkpt lat="50.2495" lon="16.993457">
      <ele>916</ele>
      <time>2026-05-07T09:39:17Z</time>
    </trkpt>
    <trkpt lat="50.24932" lon="16.993366">
      <ele>922</ele>
      <time>2026-05-07T09:40:00Z</time>
    </trkpt>
    <trkpt lat="50.249184" lon="16.993269">
      <ele>926</ele>
      <time>2026-05-07T09:40:34Z</time>
    </trkpt>
    <trkpt lat="50.249087" lon="16.993181">
      <ele>928</ele>
      <time>2026-05-07T09:40:59Z</time>
    </trkpt>
    <trkpt lat="50.248939" lon="16.993066">
      <ele>930</ele>
      <time>2026-05-07T09:41:36Z</time>
    </trkpt>
    <trkpt lat="50.248914" lon="16.993123">
      <ele>930</ele>
      <time>2026-05-07T09:41:45Z</time>
    </trkpt>
    <trkpt lat="50.248783" lon="16.993004">
      <ele>934</ele>
      <time>2026-05-07T09:42:20Z</time>
    </trkpt>
    <trkpt lat="50.248671" lon="16.992993">
      <ele>937</ele>
      <time>2026-05-07T09:42:45Z</time>
    </trkpt>
    <trkpt lat="50.248543" lon="16.993006">
      <ele>940</ele>
      <time>2026-05-07T09:43:14Z</time>
    </trkpt>
    <trkpt lat="50.248417" lon="16.993052">
      <ele>943</ele>
      <time>2026-05-07T09:43:43Z</time>
    </trkpt>
    <trkpt lat="50.248299" lon="16.993082">
      <ele>945</ele>
      <time>2026-05-07T09:44:10Z</time>
    </trkpt>
    <trkpt lat="50.248205" lon="16.993076">
      <ele>947</ele>
      <time>2026-05-07T09:44:31Z</time>
    </trkpt>
    <trkpt lat="50.248117" lon="16.993036">
      <ele>949</ele>
      <time>2026-05-07T09:44:51Z</time>
    </trkpt>
    <trkpt lat="50.248045" lon="16.992953">
      <ele>951</ele>
      <time>2026-05-07T09:45:11Z</time>
    </trkpt>
    <trkpt lat="50.247961" lon="16.992813">
      <ele>954</ele>
      <time>2026-05-07T09:45:39Z</time>
    </trkpt>
    <trkpt lat="50.247881" lon="16.992609">
      <ele>959</ele>
      <time>2026-05-07T09:46:14Z</time>
    </trkpt>
    <trkpt lat="50.247795" lon="16.992368">
      <ele>964</ele>
      <time>2026-05-07T09:46:54Z</time>
    </trkpt>
    <trkpt lat="50.247774" lon="16.992207">
      <ele>966</ele>
      <time>2026-05-07T09:47:18Z</time>
    </trkpt>
    <trkpt lat="50.247795" lon="16.991998">
      <ele>968</ele>
      <time>2026-05-07T09:47:48Z</time>
    </trkpt>
    <trkpt lat="50.247778" lon="16.991732">
      <ele>971</ele>
      <time>2026-05-07T09:48:26Z</time>
    </trkpt>
    <trkpt lat="50.247706" lon="16.991523">
      <ele>974</ele>
      <time>2026-05-07T09:49:00Z</time>
    </trkpt>
    <trkpt lat="50.247641" lon="16.991451">
      <ele>976</ele>
      <time>2026-05-07T09:49:18Z</time>
    </trkpt>
    <trkpt lat="50.24755" lon="16.991394">
      <ele>979</ele>
      <time>2026-05-07T09:49:40Z</time>
    </trkpt>
    <trkpt lat="50.247397" lon="16.991322">
      <ele>983</ele>
      <time>2026-05-07T09:50:17Z</time>
    </trkpt>
    <trkpt lat="50.247229" lon="16.991327">
      <ele>988</ele>
      <time>2026-05-07T09:50:55Z</time>
    </trkpt>
    <trkpt lat="50.247075" lon="16.991378">
      <ele>991</ele>
      <time>2026-05-07T09:51:30Z</time>
    </trkpt>
    <trkpt lat="50.246977" lon="16.991411">
      <ele>993</ele>
      <time>2026-05-07T09:51:52Z</time>
    </trkpt>
    <trkpt lat="50.246841" lon="16.991456">
      <ele>995</ele>
      <time>2026-05-07T09:52:23Z</time>
    </trkpt>
    <trkpt lat="50.246606" lon="16.991598">
      <ele>997</ele>
      <time>2026-05-07T09:53:19Z</time>
    </trkpt>
    <trkpt lat="50.246459" lon="16.991711">
      <ele>1000</ele>
      <time>2026-05-07T09:53:42Z</time>
    </trkpt>
    <trkpt lat="50.246382" lon="16.991749">
      <ele>1002</ele>
      <time>2026-05-07T09:53:53Z</time>
    </trkpt>
    <trkpt lat="50.24632" lon="16.991801">
      <ele>1003</ele>
      <time>2026-05-07T09:54:03Z</time>
    </trkpt>
    <trkpt lat="50.246233" lon="16.991872">
      <ele>1005</ele>
      <time>2026-05-07T09:54:17Z</time>
    </trkpt>
    <trkpt lat="50.246099" lon="16.992049">
      <ele>1007</ele>
      <time>2026-05-07T09:54:41Z</time>
    </trkpt>
    <trkpt lat="50.245891" lon="16.992293">
      <ele>1011</ele>
      <time>2026-05-07T09:55:17Z</time>
    </trkpt>
    <trkpt lat="50.245641" lon="16.992528">
      <ele>1018</ele>
      <time>2026-05-07T09:55:59Z</time>
    </trkpt>
    <trkpt lat="50.245505" lon="16.992682">
      <ele>1019</ele>
      <time>2026-05-07T09:56:22Z</time>
    </trkpt>
    <trkpt lat="50.245395" lon="16.992752">
      <ele>1020</ele>
      <time>2026-05-07T09:56:38Z</time>
    </trkpt>
    <trkpt lat="50.245298" lon="16.992784">
      <ele>1021</ele>
      <time>2026-05-07T09:56:52Z</time>
    </trkpt>
    <trkpt lat="50.245227" lon="16.992835">
      <ele>1021</ele>
      <time>2026-05-07T09:57:03Z</time>
    </trkpt>
    <trkpt lat="50.245107" lon="16.992877">
      <ele>1021</ele>
      <time>2026-05-07T09:57:20Z</time>
    </trkpt>
    <trkpt lat="50.245006" lon="16.992885">
      <ele>1022</ele>
      <time>2026-05-07T09:57:34Z</time>
    </trkpt>
    <trkpt lat="50.244869" lon="16.992792">
      <ele>1023</ele>
      <time>2026-05-07T09:57:54Z</time>
    </trkpt>
    <trkpt lat="50.244778" lon="16.992725">
      <ele>1024</ele>
      <time>2026-05-07T09:58:08Z</time>
    </trkpt>
    <trkpt lat="50.244642" lon="16.99269">
      <ele>1024</ele>
      <time>2026-05-07T09:58:27Z</time>
    </trkpt>
    <trkpt lat="50.244541" lon="16.992668">
      <ele>1024</ele>
      <time>2026-05-07T09:58:41Z</time>
    </trkpt>
    <trkpt lat="50.244382" lon="16.992547">
      <ele>1024</ele>
      <time>2026-05-07T09:59:06Z</time>
    </trkpt>
    <trkpt lat="50.244201" lon="16.992401">
      <ele>1024</ele>
      <time>2026-05-07T09:59:34Z</time>
    </trkpt>
    <trkpt lat="50.244135" lon="16.992311">
      <ele>1024</ele>
      <time>2026-05-07T09:59:46Z</time>
    </trkpt>
    <trkpt lat="50.244112" lon="16.992175">
      <ele>1025</ele>
      <time>2026-05-07T09:59:58Z</time>
    </trkpt>
    <trkpt lat="50.244059" lon="16.992068">
      <ele>1025</ele>
      <time>2026-05-07T10:00:10Z</time>
    </trkpt>
    <trkpt lat="50.243786" lon="16.991626">
      <ele>1025</ele>
      <time>2026-05-07T10:01:05Z</time>
    </trkpt>
    <trkpt lat="50.243646" lon="16.99137">
      <ele>1026</ele>
      <time>2026-05-07T10:01:34Z</time>
    </trkpt>
    <trkpt lat="50.243576" lon="16.991185">
      <ele>1026</ele>
      <time>2026-05-07T10:01:53Z</time>
    </trkpt>
    <trkpt lat="50.243544" lon="16.991066">
      <ele>1027</ele>
      <time>2026-05-07T10:02:05Z</time>
    </trkpt>
    <trkpt lat="50.243527" lon="16.990884">
      <ele>1029</ele>
      <time>2026-05-07T10:02:21Z</time>
    </trkpt>
    <trkpt lat="50.243364" lon="16.990453">
      <ele>1032</ele>
      <time>2026-05-07T10:03:06Z</time>
    </trkpt>
    <trkpt lat="50.243297" lon="16.990122">
      <ele>1035</ele>
      <time>2026-05-07T10:03:37Z</time>
    </trkpt>
    <trkpt lat="50.243211" lon="16.989899">
      <ele>1036</ele>
      <time>2026-05-07T10:04:00Z</time>
    </trkpt>
    <trkpt lat="50.243165" lon="16.989648">
      <ele>1038</ele>
      <time>2026-05-07T10:04:23Z</time>
    </trkpt>
    <trkpt lat="50.243083" lon="16.98945">
      <ele>1039</ele>
      <time>2026-05-07T10:04:44Z</time>
    </trkpt>
    <trkpt lat="50.242985" lon="16.989324">
      <ele>1040</ele>
      <time>2026-05-07T10:05:01Z</time>
    </trkpt>
    <trkpt lat="50.242645" lon="16.989032">
      <ele>1041</ele>
      <time>2026-05-07T10:05:55Z</time>
    </trkpt>
    <trkpt lat="50.242347" lon="16.988842">
      <ele>1040</ele>
      <time>2026-05-07T10:06:39Z</time>
    </trkpt>
    <trkpt lat="50.242128" lon="16.988658">
      <ele>1041</ele>
      <time>2026-05-07T10:07:13Z</time>
    </trkpt>
    <trkpt lat="50.242031" lon="16.988536">
      <ele>1041</ele>
      <time>2026-05-07T10:07:31Z</time>
    </trkpt>
    <trkpt lat="50.241888" lon="16.988293">
      <ele>1041</ele>
      <time>2026-05-07T10:08:00Z</time>
    </trkpt>
    <trkpt lat="50.241675" lon="16.988045">
      <ele>1042</ele>
      <time>2026-05-07T10:08:36Z</time>
    </trkpt>
    <trkpt lat="50.241515" lon="16.987786">
      <ele>1045</ele>
      <time>2026-05-07T10:09:08Z</time>
    </trkpt>
    <trkpt lat="50.24129" lon="16.987566">
      <ele>1047</ele>
      <time>2026-05-07T10:09:45Z</time>
    </trkpt>
    <trkpt lat="50.24118" lon="16.987384">
      <ele>1049</ele>
      <time>2026-05-07T10:10:07Z</time>
    </trkpt>
    <trkpt lat="50.241048" lon="16.987078">
      <ele>1051</ele>
      <time>2026-05-07T10:10:40Z</time>
    </trkpt>
    <trkpt lat="50.240811" lon="16.986795">
      <ele>1054</ele>
      <time>2026-05-07T10:11:21Z</time>
    </trkpt>
    <trkpt lat="50.240687" lon="16.986553">
      <ele>1057</ele>
      <time>2026-05-07T10:11:49Z</time>
    </trkpt>
    <trkpt lat="50.240389" lon="16.98615">
      <ele>1063</ele>
      <time>2026-05-07T10:12:44Z</time>
    </trkpt>
    <trkpt lat="50.240125" lon="16.985758">
      <ele>1067</ele>
      <time>2026-05-07T10:13:34Z</time>
    </trkpt>
    <trkpt lat="50.240064" lon="16.985679">
      <ele>1067</ele>
      <time>2026-05-07T10:13:45Z</time>
    </trkpt>
    <trkpt lat="50.239904" lon="16.985538">
      <ele>1068</ele>
      <time>2026-05-07T10:14:11Z</time>
    </trkpt>
    <trkpt lat="50.239712" lon="16.985268">
      <ele>1069</ele>
      <time>2026-05-07T10:14:46Z</time>
    </trkpt>
    <trkpt lat="50.239562" lon="16.985102">
      <ele>1070</ele>
      <time>2026-05-07T10:15:12Z</time>
    </trkpt>
    <trkpt lat="50.23946" lon="16.984947">
      <ele>1071</ele>
      <time>2026-05-07T10:15:31Z</time>
    </trkpt>
    <trkpt lat="50.239343" lon="16.984681">
      <ele>1073</ele>
      <time>2026-05-07T10:16:00Z</time>
    </trkpt>
    <trkpt lat="50.239301" lon="16.984421">
      <ele>1076</ele>
      <time>2026-05-07T10:16:24Z</time>
    </trkpt>
    <trkpt lat="50.239268" lon="16.98427">
      <ele>1077</ele>
      <time>2026-05-07T10:16:38Z</time>
    </trkpt>
    <trkpt lat="50.239194" lon="16.984051">
      <ele>1078</ele>
      <time>2026-05-07T10:17:00Z</time>
    </trkpt>
    <trkpt lat="50.239079" lon="16.983689">
      <ele>1079</ele>
      <time>2026-05-07T10:17:36Z</time>
    </trkpt>
    <trkpt lat="50.23906" lon="16.983501">
      <ele>1080</ele>
      <time>2026-05-07T10:17:53Z</time>
    </trkpt>
    <trkpt lat="50.239017" lon="16.983275">
      <ele>1080</ele>
      <time>2026-05-07T10:18:13Z</time>
    </trkpt>
    <trkpt lat="50.238955" lon="16.982981">
      <ele>1081</ele>
      <time>2026-05-07T10:18:41Z</time>
    </trkpt>
    <trkpt lat="50.238942" lon="16.98283">
      <ele>1081</ele>
      <time>2026-05-07T10:18:54Z</time>
    </trkpt>
    <trkpt lat="50.238944" lon="16.982527">
      <ele>1081</ele>
      <time>2026-05-07T10:19:21Z</time>
    </trkpt>
    <trkpt lat="50.238923" lon="16.982342">
      <ele>1081</ele>
      <time>2026-05-07T10:19:38Z</time>
    </trkpt>
    <trkpt lat="50.238863" lon="16.982052">
      <ele>1081</ele>
      <time>2026-05-07T10:20:04Z</time>
    </trkpt>
    <trkpt lat="50.238789" lon="16.981788">
      <ele>1082</ele>
      <time>2026-05-07T10:20:30Z</time>
    </trkpt>
    <trkpt lat="50.238788" lon="16.981639">
      <ele>1083</ele>
      <time>2026-05-07T10:20:43Z</time>
    </trkpt>
    <trkpt lat="50.23875" lon="16.981427">
      <ele>1082</ele>
      <time>2026-05-07T10:21:03Z</time>
    </trkpt>
    <trkpt lat="50.238674" lon="16.981132">
      <ele>1082</ele>
      <time>2026-05-07T10:21:31Z</time>
    </trkpt>
    <trkpt lat="50.238673" lon="16.980947">
      <ele>1083</ele>
      <time>2026-05-07T10:21:47Z</time>
    </trkpt>
    <trkpt lat="50.238652" lon="16.980835">
      <ele>1083</ele>
      <time>2026-05-07T10:21:57Z</time>
    </trkpt>
    <trkpt lat="50.238768" lon="16.980821">
      <ele>1083</ele>
      <time>2026-05-07T10:22:13Z</time>
    </trkpt>
    <trkpt lat="50.238867" lon="16.980794">
      <ele>1083</ele>
      <time>2026-05-07T10:22:27Z</time>
    </trkpt>
    <trkpt lat="50.238969" lon="16.980786">
      <ele>1083</ele>
      <time>2026-05-07T10:22:41Z</time>
    </trkpt>
    <trkpt lat="50.239124" lon="16.980808">
      <ele>1083</ele>
      <time>2026-05-07T10:23:03Z</time>
    </trkpt>
    <trkpt lat="50.239424" lon="16.980842">
      <ele>1082</ele>
      <time>2026-05-07T10:23:44Z</time>
    </trkpt>
    <trkpt lat="50.239599" lon="16.980802">
      <ele>1082</ele>
      <time>2026-05-07T10:24:09Z</time>
    </trkpt>
    <trkpt lat="50.239738" lon="16.980722">
      <ele>1082</ele>
      <time>2026-05-07T10:24:29Z</time>
    </trkpt>
    <trkpt lat="50.239906" lon="16.980676">
      <ele>1081</ele>
      <time>2026-05-07T10:24:53Z</time>
    </trkpt>
    <trkpt lat="50.240038" lon="16.980676">
      <ele>1080</ele>
      <time>2026-05-07T10:25:11Z</time>
    </trkpt>
    <trkpt lat="50.240201" lon="16.980708">
      <ele>1079</ele>
      <time>2026-05-07T10:25:34Z</time>
    </trkpt>
    <trkpt lat="50.240356" lon="16.980682">
      <ele>1078</ele>
      <time>2026-05-07T10:25:55Z</time>
    </trkpt>
    <trkpt lat="50.240513" lon="16.980588">
      <ele>1077</ele>
      <time>2026-05-07T10:26:18Z</time>
    </trkpt>
    <trkpt lat="50.240747" lon="16.980397">
      <ele>1076</ele>
      <time>2026-05-07T10:26:55Z</time>
    </trkpt>
    <trkpt lat="50.24086" lon="16.980328">
      <ele>1076</ele>
      <time>2026-05-07T10:27:12Z</time>
    </trkpt>
    <trkpt lat="50.241007" lon="16.980172">
      <ele>1075</ele>
      <time>2026-05-07T10:27:36Z</time>
    </trkpt>
    <trkpt lat="50.241128" lon="16.980094">
      <ele>1074</ele>
      <time>2026-05-07T10:27:54Z</time>
    </trkpt>
    <trkpt lat="50.241266" lon="16.980113">
      <ele>1074</ele>
      <time>2026-05-07T10:28:13Z</time>
    </trkpt>
    <trkpt lat="50.241424" lon="16.980225">
      <ele>1073</ele>
      <time>2026-05-07T10:28:37Z</time>
    </trkpt>
    <trkpt lat="50.24156" lon="16.980317">
      <ele>1074</ele>
      <time>2026-05-07T10:28:58Z</time>
    </trkpt>
    <trkpt lat="50.241658" lon="16.980328">
      <ele>1074</ele>
      <time>2026-05-07T10:29:11Z</time>
    </trkpt>
    <trkpt lat="50.241718" lon="16.980317">
      <ele>1075</ele>
      <time>2026-05-07T10:29:20Z</time>
    </trkpt>
    <trkpt lat="50.241843" lon="16.980228">
      <ele>1075</ele>
      <time>2026-05-07T10:29:39Z</time>
    </trkpt>
    <trkpt lat="50.242001" lon="16.980132">
      <ele>1077</ele>
      <time>2026-05-07T10:30:02Z</time>
    </trkpt>
    <trkpt lat="50.242133" lon="16.980035">
      <ele>1078</ele>
      <time>2026-05-07T10:30:22Z</time>
    </trkpt>
    <trkpt lat="50.242229" lon="16.979982">
      <ele>1079</ele>
      <time>2026-05-07T10:30:37Z</time>
    </trkpt>
    <trkpt lat="50.242358" lon="16.979917">
      <ele>1081</ele>
      <time>2026-05-07T10:30:55Z</time>
    </trkpt>
    <trkpt lat="50.242462" lon="16.979815">
      <ele>1082</ele>
      <time>2026-05-07T10:31:12Z</time>
    </trkpt>
    <trkpt lat="50.242601" lon="16.979719">
      <ele>1084</ele>
      <time>2026-05-07T10:31:34Z</time>
    </trkpt>
    <trkpt lat="50.242688" lon="16.979598">
      <ele>1085</ele>
      <time>2026-05-07T10:31:50Z</time>
    </trkpt>
    <trkpt lat="50.242774" lon="16.979488">
      <ele>1086</ele>
      <time>2026-05-07T10:32:05Z</time>
    </trkpt>
    <trkpt lat="50.243074" lon="16.979041">
      <ele>1092</ele>
      <time>2026-05-07T10:33:03Z</time>
    </trkpt>
    <trkpt lat="50.24314" lon="16.978855">
      <ele>1093</ele>
      <time>2026-05-07T10:33:22Z</time>
    </trkpt>
    <trkpt lat="50.243222" lon="16.978734">
      <ele>1094</ele>
      <time>2026-05-07T10:33:37Z</time>
    </trkpt>
    <trkpt lat="50.243272" lon="16.978595">
      <ele>1095</ele>
      <time>2026-05-07T10:33:51Z</time>
    </trkpt>
    <trkpt lat="50.243337" lon="16.978461">
      <ele>1097</ele>
      <time>2026-05-07T10:34:06Z</time>
    </trkpt>
    <trkpt lat="50.24343" lon="16.97827">
      <ele>1098</ele>
      <time>2026-05-07T10:34:28Z</time>
    </trkpt>
    <trkpt lat="50.243495" lon="16.978179">
      <ele>1099</ele>
      <time>2026-05-07T10:34:40Z</time>
    </trkpt>
    <trkpt lat="50.243627" lon="16.978072">
      <ele>1100</ele>
      <time>2026-05-07T10:35:00Z</time>
    </trkpt>
    <trkpt lat="50.243718" lon="16.977965">
      <ele>1101</ele>
      <time>2026-05-07T10:35:16Z</time>
    </trkpt>
    <trkpt lat="50.243805" lon="16.977916">
      <ele>1102</ele>
      <time>2026-05-07T10:35:29Z</time>
    </trkpt>
    <trkpt lat="50.244003" lon="16.9778">
      <ele>1102</ele>
      <time>2026-05-07T10:35:58Z</time>
    </trkpt>
    <trkpt lat="50.244011" lon="16.977794">
      <ele>1102</ele>
      <time>2026-05-07T10:35:59Z</time>
    </trkpt>
    <trkpt lat="50.244105" lon="16.977721">
      <ele>1102</ele>
      <time>2026-05-07T10:36:14Z</time>
    </trkpt>
    <trkpt lat="50.244236" lon="16.977691">
      <ele>1102</ele>
      <time>2026-05-07T10:36:32Z</time>
    </trkpt>
    <trkpt lat="50.244335" lon="16.977667">
      <ele>1102</ele>
      <time>2026-05-07T10:36:46Z</time>
    </trkpt>
    <trkpt lat="50.244421" lon="16.977578">
      <ele>1102</ele>
      <time>2026-05-07T10:37:00Z</time>
    </trkpt>
    <trkpt lat="50.244569" lon="16.977354">
      <ele>1103</ele>
      <time>2026-05-07T10:37:28Z</time>
    </trkpt>
    <trkpt lat="50.244691" lon="16.977112">
      <ele>1104</ele>
      <time>2026-05-07T10:37:56Z</time>
    </trkpt>
    <trkpt lat="50.24477" lon="16.976879">
      <ele>1105</ele>
      <time>2026-05-07T10:38:19Z</time>
    </trkpt>
    <trkpt lat="50.244815" lon="16.976625">
      <ele>1106</ele>
      <time>2026-05-07T10:38:59Z</time>
    </trkpt>
    <trkpt lat="50.2448256" lon="16.9764959">
      <ele>1105</ele>
      <time>2026-05-07T10:39:19Z</time>
    </trkpt>
    <trkpt lat="50.244815" lon="16.976625">
      <ele>1106</ele>
      <time>2026-05-07T10:39:39Z</time>
    </trkpt>
    <trkpt lat="50.24477" lon="16.976879">
      <ele>1105</ele>
      <time>2026-05-07T10:40:19Z</time>
    </trkpt>
    <trkpt lat="50.244691" lon="16.977112">
      <ele>1104</ele>
      <time>2026-05-07T10:40:37Z</time>
    </trkpt>
    <trkpt lat="50.244569" lon="16.977354">
      <ele>1103</ele>
      <time>2026-05-07T10:40:58Z</time>
    </trkpt>
    <trkpt lat="50.244421" lon="16.977578">
      <ele>1102</ele>
      <time>2026-05-07T10:41:20Z</time>
    </trkpt>
    <trkpt lat="50.244335" lon="16.977667">
      <ele>1102</ele>
      <time>2026-05-07T10:41:32Z</time>
    </trkpt>
    <trkpt lat="50.244236" lon="16.977691">
      <ele>1102</ele>
      <time>2026-05-07T10:41:42Z</time>
    </trkpt>
    <trkpt lat="50.244105" lon="16.977721">
      <ele>1102</ele>
      <time>2026-05-07T10:41:57Z</time>
    </trkpt>
    <trkpt lat="50.244011" lon="16.977794">
      <ele>1102</ele>
      <time>2026-05-07T10:42:08Z</time>
    </trkpt>
    <trkpt lat="50.244003" lon="16.9778">
      <ele>1102</ele>
      <time>2026-05-07T10:42:09Z</time>
    </trkpt>
    <trkpt lat="50.243805" lon="16.977916">
      <ele>1102</ele>
      <time>2026-05-07T10:42:31Z</time>
    </trkpt>
    <trkpt lat="50.243718" lon="16.977965">
      <ele>1101</ele>
      <time>2026-05-07T10:42:41Z</time>
    </trkpt>
    <trkpt lat="50.243627" lon="16.978072">
      <ele>1100</ele>
      <time>2026-05-07T10:42:54Z</time>
    </trkpt>
    <trkpt lat="50.243495" lon="16.978179">
      <ele>1099</ele>
      <time>2026-05-07T10:43:10Z</time>
    </trkpt>
    <trkpt lat="50.24343" lon="16.97827">
      <ele>1098</ele>
      <time>2026-05-07T10:43:19Z</time>
    </trkpt>
    <trkpt lat="50.243337" lon="16.978461">
      <ele>1097</ele>
      <time>2026-05-07T10:43:36Z</time>
    </trkpt>
    <trkpt lat="50.243272" lon="16.978595">
      <ele>1095</ele>
      <time>2026-05-07T10:43:47Z</time>
    </trkpt>
    <trkpt lat="50.243222" lon="16.978734">
      <ele>1094</ele>
      <time>2026-05-07T10:43:58Z</time>
    </trkpt>
    <trkpt lat="50.24314" lon="16.978855">
      <ele>1093</ele>
      <time>2026-05-07T10:44:10Z</time>
    </trkpt>
    <trkpt lat="50.243074" lon="16.979041">
      <ele>1092</ele>
      <time>2026-05-07T10:44:25Z</time>
    </trkpt>
    <trkpt lat="50.242774" lon="16.979488">
      <ele>1086</ele>
      <time>2026-05-07T10:45:10Z</time>
    </trkpt>
    <trkpt lat="50.242688" lon="16.979598">
      <ele>1085</ele>
      <time>2026-05-07T10:45:22Z</time>
    </trkpt>
    <trkpt lat="50.242601" lon="16.979719">
      <ele>1084</ele>
      <time>2026-05-07T10:45:34Z</time>
    </trkpt>
    <trkpt lat="50.242462" lon="16.979815">
      <ele>1082</ele>
      <time>2026-05-07T10:45:51Z</time>
    </trkpt>
    <trkpt lat="50.242358" lon="16.979917">
      <ele>1081</ele>
      <time>2026-05-07T10:46:04Z</time>
    </trkpt>
    <trkpt lat="50.242229" lon="16.979982">
      <ele>1079</ele>
      <time>2026-05-07T10:46:19Z</time>
    </trkpt>
    <trkpt lat="50.242133" lon="16.980035">
      <ele>1078</ele>
      <time>2026-05-07T10:46:30Z</time>
    </trkpt>
    <trkpt lat="50.242001" lon="16.980132">
      <ele>1077</ele>
      <time>2026-05-07T10:46:45Z</time>
    </trkpt>
    <trkpt lat="50.241843" lon="16.980228">
      <ele>1075</ele>
      <time>2026-05-07T10:47:04Z</time>
    </trkpt>
    <trkpt lat="50.241718" lon="16.980317">
      <ele>1075</ele>
      <time>2026-05-07T10:47:18Z</time>
    </trkpt>
    <trkpt lat="50.241658" lon="16.980328">
      <ele>1074</ele>
      <time>2026-05-07T10:47:25Z</time>
    </trkpt>
    <trkpt lat="50.24156" lon="16.980317">
      <ele>1074</ele>
      <time>2026-05-07T10:47:35Z</time>
    </trkpt>
    <trkpt lat="50.241424" lon="16.980225">
      <ele>1073</ele>
      <time>2026-05-07T10:47:51Z</time>
    </trkpt>
    <trkpt lat="50.241266" lon="16.980113">
      <ele>1074</ele>
      <time>2026-05-07T10:48:10Z</time>
    </trkpt>
    <trkpt lat="50.241128" lon="16.980094">
      <ele>1074</ele>
      <time>2026-05-07T10:48:25Z</time>
    </trkpt>
    <trkpt lat="50.241007" lon="16.980172">
      <ele>1075</ele>
      <time>2026-05-07T10:48:39Z</time>
    </trkpt>
    <trkpt lat="50.24086" lon="16.980328">
      <ele>1076</ele>
      <time>2026-05-07T10:48:58Z</time>
    </trkpt>
    <trkpt lat="50.240747" lon="16.980397">
      <ele>1076</ele>
      <time>2026-05-07T10:49:11Z</time>
    </trkpt>
    <trkpt lat="50.240513" lon="16.980588">
      <ele>1077</ele>
      <time>2026-05-07T10:49:39Z</time>
    </trkpt>
    <trkpt lat="50.240356" lon="16.980682">
      <ele>1078</ele>
      <time>2026-05-07T10:49:57Z</time>
    </trkpt>
    <trkpt lat="50.240201" lon="16.980708">
      <ele>1079</ele>
      <time>2026-05-07T10:50:14Z</time>
    </trkpt>
    <trkpt lat="50.240038" lon="16.980676">
      <ele>1080</ele>
      <time>2026-05-07T10:50:32Z</time>
    </trkpt>
    <trkpt lat="50.239906" lon="16.980676">
      <ele>1081</ele>
      <time>2026-05-07T10:50:46Z</time>
    </trkpt>
    <trkpt lat="50.239738" lon="16.980722">
      <ele>1082</ele>
      <time>2026-05-07T10:51:04Z</time>
    </trkpt>
    <trkpt lat="50.239599" lon="16.980802">
      <ele>1082</ele>
      <time>2026-05-07T10:51:20Z</time>
    </trkpt>
    <trkpt lat="50.239424" lon="16.980842">
      <ele>1082</ele>
      <time>2026-05-07T10:51:39Z</time>
    </trkpt>
    <trkpt lat="50.239124" lon="16.980808">
      <ele>1083</ele>
      <time>2026-05-07T10:52:12Z</time>
    </trkpt>
    <trkpt lat="50.238969" lon="16.980786">
      <ele>1083</ele>
      <time>2026-05-07T10:52:28Z</time>
    </trkpt>
    <trkpt lat="50.238867" lon="16.980794">
      <ele>1083</ele>
      <time>2026-05-07T10:52:39Z</time>
    </trkpt>
    <trkpt lat="50.238768" lon="16.980821">
      <ele>1083</ele>
      <time>2026-05-07T10:52:50Z</time>
    </trkpt>
    <trkpt lat="50.238652" lon="16.980835">
      <ele>1083</ele>
      <time>2026-05-07T10:53:03Z</time>
    </trkpt>
    <trkpt lat="50.238673" lon="16.980947">
      <ele>1083</ele>
      <time>2026-05-07T10:53:11Z</time>
    </trkpt>
    <trkpt lat="50.238674" lon="16.981132">
      <ele>1082</ele>
      <time>2026-05-07T10:53:23Z</time>
    </trkpt>
    <trkpt lat="50.23875" lon="16.981427">
      <ele>1082</ele>
      <time>2026-05-07T10:53:45Z</time>
    </trkpt>
    <trkpt lat="50.238788" lon="16.981639">
      <ele>1083</ele>
      <time>2026-05-07T10:54:00Z</time>
    </trkpt>
    <trkpt lat="50.238789" lon="16.981788">
      <ele>1082</ele>
      <time>2026-05-07T10:54:11Z</time>
    </trkpt>
    <trkpt lat="50.238863" lon="16.982052">
      <ele>1081</ele>
      <time>2026-05-07T10:54:30Z</time>
    </trkpt>
    <trkpt lat="50.238923" lon="16.982342">
      <ele>1081</ele>
      <time>2026-05-07T10:54:51Z</time>
    </trkpt>
    <trkpt lat="50.238944" lon="16.982527">
      <ele>1081</ele>
      <time>2026-05-07T10:55:04Z</time>
    </trkpt>
    <trkpt lat="50.238942" lon="16.98283">
      <ele>1081</ele>
      <time>2026-05-07T10:55:25Z</time>
    </trkpt>
    <trkpt lat="50.238955" lon="16.982981">
      <ele>1081</ele>
      <time>2026-05-07T10:55:35Z</time>
    </trkpt>
    <trkpt lat="50.239017" lon="16.983275">
      <ele>1080</ele>
      <time>2026-05-07T10:55:57Z</time>
    </trkpt>
    <trkpt lat="50.23906" lon="16.983501">
      <ele>1080</ele>
      <time>2026-05-07T10:56:13Z</time>
    </trkpt>
    <trkpt lat="50.239079" lon="16.983689">
      <ele>1079</ele>
      <time>2026-05-07T10:56:26Z</time>
    </trkpt>
    <trkpt lat="50.239194" lon="16.984051">
      <ele>1078</ele>
      <time>2026-05-07T10:56:54Z</time>
    </trkpt>
    <trkpt lat="50.239268" lon="16.98427">
      <ele>1077</ele>
      <time>2026-05-07T10:57:11Z</time>
    </trkpt>
    <trkpt lat="50.239301" lon="16.984421">
      <ele>1076</ele>
      <time>2026-05-07T10:57:22Z</time>
    </trkpt>
    <trkpt lat="50.239343" lon="16.984681">
      <ele>1073</ele>
      <time>2026-05-07T10:57:40Z</time>
    </trkpt>
    <trkpt lat="50.23946" lon="16.984947">
      <ele>1071</ele>
      <time>2026-05-07T10:58:03Z</time>
    </trkpt>
    <trkpt lat="50.239562" lon="16.985102">
      <ele>1070</ele>
      <time>2026-05-07T10:58:18Z</time>
    </trkpt>
    <trkpt lat="50.239712" lon="16.985268">
      <ele>1069</ele>
      <time>2026-05-07T10:58:38Z</time>
    </trkpt>
    <trkpt lat="50.239904" lon="16.985538">
      <ele>1068</ele>
      <time>2026-05-07T10:59:05Z</time>
    </trkpt>
    <trkpt lat="50.240064" lon="16.985679">
      <ele>1067</ele>
      <time>2026-05-07T10:59:25Z</time>
    </trkpt>
    <trkpt lat="50.240125" lon="16.985758">
      <ele>1067</ele>
      <time>2026-05-07T10:59:34Z</time>
    </trkpt>
    <trkpt lat="50.240389" lon="16.98615">
      <ele>1063</ele>
      <time>2026-05-07T11:00:13Z</time>
    </trkpt>
    <trkpt lat="50.240687" lon="16.986553">
      <ele>1057</ele>
      <time>2026-05-07T11:00:56Z</time>
    </trkpt>
    <trkpt lat="50.240811" lon="16.986795">
      <ele>1054</ele>
      <time>2026-05-07T11:01:17Z</time>
    </trkpt>
    <trkpt lat="50.241048" lon="16.987078">
      <ele>1051</ele>
      <time>2026-05-07T11:01:49Z</time>
    </trkpt>
    <trkpt lat="50.24118" lon="16.987384">
      <ele>1049</ele>
      <time>2026-05-07T11:02:15Z</time>
    </trkpt>
    <trkpt lat="50.24129" lon="16.987566">
      <ele>1047</ele>
      <time>2026-05-07T11:02:32Z</time>
    </trkpt>
    <trkpt lat="50.241515" lon="16.987786">
      <ele>1045</ele>
      <time>2026-05-07T11:03:01Z</time>
    </trkpt>
    <trkpt lat="50.241675" lon="16.988045">
      <ele>1042</ele>
      <time>2026-05-07T11:03:25Z</time>
    </trkpt>
    <trkpt lat="50.241888" lon="16.988293">
      <ele>1041</ele>
      <time>2026-05-07T11:03:54Z</time>
    </trkpt>
    <trkpt lat="50.242031" lon="16.988536">
      <ele>1041</ele>
      <time>2026-05-07T11:04:17Z</time>
    </trkpt>
    <trkpt lat="50.242128" lon="16.988658">
      <ele>1041</ele>
      <time>2026-05-07T11:04:30Z</time>
    </trkpt>
    <trkpt lat="50.242347" lon="16.988842">
      <ele>1040</ele>
      <time>2026-05-07T11:04:57Z</time>
    </trkpt>
    <trkpt lat="50.242645" lon="16.989032">
      <ele>1041</ele>
      <time>2026-05-07T11:05:31Z</time>
    </trkpt>
    <trkpt lat="50.242985" lon="16.989324">
      <ele>1040</ele>
      <time>2026-05-07T11:06:13Z</time>
    </trkpt>
    <trkpt lat="50.243083" lon="16.98945">
      <ele>1039</ele>
      <time>2026-05-07T11:06:27Z</time>
    </trkpt>
    <trkpt lat="50.243165" lon="16.989648">
      <ele>1038</ele>
      <time>2026-05-07T11:06:43Z</time>
    </trkpt>
    <trkpt lat="50.243211" lon="16.989899">
      <ele>1036</ele>
      <time>2026-05-07T11:07:01Z</time>
    </trkpt>
    <trkpt lat="50.243297" lon="16.990122">
      <ele>1035</ele>
      <time>2026-05-07T11:07:19Z</time>
    </trkpt>
    <trkpt lat="50.243364" lon="16.990453">
      <ele>1032</ele>
      <time>2026-05-07T11:07:43Z</time>
    </trkpt>
    <trkpt lat="50.243527" lon="16.990884">
      <ele>1029</ele>
      <time>2026-05-07T11:08:17Z</time>
    </trkpt>
    <trkpt lat="50.243544" lon="16.991066">
      <ele>1027</ele>
      <time>2026-05-07T11:08:30Z</time>
    </trkpt>
    <trkpt lat="50.243576" lon="16.991185">
      <ele>1026</ele>
      <time>2026-05-07T11:08:39Z</time>
    </trkpt>
    <trkpt lat="50.243646" lon="16.99137">
      <ele>1026</ele>
      <time>2026-05-07T11:08:54Z</time>
    </trkpt>
    <trkpt lat="50.243786" lon="16.991626">
      <ele>1025</ele>
      <time>2026-05-07T11:09:17Z</time>
    </trkpt>
    <trkpt lat="50.244059" lon="16.992068">
      <ele>1025</ele>
      <time>2026-05-07T11:09:59Z</time>
    </trkpt>
    <trkpt lat="50.244112" lon="16.992175">
      <ele>1025</ele>
      <time>2026-05-07T11:10:08Z</time>
    </trkpt>
    <trkpt lat="50.244135" lon="16.992311">
      <ele>1024</ele>
      <time>2026-05-07T11:10:18Z</time>
    </trkpt>
    <trkpt lat="50.244201" lon="16.992401">
      <ele>1024</ele>
      <time>2026-05-07T11:10:27Z</time>
    </trkpt>
    <trkpt lat="50.244382" lon="16.992547">
      <ele>1024</ele>
      <time>2026-05-07T11:10:49Z</time>
    </trkpt>
    <trkpt lat="50.244541" lon="16.992668">
      <ele>1024</ele>
      <time>2026-05-07T11:11:08Z</time>
    </trkpt>
    <trkpt lat="50.244642" lon="16.99269">
      <ele>1024</ele>
      <time>2026-05-07T11:11:19Z</time>
    </trkpt>
    <trkpt lat="50.244778" lon="16.992725">
      <ele>1024</ele>
      <time>2026-05-07T11:11:34Z</time>
    </trkpt>
    <trkpt lat="50.244869" lon="16.992792">
      <ele>1023</ele>
      <time>2026-05-07T11:11:45Z</time>
    </trkpt>
    <trkpt lat="50.245006" lon="16.992885">
      <ele>1022</ele>
      <time>2026-05-07T11:12:01Z</time>
    </trkpt>
    <trkpt lat="50.245107" lon="16.992877">
      <ele>1021</ele>
      <time>2026-05-07T11:12:12Z</time>
    </trkpt>
    <trkpt lat="50.245227" lon="16.992835">
      <ele>1021</ele>
      <time>2026-05-07T11:12:25Z</time>
    </trkpt>
    <trkpt lat="50.245298" lon="16.992784">
      <ele>1021</ele>
      <time>2026-05-07T11:12:33Z</time>
    </trkpt>
    <trkpt lat="50.245395" lon="16.992752">
      <ele>1020</ele>
      <time>2026-05-07T11:12:44Z</time>
    </trkpt>
    <trkpt lat="50.245505" lon="16.992682">
      <ele>1019</ele>
      <time>2026-05-07T11:12:57Z</time>
    </trkpt>
    <trkpt lat="50.245641" lon="16.992528">
      <ele>1018</ele>
      <time>2026-05-07T11:13:15Z</time>
    </trkpt>
    <trkpt lat="50.245891" lon="16.992293">
      <ele>1011</ele>
      <time>2026-05-07T11:13:47Z</time>
    </trkpt>
    <trkpt lat="50.246099" lon="16.992049">
      <ele>1007</ele>
      <time>2026-05-07T11:14:15Z</time>
    </trkpt>
    <trkpt lat="50.246233" lon="16.991872">
      <ele>1005</ele>
      <time>2026-05-07T11:14:34Z</time>
    </trkpt>
    <trkpt lat="50.24632" lon="16.991801">
      <ele>1003</ele>
      <time>2026-05-07T11:14:45Z</time>
    </trkpt>
    <trkpt lat="50.246382" lon="16.991749">
      <ele>1002</ele>
      <time>2026-05-07T11:14:52Z</time>
    </trkpt>
    <trkpt lat="50.246459" lon="16.991711">
      <ele>1000</ele>
      <time>2026-05-07T11:15:01Z</time>
    </trkpt>
    <trkpt lat="50.246606" lon="16.991598">
      <ele>997</ele>
      <time>2026-05-07T11:15:19Z</time>
    </trkpt>
    <trkpt lat="50.246841" lon="16.991456">
      <ele>995</ele>
      <time>2026-05-07T11:15:43Z</time>
    </trkpt>
    <trkpt lat="50.246977" lon="16.991411">
      <ele>993</ele>
      <time>2026-05-07T11:15:56Z</time>
    </trkpt>
    <trkpt lat="50.247075" lon="16.991378">
      <ele>991</ele>
      <time>2026-05-07T11:16:06Z</time>
    </trkpt>
    <trkpt lat="50.247229" lon="16.991327">
      <ele>988</ele>
      <time>2026-05-07T11:16:21Z</time>
    </trkpt>
    <trkpt lat="50.247397" lon="16.991322">
      <ele>983</ele>
      <time>2026-05-07T11:16:37Z</time>
    </trkpt>
    <trkpt lat="50.24755" lon="16.991394">
      <ele>979</ele>
      <time>2026-05-07T11:16:53Z</time>
    </trkpt>
    <trkpt lat="50.247641" lon="16.991451">
      <ele>976</ele>
      <time>2026-05-07T11:17:02Z</time>
    </trkpt>
    <trkpt lat="50.247706" lon="16.991523">
      <ele>974</ele>
      <time>2026-05-07T11:17:10Z</time>
    </trkpt>
    <trkpt lat="50.247778" lon="16.991732">
      <ele>971</ele>
      <time>2026-05-07T11:17:24Z</time>
    </trkpt>
    <trkpt lat="50.247795" lon="16.991998">
      <ele>968</ele>
      <time>2026-05-07T11:17:41Z</time>
    </trkpt>
    <trkpt lat="50.247774" lon="16.992207">
      <ele>966</ele>
      <time>2026-05-07T11:17:54Z</time>
    </trkpt>
    <trkpt lat="50.247795" lon="16.992368">
      <ele>964</ele>
      <time>2026-05-07T11:18:04Z</time>
    </trkpt>
    <trkpt lat="50.247881" lon="16.992609">
      <ele>959</ele>
      <time>2026-05-07T11:18:21Z</time>
    </trkpt>
    <trkpt lat="50.247961" lon="16.992813">
      <ele>954</ele>
      <time>2026-05-07T11:18:36Z</time>
    </trkpt>
    <trkpt lat="50.248045" lon="16.992953">
      <ele>951</ele>
      <time>2026-05-07T11:18:48Z</time>
    </trkpt>
    <trkpt lat="50.248117" lon="16.993036">
      <ele>949</ele>
      <time>2026-05-07T11:18:57Z</time>
    </trkpt>
    <trkpt lat="50.248205" lon="16.993076">
      <ele>947</ele>
      <time>2026-05-07T11:19:05Z</time>
    </trkpt>
    <trkpt lat="50.248299" lon="16.993082">
      <ele>945</ele>
      <time>2026-05-07T11:19:14Z</time>
    </trkpt>
    <trkpt lat="50.248417" lon="16.993052">
      <ele>943</ele>
      <time>2026-05-07T11:19:26Z</time>
    </trkpt>
    <trkpt lat="50.248543" lon="16.993006">
      <ele>940</ele>
      <time>2026-05-07T11:19:38Z</time>
    </trkpt>
    <trkpt lat="50.248671" lon="16.992993">
      <ele>937</ele>
      <time>2026-05-07T11:19:51Z</time>
    </trkpt>
    <trkpt lat="50.248783" lon="16.993004">
      <ele>934</ele>
      <time>2026-05-07T11:20:02Z</time>
    </trkpt>
    <trkpt lat="50.248914" lon="16.993123">
      <ele>930</ele>
      <time>2026-05-07T11:20:16Z</time>
    </trkpt>
    <trkpt lat="50.248939" lon="16.993066">
      <ele>930</ele>
      <time>2026-05-07T11:20:20Z</time>
    </trkpt>
    <trkpt lat="50.249087" lon="16.993181">
      <ele>928</ele>
      <time>2026-05-07T11:20:36Z</time>
    </trkpt>
    <trkpt lat="50.249184" lon="16.993269">
      <ele>926</ele>
      <time>2026-05-07T11:20:47Z</time>
    </trkpt>
    <trkpt lat="50.24932" lon="16.993366">
      <ele>922</ele>
      <time>2026-05-07T11:21:01Z</time>
    </trkpt>
    <trkpt lat="50.2495" lon="16.993457">
      <ele>916</ele>
      <time>2026-05-07T11:21:20Z</time>
    </trkpt>
    <trkpt lat="50.249647" lon="16.993538">
      <ele>911</ele>
      <time>2026-05-07T11:21:35Z</time>
    </trkpt>
    <trkpt lat="50.249819" lon="16.993665">
      <ele>906</ele>
      <time>2026-05-07T11:21:54Z</time>
    </trkpt>
    <trkpt lat="50.249987" lon="16.993827">
      <ele>902</ele>
      <time>2026-05-07T11:22:13Z</time>
    </trkpt>
    <trkpt lat="50.250025" lon="16.993895">
      <ele>901</ele>
      <time>2026-05-07T11:22:18Z</time>
    </trkpt>
    <trkpt lat="50.250078" lon="16.993991">
      <ele>900</ele>
      <time>2026-05-07T11:22:26Z</time>
    </trkpt>
    <trkpt lat="50.250127" lon="16.994103">
      <ele>898</ele>
      <time>2026-05-07T11:22:34Z</time>
    </trkpt>
    <trkpt lat="50.25022" lon="16.994275">
      <ele>895</ele>
      <time>2026-05-07T11:22:48Z</time>
    </trkpt>
    <trkpt lat="50.250428" lon="16.994495">
      <ele>890</ele>
      <time>2026-05-07T11:23:12Z</time>
    </trkpt>
    <trkpt lat="50.250969" lon="16.994866">
      <ele>876</ele>
      <time>2026-05-07T11:24:09Z</time>
    </trkpt>
    <trkpt lat="50.251011" lon="16.994894">
      <ele>875</ele>
      <time>2026-05-07T11:24:14Z</time>
    </trkpt>
    <trkpt lat="50.251282" lon="16.994954">
      <ele>868</ele>
      <time>2026-05-07T11:24:40Z</time>
    </trkpt>
    <trkpt lat="50.251621" lon="16.995056">
      <ele>862</ele>
      <time>2026-05-07T11:25:13Z</time>
    </trkpt>
    <trkpt lat="50.251736" lon="16.995088">
      <ele>860</ele>
      <time>2026-05-07T11:25:24Z</time>
    </trkpt>
    <trkpt lat="50.251863" lon="16.995171">
      <ele>857</ele>
      <time>2026-05-07T11:25:38Z</time>
    </trkpt>
    <trkpt lat="50.252019" lon="16.995203">
      <ele>853</ele>
      <time>2026-05-07T11:25:53Z</time>
    </trkpt>
    <trkpt lat="50.252119" lon="16.995243">
      <ele>851</ele>
      <time>2026-05-07T11:26:03Z</time>
    </trkpt>
    <trkpt lat="50.252229" lon="16.995332">
      <ele>848</ele>
      <time>2026-05-07T11:26:15Z</time>
    </trkpt>
    <trkpt lat="50.252385" lon="16.995493">
      <ele>844</ele>
      <time>2026-05-07T11:26:33Z</time>
    </trkpt>
    <trkpt lat="50.252551" lon="16.995707">
      <ele>840</ele>
      <time>2026-05-07T11:26:53Z</time>
    </trkpt>
    <trkpt lat="50.252642" lon="16.995721">
      <ele>837</ele>
      <time>2026-05-07T11:27:02Z</time>
    </trkpt>
    <trkpt lat="50.25283" lon="16.99571">
      <ele>832</ele>
      <time>2026-05-07T11:27:20Z</time>
    </trkpt>
    <trkpt lat="50.253057" lon="16.995723">
      <ele>824</ele>
      <time>2026-05-07T11:27:43Z</time>
    </trkpt>
    <trkpt lat="50.253203" lon="16.995761">
      <ele>820</ele>
      <time>2026-05-07T11:27:57Z</time>
    </trkpt>
    <trkpt lat="50.253345" lon="16.995839">
      <ele>816</ele>
      <time>2026-05-07T11:28:12Z</time>
    </trkpt>
    <trkpt lat="50.253575" lon="16.99608">
      <ele>813</ele>
      <time>2026-05-07T11:28:38Z</time>
    </trkpt>
    <trkpt lat="50.253826" lon="16.996437">
      <ele>805</ele>
      <time>2026-05-07T11:29:11Z</time>
    </trkpt>
    <trkpt lat="50.253941" lon="16.996637">
      <ele>800</ele>
      <time>2026-05-07T11:29:28Z</time>
    </trkpt>
    <trkpt lat="50.254153" lon="16.996711">
      <ele>797</ele>
      <time>2026-05-07T11:29:49Z</time>
    </trkpt>
    <trkpt lat="50.254269" lon="16.996729">
      <ele>795</ele>
      <time>2026-05-07T11:30:00Z</time>
    </trkpt>
    <trkpt lat="50.254343" lon="16.99677">
      <ele>794</ele>
      <time>2026-05-07T11:30:07Z</time>
    </trkpt>
    <trkpt lat="50.254446" lon="16.996882">
      <ele>792</ele>
      <time>2026-05-07T11:30:19Z</time>
    </trkpt>
    <trkpt lat="50.254568" lon="16.99664">
      <ele>792</ele>
      <time>2026-05-07T11:30:42Z</time>
    </trkpt>
    <trkpt lat="50.254768" lon="16.996128">
      <ele>793</ele>
      <time>2026-05-07T11:31:27Z</time>
    </trkpt>
    <trkpt lat="50.255108" lon="16.995593">
      <ele>788</ele>
      <time>2026-05-07T11:32:24Z</time>
    </trkpt>
    <trkpt lat="50.255436" lon="16.995125">
      <ele>783</ele>
      <time>2026-05-07T11:33:17Z</time>
    </trkpt>
    <trkpt lat="50.255583" lon="16.994841">
      <ele>778</ele>
      <time>2026-05-07T11:33:45Z</time>
    </trkpt>
    <trkpt lat="50.255636" lon="16.994648">
      <ele>776</ele>
      <time>2026-05-07T11:34:01Z</time>
    </trkpt>
    <trkpt lat="50.255667" lon="16.994344">
      <ele>775</ele>
      <time>2026-05-07T11:34:24Z</time>
    </trkpt>
    <trkpt lat="50.255765" lon="16.993886">
      <ele>775</ele>
      <time>2026-05-07T11:35:00Z</time>
    </trkpt>
    <trkpt lat="50.255888" lon="16.993634">
      <ele>776</ele>
      <time>2026-05-07T11:35:24Z</time>
    </trkpt>
    <trkpt lat="50.256255" lon="16.993055">
      <ele>774</ele>
      <time>2026-05-07T11:36:25Z</time>
    </trkpt>
    <trkpt lat="50.256358" lon="16.992741">
      <ele>773</ele>
      <time>2026-05-07T11:36:52Z</time>
    </trkpt>
    <trkpt lat="50.256428" lon="16.992474">
      <ele>776</ele>
      <time>2026-05-07T11:37:14Z</time>
    </trkpt>
    <trkpt lat="50.256566" lon="16.992132">
      <ele>776</ele>
      <time>2026-05-07T11:37:44Z</time>
    </trkpt>
    <trkpt lat="50.25678" lon="16.991936">
      <ele>772</ele>
      <time>2026-05-07T11:38:14Z</time>
    </trkpt>
    <trkpt lat="50.257224" lon="16.99166">
      <ele>766</ele>
      <time>2026-05-07T11:39:10Z</time>
    </trkpt>
    <trkpt lat="50.257477" lon="16.991468">
      <ele>767</ele>
      <time>2026-05-07T11:39:43Z</time>
    </trkpt>
    <trkpt lat="50.257593" lon="16.991389">
      <ele>767</ele>
      <time>2026-05-07T11:39:58Z</time>
    </trkpt>
    <trkpt lat="50.257727" lon="16.991316">
      <ele>767</ele>
      <time>2026-05-07T11:40:15Z</time>
    </trkpt>
    <trkpt lat="50.257975" lon="16.991149">
      <ele>766</ele>
      <time>2026-05-07T11:40:47Z</time>
    </trkpt>
    <trkpt lat="50.258452" lon="16.990743">
      <ele>771</ele>
      <time>2026-05-07T11:41:51Z</time>
    </trkpt>
    <trkpt lat="50.258566" lon="16.990669">
      <ele>771</ele>
      <time>2026-05-07T11:42:05Z</time>
    </trkpt>
    <trkpt lat="50.25875" lon="16.990603">
      <ele>768</ele>
      <time>2026-05-07T11:42:28Z</time>
    </trkpt>
    <trkpt lat="50.25897" lon="16.99052">
      <ele>764</ele>
      <time>2026-05-07T11:42:55Z</time>
    </trkpt>
    <trkpt lat="50.259163" lon="16.990358">
      <ele>762</ele>
      <time>2026-05-07T11:43:21Z</time>
    </trkpt>
    <trkpt lat="50.259371" lon="16.990116">
      <ele>758</ele>
      <time>2026-05-07T11:43:51Z</time>
    </trkpt>
    <trkpt lat="50.259541" lon="16.989988">
      <ele>756</ele>
      <time>2026-05-07T11:44:14Z</time>
    </trkpt>
    <trkpt lat="50.259915" lon="16.989805">
      <ele>758</ele>
      <time>2026-05-07T11:45:00Z</time>
    </trkpt>
    <trkpt lat="50.260084" lon="16.989763">
      <ele>759</ele>
      <time>2026-05-07T11:45:20Z</time>
    </trkpt>
    <trkpt lat="50.260182" lon="16.989753">
      <ele>760</ele>
      <time>2026-05-07T11:45:32Z</time>
    </trkpt>
    <trkpt lat="50.260246" lon="16.989796">
      <ele>760</ele>
      <time>2026-05-07T11:45:40Z</time>
    </trkpt>
    <trkpt lat="50.260475" lon="16.990095">
      <ele>760</ele>
      <time>2026-05-07T11:46:15Z</time>
    </trkpt>
    <trkpt lat="50.260651" lon="16.990249">
      <ele>760</ele>
      <time>2026-05-07T11:46:39Z</time>
    </trkpt>
    <trkpt lat="50.260859" lon="16.99036">
      <ele>758</ele>
      <time>2026-05-07T11:47:04Z</time>
    </trkpt>
    <trkpt lat="50.261034" lon="16.990365">
      <ele>758</ele>
      <time>2026-05-07T11:47:25Z</time>
    </trkpt>
    <trkpt lat="50.261382" lon="16.990302">
      <ele>761</ele>
      <time>2026-05-07T11:48:06Z</time>
    </trkpt>
    <trkpt lat="50.26156" lon="16.990309">
      <ele>764</ele>
      <time>2026-05-07T11:48:28Z</time>
    </trkpt>
    <trkpt lat="50.261701" lon="16.990395">
      <ele>764</ele>
      <time>2026-05-07T11:48:45Z</time>
    </trkpt>
    <trkpt lat="50.261795" lon="16.990505">
      <ele>763</ele>
      <time>2026-05-07T11:48:59Z</time>
    </trkpt>
    <trkpt lat="50.26201" lon="16.990847">
      <ele>761</ele>
      <time>2026-05-07T11:49:35Z</time>
    </trkpt>
    <trkpt lat="50.262139" lon="16.991106">
      <ele>757</ele>
      <time>2026-05-07T11:50:00Z</time>
    </trkpt>
    <trkpt lat="50.262216" lon="16.991325">
      <ele>757</ele>
      <time>2026-05-07T11:50:19Z</time>
    </trkpt>
    <trkpt lat="50.262265" lon="16.991484">
      <ele>757</ele>
      <time>2026-05-07T11:50:30Z</time>
    </trkpt>
    <trkpt lat="50.262332" lon="16.991772">
      <ele>755</ele>
      <time>2026-05-07T11:50:49Z</time>
    </trkpt>
    <trkpt lat="50.262513" lon="16.992623">
      <ele>751</ele>
      <time>2026-05-07T11:51:46Z</time>
    </trkpt>
    <trkpt lat="50.262674" lon="16.993022">
      <ele>753</ele>
      <time>2026-05-07T11:52:16Z</time>
    </trkpt>
    <trkpt lat="50.262776" lon="16.993246">
      <ele>751</ele>
      <time>2026-05-07T11:52:33Z</time>
    </trkpt>
    <trkpt lat="50.263021" lon="16.993607">
      <ele>750</ele>
      <time>2026-05-07T11:53:06Z</time>
    </trkpt>
    <trkpt lat="50.263001" lon="16.993922">
      <ele>749</ele>
      <time>2026-05-07T11:53:26Z</time>
    </trkpt>
    <trkpt lat="50.263037" lon="16.994021">
      <ele>749</ele>
      <time>2026-05-07T11:53:33Z</time>
    </trkpt>
    <trkpt lat="50.263345" lon="16.994429">
      <ele>750</ele>
      <time>2026-05-07T11:54:13Z</time>
    </trkpt>
    <trkpt lat="50.263886" lon="16.99504">
      <ele>745</ele>
      <time>2026-05-07T11:55:19Z</time>
    </trkpt>
    <trkpt lat="50.263964" lon="16.995137">
      <ele>743</ele>
      <time>2026-05-07T11:55:30Z</time>
    </trkpt>
    <trkpt lat="50.264016" lon="16.995223">
      <ele>742</ele>
      <time>2026-05-07T11:55:38Z</time>
    </trkpt>
    <trkpt lat="50.264084" lon="16.995366">
      <ele>740</ele>
      <time>2026-05-07T11:55:51Z</time>
    </trkpt>
    <trkpt lat="50.264135" lon="16.995493">
      <ele>737</ele>
      <time>2026-05-07T11:56:02Z</time>
    </trkpt>
    <trkpt lat="50.264152" lon="16.995544">
      <ele>736</ele>
      <time>2026-05-07T11:56:06Z</time>
    </trkpt>
    <trkpt lat="50.264178" lon="16.995627">
      <ele>736</ele>
      <time>2026-05-07T11:56:12Z</time>
    </trkpt>
    <trkpt lat="50.264204" lon="16.995729">
      <ele>735</ele>
      <time>2026-05-07T11:56:20Z</time>
    </trkpt>
    <trkpt lat="50.264219" lon="16.995836">
      <ele>734</ele>
      <time>2026-05-07T11:56:28Z</time>
    </trkpt>
    <trkpt lat="50.264243" lon="16.99607">
      <ele>733</ele>
      <time>2026-05-07T11:56:44Z</time>
    </trkpt>
    <trkpt lat="50.264253" lon="16.996305">
      <ele>732</ele>
      <time>2026-05-07T11:57:01Z</time>
    </trkpt>
    <trkpt lat="50.264287" lon="16.996895">
      <ele>728</ele>
      <time>2026-05-07T11:57:42Z</time>
    </trkpt>
    <trkpt lat="50.264318" lon="16.997229">
      <ele>724</ele>
      <time>2026-05-07T11:58:06Z</time>
    </trkpt>
    <trkpt lat="50.264318" lon="16.99737">
      <ele>724</ele>
      <time>2026-05-07T11:58:16Z</time>
    </trkpt>
    <trkpt lat="50.264296" lon="16.997523">
      <ele>723</ele>
      <time>2026-05-07T11:58:27Z</time>
    </trkpt>
    <trkpt lat="50.264289" lon="16.997634">
      <ele>722</ele>
      <time>2026-05-07T11:58:35Z</time>
    </trkpt>
    <trkpt lat="50.264291" lon="16.997714">
      <ele>722</ele>
      <time>2026-05-07T11:58:40Z</time>
    </trkpt>
    <trkpt lat="50.264309" lon="16.997802">
      <ele>721</ele>
      <time>2026-05-07T11:58:47Z</time>
    </trkpt>
    <trkpt lat="50.264393" lon="16.998039">
      <ele>720</ele>
      <time>2026-05-07T11:59:06Z</time>
    </trkpt>
    <trkpt lat="50.264422" lon="16.998149">
      <ele>720</ele>
      <time>2026-05-07T11:59:14Z</time>
    </trkpt>
    <trkpt lat="50.264456" lon="16.99837">
      <ele>719</ele>
      <time>2026-05-07T11:59:30Z</time>
    </trkpt>
    <trkpt lat="50.264506" lon="16.998782">
      <ele>720</ele>
      <time>2026-05-07T11:59:59Z</time>
    </trkpt>
    <trkpt lat="50.264531" lon="16.998961">
      <ele>720</ele>
      <time>2026-05-07T12:00:12Z</time>
    </trkpt>
    <trkpt lat="50.264591" lon="16.999245">
      <ele>719</ele>
      <time>2026-05-07T12:00:33Z</time>
    </trkpt>
    <trkpt lat="50.264681" lon="16.999682">
      <ele>719</ele>
      <time>2026-05-07T12:01:05Z</time>
    </trkpt>
    <trkpt lat="50.264829" lon="17.000384">
      <ele>717</ele>
      <time>2026-05-07T12:01:57Z</time>
    </trkpt>
    <trkpt lat="50.264887" lon="17.000588">
      <ele>718</ele>
      <time>2026-05-07T12:02:12Z</time>
    </trkpt>
    <trkpt lat="50.264958" lon="17.00075">
      <ele>719</ele>
      <time>2026-05-07T12:02:26Z</time>
    </trkpt>
    <trkpt lat="50.265027" lon="17.000852">
      <ele>719</ele>
      <time>2026-05-07T12:02:37Z</time>
    </trkpt>
    <trkpt lat="50.265074" lon="17.000913">
      <ele>719</ele>
      <time>2026-05-07T12:02:43Z</time>
    </trkpt>
    <trkpt lat="50.265111" lon="17.000957">
      <ele>719</ele>
      <time>2026-05-07T12:02:48Z</time>
    </trkpt>
    <trkpt lat="50.265161" lon="17.001002">
      <ele>718</ele>
      <time>2026-05-07T12:02:55Z</time>
    </trkpt>
    <trkpt lat="50.26555" lon="17.001279">
      <ele>716</ele>
      <time>2026-05-07T12:03:41Z</time>
    </trkpt>
    <trkpt lat="50.265698" lon="17.001397">
      <ele>714</ele>
      <time>2026-05-07T12:04:00Z</time>
    </trkpt>
    <trkpt lat="50.265859" lon="17.001552">
      <ele>713</ele>
      <time>2026-05-07T12:04:20Z</time>
    </trkpt>
    <trkpt lat="50.266125" lon="17.00189">
      <ele>712</ele>
      <time>2026-05-07T12:04:58Z</time>
    </trkpt>
    <trkpt lat="50.266293" lon="17.002044">
      <ele>711</ele>
      <time>2026-05-07T12:05:19Z</time>
    </trkpt>
  </trkseg>
</trk>
</gpx>