<?xml version="1.0" encoding="UTF-8"?><gpx creator="https://mapa-turystyczna.pl" xmlns="http://www.topografix.com/GPX/1/1" version="1.1" xmlns:xsi="http://www.w3.org/2001/XMLSchema-instance" xsi:schemaLocation="http://www.topografix.com/GPX/1/1 http://www.topografix.com/GPX/1/1/gpx.xsd">
  <metadata>
    <link href="https://mapa-turystyczna.pl">
      <text>mapa-turystyczna.pl</text>
    </link>
    <time>2026-05-07T08:43:29Z</time>
    <bounds maxlat="49.77861" maxlon="19.1609758" minlat="49.761016" minlon="19.086507"/>
  </metadata>

<trk>
  <name>Wilkowice – Wilkowice</name>
  <link href="https://mapa-turystyczna.pl/route/z0x5">
    <text>Wilkowice – Wilkowice</text>
  </link>
  <trkseg>
    <trkpt lat="49.762544" lon="19.086507">
      <ele>396</ele>
      <time>2026-05-07T08:43:29Z</time>
    </trkpt>
    <trkpt lat="49.762518" lon="19.086686">
      <ele>396</ele>
      <time>2026-05-07T08:43:41Z</time>
    </trkpt>
    <trkpt lat="49.762504" lon="19.086787">
      <ele>396</ele>
      <time>2026-05-07T08:43:47Z</time>
    </trkpt>
    <trkpt lat="49.762494" lon="19.086865">
      <ele>396</ele>
      <time>2026-05-07T08:43:53Z</time>
    </trkpt>
    <trkpt lat="49.76247" lon="19.087027">
      <ele>396</ele>
      <time>2026-05-07T08:44:03Z</time>
    </trkpt>
    <trkpt lat="49.762447" lon="19.087219">
      <ele>396</ele>
      <time>2026-05-07T08:44:16Z</time>
    </trkpt>
    <trkpt lat="49.762434" lon="19.087297">
      <ele>396</ele>
      <time>2026-05-07T08:44:21Z</time>
    </trkpt>
    <trkpt lat="49.76223" lon="19.0886">
      <ele>399</ele>
      <time>2026-05-07T08:45:48Z</time>
    </trkpt>
    <trkpt lat="49.761957" lon="19.089869">
      <ele>401</ele>
      <time>2026-05-07T08:47:14Z</time>
    </trkpt>
    <trkpt lat="49.761948" lon="19.089911">
      <ele>401</ele>
      <time>2026-05-07T08:47:17Z</time>
    </trkpt>
    <trkpt lat="49.761824" lon="19.090509">
      <ele>404</ele>
      <time>2026-05-07T08:47:57Z</time>
    </trkpt>
    <trkpt lat="49.761776" lon="19.090656">
      <ele>405</ele>
      <time>2026-05-07T08:48:08Z</time>
    </trkpt>
    <trkpt lat="49.761648" lon="19.090912">
      <ele>406</ele>
      <time>2026-05-07T08:48:29Z</time>
    </trkpt>
    <trkpt lat="49.761961" lon="19.090709">
      <ele>405</ele>
      <time>2026-05-07T08:48:59Z</time>
    </trkpt>
    <trkpt lat="49.761984" lon="19.090694">
      <ele>405</ele>
      <time>2026-05-07T08:49:01Z</time>
    </trkpt>
    <trkpt lat="49.762015" lon="19.090675">
      <ele>404</ele>
      <time>2026-05-07T08:49:04Z</time>
    </trkpt>
    <trkpt lat="49.762089" lon="19.090628">
      <ele>404</ele>
      <time>2026-05-07T08:49:11Z</time>
    </trkpt>
    <trkpt lat="49.762257" lon="19.09052">
      <ele>404</ele>
      <time>2026-05-07T08:49:27Z</time>
    </trkpt>
    <trkpt lat="49.7626" lon="19.090302">
      <ele>404</ele>
      <time>2026-05-07T08:49:59Z</time>
    </trkpt>
    <trkpt lat="49.762735" lon="19.090221">
      <ele>403</ele>
      <time>2026-05-07T08:50:12Z</time>
    </trkpt>
    <trkpt lat="49.762796" lon="19.090197">
      <ele>403</ele>
      <time>2026-05-07T08:50:18Z</time>
    </trkpt>
    <trkpt lat="49.762857" lon="19.09016">
      <ele>403</ele>
      <time>2026-05-07T08:50:23Z</time>
    </trkpt>
    <trkpt lat="49.762884" lon="19.090143">
      <ele>403</ele>
      <time>2026-05-07T08:50:26Z</time>
    </trkpt>
    <trkpt lat="49.762961" lon="19.090096">
      <ele>403</ele>
      <time>2026-05-07T08:50:33Z</time>
    </trkpt>
    <trkpt lat="49.763001" lon="19.090074">
      <ele>403</ele>
      <time>2026-05-07T08:50:37Z</time>
    </trkpt>
    <trkpt lat="49.763039" lon="19.090054">
      <ele>403</ele>
      <time>2026-05-07T08:50:40Z</time>
    </trkpt>
    <trkpt lat="49.763085" lon="19.090033">
      <ele>403</ele>
      <time>2026-05-07T08:50:45Z</time>
    </trkpt>
    <trkpt lat="49.763109" lon="19.090023">
      <ele>403</ele>
      <time>2026-05-07T08:50:47Z</time>
    </trkpt>
    <trkpt lat="49.763132" lon="19.090015">
      <ele>403</ele>
      <time>2026-05-07T08:50:49Z</time>
    </trkpt>
    <trkpt lat="49.763156" lon="19.090008">
      <ele>403</ele>
      <time>2026-05-07T08:50:51Z</time>
    </trkpt>
    <trkpt lat="49.76318" lon="19.090001">
      <ele>403</ele>
      <time>2026-05-07T08:50:53Z</time>
    </trkpt>
    <trkpt lat="49.763204" lon="19.089996">
      <ele>402</ele>
      <time>2026-05-07T08:50:55Z</time>
    </trkpt>
    <trkpt lat="49.763228" lon="19.089992">
      <ele>402</ele>
      <time>2026-05-07T08:50:57Z</time>
    </trkpt>
    <trkpt lat="49.763257" lon="19.089989">
      <ele>402</ele>
      <time>2026-05-07T08:51:00Z</time>
    </trkpt>
    <trkpt lat="49.76327" lon="19.089987">
      <ele>402</ele>
      <time>2026-05-07T08:51:01Z</time>
    </trkpt>
    <trkpt lat="49.763303" lon="19.089987">
      <ele>402</ele>
      <time>2026-05-07T08:51:04Z</time>
    </trkpt>
    <trkpt lat="49.763319" lon="19.089987">
      <ele>402</ele>
      <time>2026-05-07T08:51:05Z</time>
    </trkpt>
    <trkpt lat="49.763335" lon="19.089988">
      <ele>402</ele>
      <time>2026-05-07T08:51:07Z</time>
    </trkpt>
    <trkpt lat="49.763352" lon="19.08999">
      <ele>402</ele>
      <time>2026-05-07T08:51:08Z</time>
    </trkpt>
    <trkpt lat="49.763369" lon="19.089992">
      <ele>402</ele>
      <time>2026-05-07T08:51:10Z</time>
    </trkpt>
    <trkpt lat="49.763385" lon="19.089995">
      <ele>402</ele>
      <time>2026-05-07T08:51:11Z</time>
    </trkpt>
    <trkpt lat="49.763401" lon="19.09">
      <ele>402</ele>
      <time>2026-05-07T08:51:13Z</time>
    </trkpt>
    <trkpt lat="49.763417" lon="19.090004">
      <ele>402</ele>
      <time>2026-05-07T08:51:14Z</time>
    </trkpt>
    <trkpt lat="49.763433" lon="19.090009">
      <ele>402</ele>
      <time>2026-05-07T08:51:15Z</time>
    </trkpt>
    <trkpt lat="49.763465" lon="19.090021">
      <ele>402</ele>
      <time>2026-05-07T08:51:18Z</time>
    </trkpt>
    <trkpt lat="49.763497" lon="19.090035">
      <ele>401</ele>
      <time>2026-05-07T08:51:21Z</time>
    </trkpt>
    <trkpt lat="49.763528" lon="19.09005">
      <ele>401</ele>
      <time>2026-05-07T08:51:24Z</time>
    </trkpt>
    <trkpt lat="49.763582" lon="19.09008">
      <ele>401</ele>
      <time>2026-05-07T08:51:29Z</time>
    </trkpt>
    <trkpt lat="49.763938" lon="19.090307">
      <ele>402</ele>
      <time>2026-05-07T08:52:03Z</time>
    </trkpt>
    <trkpt lat="49.76403" lon="19.09037">
      <ele>402</ele>
      <time>2026-05-07T08:52:12Z</time>
    </trkpt>
    <trkpt lat="49.76459" lon="19.090751">
      <ele>403</ele>
      <time>2026-05-07T08:53:05Z</time>
    </trkpt>
    <trkpt lat="49.764858" lon="19.090797">
      <ele>403</ele>
      <time>2026-05-07T08:53:29Z</time>
    </trkpt>
    <trkpt lat="49.764865" lon="19.090856">
      <ele>404</ele>
      <time>2026-05-07T08:53:37Z</time>
    </trkpt>
    <trkpt lat="49.76487" lon="19.090899">
      <ele>404</ele>
      <time>2026-05-07T08:53:43Z</time>
    </trkpt>
    <trkpt lat="49.764937" lon="19.091002">
      <ele>405</ele>
      <time>2026-05-07T08:54:02Z</time>
    </trkpt>
    <trkpt lat="49.765292" lon="19.091513">
      <ele>407</ele>
      <time>2026-05-07T08:55:40Z</time>
    </trkpt>
    <trkpt lat="49.765755" lon="19.092062">
      <ele>409</ele>
      <time>2026-05-07T08:57:39Z</time>
    </trkpt>
    <trkpt lat="49.766474" lon="19.092861">
      <ele>413</ele>
      <time>2026-05-07T09:00:38Z</time>
    </trkpt>
    <trkpt lat="49.767049" lon="19.093358">
      <ele>417</ele>
      <time>2026-05-07T09:02:52Z</time>
    </trkpt>
    <trkpt lat="49.767218" lon="19.09353">
      <ele>416</ele>
      <time>2026-05-07T09:03:33Z</time>
    </trkpt>
    <trkpt lat="49.767389" lon="19.093611">
      <ele>416</ele>
      <time>2026-05-07T09:04:09Z</time>
    </trkpt>
    <trkpt lat="49.76751" lon="19.093735">
      <ele>417</ele>
      <time>2026-05-07T09:04:39Z</time>
    </trkpt>
    <trkpt lat="49.767571" lon="19.093811">
      <ele>418</ele>
      <time>2026-05-07T09:04:55Z</time>
    </trkpt>
    <trkpt lat="49.767678" lon="19.093908">
      <ele>419</ele>
      <time>2026-05-07T09:05:20Z</time>
    </trkpt>
    <trkpt lat="49.76778" lon="19.093941">
      <ele>418</ele>
      <time>2026-05-07T09:05:41Z</time>
    </trkpt>
    <trkpt lat="49.768045" lon="19.094178">
      <ele>420</ele>
      <time>2026-05-07T09:06:43Z</time>
    </trkpt>
    <trkpt lat="49.768359" lon="19.094447">
      <ele>424</ele>
      <time>2026-05-07T09:07:56Z</time>
    </trkpt>
    <trkpt lat="49.768837" lon="19.094825">
      <ele>432</ele>
      <time>2026-05-07T09:09:46Z</time>
    </trkpt>
    <trkpt lat="49.76946" lon="19.095417">
      <ele>438</ele>
      <time>2026-05-07T09:12:15Z</time>
    </trkpt>
    <trkpt lat="49.769883" lon="19.095854">
      <ele>451</ele>
      <time>2026-05-07T09:14:00Z</time>
    </trkpt>
    <trkpt lat="49.770051" lon="19.096045">
      <ele>456</ele>
      <time>2026-05-07T09:14:44Z</time>
    </trkpt>
    <trkpt lat="49.770263" lon="19.096363">
      <ele>462</ele>
      <time>2026-05-07T09:15:45Z</time>
    </trkpt>
    <trkpt lat="49.770354" lon="19.096499">
      <ele>464</ele>
      <time>2026-05-07T09:16:11Z</time>
    </trkpt>
    <trkpt lat="49.77043" lon="19.096613">
      <ele>467</ele>
      <time>2026-05-07T09:16:33Z</time>
    </trkpt>
    <trkpt lat="49.770467" lon="19.09667">
      <ele>468</ele>
      <time>2026-05-07T09:16:44Z</time>
    </trkpt>
    <trkpt lat="49.770845" lon="19.097189">
      <ele>489</ele>
      <time>2026-05-07T09:18:32Z</time>
    </trkpt>
    <trkpt lat="49.770954" lon="19.097345">
      <ele>493</ele>
      <time>2026-05-07T09:19:03Z</time>
    </trkpt>
    <trkpt lat="49.771249" lon="19.097733">
      <ele>502</ele>
      <time>2026-05-07T09:20:24Z</time>
    </trkpt>
    <trkpt lat="49.771485" lon="19.097999">
      <ele>510</ele>
      <time>2026-05-07T09:21:25Z</time>
    </trkpt>
    <trkpt lat="49.771587" lon="19.098125">
      <ele>516</ele>
      <time>2026-05-07T09:21:53Z</time>
    </trkpt>
    <trkpt lat="49.771925" lon="19.098527">
      <ele>533</ele>
      <time>2026-05-07T09:23:25Z</time>
    </trkpt>
    <trkpt lat="49.771985" lon="19.098696">
      <ele>537</ele>
      <time>2026-05-07T09:23:51Z</time>
    </trkpt>
    <trkpt lat="49.772103" lon="19.099015">
      <ele>544</ele>
      <time>2026-05-07T09:24:41Z</time>
    </trkpt>
    <trkpt lat="49.772152" lon="19.099249">
      <ele>549</ele>
      <time>2026-05-07T09:25:15Z</time>
    </trkpt>
    <trkpt lat="49.772291" lon="19.099451">
      <ele>558</ele>
      <time>2026-05-07T09:25:57Z</time>
    </trkpt>
    <trkpt lat="49.772445" lon="19.099524">
      <ele>563</ele>
      <time>2026-05-07T09:26:31Z</time>
    </trkpt>
    <trkpt lat="49.772583" lon="19.099646">
      <ele>569</ele>
      <time>2026-05-07T09:27:05Z</time>
    </trkpt>
    <trkpt lat="49.772806" lon="19.099841">
      <ele>579</ele>
      <time>2026-05-07T09:28:00Z</time>
    </trkpt>
    <trkpt lat="49.773002" lon="19.10004">
      <ele>589</ele>
      <time>2026-05-07T09:28:50Z</time>
    </trkpt>
    <trkpt lat="49.773225" lon="19.100249">
      <ele>598</ele>
      <time>2026-05-07T09:29:46Z</time>
    </trkpt>
    <trkpt lat="49.773331" lon="19.100351">
      <ele>602</ele>
      <time>2026-05-07T09:30:12Z</time>
    </trkpt>
    <trkpt lat="49.773499" lon="19.100523">
      <ele>607</ele>
      <time>2026-05-07T09:30:54Z</time>
    </trkpt>
    <trkpt lat="49.773946" lon="19.100893">
      <ele>620</ele>
      <time>2026-05-07T09:32:40Z</time>
    </trkpt>
    <trkpt lat="49.774047" lon="19.101032">
      <ele>624</ele>
      <time>2026-05-07T09:33:08Z</time>
    </trkpt>
    <trkpt lat="49.774296" lon="19.101343">
      <ele>631</ele>
      <time>2026-05-07T09:34:14Z</time>
    </trkpt>
    <trkpt lat="49.774417" lon="19.101419">
      <ele>635</ele>
      <time>2026-05-07T09:34:42Z</time>
    </trkpt>
    <trkpt lat="49.77452" lon="19.101472">
      <ele>638</ele>
      <time>2026-05-07T09:35:04Z</time>
    </trkpt>
    <trkpt lat="49.774637" lon="19.101504">
      <ele>641</ele>
      <time>2026-05-07T09:35:29Z</time>
    </trkpt>
    <trkpt lat="49.774857" lon="19.101601">
      <ele>646</ele>
      <time>2026-05-07T09:36:16Z</time>
    </trkpt>
    <trkpt lat="49.774954" lon="19.101679">
      <ele>648</ele>
      <time>2026-05-07T09:36:39Z</time>
    </trkpt>
    <trkpt lat="49.775057" lon="19.101773">
      <ele>647</ele>
      <time>2026-05-07T09:37:03Z</time>
    </trkpt>
    <trkpt lat="49.775153" lon="19.101952">
      <ele>646</ele>
      <time>2026-05-07T09:37:33Z</time>
    </trkpt>
    <trkpt lat="49.775323" lon="19.102284">
      <ele>645</ele>
      <time>2026-05-07T09:38:29Z</time>
    </trkpt>
    <trkpt lat="49.775394" lon="19.102461">
      <ele>646</ele>
      <time>2026-05-07T09:39:01Z</time>
    </trkpt>
    <trkpt lat="49.77547" lon="19.102636">
      <ele>648</ele>
      <time>2026-05-07T09:39:34Z</time>
    </trkpt>
    <trkpt lat="49.775604" lon="19.102927">
      <ele>652</ele>
      <time>2026-05-07T09:40:29Z</time>
    </trkpt>
    <trkpt lat="49.775746" lon="19.103242">
      <ele>657</ele>
      <time>2026-05-07T09:41:29Z</time>
    </trkpt>
    <trkpt lat="49.775841" lon="19.103485">
      <ele>660</ele>
      <time>2026-05-07T09:42:04Z</time>
    </trkpt>
    <trkpt lat="49.775939" lon="19.103757">
      <ele>663</ele>
      <time>2026-05-07T09:42:43Z</time>
    </trkpt>
    <trkpt lat="49.776006" lon="19.103891">
      <ele>664</ele>
      <time>2026-05-07T09:43:04Z</time>
    </trkpt>
    <trkpt lat="49.776072" lon="19.104006">
      <ele>665</ele>
      <time>2026-05-07T09:43:22Z</time>
    </trkpt>
    <trkpt lat="49.776091" lon="19.104157">
      <ele>665</ele>
      <time>2026-05-07T09:43:41Z</time>
    </trkpt>
    <trkpt lat="49.77614" lon="19.104484">
      <ele>667</ele>
      <time>2026-05-07T09:44:23Z</time>
    </trkpt>
    <trkpt lat="49.776168" lon="19.104757">
      <ele>672</ele>
      <time>2026-05-07T09:44:58Z</time>
    </trkpt>
    <trkpt lat="49.776183" lon="19.105158">
      <ele>680</ele>
      <time>2026-05-07T09:45:49Z</time>
    </trkpt>
    <trkpt lat="49.776177" lon="19.105354">
      <ele>683</ele>
      <time>2026-05-07T09:46:14Z</time>
    </trkpt>
    <trkpt lat="49.776164" lon="19.105477">
      <ele>685</ele>
      <time>2026-05-07T09:46:29Z</time>
    </trkpt>
    <trkpt lat="49.77612" lon="19.105555">
      <ele>685</ele>
      <time>2026-05-07T09:46:43Z</time>
    </trkpt>
    <trkpt lat="49.77608" lon="19.105605">
      <ele>685</ele>
      <time>2026-05-07T09:46:53Z</time>
    </trkpt>
    <trkpt lat="49.77606" lon="19.105841">
      <ele>689</ele>
      <time>2026-05-07T09:47:26Z</time>
    </trkpt>
    <trkpt lat="49.776033" lon="19.105984">
      <ele>692</ele>
      <time>2026-05-07T09:47:47Z</time>
    </trkpt>
    <trkpt lat="49.775925" lon="19.106203">
      <ele>696</ele>
      <time>2026-05-07T09:48:24Z</time>
    </trkpt>
    <trkpt lat="49.775767" lon="19.106682">
      <ele>707</ele>
      <time>2026-05-07T09:49:39Z</time>
    </trkpt>
    <trkpt lat="49.775644" lon="19.107057">
      <ele>713</ele>
      <time>2026-05-07T09:50:36Z</time>
    </trkpt>
    <trkpt lat="49.775522" lon="19.107397">
      <ele>718</ele>
      <time>2026-05-07T09:51:29Z</time>
    </trkpt>
    <trkpt lat="49.775423" lon="19.107608">
      <ele>719</ele>
      <time>2026-05-07T09:52:05Z</time>
    </trkpt>
    <trkpt lat="49.775372" lon="19.107759">
      <ele>721</ele>
      <time>2026-05-07T09:52:28Z</time>
    </trkpt>
    <trkpt lat="49.775331" lon="19.107903">
      <ele>722</ele>
      <time>2026-05-07T09:52:50Z</time>
    </trkpt>
    <trkpt lat="49.775297" lon="19.108131">
      <ele>725</ele>
      <time>2026-05-07T09:53:22Z</time>
    </trkpt>
    <trkpt lat="49.775288" lon="19.108276">
      <ele>726</ele>
      <time>2026-05-07T09:53:42Z</time>
    </trkpt>
    <trkpt lat="49.775282" lon="19.108514">
      <ele>729</ele>
      <time>2026-05-07T09:54:15Z</time>
    </trkpt>
    <trkpt lat="49.775273" lon="19.10865">
      <ele>730</ele>
      <time>2026-05-07T09:54:34Z</time>
    </trkpt>
    <trkpt lat="49.775222" lon="19.108929">
      <ele>733</ele>
      <time>2026-05-07T09:55:13Z</time>
    </trkpt>
    <trkpt lat="49.775198" lon="19.10912">
      <ele>735</ele>
      <time>2026-05-07T09:55:40Z</time>
    </trkpt>
    <trkpt lat="49.775159" lon="19.109343">
      <ele>738</ele>
      <time>2026-05-07T09:56:12Z</time>
    </trkpt>
    <trkpt lat="49.775149" lon="19.109455">
      <ele>739</ele>
      <time>2026-05-07T09:56:28Z</time>
    </trkpt>
    <trkpt lat="49.775167" lon="19.109577">
      <ele>741</ele>
      <time>2026-05-07T09:56:45Z</time>
    </trkpt>
    <trkpt lat="49.775147" lon="19.109729">
      <ele>742</ele>
      <time>2026-05-07T09:57:06Z</time>
    </trkpt>
    <trkpt lat="49.775119" lon="19.109852">
      <ele>741</ele>
      <time>2026-05-07T09:57:24Z</time>
    </trkpt>
    <trkpt lat="49.775039" lon="19.110173">
      <ele>737</ele>
      <time>2026-05-07T09:58:12Z</time>
    </trkpt>
    <trkpt lat="49.774977" lon="19.110358">
      <ele>734</ele>
      <time>2026-05-07T09:58:41Z</time>
    </trkpt>
    <trkpt lat="49.774948" lon="19.110518">
      <ele>734</ele>
      <time>2026-05-07T09:59:03Z</time>
    </trkpt>
    <trkpt lat="49.774929" lon="19.110653">
      <ele>735</ele>
      <time>2026-05-07T09:59:22Z</time>
    </trkpt>
    <trkpt lat="49.77493" lon="19.110751">
      <ele>736</ele>
      <time>2026-05-07T09:59:36Z</time>
    </trkpt>
    <trkpt lat="49.774938" lon="19.110877">
      <ele>737</ele>
      <time>2026-05-07T09:59:53Z</time>
    </trkpt>
    <trkpt lat="49.774915" lon="19.111004">
      <ele>738</ele>
      <time>2026-05-07T10:00:11Z</time>
    </trkpt>
    <trkpt lat="49.774873" lon="19.111106">
      <ele>738</ele>
      <time>2026-05-07T10:00:28Z</time>
    </trkpt>
    <trkpt lat="49.774857" lon="19.111192">
      <ele>738</ele>
      <time>2026-05-07T10:00:40Z</time>
    </trkpt>
    <trkpt lat="49.774861" lon="19.111309">
      <ele>739</ele>
      <time>2026-05-07T10:00:56Z</time>
    </trkpt>
    <trkpt lat="49.774987" lon="19.111407">
      <ele>744</ele>
      <time>2026-05-07T10:01:27Z</time>
    </trkpt>
    <trkpt lat="49.775055" lon="19.111453">
      <ele>746</ele>
      <time>2026-05-07T10:01:43Z</time>
    </trkpt>
    <trkpt lat="49.775098" lon="19.111516">
      <ele>747</ele>
      <time>2026-05-07T10:01:56Z</time>
    </trkpt>
    <trkpt lat="49.77513" lon="19.111573">
      <ele>749</ele>
      <time>2026-05-07T10:02:07Z</time>
    </trkpt>
    <trkpt lat="49.775238" lon="19.11169">
      <ele>753</ele>
      <time>2026-05-07T10:02:36Z</time>
    </trkpt>
    <trkpt lat="49.775272" lon="19.111757">
      <ele>754</ele>
      <time>2026-05-07T10:02:48Z</time>
    </trkpt>
    <trkpt lat="49.775282" lon="19.111807">
      <ele>755</ele>
      <time>2026-05-07T10:02:55Z</time>
    </trkpt>
    <trkpt lat="49.775273" lon="19.111911">
      <ele>756</ele>
      <time>2026-05-07T10:03:09Z</time>
    </trkpt>
    <trkpt lat="49.77528" lon="19.112033">
      <ele>756</ele>
      <time>2026-05-07T10:03:26Z</time>
    </trkpt>
    <trkpt lat="49.775288" lon="19.112213">
      <ele>756</ele>
      <time>2026-05-07T10:03:51Z</time>
    </trkpt>
    <trkpt lat="49.775315" lon="19.112426">
      <ele>757</ele>
      <time>2026-05-07T10:04:20Z</time>
    </trkpt>
    <trkpt lat="49.775382" lon="19.112636">
      <ele>758</ele>
      <time>2026-05-07T10:04:52Z</time>
    </trkpt>
    <trkpt lat="49.775467" lon="19.112751">
      <ele>761</ele>
      <time>2026-05-07T10:05:16Z</time>
    </trkpt>
    <trkpt lat="49.775566" lon="19.112795">
      <ele>764</ele>
      <time>2026-05-07T10:05:39Z</time>
    </trkpt>
    <trkpt lat="49.775619" lon="19.112795">
      <ele>765</ele>
      <time>2026-05-07T10:05:50Z</time>
    </trkpt>
    <trkpt lat="49.775669" lon="19.112795">
      <ele>767</ele>
      <time>2026-05-07T10:06:01Z</time>
    </trkpt>
    <trkpt lat="49.775742" lon="19.112772">
      <ele>769</ele>
      <time>2026-05-07T10:06:18Z</time>
    </trkpt>
    <trkpt lat="49.775806" lon="19.112767">
      <ele>771</ele>
      <time>2026-05-07T10:06:32Z</time>
    </trkpt>
    <trkpt lat="49.775846" lon="19.112821">
      <ele>773</ele>
      <time>2026-05-07T10:06:43Z</time>
    </trkpt>
    <trkpt lat="49.775872" lon="19.112963">
      <ele>774</ele>
      <time>2026-05-07T10:07:04Z</time>
    </trkpt>
    <trkpt lat="49.775904" lon="19.113045">
      <ele>776</ele>
      <time>2026-05-07T10:07:17Z</time>
    </trkpt>
    <trkpt lat="49.775917" lon="19.113127">
      <ele>776</ele>
      <time>2026-05-07T10:07:29Z</time>
    </trkpt>
    <trkpt lat="49.775905" lon="19.113357">
      <ele>778</ele>
      <time>2026-05-07T10:08:00Z</time>
    </trkpt>
    <trkpt lat="49.775879" lon="19.113464">
      <ele>779</ele>
      <time>2026-05-07T10:08:16Z</time>
    </trkpt>
    <trkpt lat="49.775869" lon="19.113773">
      <ele>783</ele>
      <time>2026-05-07T10:08:59Z</time>
    </trkpt>
    <trkpt lat="49.775872" lon="19.113955">
      <ele>786</ele>
      <time>2026-05-07T10:09:24Z</time>
    </trkpt>
    <trkpt lat="49.775871" lon="19.114105">
      <ele>788</ele>
      <time>2026-05-07T10:09:45Z</time>
    </trkpt>
    <trkpt lat="49.775836" lon="19.11433">
      <ele>790</ele>
      <time>2026-05-07T10:10:17Z</time>
    </trkpt>
    <trkpt lat="49.775804" lon="19.114446">
      <ele>791</ele>
      <time>2026-05-07T10:10:34Z</time>
    </trkpt>
    <trkpt lat="49.77578" lon="19.114554">
      <ele>791</ele>
      <time>2026-05-07T10:10:50Z</time>
    </trkpt>
    <trkpt lat="49.775779" lon="19.114783">
      <ele>793</ele>
      <time>2026-05-07T10:11:21Z</time>
    </trkpt>
    <trkpt lat="49.775812" lon="19.114879">
      <ele>795</ele>
      <time>2026-05-07T10:11:36Z</time>
    </trkpt>
    <trkpt lat="49.775949" lon="19.115082">
      <ele>798</ele>
      <time>2026-05-07T10:12:17Z</time>
    </trkpt>
    <trkpt lat="49.776135" lon="19.11532">
      <ele>804</ele>
      <time>2026-05-07T10:13:09Z</time>
    </trkpt>
    <trkpt lat="49.776402" lon="19.115554">
      <ele>812</ele>
      <time>2026-05-07T10:14:15Z</time>
    </trkpt>
    <trkpt lat="49.776547" lon="19.115676">
      <ele>815</ele>
      <time>2026-05-07T10:14:51Z</time>
    </trkpt>
    <trkpt lat="49.776607" lon="19.115697">
      <ele>817</ele>
      <time>2026-05-07T10:15:04Z</time>
    </trkpt>
    <trkpt lat="49.776779" lon="19.1157">
      <ele>822</ele>
      <time>2026-05-07T10:15:42Z</time>
    </trkpt>
    <trkpt lat="49.776917" lon="19.115732">
      <ele>826</ele>
      <time>2026-05-07T10:16:12Z</time>
    </trkpt>
    <trkpt lat="49.77696" lon="19.115754">
      <ele>827</ele>
      <time>2026-05-07T10:16:22Z</time>
    </trkpt>
    <trkpt lat="49.776976" lon="19.115799">
      <ele>828</ele>
      <time>2026-05-07T10:16:29Z</time>
    </trkpt>
    <trkpt lat="49.776957" lon="19.115947">
      <ele>827</ele>
      <time>2026-05-07T10:16:43Z</time>
    </trkpt>
    <trkpt lat="49.776947" lon="19.116074">
      <ele>825</ele>
      <time>2026-05-07T10:16:55Z</time>
    </trkpt>
    <trkpt lat="49.776947" lon="19.116184">
      <ele>824</ele>
      <time>2026-05-07T10:17:05Z</time>
    </trkpt>
    <trkpt lat="49.776974" lon="19.116409">
      <ele>820</ele>
      <time>2026-05-07T10:17:26Z</time>
    </trkpt>
    <trkpt lat="49.776991" lon="19.116579">
      <ele>821</ele>
      <time>2026-05-07T10:17:42Z</time>
    </trkpt>
    <trkpt lat="49.777004" lon="19.116712">
      <ele>822</ele>
      <time>2026-05-07T10:17:54Z</time>
    </trkpt>
    <trkpt lat="49.776992" lon="19.116895">
      <ele>823</ele>
      <time>2026-05-07T10:18:10Z</time>
    </trkpt>
    <trkpt lat="49.776979" lon="19.117123">
      <ele>822</ele>
      <time>2026-05-07T10:18:31Z</time>
    </trkpt>
    <trkpt lat="49.776984" lon="19.117205">
      <ele>822</ele>
      <time>2026-05-07T10:18:39Z</time>
    </trkpt>
    <trkpt lat="49.777002" lon="19.117493">
      <ele>821</ele>
      <time>2026-05-07T10:19:05Z</time>
    </trkpt>
    <trkpt lat="49.777011" lon="19.117751">
      <ele>821</ele>
      <time>2026-05-07T10:19:28Z</time>
    </trkpt>
    <trkpt lat="49.777007" lon="19.117855">
      <ele>821</ele>
      <time>2026-05-07T10:19:38Z</time>
    </trkpt>
    <trkpt lat="49.777004" lon="19.117995">
      <ele>822</ele>
      <time>2026-05-07T10:19:51Z</time>
    </trkpt>
    <trkpt lat="49.777018" lon="19.118103">
      <ele>822</ele>
      <time>2026-05-07T10:20:01Z</time>
    </trkpt>
    <trkpt lat="49.777053" lon="19.118266">
      <ele>822</ele>
      <time>2026-05-07T10:20:16Z</time>
    </trkpt>
    <trkpt lat="49.777068" lon="19.118394">
      <ele>822</ele>
      <time>2026-05-07T10:20:28Z</time>
    </trkpt>
    <trkpt lat="49.777068" lon="19.118543">
      <ele>822</ele>
      <time>2026-05-07T10:20:42Z</time>
    </trkpt>
    <trkpt lat="49.777085" lon="19.118687">
      <ele>822</ele>
      <time>2026-05-07T10:20:55Z</time>
    </trkpt>
    <trkpt lat="49.77712" lon="19.118827">
      <ele>822</ele>
      <time>2026-05-07T10:21:08Z</time>
    </trkpt>
    <trkpt lat="49.777151" lon="19.119007">
      <ele>823</ele>
      <time>2026-05-07T10:21:25Z</time>
    </trkpt>
    <trkpt lat="49.777186" lon="19.119202">
      <ele>823</ele>
      <time>2026-05-07T10:21:44Z</time>
    </trkpt>
    <trkpt lat="49.777264" lon="19.11954">
      <ele>826</ele>
      <time>2026-05-07T10:22:16Z</time>
    </trkpt>
    <trkpt lat="49.777312" lon="19.119714">
      <ele>827</ele>
      <time>2026-05-07T10:22:34Z</time>
    </trkpt>
    <trkpt lat="49.77733" lon="19.119821">
      <ele>829</ele>
      <time>2026-05-07T10:22:44Z</time>
    </trkpt>
    <trkpt lat="49.777332" lon="19.119973">
      <ele>832</ele>
      <time>2026-05-07T10:22:58Z</time>
    </trkpt>
    <trkpt lat="49.777338" lon="19.120092">
      <ele>833</ele>
      <time>2026-05-07T10:23:09Z</time>
    </trkpt>
    <trkpt lat="49.777386" lon="19.120437">
      <ele>836</ele>
      <time>2026-05-07T10:23:41Z</time>
    </trkpt>
    <trkpt lat="49.777404" lon="19.12065">
      <ele>838</ele>
      <time>2026-05-07T10:24:01Z</time>
    </trkpt>
    <trkpt lat="49.777427" lon="19.120802">
      <ele>839</ele>
      <time>2026-05-07T10:24:15Z</time>
    </trkpt>
    <trkpt lat="49.777492" lon="19.121032">
      <ele>840</ele>
      <time>2026-05-07T10:24:38Z</time>
    </trkpt>
    <trkpt lat="49.777523" lon="19.121142">
      <ele>840</ele>
      <time>2026-05-07T10:24:49Z</time>
    </trkpt>
    <trkpt lat="49.777584" lon="19.121326">
      <ele>842</ele>
      <time>2026-05-07T10:25:08Z</time>
    </trkpt>
    <trkpt lat="49.777615" lon="19.121474">
      <ele>843</ele>
      <time>2026-05-07T10:25:22Z</time>
    </trkpt>
    <trkpt lat="49.777648" lon="19.121789">
      <ele>845</ele>
      <time>2026-05-07T10:25:51Z</time>
    </trkpt>
    <trkpt lat="49.777661" lon="19.122034">
      <ele>847</ele>
      <time>2026-05-07T10:26:14Z</time>
    </trkpt>
    <trkpt lat="49.777678" lon="19.122184">
      <ele>849</ele>
      <time>2026-05-07T10:26:28Z</time>
    </trkpt>
    <trkpt lat="49.777698" lon="19.122294">
      <ele>850</ele>
      <time>2026-05-07T10:26:38Z</time>
    </trkpt>
    <trkpt lat="49.77777" lon="19.122489">
      <ele>852</ele>
      <time>2026-05-07T10:26:59Z</time>
    </trkpt>
    <trkpt lat="49.777848" lon="19.122678">
      <ele>853</ele>
      <time>2026-05-07T10:27:19Z</time>
    </trkpt>
    <trkpt lat="49.777868" lon="19.122785">
      <ele>854</ele>
      <time>2026-05-07T10:27:29Z</time>
    </trkpt>
    <trkpt lat="49.777902" lon="19.123322">
      <ele>859</ele>
      <time>2026-05-07T10:28:19Z</time>
    </trkpt>
    <trkpt lat="49.77793" lon="19.123553">
      <ele>861</ele>
      <time>2026-05-07T10:28:40Z</time>
    </trkpt>
    <trkpt lat="49.778017" lon="19.123921">
      <ele>866</ele>
      <time>2026-05-07T10:29:16Z</time>
    </trkpt>
    <trkpt lat="49.778032" lon="19.12426">
      <ele>870</ele>
      <time>2026-05-07T10:29:47Z</time>
    </trkpt>
    <trkpt lat="49.778047" lon="19.124444">
      <ele>872</ele>
      <time>2026-05-07T10:30:04Z</time>
    </trkpt>
    <trkpt lat="49.778102" lon="19.124744">
      <ele>874</ele>
      <time>2026-05-07T10:30:33Z</time>
    </trkpt>
    <trkpt lat="49.778132" lon="19.124874">
      <ele>876</ele>
      <time>2026-05-07T10:30:45Z</time>
    </trkpt>
    <trkpt lat="49.778179" lon="19.125073">
      <ele>878</ele>
      <time>2026-05-07T10:31:05Z</time>
    </trkpt>
    <trkpt lat="49.778263" lon="19.125397">
      <ele>881</ele>
      <time>2026-05-07T10:31:37Z</time>
    </trkpt>
    <trkpt lat="49.778321" lon="19.125678">
      <ele>885</ele>
      <time>2026-05-07T10:32:04Z</time>
    </trkpt>
    <trkpt lat="49.778442" lon="19.126322">
      <ele>891</ele>
      <time>2026-05-07T10:33:05Z</time>
    </trkpt>
    <trkpt lat="49.778558" lon="19.126799">
      <ele>894</ele>
      <time>2026-05-07T10:33:52Z</time>
    </trkpt>
    <trkpt lat="49.778591" lon="19.126961">
      <ele>894</ele>
      <time>2026-05-07T10:34:07Z</time>
    </trkpt>
    <trkpt lat="49.77861" lon="19.127191">
      <ele>894</ele>
      <time>2026-05-07T10:34:28Z</time>
    </trkpt>
    <trkpt lat="49.778605" lon="19.127415">
      <ele>893</ele>
      <time>2026-05-07T10:34:48Z</time>
    </trkpt>
    <trkpt lat="49.778579" lon="19.127534">
      <ele>893</ele>
      <time>2026-05-07T10:35:00Z</time>
    </trkpt>
    <trkpt lat="49.778422" lon="19.127848">
      <ele>894</ele>
      <time>2026-05-07T10:35:36Z</time>
    </trkpt>
    <trkpt lat="49.778203" lon="19.128324">
      <ele>897</ele>
      <time>2026-05-07T10:36:29Z</time>
    </trkpt>
    <trkpt lat="49.778065" lon="19.128572">
      <ele>900</ele>
      <time>2026-05-07T10:37:09Z</time>
    </trkpt>
    <trkpt lat="49.777955" lon="19.128759">
      <ele>903</ele>
      <time>2026-05-07T10:37:41Z</time>
    </trkpt>
    <trkpt lat="49.77748" lon="19.129307">
      <ele>907</ele>
      <time>2026-05-07T10:39:34Z</time>
    </trkpt>
    <trkpt lat="49.776999" lon="19.129878">
      <ele>908</ele>
      <time>2026-05-07T10:41:29Z</time>
    </trkpt>
    <trkpt lat="49.776784" lon="19.130227">
      <ele>909</ele>
      <time>2026-05-07T10:42:29Z</time>
    </trkpt>
    <trkpt lat="49.776735" lon="19.130317">
      <ele>906</ele>
      <time>2026-05-07T10:42:38Z</time>
    </trkpt>
    <trkpt lat="49.776678" lon="19.130472">
      <ele>905</ele>
      <time>2026-05-07T10:42:52Z</time>
    </trkpt>
    <trkpt lat="49.77661" lon="19.130609">
      <ele>904</ele>
      <time>2026-05-07T10:43:04Z</time>
    </trkpt>
    <trkpt lat="49.776493" lon="19.130753">
      <ele>903</ele>
      <time>2026-05-07T10:43:22Z</time>
    </trkpt>
    <trkpt lat="49.776322" lon="19.131062">
      <ele>901</ele>
      <time>2026-05-07T10:43:52Z</time>
    </trkpt>
    <trkpt lat="49.776049" lon="19.131636">
      <ele>900</ele>
      <time>2026-05-07T10:44:45Z</time>
    </trkpt>
    <trkpt lat="49.775909" lon="19.132169">
      <ele>901</ele>
      <time>2026-05-07T10:45:28Z</time>
    </trkpt>
    <trkpt lat="49.775878" lon="19.132325">
      <ele>902</ele>
      <time>2026-05-07T10:45:40Z</time>
    </trkpt>
    <trkpt lat="49.775783" lon="19.132479">
      <ele>902</ele>
      <time>2026-05-07T10:45:56Z</time>
    </trkpt>
    <trkpt lat="49.775321" lon="19.132781">
      <ele>903</ele>
      <time>2026-05-07T10:46:53Z</time>
    </trkpt>
    <trkpt lat="49.775109" lon="19.13292">
      <ele>901</ele>
      <time>2026-05-07T10:47:20Z</time>
    </trkpt>
    <trkpt lat="49.774948" lon="19.133098">
      <ele>899</ele>
      <time>2026-05-07T10:47:43Z</time>
    </trkpt>
    <trkpt lat="49.774884" lon="19.133181">
      <ele>899</ele>
      <time>2026-05-07T10:47:52Z</time>
    </trkpt>
    <trkpt lat="49.774753" lon="19.133379">
      <ele>898</ele>
      <time>2026-05-07T10:48:13Z</time>
    </trkpt>
    <trkpt lat="49.77462" lon="19.133562">
      <ele>896</ele>
      <time>2026-05-07T10:48:34Z</time>
    </trkpt>
    <trkpt lat="49.774388" lon="19.133822">
      <ele>895</ele>
      <time>2026-05-07T10:49:07Z</time>
    </trkpt>
    <trkpt lat="49.774301" lon="19.133964">
      <ele>895</ele>
      <time>2026-05-07T10:49:21Z</time>
    </trkpt>
    <trkpt lat="49.77407" lon="19.134444">
      <ele>901</ele>
      <time>2026-05-07T10:50:06Z</time>
    </trkpt>
    <trkpt lat="49.773903" lon="19.134673">
      <ele>904</ele>
      <time>2026-05-07T10:50:32Z</time>
    </trkpt>
    <trkpt lat="49.773731" lon="19.134874">
      <ele>906</ele>
      <time>2026-05-07T10:50:57Z</time>
    </trkpt>
    <trkpt lat="49.773622" lon="19.134981">
      <ele>908</ele>
      <time>2026-05-07T10:51:12Z</time>
    </trkpt>
    <trkpt lat="49.773562" lon="19.135035">
      <ele>909</ele>
      <time>2026-05-07T10:51:20Z</time>
    </trkpt>
    <trkpt lat="49.773419" lon="19.13512">
      <ele>912</ele>
      <time>2026-05-07T10:51:38Z</time>
    </trkpt>
    <trkpt lat="49.773278" lon="19.135189">
      <ele>915</ele>
      <time>2026-05-07T10:51:55Z</time>
    </trkpt>
    <trkpt lat="49.773132" lon="19.135286">
      <ele>916</ele>
      <time>2026-05-07T10:52:13Z</time>
    </trkpt>
    <trkpt lat="49.77298" lon="19.135408">
      <ele>915</ele>
      <time>2026-05-07T10:52:33Z</time>
    </trkpt>
    <trkpt lat="49.772917" lon="19.135492">
      <ele>914</ele>
      <time>2026-05-07T10:52:43Z</time>
    </trkpt>
    <trkpt lat="49.772858" lon="19.135571">
      <ele>913</ele>
      <time>2026-05-07T10:52:52Z</time>
    </trkpt>
    <trkpt lat="49.772737" lon="19.135742">
      <ele>910</ele>
      <time>2026-05-07T10:53:11Z</time>
    </trkpt>
    <trkpt lat="49.772627" lon="19.135878">
      <ele>907</ele>
      <time>2026-05-07T10:53:27Z</time>
    </trkpt>
    <trkpt lat="49.772541" lon="19.136005">
      <ele>905</ele>
      <time>2026-05-07T10:53:41Z</time>
    </trkpt>
    <trkpt lat="49.772453" lon="19.136123">
      <ele>904</ele>
      <time>2026-05-07T10:53:55Z</time>
    </trkpt>
    <trkpt lat="49.77241" lon="19.136178">
      <ele>902</ele>
      <time>2026-05-07T10:54:01Z</time>
    </trkpt>
    <trkpt lat="49.772337" lon="19.136295">
      <ele>901</ele>
      <time>2026-05-07T10:54:13Z</time>
    </trkpt>
    <trkpt lat="49.772224" lon="19.136523">
      <ele>899</ele>
      <time>2026-05-07T10:54:35Z</time>
    </trkpt>
    <trkpt lat="49.772178" lon="19.13662">
      <ele>898</ele>
      <time>2026-05-07T10:54:44Z</time>
    </trkpt>
    <trkpt lat="49.772125" lon="19.136706">
      <ele>897</ele>
      <time>2026-05-07T10:54:53Z</time>
    </trkpt>
    <trkpt lat="49.772062" lon="19.136811">
      <ele>897</ele>
      <time>2026-05-07T10:55:03Z</time>
    </trkpt>
    <trkpt lat="49.771999" lon="19.136894">
      <ele>897</ele>
      <time>2026-05-07T10:55:13Z</time>
    </trkpt>
    <trkpt lat="49.77192" lon="19.136994">
      <ele>897</ele>
      <time>2026-05-07T10:55:24Z</time>
    </trkpt>
    <trkpt lat="49.771867" lon="19.137068">
      <ele>896</ele>
      <time>2026-05-07T10:55:33Z</time>
    </trkpt>
    <trkpt lat="49.771715" lon="19.137221">
      <ele>894</ele>
      <time>2026-05-07T10:55:54Z</time>
    </trkpt>
    <trkpt lat="49.771616" lon="19.137306">
      <ele>894</ele>
      <time>2026-05-07T10:56:07Z</time>
    </trkpt>
    <trkpt lat="49.771517" lon="19.137422">
      <ele>894</ele>
      <time>2026-05-07T10:56:21Z</time>
    </trkpt>
    <trkpt lat="49.771363" lon="19.137731">
      <ele>894</ele>
      <time>2026-05-07T10:56:50Z</time>
    </trkpt>
    <trkpt lat="49.771255" lon="19.137997">
      <ele>893</ele>
      <time>2026-05-07T10:57:13Z</time>
    </trkpt>
    <trkpt lat="49.771191" lon="19.138184">
      <ele>893</ele>
      <time>2026-05-07T10:57:29Z</time>
    </trkpt>
    <trkpt lat="49.771183" lon="19.138265">
      <ele>893</ele>
      <time>2026-05-07T10:57:36Z</time>
    </trkpt>
    <trkpt lat="49.771161" lon="19.138463">
      <ele>893</ele>
      <time>2026-05-07T10:57:52Z</time>
    </trkpt>
    <trkpt lat="49.771112" lon="19.138602">
      <ele>894</ele>
      <time>2026-05-07T10:58:05Z</time>
    </trkpt>
    <trkpt lat="49.771005" lon="19.138826">
      <ele>894</ele>
      <time>2026-05-07T10:58:28Z</time>
    </trkpt>
    <trkpt lat="49.770871" lon="19.139217">
      <ele>895</ele>
      <time>2026-05-07T10:59:04Z</time>
    </trkpt>
    <trkpt lat="49.770781" lon="19.139653">
      <ele>895</ele>
      <time>2026-05-07T10:59:41Z</time>
    </trkpt>
    <trkpt lat="49.770709" lon="19.139965">
      <ele>894</ele>
      <time>2026-05-07T11:00:08Z</time>
    </trkpt>
    <trkpt lat="49.770641" lon="19.140187">
      <ele>892</ele>
      <time>2026-05-07T11:00:28Z</time>
    </trkpt>
    <trkpt lat="49.770567" lon="19.14038">
      <ele>892</ele>
      <time>2026-05-07T11:00:46Z</time>
    </trkpt>
    <trkpt lat="49.770487" lon="19.14068">
      <ele>894</ele>
      <time>2026-05-07T11:01:13Z</time>
    </trkpt>
    <trkpt lat="49.770419" lon="19.141139">
      <ele>896</ele>
      <time>2026-05-07T11:01:51Z</time>
    </trkpt>
    <trkpt lat="49.770364" lon="19.141394">
      <ele>897</ele>
      <time>2026-05-07T11:02:13Z</time>
    </trkpt>
    <trkpt lat="49.770346" lon="19.141483">
      <ele>898</ele>
      <time>2026-05-07T11:02:21Z</time>
    </trkpt>
    <trkpt lat="49.770288" lon="19.14166">
      <ele>900</ele>
      <time>2026-05-07T11:02:37Z</time>
    </trkpt>
    <trkpt lat="49.770203" lon="19.14178">
      <ele>902</ele>
      <time>2026-05-07T11:02:52Z</time>
    </trkpt>
    <trkpt lat="49.770065" lon="19.141946">
      <ele>906</ele>
      <time>2026-05-07T11:03:14Z</time>
    </trkpt>
    <trkpt lat="49.769897" lon="19.142227">
      <ele>910</ele>
      <time>2026-05-07T11:03:46Z</time>
    </trkpt>
    <trkpt lat="49.769759" lon="19.142486">
      <ele>913</ele>
      <time>2026-05-07T11:04:14Z</time>
    </trkpt>
    <trkpt lat="49.769671" lon="19.142647">
      <ele>914</ele>
      <time>2026-05-07T11:04:31Z</time>
    </trkpt>
    <trkpt lat="49.769572" lon="19.142829">
      <ele>915</ele>
      <time>2026-05-07T11:04:50Z</time>
    </trkpt>
    <trkpt lat="49.769503" lon="19.143046">
      <ele>915</ele>
      <time>2026-05-07T11:05:10Z</time>
    </trkpt>
    <trkpt lat="49.769291" lon="19.143455">
      <ele>919</ele>
      <time>2026-05-07T11:05:53Z</time>
    </trkpt>
    <trkpt lat="49.7689" lon="19.144162">
      <ele>920</ele>
      <time>2026-05-07T11:07:09Z</time>
    </trkpt>
    <trkpt lat="49.768699" lon="19.144626">
      <ele>917</ele>
      <time>2026-05-07T11:07:54Z</time>
    </trkpt>
    <trkpt lat="49.768607" lon="19.144865">
      <ele>917</ele>
      <time>2026-05-07T11:08:17Z</time>
    </trkpt>
    <trkpt lat="49.76847" lon="19.145267">
      <ele>916</ele>
      <time>2026-05-07T11:08:54Z</time>
    </trkpt>
    <trkpt lat="49.76836" lon="19.145613">
      <ele>914</ele>
      <time>2026-05-07T11:09:25Z</time>
    </trkpt>
    <trkpt lat="49.76825" lon="19.146123">
      <ele>913</ele>
      <time>2026-05-07T11:10:09Z</time>
    </trkpt>
    <trkpt lat="49.768209" lon="19.146415">
      <ele>912</ele>
      <time>2026-05-07T11:10:34Z</time>
    </trkpt>
    <trkpt lat="49.768134" lon="19.146799">
      <ele>910</ele>
      <time>2026-05-07T11:11:06Z</time>
    </trkpt>
    <trkpt lat="49.767902" lon="19.147841">
      <ele>908</ele>
      <time>2026-05-07T11:12:36Z</time>
    </trkpt>
    <trkpt lat="49.767836" lon="19.148193">
      <ele>904</ele>
      <time>2026-05-07T11:13:06Z</time>
    </trkpt>
    <trkpt lat="49.767733" lon="19.148448">
      <ele>902</ele>
      <time>2026-05-07T11:13:31Z</time>
    </trkpt>
    <trkpt lat="49.767702" lon="19.148561">
      <ele>901</ele>
      <time>2026-05-07T11:13:41Z</time>
    </trkpt>
    <trkpt lat="49.767698" lon="19.149092">
      <ele>901</ele>
      <time>2026-05-07T11:14:24Z</time>
    </trkpt>
    <trkpt lat="49.767677" lon="19.149347">
      <ele>900</ele>
      <time>2026-05-07T11:14:45Z</time>
    </trkpt>
    <trkpt lat="49.767658" lon="19.149513">
      <ele>899</ele>
      <time>2026-05-07T11:14:59Z</time>
    </trkpt>
    <trkpt lat="49.767568" lon="19.150146">
      <ele>895</ele>
      <time>2026-05-07T11:15:52Z</time>
    </trkpt>
    <trkpt lat="49.767507" lon="19.150399">
      <ele>894</ele>
      <time>2026-05-07T11:16:14Z</time>
    </trkpt>
    <trkpt lat="49.767468" lon="19.150602">
      <ele>892</ele>
      <time>2026-05-07T11:16:31Z</time>
    </trkpt>
    <trkpt lat="49.767424" lon="19.150852">
      <ele>890</ele>
      <time>2026-05-07T11:16:53Z</time>
    </trkpt>
    <trkpt lat="49.767262" lon="19.15158">
      <ele>890</ele>
      <time>2026-05-07T11:17:55Z</time>
    </trkpt>
    <trkpt lat="49.7671" lon="19.152402">
      <ele>889</ele>
      <time>2026-05-07T11:19:05Z</time>
    </trkpt>
    <trkpt lat="49.766996" lon="19.152797">
      <ele>889</ele>
      <time>2026-05-07T11:19:40Z</time>
    </trkpt>
    <trkpt lat="49.766953" lon="19.15307">
      <ele>890</ele>
      <time>2026-05-07T11:20:03Z</time>
    </trkpt>
    <trkpt lat="49.766924" lon="19.153448">
      <ele>891</ele>
      <time>2026-05-07T11:20:34Z</time>
    </trkpt>
    <trkpt lat="49.766915" lon="19.153857">
      <ele>894</ele>
      <time>2026-05-07T11:21:08Z</time>
    </trkpt>
    <trkpt lat="49.766925" lon="19.154199">
      <ele>898</ele>
      <time>2026-05-07T11:21:36Z</time>
    </trkpt>
    <trkpt lat="49.766918" lon="19.154388">
      <ele>900</ele>
      <time>2026-05-07T11:21:51Z</time>
    </trkpt>
    <trkpt lat="49.766808" lon="19.155158">
      <ele>907</ele>
      <time>2026-05-07T11:22:56Z</time>
    </trkpt>
    <trkpt lat="49.766783" lon="19.155329">
      <ele>908</ele>
      <time>2026-05-07T11:23:10Z</time>
    </trkpt>
    <trkpt lat="49.766767" lon="19.155841">
      <ele>911</ele>
      <time>2026-05-07T11:23:52Z</time>
    </trkpt>
    <trkpt lat="49.766768" lon="19.156198">
      <ele>913</ele>
      <time>2026-05-07T11:24:21Z</time>
    </trkpt>
    <trkpt lat="49.766796" lon="19.156961">
      <ele>914</ele>
      <time>2026-05-07T11:25:24Z</time>
    </trkpt>
    <trkpt lat="49.766847" lon="19.157227">
      <ele>915</ele>
      <time>2026-05-07T11:25:46Z</time>
    </trkpt>
    <trkpt lat="49.766981" lon="19.157924">
      <ele>922</ele>
      <time>2026-05-07T11:26:46Z</time>
    </trkpt>
    <trkpt lat="49.767096" lon="19.158257">
      <ele>924</ele>
      <time>2026-05-07T11:27:17Z</time>
    </trkpt>
    <trkpt lat="49.767181" lon="19.158496">
      <ele>925</ele>
      <time>2026-05-07T11:27:39Z</time>
    </trkpt>
    <trkpt lat="49.767275" lon="19.158658">
      <ele>925</ele>
      <time>2026-05-07T11:27:57Z</time>
    </trkpt>
    <trkpt lat="49.767371" lon="19.158765">
      <ele>925</ele>
      <time>2026-05-07T11:28:12Z</time>
    </trkpt>
    <trkpt lat="49.767449" lon="19.158923">
      <ele>926</ele>
      <time>2026-05-07T11:28:28Z</time>
    </trkpt>
    <trkpt lat="49.767581" lon="19.159308">
      <ele>927</ele>
      <time>2026-05-07T11:29:04Z</time>
    </trkpt>
    <trkpt lat="49.767698" lon="19.15969">
      <ele>929</ele>
      <time>2026-05-07T11:29:38Z</time>
    </trkpt>
    <trkpt lat="49.767721" lon="19.15999">
      <ele>931</ele>
      <time>2026-05-07T11:30:03Z</time>
    </trkpt>
    <trkpt lat="49.767715" lon="19.160125">
      <ele>931</ele>
      <time>2026-05-07T11:30:14Z</time>
    </trkpt>
    <trkpt lat="49.767709" lon="19.160259">
      <ele>932</ele>
      <time>2026-05-07T11:30:25Z</time>
    </trkpt>
    <trkpt lat="49.767722" lon="19.160457">
      <ele>933</ele>
      <time>2026-05-07T11:30:41Z</time>
    </trkpt>
    <trkpt lat="49.767748" lon="19.16058">
      <ele>934</ele>
      <time>2026-05-07T11:30:52Z</time>
    </trkpt>
    <trkpt lat="49.767838" lon="19.160831">
      <ele>934</ele>
      <time>2026-05-07T11:31:15Z</time>
    </trkpt>
    <trkpt lat="49.7678913" lon="19.1609758">
      <ele>932</ele>
      <time>2026-05-07T11:31:29Z</time>
    </trkpt>
    <trkpt lat="49.767838" lon="19.160831">
      <ele>934</ele>
      <time>2026-05-07T11:31:41Z</time>
    </trkpt>
    <trkpt lat="49.767748" lon="19.16058">
      <ele>934</ele>
      <time>2026-05-07T11:32:01Z</time>
    </trkpt>
    <trkpt lat="49.767722" lon="19.160457">
      <ele>933</ele>
      <time>2026-05-07T11:32:10Z</time>
    </trkpt>
    <trkpt lat="49.767709" lon="19.160259">
      <ele>932</ele>
      <time>2026-05-07T11:32:24Z</time>
    </trkpt>
    <trkpt lat="49.767715" lon="19.160125">
      <ele>931</ele>
      <time>2026-05-07T11:32:33Z</time>
    </trkpt>
    <trkpt lat="49.767721" lon="19.15999">
      <ele>931</ele>
      <time>2026-05-07T11:32:42Z</time>
    </trkpt>
    <trkpt lat="49.767698" lon="19.15969">
      <ele>929</ele>
      <time>2026-05-07T11:33:03Z</time>
    </trkpt>
    <trkpt lat="49.767581" lon="19.159308">
      <ele>927</ele>
      <time>2026-05-07T11:33:33Z</time>
    </trkpt>
    <trkpt lat="49.767449" lon="19.158923">
      <ele>926</ele>
      <time>2026-05-07T11:34:03Z</time>
    </trkpt>
    <trkpt lat="49.767371" lon="19.158765">
      <ele>925</ele>
      <time>2026-05-07T11:34:17Z</time>
    </trkpt>
    <trkpt lat="49.767275" lon="19.158658">
      <ele>925</ele>
      <time>2026-05-07T11:34:30Z</time>
    </trkpt>
    <trkpt lat="49.767181" lon="19.158496">
      <ele>925</ele>
      <time>2026-05-07T11:34:45Z</time>
    </trkpt>
    <trkpt lat="49.767096" lon="19.158257">
      <ele>924</ele>
      <time>2026-05-07T11:35:04Z</time>
    </trkpt>
    <trkpt lat="49.766981" lon="19.157924">
      <ele>922</ele>
      <time>2026-05-07T11:35:30Z</time>
    </trkpt>
    <trkpt lat="49.766847" lon="19.157227">
      <ele>915</ele>
      <time>2026-05-07T11:36:21Z</time>
    </trkpt>
    <trkpt lat="49.766796" lon="19.156961">
      <ele>914</ele>
      <time>2026-05-07T11:36:41Z</time>
    </trkpt>
    <trkpt lat="49.766768" lon="19.156198">
      <ele>913</ele>
      <time>2026-05-07T11:37:34Z</time>
    </trkpt>
    <trkpt lat="49.766767" lon="19.155841">
      <ele>911</ele>
      <time>2026-05-07T11:37:58Z</time>
    </trkpt>
    <trkpt lat="49.766783" lon="19.155329">
      <ele>908</ele>
      <time>2026-05-07T11:38:34Z</time>
    </trkpt>
    <trkpt lat="49.766808" lon="19.155158">
      <ele>907</ele>
      <time>2026-05-07T11:38:46Z</time>
    </trkpt>
    <trkpt lat="49.766918" lon="19.154388">
      <ele>900</ele>
      <time>2026-05-07T11:39:42Z</time>
    </trkpt>
    <trkpt lat="49.766925" lon="19.154199">
      <ele>898</ele>
      <time>2026-05-07T11:39:55Z</time>
    </trkpt>
    <trkpt lat="49.766915" lon="19.153857">
      <ele>894</ele>
      <time>2026-05-07T11:40:19Z</time>
    </trkpt>
    <trkpt lat="49.766924" lon="19.153448">
      <ele>891</ele>
      <time>2026-05-07T11:40:48Z</time>
    </trkpt>
    <trkpt lat="49.766953" lon="19.15307">
      <ele>890</ele>
      <time>2026-05-07T11:41:14Z</time>
    </trkpt>
    <trkpt lat="49.766996" lon="19.152797">
      <ele>889</ele>
      <time>2026-05-07T11:41:34Z</time>
    </trkpt>
    <trkpt lat="49.7671" lon="19.152402">
      <ele>889</ele>
      <time>2026-05-07T11:42:03Z</time>
    </trkpt>
    <trkpt lat="49.767262" lon="19.15158">
      <ele>890</ele>
      <time>2026-05-07T11:43:03Z</time>
    </trkpt>
    <trkpt lat="49.767424" lon="19.150852">
      <ele>890</ele>
      <time>2026-05-07T11:43:56Z</time>
    </trkpt>
    <trkpt lat="49.767468" lon="19.150602">
      <ele>892</ele>
      <time>2026-05-07T11:44:15Z</time>
    </trkpt>
    <trkpt lat="49.767507" lon="19.150399">
      <ele>894</ele>
      <time>2026-05-07T11:44:29Z</time>
    </trkpt>
    <trkpt lat="49.767568" lon="19.150146">
      <ele>895</ele>
      <time>2026-05-07T11:44:48Z</time>
    </trkpt>
    <trkpt lat="49.767658" lon="19.149513">
      <ele>899</ele>
      <time>2026-05-07T11:45:33Z</time>
    </trkpt>
    <trkpt lat="49.767677" lon="19.149347">
      <ele>900</ele>
      <time>2026-05-07T11:45:45Z</time>
    </trkpt>
    <trkpt lat="49.767698" lon="19.149092">
      <ele>901</ele>
      <time>2026-05-07T11:46:03Z</time>
    </trkpt>
    <trkpt lat="49.767702" lon="19.148561">
      <ele>901</ele>
      <time>2026-05-07T11:46:40Z</time>
    </trkpt>
    <trkpt lat="49.767733" lon="19.148448">
      <ele>902</ele>
      <time>2026-05-07T11:46:48Z</time>
    </trkpt>
    <trkpt lat="49.767836" lon="19.148193">
      <ele>904</ele>
      <time>2026-05-07T11:47:09Z</time>
    </trkpt>
    <trkpt lat="49.767902" lon="19.147841">
      <ele>908</ele>
      <time>2026-05-07T11:47:35Z</time>
    </trkpt>
    <trkpt lat="49.768134" lon="19.146799">
      <ele>910</ele>
      <time>2026-05-07T11:48:52Z</time>
    </trkpt>
    <trkpt lat="49.768209" lon="19.146415">
      <ele>912</ele>
      <time>2026-05-07T11:49:20Z</time>
    </trkpt>
    <trkpt lat="49.76825" lon="19.146123">
      <ele>913</ele>
      <time>2026-05-07T11:49:41Z</time>
    </trkpt>
    <trkpt lat="49.76836" lon="19.145613">
      <ele>914</ele>
      <time>2026-05-07T11:50:18Z</time>
    </trkpt>
    <trkpt lat="49.76847" lon="19.145267">
      <ele>916</ele>
      <time>2026-05-07T11:50:45Z</time>
    </trkpt>
    <trkpt lat="49.768607" lon="19.144865">
      <ele>917</ele>
      <time>2026-05-07T11:51:16Z</time>
    </trkpt>
    <trkpt lat="49.768699" lon="19.144626">
      <ele>917</ele>
      <time>2026-05-07T11:51:36Z</time>
    </trkpt>
    <trkpt lat="49.7689" lon="19.144162">
      <ele>920</ele>
      <time>2026-05-07T11:52:15Z</time>
    </trkpt>
    <trkpt lat="49.769291" lon="19.143455">
      <ele>919</ele>
      <time>2026-05-07T11:53:19Z</time>
    </trkpt>
    <trkpt lat="49.769503" lon="19.143046">
      <ele>915</ele>
      <time>2026-05-07T11:53:56Z</time>
    </trkpt>
    <trkpt lat="49.769572" lon="19.142829">
      <ele>915</ele>
      <time>2026-05-07T11:54:13Z</time>
    </trkpt>
    <trkpt lat="49.769671" lon="19.142647">
      <ele>914</ele>
      <time>2026-05-07T11:54:29Z</time>
    </trkpt>
    <trkpt lat="49.769759" lon="19.142486">
      <ele>913</ele>
      <time>2026-05-07T11:54:44Z</time>
    </trkpt>
    <trkpt lat="49.769897" lon="19.142227">
      <ele>910</ele>
      <time>2026-05-07T11:55:07Z</time>
    </trkpt>
    <trkpt lat="49.770065" lon="19.141946">
      <ele>906</ele>
      <time>2026-05-07T11:55:34Z</time>
    </trkpt>
    <trkpt lat="49.770203" lon="19.14178">
      <ele>902</ele>
      <time>2026-05-07T11:55:54Z</time>
    </trkpt>
    <trkpt lat="49.770288" lon="19.14166">
      <ele>900</ele>
      <time>2026-05-07T11:56:06Z</time>
    </trkpt>
    <trkpt lat="49.770346" lon="19.141483">
      <ele>898</ele>
      <time>2026-05-07T11:56:20Z</time>
    </trkpt>
    <trkpt lat="49.770364" lon="19.141394">
      <ele>897</ele>
      <time>2026-05-07T11:56:27Z</time>
    </trkpt>
    <trkpt lat="49.770419" lon="19.141139">
      <ele>896</ele>
      <time>2026-05-07T11:56:45Z</time>
    </trkpt>
    <trkpt lat="49.770487" lon="19.14068">
      <ele>894</ele>
      <time>2026-05-07T11:57:18Z</time>
    </trkpt>
    <trkpt lat="49.770567" lon="19.14038">
      <ele>892</ele>
      <time>2026-05-07T11:57:41Z</time>
    </trkpt>
    <trkpt lat="49.770641" lon="19.140187">
      <ele>892</ele>
      <time>2026-05-07T11:57:56Z</time>
    </trkpt>
    <trkpt lat="49.770709" lon="19.139965">
      <ele>894</ele>
      <time>2026-05-07T11:58:13Z</time>
    </trkpt>
    <trkpt lat="49.770781" lon="19.139653">
      <ele>895</ele>
      <time>2026-05-07T11:58:36Z</time>
    </trkpt>
    <trkpt lat="49.770871" lon="19.139217">
      <ele>895</ele>
      <time>2026-05-07T11:59:08Z</time>
    </trkpt>
    <trkpt lat="49.771005" lon="19.138826">
      <ele>894</ele>
      <time>2026-05-07T11:59:39Z</time>
    </trkpt>
    <trkpt lat="49.771112" lon="19.138602">
      <ele>894</ele>
      <time>2026-05-07T11:59:58Z</time>
    </trkpt>
    <trkpt lat="49.771161" lon="19.138463">
      <ele>893</ele>
      <time>2026-05-07T12:00:09Z</time>
    </trkpt>
    <trkpt lat="49.771183" lon="19.138265">
      <ele>893</ele>
      <time>2026-05-07T12:00:23Z</time>
    </trkpt>
    <trkpt lat="49.771191" lon="19.138184">
      <ele>893</ele>
      <time>2026-05-07T12:00:29Z</time>
    </trkpt>
    <trkpt lat="49.771255" lon="19.137997">
      <ele>893</ele>
      <time>2026-05-07T12:00:45Z</time>
    </trkpt>
    <trkpt lat="49.771363" lon="19.137731">
      <ele>894</ele>
      <time>2026-05-07T12:01:08Z</time>
    </trkpt>
    <trkpt lat="49.771517" lon="19.137422">
      <ele>894</ele>
      <time>2026-05-07T12:01:37Z</time>
    </trkpt>
    <trkpt lat="49.771616" lon="19.137306">
      <ele>894</ele>
      <time>2026-05-07T12:01:51Z</time>
    </trkpt>
    <trkpt lat="49.771715" lon="19.137221">
      <ele>894</ele>
      <time>2026-05-07T12:02:04Z</time>
    </trkpt>
    <trkpt lat="49.771867" lon="19.137068">
      <ele>896</ele>
      <time>2026-05-07T12:02:25Z</time>
    </trkpt>
    <trkpt lat="49.77192" lon="19.136994">
      <ele>897</ele>
      <time>2026-05-07T12:02:34Z</time>
    </trkpt>
    <trkpt lat="49.771999" lon="19.136894">
      <ele>897</ele>
      <time>2026-05-07T12:02:45Z</time>
    </trkpt>
    <trkpt lat="49.772062" lon="19.136811">
      <ele>897</ele>
      <time>2026-05-07T12:02:55Z</time>
    </trkpt>
    <trkpt lat="49.772125" lon="19.136706">
      <ele>897</ele>
      <time>2026-05-07T12:03:05Z</time>
    </trkpt>
    <trkpt lat="49.772178" lon="19.13662">
      <ele>898</ele>
      <time>2026-05-07T12:03:14Z</time>
    </trkpt>
    <trkpt lat="49.772224" lon="19.136523">
      <ele>899</ele>
      <time>2026-05-07T12:03:23Z</time>
    </trkpt>
    <trkpt lat="49.772337" lon="19.136295">
      <ele>901</ele>
      <time>2026-05-07T12:03:45Z</time>
    </trkpt>
    <trkpt lat="49.77241" lon="19.136178">
      <ele>902</ele>
      <time>2026-05-07T12:03:57Z</time>
    </trkpt>
    <trkpt lat="49.772453" lon="19.136123">
      <ele>904</ele>
      <time>2026-05-07T12:04:03Z</time>
    </trkpt>
    <trkpt lat="49.772541" lon="19.136005">
      <ele>905</ele>
      <time>2026-05-07T12:04:17Z</time>
    </trkpt>
    <trkpt lat="49.772627" lon="19.135878">
      <ele>907</ele>
      <time>2026-05-07T12:04:31Z</time>
    </trkpt>
    <trkpt lat="49.772737" lon="19.135742">
      <ele>910</ele>
      <time>2026-05-07T12:04:47Z</time>
    </trkpt>
    <trkpt lat="49.772858" lon="19.135571">
      <ele>913</ele>
      <time>2026-05-07T12:05:06Z</time>
    </trkpt>
    <trkpt lat="49.772917" lon="19.135492">
      <ele>914</ele>
      <time>2026-05-07T12:05:15Z</time>
    </trkpt>
    <trkpt lat="49.77298" lon="19.135408">
      <ele>915</ele>
      <time>2026-05-07T12:05:25Z</time>
    </trkpt>
    <trkpt lat="49.773132" lon="19.135286">
      <ele>916</ele>
      <time>2026-05-07T12:05:45Z</time>
    </trkpt>
    <trkpt lat="49.773278" lon="19.135189">
      <ele>915</ele>
      <time>2026-05-07T12:06:03Z</time>
    </trkpt>
    <trkpt lat="49.773419" lon="19.13512">
      <ele>912</ele>
      <time>2026-05-07T12:06:20Z</time>
    </trkpt>
    <trkpt lat="49.773562" lon="19.135035">
      <ele>909</ele>
      <time>2026-05-07T12:06:38Z</time>
    </trkpt>
    <trkpt lat="49.773622" lon="19.134981">
      <ele>908</ele>
      <time>2026-05-07T12:06:46Z</time>
    </trkpt>
    <trkpt lat="49.773731" lon="19.134874">
      <ele>906</ele>
      <time>2026-05-07T12:07:01Z</time>
    </trkpt>
    <trkpt lat="49.773903" lon="19.134673">
      <ele>904</ele>
      <time>2026-05-07T12:07:26Z</time>
    </trkpt>
    <trkpt lat="49.77407" lon="19.134444">
      <ele>901</ele>
      <time>2026-05-07T12:07:52Z</time>
    </trkpt>
    <trkpt lat="49.774301" lon="19.133964">
      <ele>895</ele>
      <time>2026-05-07T12:08:37Z</time>
    </trkpt>
    <trkpt lat="49.774388" lon="19.133822">
      <ele>895</ele>
      <time>2026-05-07T12:08:51Z</time>
    </trkpt>
    <trkpt lat="49.77462" lon="19.133562">
      <ele>896</ele>
      <time>2026-05-07T12:09:24Z</time>
    </trkpt>
    <trkpt lat="49.774753" lon="19.133379">
      <ele>898</ele>
      <time>2026-05-07T12:09:45Z</time>
    </trkpt>
    <trkpt lat="49.774884" lon="19.133181">
      <ele>899</ele>
      <time>2026-05-07T12:10:06Z</time>
    </trkpt>
    <trkpt lat="49.774948" lon="19.133098">
      <ele>899</ele>
      <time>2026-05-07T12:10:15Z</time>
    </trkpt>
    <trkpt lat="49.775109" lon="19.13292">
      <ele>901</ele>
      <time>2026-05-07T12:10:38Z</time>
    </trkpt>
    <trkpt lat="49.775321" lon="19.132781">
      <ele>903</ele>
      <time>2026-05-07T12:11:05Z</time>
    </trkpt>
    <trkpt lat="49.775783" lon="19.132479">
      <ele>902</ele>
      <time>2026-05-07T12:12:02Z</time>
    </trkpt>
    <trkpt lat="49.775878" lon="19.132325">
      <ele>902</ele>
      <time>2026-05-07T12:12:18Z</time>
    </trkpt>
    <trkpt lat="49.775909" lon="19.132169">
      <ele>901</ele>
      <time>2026-05-07T12:12:30Z</time>
    </trkpt>
    <trkpt lat="49.776049" lon="19.131636">
      <ele>900</ele>
      <time>2026-05-07T12:13:13Z</time>
    </trkpt>
    <trkpt lat="49.776322" lon="19.131062">
      <ele>901</ele>
      <time>2026-05-07T12:14:06Z</time>
    </trkpt>
    <trkpt lat="49.776493" lon="19.130753">
      <ele>903</ele>
      <time>2026-05-07T12:14:36Z</time>
    </trkpt>
    <trkpt lat="49.77661" lon="19.130609">
      <ele>904</ele>
      <time>2026-05-07T12:14:54Z</time>
    </trkpt>
    <trkpt lat="49.776678" lon="19.130472">
      <ele>905</ele>
      <time>2026-05-07T12:15:06Z</time>
    </trkpt>
    <trkpt lat="49.776735" lon="19.130317">
      <ele>906</ele>
      <time>2026-05-07T12:15:20Z</time>
    </trkpt>
    <trkpt lat="49.776784" lon="19.130227">
      <ele>909</ele>
      <time>2026-05-07T12:15:29Z</time>
    </trkpt>
    <trkpt lat="49.776999" lon="19.129878">
      <ele>908</ele>
      <time>2026-05-07T12:16:29Z</time>
    </trkpt>
    <trkpt lat="49.776928" lon="19.129732">
      <ele>909</ele>
      <time>2026-05-07T12:16:40Z</time>
    </trkpt>
    <trkpt lat="49.776812" lon="19.129546">
      <ele>909</ele>
      <time>2026-05-07T12:16:57Z</time>
    </trkpt>
    <trkpt lat="49.776737" lon="19.12932">
      <ele>907</ele>
      <time>2026-05-07T12:17:13Z</time>
    </trkpt>
    <trkpt lat="49.776647" lon="19.129172">
      <ele>906</ele>
      <time>2026-05-07T12:17:25Z</time>
    </trkpt>
    <trkpt lat="49.776497" lon="19.129014">
      <ele>902</ele>
      <time>2026-05-07T12:17:43Z</time>
    </trkpt>
    <trkpt lat="49.776332" lon="19.128882">
      <ele>897</ele>
      <time>2026-05-07T12:18:02Z</time>
    </trkpt>
    <trkpt lat="49.776099" lon="19.128692">
      <ele>892</ele>
      <time>2026-05-07T12:18:28Z</time>
    </trkpt>
    <trkpt lat="49.775889" lon="19.128527">
      <ele>887</ele>
      <time>2026-05-07T12:18:51Z</time>
    </trkpt>
    <trkpt lat="49.775645" lon="19.128333">
      <ele>880</ele>
      <time>2026-05-07T12:19:18Z</time>
    </trkpt>
    <trkpt lat="49.775347" lon="19.128077">
      <ele>870</ele>
      <time>2026-05-07T12:19:52Z</time>
    </trkpt>
    <trkpt lat="49.775212" lon="19.127983">
      <ele>867</ele>
      <time>2026-05-07T12:20:07Z</time>
    </trkpt>
    <trkpt lat="49.775076" lon="19.127861">
      <ele>862</ele>
      <time>2026-05-07T12:20:23Z</time>
    </trkpt>
    <trkpt lat="49.775045" lon="19.12781">
      <ele>861</ele>
      <time>2026-05-07T12:20:27Z</time>
    </trkpt>
    <trkpt lat="49.775034" lon="19.127727">
      <ele>859</ele>
      <time>2026-05-07T12:20:33Z</time>
    </trkpt>
    <trkpt lat="49.775048" lon="19.127499">
      <ele>854</ele>
      <time>2026-05-07T12:20:48Z</time>
    </trkpt>
    <trkpt lat="49.775064" lon="19.127327">
      <ele>851</ele>
      <time>2026-05-07T12:20:59Z</time>
    </trkpt>
    <trkpt lat="49.775072" lon="19.127202">
      <ele>849</ele>
      <time>2026-05-07T12:21:07Z</time>
    </trkpt>
    <trkpt lat="49.775086" lon="19.127116">
      <ele>848</ele>
      <time>2026-05-07T12:21:13Z</time>
    </trkpt>
    <trkpt lat="49.775135" lon="19.127033">
      <ele>847</ele>
      <time>2026-05-07T12:21:20Z</time>
    </trkpt>
    <trkpt lat="49.775174" lon="19.126937">
      <ele>846</ele>
      <time>2026-05-07T12:21:27Z</time>
    </trkpt>
    <trkpt lat="49.77519" lon="19.126832">
      <ele>844</ele>
      <time>2026-05-07T12:21:34Z</time>
    </trkpt>
    <trkpt lat="49.775193" lon="19.126743">
      <ele>842</ele>
      <time>2026-05-07T12:21:40Z</time>
    </trkpt>
    <trkpt lat="49.775376" lon="19.126388">
      <ele>837</ele>
      <time>2026-05-07T12:22:09Z</time>
    </trkpt>
    <trkpt lat="49.775425" lon="19.126289">
      <ele>836</ele>
      <time>2026-05-07T12:22:16Z</time>
    </trkpt>
    <trkpt lat="49.775484" lon="19.126151">
      <ele>835</ele>
      <time>2026-05-07T12:22:27Z</time>
    </trkpt>
    <trkpt lat="49.775534" lon="19.126003">
      <ele>834</ele>
      <time>2026-05-07T12:22:37Z</time>
    </trkpt>
    <trkpt lat="49.775765" lon="19.12524">
      <ele>832</ele>
      <time>2026-05-07T12:23:30Z</time>
    </trkpt>
    <trkpt lat="49.775796" lon="19.125086">
      <ele>832</ele>
      <time>2026-05-07T12:23:40Z</time>
    </trkpt>
    <trkpt lat="49.775827" lon="19.124859">
      <ele>831</ele>
      <time>2026-05-07T12:23:55Z</time>
    </trkpt>
    <trkpt lat="49.775862" lon="19.124574">
      <ele>828</ele>
      <time>2026-05-07T12:24:13Z</time>
    </trkpt>
    <trkpt lat="49.775868" lon="19.124487">
      <ele>827</ele>
      <time>2026-05-07T12:24:19Z</time>
    </trkpt>
    <trkpt lat="49.775871" lon="19.124377">
      <ele>826</ele>
      <time>2026-05-07T12:24:26Z</time>
    </trkpt>
    <trkpt lat="49.775737" lon="19.124068">
      <ele>819</ele>
      <time>2026-05-07T12:24:50Z</time>
    </trkpt>
    <trkpt lat="49.775675" lon="19.123923">
      <ele>817</ele>
      <time>2026-05-07T12:25:01Z</time>
    </trkpt>
    <trkpt lat="49.775582" lon="19.123789">
      <ele>814</ele>
      <time>2026-05-07T12:25:13Z</time>
    </trkpt>
    <trkpt lat="49.775529" lon="19.123635">
      <ele>812</ele>
      <time>2026-05-07T12:25:24Z</time>
    </trkpt>
    <trkpt lat="49.775511" lon="19.123485">
      <ele>811</ele>
      <time>2026-05-07T12:25:34Z</time>
    </trkpt>
    <trkpt lat="49.775469" lon="19.123177">
      <ele>809</ele>
      <time>2026-05-07T12:25:54Z</time>
    </trkpt>
    <trkpt lat="49.775416" lon="19.122863">
      <ele>804</ele>
      <time>2026-05-07T12:26:14Z</time>
    </trkpt>
    <trkpt lat="49.775343" lon="19.122537">
      <ele>801</ele>
      <time>2026-05-07T12:26:36Z</time>
    </trkpt>
    <trkpt lat="49.775233" lon="19.122128">
      <ele>797</ele>
      <time>2026-05-07T12:27:04Z</time>
    </trkpt>
    <trkpt lat="49.775178" lon="19.121957">
      <ele>795</ele>
      <time>2026-05-07T12:27:16Z</time>
    </trkpt>
    <trkpt lat="49.775103" lon="19.121742">
      <ele>793</ele>
      <time>2026-05-07T12:27:32Z</time>
    </trkpt>
    <trkpt lat="49.775034" lon="19.1215">
      <ele>792</ele>
      <time>2026-05-07T12:27:48Z</time>
    </trkpt>
    <trkpt lat="49.774959" lon="19.121206">
      <ele>790</ele>
      <time>2026-05-07T12:28:08Z</time>
    </trkpt>
    <trkpt lat="49.774911" lon="19.121034">
      <ele>788</ele>
      <time>2026-05-07T12:28:20Z</time>
    </trkpt>
    <trkpt lat="49.774866" lon="19.120873">
      <ele>786</ele>
      <time>2026-05-07T12:28:31Z</time>
    </trkpt>
    <trkpt lat="49.77479" lon="19.12072">
      <ele>782</ele>
      <time>2026-05-07T12:28:44Z</time>
    </trkpt>
    <trkpt lat="49.774744" lon="19.12056">
      <ele>780</ele>
      <time>2026-05-07T12:28:55Z</time>
    </trkpt>
    <trkpt lat="49.774676" lon="19.120524">
      <ele>778</ele>
      <time>2026-05-07T12:29:02Z</time>
    </trkpt>
    <trkpt lat="49.774619" lon="19.120345">
      <ele>776</ele>
      <time>2026-05-07T12:29:15Z</time>
    </trkpt>
    <trkpt lat="49.774582" lon="19.120284">
      <ele>775</ele>
      <time>2026-05-07T12:29:20Z</time>
    </trkpt>
    <trkpt lat="49.774544" lon="19.12026">
      <ele>774</ele>
      <time>2026-05-07T12:29:24Z</time>
    </trkpt>
    <trkpt lat="49.774467" lon="19.120166">
      <ele>772</ele>
      <time>2026-05-07T12:29:34Z</time>
    </trkpt>
    <trkpt lat="49.77443" lon="19.120135">
      <ele>771</ele>
      <time>2026-05-07T12:29:38Z</time>
    </trkpt>
    <trkpt lat="49.774402" lon="19.12013">
      <ele>770</ele>
      <time>2026-05-07T12:29:41Z</time>
    </trkpt>
    <trkpt lat="49.774346" lon="19.12014">
      <ele>769</ele>
      <time>2026-05-07T12:29:46Z</time>
    </trkpt>
    <trkpt lat="49.774274" lon="19.120151">
      <ele>767</ele>
      <time>2026-05-07T12:29:53Z</time>
    </trkpt>
    <trkpt lat="49.774242" lon="19.120143">
      <ele>766</ele>
      <time>2026-05-07T12:29:57Z</time>
    </trkpt>
    <trkpt lat="49.7742" lon="19.120069">
      <ele>766</ele>
      <time>2026-05-07T12:30:03Z</time>
    </trkpt>
    <trkpt lat="49.774142" lon="19.119995">
      <ele>764</ele>
      <time>2026-05-07T12:30:10Z</time>
    </trkpt>
    <trkpt lat="49.774105" lon="19.119947">
      <ele>764</ele>
      <time>2026-05-07T12:30:15Z</time>
    </trkpt>
    <trkpt lat="49.774077" lon="19.119912">
      <ele>763</ele>
      <time>2026-05-07T12:30:18Z</time>
    </trkpt>
    <trkpt lat="49.774053" lon="19.119902">
      <ele>762</ele>
      <time>2026-05-07T12:30:21Z</time>
    </trkpt>
    <trkpt lat="49.774021" lon="19.119908">
      <ele>762</ele>
      <time>2026-05-07T12:30:24Z</time>
    </trkpt>
    <trkpt lat="49.773982" lon="19.119869">
      <ele>761</ele>
      <time>2026-05-07T12:30:29Z</time>
    </trkpt>
    <trkpt lat="49.773898" lon="19.119765">
      <ele>758</ele>
      <time>2026-05-07T12:30:39Z</time>
    </trkpt>
    <trkpt lat="49.773812" lon="19.119673">
      <ele>756</ele>
      <time>2026-05-07T12:30:50Z</time>
    </trkpt>
    <trkpt lat="49.773701" lon="19.119641">
      <ele>752</ele>
      <time>2026-05-07T12:31:01Z</time>
    </trkpt>
    <trkpt lat="49.773686" lon="19.119608">
      <ele>752</ele>
      <time>2026-05-07T12:31:04Z</time>
    </trkpt>
    <trkpt lat="49.773649" lon="19.119489">
      <ele>751</ele>
      <time>2026-05-07T12:31:12Z</time>
    </trkpt>
    <trkpt lat="49.773564" lon="19.119387">
      <ele>749</ele>
      <time>2026-05-07T12:31:23Z</time>
    </trkpt>
    <trkpt lat="49.773493" lon="19.11927">
      <ele>747</ele>
      <time>2026-05-07T12:31:33Z</time>
    </trkpt>
    <trkpt lat="49.77329" lon="19.1191">
      <ele>741</ele>
      <time>2026-05-07T12:31:56Z</time>
    </trkpt>
    <trkpt lat="49.773215" lon="19.119045">
      <ele>739</ele>
      <time>2026-05-07T12:32:04Z</time>
    </trkpt>
    <trkpt lat="49.772992" lon="19.118901">
      <ele>735</ele>
      <time>2026-05-07T12:32:28Z</time>
    </trkpt>
    <trkpt lat="49.772865" lon="19.118786">
      <ele>732</ele>
      <time>2026-05-07T12:32:42Z</time>
    </trkpt>
    <trkpt lat="49.772776" lon="19.118621">
      <ele>730</ele>
      <time>2026-05-07T12:32:56Z</time>
    </trkpt>
    <trkpt lat="49.772738" lon="19.118627">
      <ele>729</ele>
      <time>2026-05-07T12:32:59Z</time>
    </trkpt>
    <trkpt lat="49.772672" lon="19.118612">
      <ele>727</ele>
      <time>2026-05-07T12:33:06Z</time>
    </trkpt>
    <trkpt lat="49.772521" lon="19.118611">
      <ele>724</ele>
      <time>2026-05-07T12:33:21Z</time>
    </trkpt>
    <trkpt lat="49.7724" lon="19.118559">
      <ele>720</ele>
      <time>2026-05-07T12:33:34Z</time>
    </trkpt>
    <trkpt lat="49.772134" lon="19.118346">
      <ele>713</ele>
      <time>2026-05-07T12:34:03Z</time>
    </trkpt>
    <trkpt lat="49.77199" lon="19.118289">
      <ele>709</ele>
      <time>2026-05-07T12:34:18Z</time>
    </trkpt>
    <trkpt lat="49.771668" lon="19.118042">
      <ele>700</ele>
      <time>2026-05-07T12:34:54Z</time>
    </trkpt>
    <trkpt lat="49.77144" lon="19.117832">
      <ele>694</ele>
      <time>2026-05-07T12:35:20Z</time>
    </trkpt>
    <trkpt lat="49.771244" lon="19.117548">
      <ele>690</ele>
      <time>2026-05-07T12:35:46Z</time>
    </trkpt>
    <trkpt lat="49.771117" lon="19.117286">
      <ele>689</ele>
      <time>2026-05-07T12:36:07Z</time>
    </trkpt>
    <trkpt lat="49.771051" lon="19.117208">
      <ele>688</ele>
      <time>2026-05-07T12:36:15Z</time>
    </trkpt>
    <trkpt lat="49.771004" lon="19.117199">
      <ele>687</ele>
      <time>2026-05-07T12:36:20Z</time>
    </trkpt>
    <trkpt lat="49.770917" lon="19.11715">
      <ele>685</ele>
      <time>2026-05-07T12:36:29Z</time>
    </trkpt>
    <trkpt lat="49.770838" lon="19.117126">
      <ele>684</ele>
      <time>2026-05-07T12:36:37Z</time>
    </trkpt>
    <trkpt lat="49.770715" lon="19.117091">
      <ele>681</ele>
      <time>2026-05-07T12:36:49Z</time>
    </trkpt>
    <trkpt lat="49.770594" lon="19.116976">
      <ele>679</ele>
      <time>2026-05-07T12:37:03Z</time>
    </trkpt>
    <trkpt lat="49.770523" lon="19.116825">
      <ele>676</ele>
      <time>2026-05-07T12:37:15Z</time>
    </trkpt>
    <trkpt lat="49.770496" lon="19.116783">
      <ele>675</ele>
      <time>2026-05-07T12:37:19Z</time>
    </trkpt>
    <trkpt lat="49.770488" lon="19.116687">
      <ele>674</ele>
      <time>2026-05-07T12:37:25Z</time>
    </trkpt>
    <trkpt lat="49.770457" lon="19.11656">
      <ele>673</ele>
      <time>2026-05-07T12:37:33Z</time>
    </trkpt>
    <trkpt lat="49.770385" lon="19.116305">
      <ele>670</ele>
      <time>2026-05-07T12:37:51Z</time>
    </trkpt>
    <trkpt lat="49.770334" lon="19.116181">
      <ele>668</ele>
      <time>2026-05-07T12:38:00Z</time>
    </trkpt>
    <trkpt lat="49.770266" lon="19.116108">
      <ele>666</ele>
      <time>2026-05-07T12:38:09Z</time>
    </trkpt>
    <trkpt lat="49.770202" lon="19.116086">
      <ele>665</ele>
      <time>2026-05-07T12:38:15Z</time>
    </trkpt>
    <trkpt lat="49.770125" lon="19.116106">
      <ele>664</ele>
      <time>2026-05-07T12:38:23Z</time>
    </trkpt>
    <trkpt lat="49.770056" lon="19.116171">
      <ele>663</ele>
      <time>2026-05-07T12:38:31Z</time>
    </trkpt>
    <trkpt lat="49.769994" lon="19.116245">
      <ele>662</ele>
      <time>2026-05-07T12:38:38Z</time>
    </trkpt>
    <trkpt lat="49.769972" lon="19.116277">
      <ele>662</ele>
      <time>2026-05-07T12:38:41Z</time>
    </trkpt>
    <trkpt lat="49.769757" lon="19.116345">
      <ele>658</ele>
      <time>2026-05-07T12:39:03Z</time>
    </trkpt>
    <trkpt lat="49.769534" lon="19.116351">
      <ele>655</ele>
      <time>2026-05-07T12:39:24Z</time>
    </trkpt>
    <trkpt lat="49.769286" lon="19.116361">
      <ele>651</ele>
      <time>2026-05-07T12:39:49Z</time>
    </trkpt>
    <trkpt lat="49.76903" lon="19.116313">
      <ele>646</ele>
      <time>2026-05-07T12:40:14Z</time>
    </trkpt>
    <trkpt lat="49.768798" lon="19.116238">
      <ele>641</ele>
      <time>2026-05-07T12:40:38Z</time>
    </trkpt>
    <trkpt lat="49.768642" lon="19.116157">
      <ele>638</ele>
      <time>2026-05-07T12:40:54Z</time>
    </trkpt>
    <trkpt lat="49.768507" lon="19.116093">
      <ele>636</ele>
      <time>2026-05-07T12:41:07Z</time>
    </trkpt>
    <trkpt lat="49.768275" lon="19.116061">
      <ele>633</ele>
      <time>2026-05-07T12:41:30Z</time>
    </trkpt>
    <trkpt lat="49.768174" lon="19.116007">
      <ele>630</ele>
      <time>2026-05-07T12:41:41Z</time>
    </trkpt>
    <trkpt lat="49.768094" lon="19.115921">
      <ele>628</ele>
      <time>2026-05-07T12:41:50Z</time>
    </trkpt>
    <trkpt lat="49.767973" lon="19.115825">
      <ele>625</ele>
      <time>2026-05-07T12:42:04Z</time>
    </trkpt>
    <trkpt lat="49.767887" lon="19.11575">
      <ele>622</ele>
      <time>2026-05-07T12:42:14Z</time>
    </trkpt>
    <trkpt lat="49.767757" lon="19.115682">
      <ele>618</ele>
      <time>2026-05-07T12:42:28Z</time>
    </trkpt>
    <trkpt lat="49.767684" lon="19.115642">
      <ele>616</ele>
      <time>2026-05-07T12:42:35Z</time>
    </trkpt>
    <trkpt lat="49.767674" lon="19.115532">
      <ele>615</ele>
      <time>2026-05-07T12:42:42Z</time>
    </trkpt>
    <trkpt lat="49.767726" lon="19.115363">
      <ele>614</ele>
      <time>2026-05-07T12:42:54Z</time>
    </trkpt>
    <trkpt lat="49.7678" lon="19.115122">
      <ele>611</ele>
      <time>2026-05-07T12:43:11Z</time>
    </trkpt>
    <trkpt lat="49.767812" lon="19.11494">
      <ele>608</ele>
      <time>2026-05-07T12:43:23Z</time>
    </trkpt>
    <trkpt lat="49.767797" lon="19.114733">
      <ele>603</ele>
      <time>2026-05-07T12:43:36Z</time>
    </trkpt>
    <trkpt lat="49.767783" lon="19.114594">
      <ele>601</ele>
      <time>2026-05-07T12:43:45Z</time>
    </trkpt>
    <trkpt lat="49.767784" lon="19.114443">
      <ele>598</ele>
      <time>2026-05-07T12:43:55Z</time>
    </trkpt>
    <trkpt lat="49.767815" lon="19.114261">
      <ele>595</ele>
      <time>2026-05-07T12:44:07Z</time>
    </trkpt>
    <trkpt lat="49.767791" lon="19.114033">
      <ele>591</ele>
      <time>2026-05-07T12:44:22Z</time>
    </trkpt>
    <trkpt lat="49.767767" lon="19.113834">
      <ele>587</ele>
      <time>2026-05-07T12:44:35Z</time>
    </trkpt>
    <trkpt lat="49.767726" lon="19.113656">
      <ele>582</ele>
      <time>2026-05-07T12:44:48Z</time>
    </trkpt>
    <trkpt lat="49.767688" lon="19.113432">
      <ele>578</ele>
      <time>2026-05-07T12:45:03Z</time>
    </trkpt>
    <trkpt lat="49.767699" lon="19.113212">
      <ele>575</ele>
      <time>2026-05-07T12:45:17Z</time>
    </trkpt>
    <trkpt lat="49.767691" lon="19.113009">
      <ele>572</ele>
      <time>2026-05-07T12:45:30Z</time>
    </trkpt>
    <trkpt lat="49.767637" lon="19.112821">
      <ele>568</ele>
      <time>2026-05-07T12:45:43Z</time>
    </trkpt>
    <trkpt lat="49.767564" lon="19.112622">
      <ele>564</ele>
      <time>2026-05-07T12:45:58Z</time>
    </trkpt>
    <trkpt lat="49.767518" lon="19.11245">
      <ele>560</ele>
      <time>2026-05-07T12:46:10Z</time>
    </trkpt>
    <trkpt lat="49.767391" lon="19.112228">
      <ele>556</ele>
      <time>2026-05-07T12:46:29Z</time>
    </trkpt>
    <trkpt lat="49.76732" lon="19.112118">
      <ele>553</ele>
      <time>2026-05-07T12:46:39Z</time>
    </trkpt>
    <trkpt lat="49.767254" lon="19.111978">
      <ele>550</ele>
      <time>2026-05-07T12:46:50Z</time>
    </trkpt>
    <trkpt lat="49.767218" lon="19.111901">
      <ele>548</ele>
      <time>2026-05-07T12:46:56Z</time>
    </trkpt>
    <trkpt lat="49.767166" lon="19.111823">
      <ele>545</ele>
      <time>2026-05-07T12:47:04Z</time>
    </trkpt>
    <trkpt lat="49.767129" lon="19.111651">
      <ele>541</ele>
      <time>2026-05-07T12:47:16Z</time>
    </trkpt>
    <trkpt lat="49.767123" lon="19.111498">
      <ele>538</ele>
      <time>2026-05-07T12:47:26Z</time>
    </trkpt>
    <trkpt lat="49.767114" lon="19.111329">
      <ele>536</ele>
      <time>2026-05-07T12:47:36Z</time>
    </trkpt>
    <trkpt lat="49.767099" lon="19.111247">
      <ele>535</ele>
      <time>2026-05-07T12:47:42Z</time>
    </trkpt>
    <trkpt lat="49.767083" lon="19.111155">
      <ele>533</ele>
      <time>2026-05-07T12:47:48Z</time>
    </trkpt>
    <trkpt lat="49.767033" lon="19.111037">
      <ele>532</ele>
      <time>2026-05-07T12:47:57Z</time>
    </trkpt>
    <trkpt lat="49.766962" lon="19.110927">
      <ele>529</ele>
      <time>2026-05-07T12:48:07Z</time>
    </trkpt>
    <trkpt lat="49.766828" lon="19.110731">
      <ele>526</ele>
      <time>2026-05-07T12:48:25Z</time>
    </trkpt>
    <trkpt lat="49.766686" lon="19.110476">
      <ele>520</ele>
      <time>2026-05-07T12:48:47Z</time>
    </trkpt>
    <trkpt lat="49.766657" lon="19.110321">
      <ele>517</ele>
      <time>2026-05-07T12:48:57Z</time>
    </trkpt>
    <trkpt lat="49.766553" lon="19.11008">
      <ele>514</ele>
      <time>2026-05-07T12:49:15Z</time>
    </trkpt>
    <trkpt lat="49.766433" lon="19.109953">
      <ele>512</ele>
      <time>2026-05-07T12:49:30Z</time>
    </trkpt>
    <trkpt lat="49.766324" lon="19.109822">
      <ele>511</ele>
      <time>2026-05-07T12:49:43Z</time>
    </trkpt>
    <trkpt lat="49.766216" lon="19.109642">
      <ele>510</ele>
      <time>2026-05-07T12:49:58Z</time>
    </trkpt>
    <trkpt lat="49.766165" lon="19.109516">
      <ele>509</ele>
      <time>2026-05-07T12:50:08Z</time>
    </trkpt>
    <trkpt lat="49.766102" lon="19.109323">
      <ele>508</ele>
      <time>2026-05-07T12:50:21Z</time>
    </trkpt>
    <trkpt lat="49.766073" lon="19.109216">
      <ele>508</ele>
      <time>2026-05-07T12:50:29Z</time>
    </trkpt>
    <trkpt lat="49.766057" lon="19.10905">
      <ele>507</ele>
      <time>2026-05-07T12:50:39Z</time>
    </trkpt>
    <trkpt lat="49.76604" lon="19.108926">
      <ele>507</ele>
      <time>2026-05-07T12:50:47Z</time>
    </trkpt>
    <trkpt lat="49.765998" lon="19.108757">
      <ele>507</ele>
      <time>2026-05-07T12:50:58Z</time>
    </trkpt>
    <trkpt lat="49.76596" lon="19.108642">
      <ele>507</ele>
      <time>2026-05-07T12:51:07Z</time>
    </trkpt>
    <trkpt lat="49.76583" lon="19.108427">
      <ele>506</ele>
      <time>2026-05-07T12:51:25Z</time>
    </trkpt>
    <trkpt lat="49.765714" lon="19.108226">
      <ele>504</ele>
      <time>2026-05-07T12:51:42Z</time>
    </trkpt>
    <trkpt lat="49.765643" lon="19.108084">
      <ele>502</ele>
      <time>2026-05-07T12:51:53Z</time>
    </trkpt>
    <trkpt lat="49.765579" lon="19.107904">
      <ele>501</ele>
      <time>2026-05-07T12:52:06Z</time>
    </trkpt>
    <trkpt lat="49.765466" lon="19.107744">
      <ele>499</ele>
      <time>2026-05-07T12:52:21Z</time>
    </trkpt>
    <trkpt lat="49.765291" lon="19.107521">
      <ele>496</ele>
      <time>2026-05-07T12:52:43Z</time>
    </trkpt>
    <trkpt lat="49.765179" lon="19.107365">
      <ele>493</ele>
      <time>2026-05-07T12:52:58Z</time>
    </trkpt>
    <trkpt lat="49.765123" lon="19.107312">
      <ele>492</ele>
      <time>2026-05-07T12:53:05Z</time>
    </trkpt>
    <trkpt lat="49.764994" lon="19.107081">
      <ele>490</ele>
      <time>2026-05-07T12:53:24Z</time>
    </trkpt>
    <trkpt lat="49.764839" lon="19.106947">
      <ele>489</ele>
      <time>2026-05-07T12:53:41Z</time>
    </trkpt>
    <trkpt lat="49.764802" lon="19.106887">
      <ele>489</ele>
      <time>2026-05-07T12:53:46Z</time>
    </trkpt>
    <trkpt lat="49.764599" lon="19.106588">
      <ele>488</ele>
      <time>2026-05-07T12:54:13Z</time>
    </trkpt>
    <trkpt lat="49.764466" lon="19.106362">
      <ele>487</ele>
      <time>2026-05-07T12:54:33Z</time>
    </trkpt>
    <trkpt lat="49.764444" lon="19.106324">
      <ele>486</ele>
      <time>2026-05-07T12:54:36Z</time>
    </trkpt>
    <trkpt lat="49.764366" lon="19.106201">
      <ele>485</ele>
      <time>2026-05-07T12:54:47Z</time>
    </trkpt>
    <trkpt lat="49.764008" lon="19.1058">
      <ele>480</ele>
      <time>2026-05-07T12:55:30Z</time>
    </trkpt>
    <trkpt lat="49.763739" lon="19.105548">
      <ele>474</ele>
      <time>2026-05-07T12:56:01Z</time>
    </trkpt>
    <trkpt lat="49.763476" lon="19.105365">
      <ele>469</ele>
      <time>2026-05-07T12:56:29Z</time>
    </trkpt>
    <trkpt lat="49.763242" lon="19.105206">
      <ele>465</ele>
      <time>2026-05-07T12:56:54Z</time>
    </trkpt>
    <trkpt lat="49.762986" lon="19.105017">
      <ele>461</ele>
      <time>2026-05-07T12:57:22Z</time>
    </trkpt>
    <trkpt lat="49.762647" lon="19.104766">
      <ele>452</ele>
      <time>2026-05-07T12:57:59Z</time>
    </trkpt>
    <trkpt lat="49.762353" lon="19.104591">
      <ele>446</ele>
      <time>2026-05-07T12:58:30Z</time>
    </trkpt>
    <trkpt lat="49.762301" lon="19.104515">
      <ele>446</ele>
      <time>2026-05-07T12:58:37Z</time>
    </trkpt>
    <trkpt lat="49.76227" lon="19.104436">
      <ele>445</ele>
      <time>2026-05-07T12:58:43Z</time>
    </trkpt>
    <trkpt lat="49.762235" lon="19.104194">
      <ele>443</ele>
      <time>2026-05-07T12:58:58Z</time>
    </trkpt>
    <trkpt lat="49.762158" lon="19.103867">
      <ele>442</ele>
      <time>2026-05-07T12:59:20Z</time>
    </trkpt>
    <trkpt lat="49.761767" lon="19.103636">
      <ele>440</ele>
      <time>2026-05-07T13:00:01Z</time>
    </trkpt>
    <trkpt lat="49.761633" lon="19.103549">
      <ele>439</ele>
      <time>2026-05-07T13:00:15Z</time>
    </trkpt>
    <trkpt lat="49.761407" lon="19.103416">
      <ele>437</ele>
      <time>2026-05-07T13:00:38Z</time>
    </trkpt>
    <trkpt lat="49.761401" lon="19.10319">
      <ele>437</ele>
      <time>2026-05-07T13:00:53Z</time>
    </trkpt>
    <trkpt lat="49.761405" lon="19.103007">
      <ele>437</ele>
      <time>2026-05-07T13:01:04Z</time>
    </trkpt>
    <trkpt lat="49.761427" lon="19.102705">
      <ele>437</ele>
      <time>2026-05-07T13:01:23Z</time>
    </trkpt>
    <trkpt lat="49.761474" lon="19.102085">
      <ele>434</ele>
      <time>2026-05-07T13:02:02Z</time>
    </trkpt>
    <trkpt lat="49.761501" lon="19.10195">
      <ele>434</ele>
      <time>2026-05-07T13:02:11Z</time>
    </trkpt>
    <trkpt lat="49.76152" lon="19.101904">
      <ele>434</ele>
      <time>2026-05-07T13:02:14Z</time>
    </trkpt>
    <trkpt lat="49.761599" lon="19.101665">
      <ele>433</ele>
      <time>2026-05-07T13:02:31Z</time>
    </trkpt>
    <trkpt lat="49.761654" lon="19.101468">
      <ele>433</ele>
      <time>2026-05-07T13:02:45Z</time>
    </trkpt>
    <trkpt lat="49.761811" lon="19.1007">
      <ele>430</ele>
      <time>2026-05-07T13:03:35Z</time>
    </trkpt>
    <trkpt lat="49.761825" lon="19.10059">
      <ele>430</ele>
      <time>2026-05-07T13:03:42Z</time>
    </trkpt>
    <trkpt lat="49.761806" lon="19.100472">
      <ele>429</ele>
      <time>2026-05-07T13:03:50Z</time>
    </trkpt>
    <trkpt lat="49.761776" lon="19.10034">
      <ele>428</ele>
      <time>2026-05-07T13:03:59Z</time>
    </trkpt>
    <trkpt lat="49.76167" lon="19.099896">
      <ele>427</ele>
      <time>2026-05-07T13:04:28Z</time>
    </trkpt>
    <trkpt lat="49.761667" lon="19.09972">
      <ele>427</ele>
      <time>2026-05-07T13:04:39Z</time>
    </trkpt>
    <trkpt lat="49.761689" lon="19.099574">
      <ele>426</ele>
      <time>2026-05-07T13:04:49Z</time>
    </trkpt>
    <trkpt lat="49.761756" lon="19.099445">
      <ele>426</ele>
      <time>2026-05-07T13:04:59Z</time>
    </trkpt>
    <trkpt lat="49.761936" lon="19.099272">
      <ele>426</ele>
      <time>2026-05-07T13:05:20Z</time>
    </trkpt>
    <trkpt lat="49.762" lon="19.099217">
      <ele>426</ele>
      <time>2026-05-07T13:05:27Z</time>
    </trkpt>
    <trkpt lat="49.762043" lon="19.099146">
      <ele>425</ele>
      <time>2026-05-07T13:05:33Z</time>
    </trkpt>
    <trkpt lat="49.762078" lon="19.099017">
      <ele>425</ele>
      <time>2026-05-07T13:05:42Z</time>
    </trkpt>
    <trkpt lat="49.762095" lon="19.098877">
      <ele>424</ele>
      <time>2026-05-07T13:05:51Z</time>
    </trkpt>
    <trkpt lat="49.762082" lon="19.098618">
      <ele>423</ele>
      <time>2026-05-07T13:06:07Z</time>
    </trkpt>
    <trkpt lat="49.762039" lon="19.098369">
      <ele>422</ele>
      <time>2026-05-07T13:06:23Z</time>
    </trkpt>
    <trkpt lat="49.762038" lon="19.098228">
      <ele>421</ele>
      <time>2026-05-07T13:06:32Z</time>
    </trkpt>
    <trkpt lat="49.762069" lon="19.098104">
      <ele>421</ele>
      <time>2026-05-07T13:06:40Z</time>
    </trkpt>
    <trkpt lat="49.762208" lon="19.09776">
      <ele>420</ele>
      <time>2026-05-07T13:07:06Z</time>
    </trkpt>
    <trkpt lat="49.762247" lon="19.097638">
      <ele>420</ele>
      <time>2026-05-07T13:07:14Z</time>
    </trkpt>
    <trkpt lat="49.762262" lon="19.097516">
      <ele>420</ele>
      <time>2026-05-07T13:07:22Z</time>
    </trkpt>
    <trkpt lat="49.762247" lon="19.097389">
      <ele>420</ele>
      <time>2026-05-07T13:07:30Z</time>
    </trkpt>
    <trkpt lat="49.762245" lon="19.097241">
      <ele>420</ele>
      <time>2026-05-07T13:07:39Z</time>
    </trkpt>
    <trkpt lat="49.762283" lon="19.096851">
      <ele>419</ele>
      <time>2026-05-07T13:08:04Z</time>
    </trkpt>
    <trkpt lat="49.762295" lon="19.096627">
      <ele>419</ele>
      <time>2026-05-07T13:08:18Z</time>
    </trkpt>
    <trkpt lat="49.76228" lon="19.09644">
      <ele>418</ele>
      <time>2026-05-07T13:08:30Z</time>
    </trkpt>
    <trkpt lat="49.76225" lon="19.096182">
      <ele>419</ele>
      <time>2026-05-07T13:08:47Z</time>
    </trkpt>
    <trkpt lat="49.762239" lon="19.095999">
      <ele>418</ele>
      <time>2026-05-07T13:08:58Z</time>
    </trkpt>
    <trkpt lat="49.762253" lon="19.095804">
      <ele>418</ele>
      <time>2026-05-07T13:09:10Z</time>
    </trkpt>
    <trkpt lat="49.762293" lon="19.095657">
      <ele>417</ele>
      <time>2026-05-07T13:09:20Z</time>
    </trkpt>
    <trkpt lat="49.762404" lon="19.095443">
      <ele>416</ele>
      <time>2026-05-07T13:09:38Z</time>
    </trkpt>
    <trkpt lat="49.762429" lon="19.095395">
      <ele>416</ele>
      <time>2026-05-07T13:09:41Z</time>
    </trkpt>
    <trkpt lat="49.762379" lon="19.095384">
      <ele>416</ele>
      <time>2026-05-07T13:09:46Z</time>
    </trkpt>
    <trkpt lat="49.762272" lon="19.095359">
      <ele>417</ele>
      <time>2026-05-07T13:09:57Z</time>
    </trkpt>
    <trkpt lat="49.7615" lon="19.095057">
      <ele>415</ele>
      <time>2026-05-07T13:11:14Z</time>
    </trkpt>
    <trkpt lat="49.761437" lon="19.095033">
      <ele>415</ele>
      <time>2026-05-07T13:11:20Z</time>
    </trkpt>
    <trkpt lat="49.761351" lon="19.094997">
      <ele>415</ele>
      <time>2026-05-07T13:11:29Z</time>
    </trkpt>
    <trkpt lat="49.761306" lon="19.094747">
      <ele>414</ele>
      <time>2026-05-07T13:11:47Z</time>
    </trkpt>
    <trkpt lat="49.761247" lon="19.094479">
      <ele>414</ele>
      <time>2026-05-07T13:12:06Z</time>
    </trkpt>
    <trkpt lat="49.761185" lon="19.094289">
      <ele>414</ele>
      <time>2026-05-07T13:12:20Z</time>
    </trkpt>
    <trkpt lat="49.761153" lon="19.094207">
      <ele>414</ele>
      <time>2026-05-07T13:12:27Z</time>
    </trkpt>
    <trkpt lat="49.761107" lon="19.09409">
      <ele>414</ele>
      <time>2026-05-07T13:12:36Z</time>
    </trkpt>
    <trkpt lat="49.761064" lon="19.093984">
      <ele>413</ele>
      <time>2026-05-07T13:12:45Z</time>
    </trkpt>
    <trkpt lat="49.761043" lon="19.093918">
      <ele>413</ele>
      <time>2026-05-07T13:12:50Z</time>
    </trkpt>
    <trkpt lat="49.761028" lon="19.093849">
      <ele>413</ele>
      <time>2026-05-07T13:12:55Z</time>
    </trkpt>
    <trkpt lat="49.761019" lon="19.093789">
      <ele>413</ele>
      <time>2026-05-07T13:12:59Z</time>
    </trkpt>
    <trkpt lat="49.761016" lon="19.093721">
      <ele>413</ele>
      <time>2026-05-07T13:13:04Z</time>
    </trkpt>
    <trkpt lat="49.761017" lon="19.093655">
      <ele>413</ele>
      <time>2026-05-07T13:13:08Z</time>
    </trkpt>
    <trkpt lat="49.761065" lon="19.093136">
      <ele>412</ele>
      <time>2026-05-07T13:13:44Z</time>
    </trkpt>
    <trkpt lat="49.761083" lon="19.092935">
      <ele>411</ele>
      <time>2026-05-07T13:13:58Z</time>
    </trkpt>
    <trkpt lat="49.761106" lon="19.092776">
      <ele>410</ele>
      <time>2026-05-07T13:14:09Z</time>
    </trkpt>
    <trkpt lat="49.761138" lon="19.092635">
      <ele>410</ele>
      <time>2026-05-07T13:14:19Z</time>
    </trkpt>
    <trkpt lat="49.761184" lon="19.09248">
      <ele>410</ele>
      <time>2026-05-07T13:14:31Z</time>
    </trkpt>
    <trkpt lat="49.761336" lon="19.092111">
      <ele>409</ele>
      <time>2026-05-07T13:15:01Z</time>
    </trkpt>
    <trkpt lat="49.761397" lon="19.091958">
      <ele>409</ele>
      <time>2026-05-07T13:15:13Z</time>
    </trkpt>
    <trkpt lat="49.761436" lon="19.091836">
      <ele>408</ele>
      <time>2026-05-07T13:15:22Z</time>
    </trkpt>
    <trkpt lat="49.761492" lon="19.09164">
      <ele>408</ele>
      <time>2026-05-07T13:15:37Z</time>
    </trkpt>
    <trkpt lat="49.761544" lon="19.091423">
      <ele>407</ele>
      <time>2026-05-07T13:15:52Z</time>
    </trkpt>
    <trkpt lat="49.761582" lon="19.09125">
      <ele>407</ele>
      <time>2026-05-07T13:16:05Z</time>
    </trkpt>
    <trkpt lat="49.761592" lon="19.091195">
      <ele>406</ele>
      <time>2026-05-07T13:16:09Z</time>
    </trkpt>
    <trkpt lat="49.761619" lon="19.091034">
      <ele>406</ele>
      <time>2026-05-07T13:16:20Z</time>
    </trkpt>
    <trkpt lat="49.761648" lon="19.090912">
      <ele>406</ele>
      <time>2026-05-07T13:16:29Z</time>
    </trkpt>
    <trkpt lat="49.761776" lon="19.090656">
      <ele>405</ele>
      <time>2026-05-07T13:16:50Z</time>
    </trkpt>
    <trkpt lat="49.761824" lon="19.090509">
      <ele>404</ele>
      <time>2026-05-07T13:17:01Z</time>
    </trkpt>
    <trkpt lat="49.761948" lon="19.089911">
      <ele>401</ele>
      <time>2026-05-07T13:17:41Z</time>
    </trkpt>
    <trkpt lat="49.761957" lon="19.089869">
      <ele>401</ele>
      <time>2026-05-07T13:17:44Z</time>
    </trkpt>
    <trkpt lat="49.76223" lon="19.0886">
      <ele>399</ele>
      <time>2026-05-07T13:19:10Z</time>
    </trkpt>
    <trkpt lat="49.762434" lon="19.087297">
      <ele>396</ele>
      <time>2026-05-07T13:20:37Z</time>
    </trkpt>
    <trkpt lat="49.762447" lon="19.087219">
      <ele>396</ele>
      <time>2026-05-07T13:20:42Z</time>
    </trkpt>
    <trkpt lat="49.76247" lon="19.087027">
      <ele>396</ele>
      <time>2026-05-07T13:20:55Z</time>
    </trkpt>
    <trkpt lat="49.762494" lon="19.086865">
      <ele>396</ele>
      <time>2026-05-07T13:21:05Z</time>
    </trkpt>
    <trkpt lat="49.762504" lon="19.086787">
      <ele>396</ele>
      <time>2026-05-07T13:21:11Z</time>
    </trkpt>
    <trkpt lat="49.762518" lon="19.086686">
      <ele>396</ele>
      <time>2026-05-07T13:21:17Z</time>
    </trkpt>
    <trkpt lat="49.762544" lon="19.086507">
      <ele>396</ele>
      <time>2026-05-07T13:21:29Z</time>
    </trkpt>
  </trkseg>
</trk>
</gpx>