<?xml version="1.0" encoding="UTF-8"?><gpx creator="https://mapa-turystyczna.pl" xmlns="http://www.topografix.com/GPX/1/1" version="1.1" xmlns:xsi="http://www.w3.org/2001/XMLSchema-instance" xsi:schemaLocation="http://www.topografix.com/GPX/1/1 http://www.topografix.com/GPX/1/1/gpx.xsd">
  <metadata>
    <link href="https://mapa-turystyczna.pl">
      <text>mapa-turystyczna.pl</text>
    </link>
    <time>2026-05-05T12:13:20Z</time>
    <bounds maxlat="50.865465" maxlon="16.70916" minlat="50.846281" minlon="16.684987"/>
  </metadata>

<trk>
  <name>Przełęcz Tąpadła, parking – Przełęcz Tąpadła, parking</name>
  <link href="https://mapa-turystyczna.pl/route/wmqv">
    <text>Przełęcz Tąpadła, parking – Przełęcz Tąpadła, parking</text>
  </link>
  <trkseg>
    <trkpt lat="50.846288" lon="16.698769">
      <ele>378</ele>
      <time>2026-05-05T12:13:20Z</time>
    </trkpt>
    <trkpt lat="50.846281" lon="16.698625">
      <ele>380</ele>
      <time>2026-05-05T12:13:33Z</time>
    </trkpt>
    <trkpt lat="50.846513" lon="16.698408">
      <ele>383</ele>
      <time>2026-05-05T12:14:11Z</time>
    </trkpt>
    <trkpt lat="50.846584" lon="16.698337">
      <ele>383</ele>
      <time>2026-05-05T12:14:23Z</time>
    </trkpt>
    <trkpt lat="50.846646" lon="16.698256">
      <ele>383</ele>
      <time>2026-05-05T12:14:34Z</time>
    </trkpt>
    <trkpt lat="50.846815" lon="16.698039">
      <ele>384</ele>
      <time>2026-05-05T12:15:05Z</time>
    </trkpt>
    <trkpt lat="50.847224" lon="16.697513">
      <ele>391</ele>
      <time>2026-05-05T12:16:20Z</time>
    </trkpt>
    <trkpt lat="50.847322" lon="16.697456">
      <ele>392</ele>
      <time>2026-05-05T12:16:38Z</time>
    </trkpt>
    <trkpt lat="50.847812" lon="16.697364">
      <ele>396</ele>
      <time>2026-05-05T12:18:03Z</time>
    </trkpt>
    <trkpt lat="50.84825" lon="16.697248">
      <ele>404</ele>
      <time>2026-05-05T12:19:20Z</time>
    </trkpt>
    <trkpt lat="50.848453" lon="16.697229">
      <ele>408</ele>
      <time>2026-05-05T12:19:57Z</time>
    </trkpt>
    <trkpt lat="50.848744" lon="16.69732">
      <ele>412</ele>
      <time>2026-05-05T12:20:50Z</time>
    </trkpt>
    <trkpt lat="50.84903" lon="16.697398">
      <ele>416</ele>
      <time>2026-05-05T12:21:43Z</time>
    </trkpt>
    <trkpt lat="50.849328" lon="16.697394">
      <ele>420</ele>
      <time>2026-05-05T12:22:37Z</time>
    </trkpt>
    <trkpt lat="50.849636" lon="16.697482">
      <ele>423</ele>
      <time>2026-05-05T12:23:33Z</time>
    </trkpt>
    <trkpt lat="50.849889" lon="16.697461">
      <ele>426</ele>
      <time>2026-05-05T12:24:18Z</time>
    </trkpt>
    <trkpt lat="50.850071" lon="16.69738">
      <ele>428</ele>
      <time>2026-05-05T12:24:52Z</time>
    </trkpt>
    <trkpt lat="50.8502" lon="16.697306">
      <ele>428</ele>
      <time>2026-05-05T12:25:17Z</time>
    </trkpt>
    <trkpt lat="50.850314" lon="16.697311">
      <ele>430</ele>
      <time>2026-05-05T12:25:37Z</time>
    </trkpt>
    <trkpt lat="50.850462" lon="16.697323">
      <ele>432</ele>
      <time>2026-05-05T12:26:04Z</time>
    </trkpt>
    <trkpt lat="50.850612" lon="16.697305">
      <ele>435</ele>
      <time>2026-05-05T12:26:32Z</time>
    </trkpt>
    <trkpt lat="50.850755" lon="16.697162">
      <ele>437</ele>
      <time>2026-05-05T12:27:02Z</time>
    </trkpt>
    <trkpt lat="50.850906" lon="16.696987">
      <ele>441</ele>
      <time>2026-05-05T12:27:36Z</time>
    </trkpt>
    <trkpt lat="50.851074" lon="16.696863">
      <ele>445</ele>
      <time>2026-05-05T12:28:10Z</time>
    </trkpt>
    <trkpt lat="50.851216" lon="16.696729">
      <ele>448</ele>
      <time>2026-05-05T12:28:40Z</time>
    </trkpt>
    <trkpt lat="50.851374" lon="16.696606">
      <ele>450</ele>
      <time>2026-05-05T12:29:12Z</time>
    </trkpt>
    <trkpt lat="50.851624" lon="16.696489">
      <ele>455</ele>
      <time>2026-05-05T12:29:59Z</time>
    </trkpt>
    <trkpt lat="50.851665" lon="16.696471">
      <ele>456</ele>
      <time>2026-05-05T12:30:07Z</time>
    </trkpt>
    <trkpt lat="50.85193" lon="16.696357">
      <ele>461</ele>
      <time>2026-05-05T12:30:56Z</time>
    </trkpt>
    <trkpt lat="50.852119" lon="16.696236">
      <ele>463</ele>
      <time>2026-05-05T12:31:33Z</time>
    </trkpt>
    <trkpt lat="50.852541" lon="16.69551">
      <ele>471</ele>
      <time>2026-05-05T12:33:25Z</time>
    </trkpt>
    <trkpt lat="50.852719" lon="16.695133">
      <ele>475</ele>
      <time>2026-05-05T12:34:19Z</time>
    </trkpt>
    <trkpt lat="50.852858" lon="16.694743">
      <ele>478</ele>
      <time>2026-05-05T12:35:10Z</time>
    </trkpt>
    <trkpt lat="50.852997" lon="16.69421">
      <ele>482</ele>
      <time>2026-05-05T12:36:15Z</time>
    </trkpt>
    <trkpt lat="50.853115" lon="16.694034">
      <ele>484</ele>
      <time>2026-05-05T12:36:45Z</time>
    </trkpt>
    <trkpt lat="50.853279" lon="16.693967">
      <ele>486</ele>
      <time>2026-05-05T12:37:15Z</time>
    </trkpt>
    <trkpt lat="50.853337" lon="16.693939">
      <ele>487</ele>
      <time>2026-05-05T12:37:26Z</time>
    </trkpt>
    <trkpt lat="50.853383" lon="16.693917">
      <ele>487</ele>
      <time>2026-05-05T12:37:35Z</time>
    </trkpt>
    <trkpt lat="50.853527" lon="16.693844">
      <ele>487</ele>
      <time>2026-05-05T12:38:02Z</time>
    </trkpt>
    <trkpt lat="50.853731" lon="16.693753">
      <ele>487</ele>
      <time>2026-05-05T12:38:40Z</time>
    </trkpt>
    <trkpt lat="50.854167" lon="16.693908">
      <ele>496</ele>
      <time>2026-05-05T12:40:01Z</time>
    </trkpt>
    <trkpt lat="50.854435" lon="16.69394">
      <ele>501</ele>
      <time>2026-05-05T12:40:50Z</time>
    </trkpt>
    <trkpt lat="50.854694" lon="16.693941">
      <ele>505</ele>
      <time>2026-05-05T12:41:36Z</time>
    </trkpt>
    <trkpt lat="50.85491" lon="16.69392">
      <ele>509</ele>
      <time>2026-05-05T12:42:16Z</time>
    </trkpt>
    <trkpt lat="50.855095" lon="16.693864">
      <ele>513</ele>
      <time>2026-05-05T12:42:50Z</time>
    </trkpt>
    <trkpt lat="50.855293" lon="16.69379">
      <ele>517</ele>
      <time>2026-05-05T12:43:27Z</time>
    </trkpt>
    <trkpt lat="50.855552" lon="16.693678">
      <ele>521</ele>
      <time>2026-05-05T12:44:16Z</time>
    </trkpt>
    <trkpt lat="50.855716" lon="16.693546">
      <ele>525</ele>
      <time>2026-05-05T12:44:49Z</time>
    </trkpt>
    <trkpt lat="50.855916" lon="16.69336">
      <ele>528</ele>
      <time>2026-05-05T12:45:31Z</time>
    </trkpt>
    <trkpt lat="50.856319" lon="16.693169">
      <ele>531</ele>
      <time>2026-05-05T12:46:46Z</time>
    </trkpt>
    <trkpt lat="50.856451" lon="16.693141">
      <ele>532</ele>
      <time>2026-05-05T12:47:10Z</time>
    </trkpt>
    <trkpt lat="50.856667" lon="16.69315">
      <ele>534</ele>
      <time>2026-05-05T12:47:49Z</time>
    </trkpt>
    <trkpt lat="50.856983" lon="16.693206">
      <ele>535</ele>
      <time>2026-05-05T12:48:46Z</time>
    </trkpt>
    <trkpt lat="50.857168" lon="16.693271">
      <ele>534</ele>
      <time>2026-05-05T12:49:20Z</time>
    </trkpt>
    <trkpt lat="50.857237" lon="16.693309">
      <ele>533</ele>
      <time>2026-05-05T12:49:33Z</time>
    </trkpt>
    <trkpt lat="50.857328" lon="16.693352">
      <ele>533</ele>
      <time>2026-05-05T12:49:49Z</time>
    </trkpt>
    <trkpt lat="50.857458" lon="16.693401">
      <ele>532</ele>
      <time>2026-05-05T12:50:13Z</time>
    </trkpt>
    <trkpt lat="50.857549" lon="16.693444">
      <ele>533</ele>
      <time>2026-05-05T12:50:30Z</time>
    </trkpt>
    <trkpt lat="50.857699" lon="16.693552">
      <ele>534</ele>
      <time>2026-05-05T12:50:58Z</time>
    </trkpt>
    <trkpt lat="50.85795" lon="16.693798">
      <ele>537</ele>
      <time>2026-05-05T12:51:50Z</time>
    </trkpt>
    <trkpt lat="50.858102" lon="16.693944">
      <ele>539</ele>
      <time>2026-05-05T12:52:22Z</time>
    </trkpt>
    <trkpt lat="50.858307" lon="16.694086">
      <ele>541</ele>
      <time>2026-05-05T12:53:01Z</time>
    </trkpt>
    <trkpt lat="50.858479" lon="16.694292">
      <ele>545</ele>
      <time>2026-05-05T12:53:39Z</time>
    </trkpt>
    <trkpt lat="50.858701" lon="16.694462">
      <ele>549</ele>
      <time>2026-05-05T12:54:23Z</time>
    </trkpt>
    <trkpt lat="50.858849" lon="16.694697">
      <ele>552</ele>
      <time>2026-05-05T12:55:00Z</time>
    </trkpt>
    <trkpt lat="50.858913" lon="16.694848">
      <ele>554</ele>
      <time>2026-05-05T12:55:20Z</time>
    </trkpt>
    <trkpt lat="50.85923" lon="16.694979">
      <ele>560</ele>
      <time>2026-05-05T12:56:18Z</time>
    </trkpt>
    <trkpt lat="50.859456" lon="16.695229">
      <ele>566</ele>
      <time>2026-05-05T12:57:08Z</time>
    </trkpt>
    <trkpt lat="50.859759" lon="16.695704">
      <ele>573</ele>
      <time>2026-05-05T12:58:23Z</time>
    </trkpt>
    <trkpt lat="50.859831" lon="16.695789">
      <ele>574</ele>
      <time>2026-05-05T12:58:39Z</time>
    </trkpt>
    <trkpt lat="50.859894" lon="16.696016">
      <ele>576</ele>
      <time>2026-05-05T12:59:07Z</time>
    </trkpt>
    <trkpt lat="50.859909" lon="16.696139">
      <ele>577</ele>
      <time>2026-05-05T12:59:21Z</time>
    </trkpt>
    <trkpt lat="50.859931" lon="16.696386">
      <ele>581</ele>
      <time>2026-05-05T12:59:49Z</time>
    </trkpt>
    <trkpt lat="50.859947" lon="16.696616">
      <ele>585</ele>
      <time>2026-05-05T13:00:15Z</time>
    </trkpt>
    <trkpt lat="50.860036" lon="16.696829">
      <ele>589</ele>
      <time>2026-05-05T13:00:44Z</time>
    </trkpt>
    <trkpt lat="50.860107" lon="16.696929">
      <ele>593</ele>
      <time>2026-05-05T13:01:02Z</time>
    </trkpt>
    <trkpt lat="50.860212" lon="16.697078">
      <ele>597</ele>
      <time>2026-05-05T13:01:27Z</time>
    </trkpt>
    <trkpt lat="50.860311" lon="16.697349">
      <ele>603</ele>
      <time>2026-05-05T13:02:03Z</time>
    </trkpt>
    <trkpt lat="50.860431" lon="16.697653">
      <ele>609</ele>
      <time>2026-05-05T13:02:44Z</time>
    </trkpt>
    <trkpt lat="50.860524" lon="16.698047">
      <ele>613</ele>
      <time>2026-05-05T13:03:31Z</time>
    </trkpt>
    <trkpt lat="50.860535" lon="16.698483">
      <ele>615</ele>
      <time>2026-05-05T13:04:19Z</time>
    </trkpt>
    <trkpt lat="50.860505" lon="16.698836">
      <ele>620</ele>
      <time>2026-05-05T13:04:59Z</time>
    </trkpt>
    <trkpt lat="50.86047" lon="16.699033">
      <ele>621</ele>
      <time>2026-05-05T13:05:22Z</time>
    </trkpt>
    <trkpt lat="50.860467" lon="16.699216">
      <ele>623</ele>
      <time>2026-05-05T13:05:42Z</time>
    </trkpt>
    <trkpt lat="50.860536" lon="16.699433">
      <ele>626</ele>
      <time>2026-05-05T13:06:10Z</time>
    </trkpt>
    <trkpt lat="50.860745" lon="16.699877">
      <ele>630</ele>
      <time>2026-05-05T13:07:11Z</time>
    </trkpt>
    <trkpt lat="50.860827" lon="16.700138">
      <ele>631</ele>
      <time>2026-05-05T13:07:43Z</time>
    </trkpt>
    <trkpt lat="50.860862" lon="16.700405">
      <ele>633</ele>
      <time>2026-05-05T13:08:14Z</time>
    </trkpt>
    <trkpt lat="50.860986" lon="16.700845">
      <ele>635</ele>
      <time>2026-05-05T13:09:07Z</time>
    </trkpt>
    <trkpt lat="50.861115" lon="16.701126">
      <ele>637</ele>
      <time>2026-05-05T13:09:46Z</time>
    </trkpt>
    <trkpt lat="50.8614" lon="16.701539">
      <ele>640</ele>
      <time>2026-05-05T13:10:53Z</time>
    </trkpt>
    <trkpt lat="50.861464" lon="16.701679">
      <ele>641</ele>
      <time>2026-05-05T13:11:13Z</time>
    </trkpt>
    <trkpt lat="50.861553" lon="16.701871">
      <ele>642</ele>
      <time>2026-05-05T13:11:39Z</time>
    </trkpt>
    <trkpt lat="50.86186" lon="16.702853">
      <ele>646</ele>
      <time>2026-05-05T13:13:40Z</time>
    </trkpt>
    <trkpt lat="50.861984" lon="16.703105">
      <ele>649</ele>
      <time>2026-05-05T13:14:16Z</time>
    </trkpt>
    <trkpt lat="50.86212" lon="16.70327">
      <ele>651</ele>
      <time>2026-05-05T13:14:46Z</time>
    </trkpt>
    <trkpt lat="50.86215" lon="16.70342">
      <ele>652</ele>
      <time>2026-05-05T13:15:04Z</time>
    </trkpt>
    <trkpt lat="50.862176" lon="16.703735">
      <ele>653</ele>
      <time>2026-05-05T13:15:39Z</time>
    </trkpt>
    <trkpt lat="50.862225" lon="16.703919">
      <ele>654</ele>
      <time>2026-05-05T13:16:01Z</time>
    </trkpt>
    <trkpt lat="50.862286" lon="16.704055">
      <ele>655</ele>
      <time>2026-05-05T13:16:19Z</time>
    </trkpt>
    <trkpt lat="50.862277" lon="16.704259">
      <ele>656</ele>
      <time>2026-05-05T13:16:42Z</time>
    </trkpt>
    <trkpt lat="50.862249" lon="16.704549">
      <ele>658</ele>
      <time>2026-05-05T13:17:15Z</time>
    </trkpt>
    <trkpt lat="50.862149" lon="16.70497">
      <ele>659</ele>
      <time>2026-05-05T13:18:04Z</time>
    </trkpt>
    <trkpt lat="50.862165" lon="16.705056">
      <ele>660</ele>
      <time>2026-05-05T13:18:14Z</time>
    </trkpt>
    <trkpt lat="50.862181" lon="16.705142">
      <ele>661</ele>
      <time>2026-05-05T13:18:25Z</time>
    </trkpt>
    <trkpt lat="50.862269" lon="16.705342">
      <ele>665</ele>
      <time>2026-05-05T13:18:52Z</time>
    </trkpt>
    <trkpt lat="50.862329" lon="16.70547">
      <ele>667</ele>
      <time>2026-05-05T13:19:10Z</time>
    </trkpt>
    <trkpt lat="50.862342" lon="16.705622">
      <ele>669</ele>
      <time>2026-05-05T13:19:27Z</time>
    </trkpt>
    <trkpt lat="50.862295" lon="16.705872">
      <ele>671</ele>
      <time>2026-05-05T13:19:56Z</time>
    </trkpt>
    <trkpt lat="50.86229" lon="16.70592">
      <ele>672</ele>
      <time>2026-05-05T13:20:02Z</time>
    </trkpt>
    <trkpt lat="50.862281" lon="16.706011">
      <ele>672</ele>
      <time>2026-05-05T13:20:12Z</time>
    </trkpt>
    <trkpt lat="50.862276" lon="16.706066">
      <ele>673</ele>
      <time>2026-05-05T13:20:18Z</time>
    </trkpt>
    <trkpt lat="50.862367" lon="16.706396">
      <ele>676</ele>
      <time>2026-05-05T13:20:58Z</time>
    </trkpt>
    <trkpt lat="50.862393" lon="16.706494">
      <ele>677</ele>
      <time>2026-05-05T13:21:10Z</time>
    </trkpt>
    <trkpt lat="50.862398" lon="16.706796">
      <ele>679</ele>
      <time>2026-05-05T13:21:44Z</time>
    </trkpt>
    <trkpt lat="50.862415" lon="16.706989">
      <ele>681</ele>
      <time>2026-05-05T13:22:06Z</time>
    </trkpt>
    <trkpt lat="50.862475" lon="16.707088">
      <ele>683</ele>
      <time>2026-05-05T13:22:21Z</time>
    </trkpt>
    <trkpt lat="50.862655" lon="16.707283">
      <ele>685</ele>
      <time>2026-05-05T13:22:59Z</time>
    </trkpt>
    <trkpt lat="50.86273" lon="16.707451">
      <ele>687</ele>
      <time>2026-05-05T13:23:22Z</time>
    </trkpt>
    <trkpt lat="50.86287" lon="16.707715">
      <ele>689</ele>
      <time>2026-05-05T13:24:01Z</time>
    </trkpt>
    <trkpt lat="50.863012" lon="16.707992">
      <ele>691</ele>
      <time>2026-05-05T13:24:40Z</time>
    </trkpt>
    <trkpt lat="50.863188" lon="16.708191">
      <ele>691</ele>
      <time>2026-05-05T13:25:18Z</time>
    </trkpt>
    <trkpt lat="50.863395" lon="16.708413">
      <ele>691</ele>
      <time>2026-05-05T13:26:02Z</time>
    </trkpt>
    <trkpt lat="50.86341" lon="16.70843">
      <ele>691</ele>
      <time>2026-05-05T13:26:05Z</time>
    </trkpt>
    <trkpt lat="50.863428" lon="16.708445">
      <ele>691</ele>
      <time>2026-05-05T13:26:09Z</time>
    </trkpt>
    <trkpt lat="50.863576" lon="16.708569">
      <ele>691</ele>
      <time>2026-05-05T13:26:38Z</time>
    </trkpt>
    <trkpt lat="50.863609" lon="16.708597">
      <ele>691</ele>
      <time>2026-05-05T13:26:45Z</time>
    </trkpt>
    <trkpt lat="50.86377" lon="16.708643">
      <ele>692</ele>
      <time>2026-05-05T13:27:13Z</time>
    </trkpt>
    <trkpt lat="50.863905" lon="16.708675">
      <ele>693</ele>
      <time>2026-05-05T13:27:37Z</time>
    </trkpt>
    <trkpt lat="50.864032" lon="16.708683">
      <ele>695</ele>
      <time>2026-05-05T13:28:00Z</time>
    </trkpt>
    <trkpt lat="50.864163" lon="16.708723">
      <ele>697</ele>
      <time>2026-05-05T13:28:23Z</time>
    </trkpt>
    <trkpt lat="50.864283" lon="16.70882">
      <ele>698</ele>
      <time>2026-05-05T13:28:47Z</time>
    </trkpt>
    <trkpt lat="50.864467" lon="16.708876">
      <ele>701</ele>
      <time>2026-05-05T13:29:20Z</time>
    </trkpt>
    <trkpt lat="50.864587" lon="16.708832">
      <ele>701</ele>
      <time>2026-05-05T13:29:50Z</time>
    </trkpt>
    <trkpt lat="50.864831" lon="16.708683">
      <ele>705</ele>
      <time>2026-05-05T13:30:55Z</time>
    </trkpt>
    <trkpt lat="50.864948" lon="16.708744">
      <ele>709</ele>
      <time>2026-05-05T13:31:26Z</time>
    </trkpt>
    <trkpt lat="50.865054" lon="16.708828">
      <ele>711</ele>
      <time>2026-05-05T13:31:55Z</time>
    </trkpt>
    <trkpt lat="50.865134" lon="16.708907">
      <ele>712</ele>
      <time>2026-05-05T13:32:19Z</time>
    </trkpt>
    <trkpt lat="50.865172" lon="16.708943">
      <ele>713</ele>
      <time>2026-05-05T13:32:30Z</time>
    </trkpt>
    <trkpt lat="50.865217" lon="16.708988">
      <ele>714</ele>
      <time>2026-05-05T13:32:43Z</time>
    </trkpt>
    <trkpt lat="50.865245" lon="16.709057">
      <ele>713</ele>
      <time>2026-05-05T13:32:55Z</time>
    </trkpt>
    <trkpt lat="50.865265" lon="16.70907">
      <ele>714</ele>
      <time>2026-05-05T13:33:01Z</time>
    </trkpt>
    <trkpt lat="50.865414" lon="16.70916">
      <ele>713</ele>
      <time>2026-05-05T13:33:40Z</time>
    </trkpt>
    <trkpt lat="50.865422" lon="16.709087">
      <ele>714</ele>
      <time>2026-05-05T13:33:52Z</time>
    </trkpt>
    <trkpt lat="50.865408" lon="16.708997">
      <ele>716</ele>
      <time>2026-05-05T13:34:07Z</time>
    </trkpt>
    <trkpt lat="50.86541" lon="16.708914">
      <ele>718</ele>
      <time>2026-05-05T13:34:20Z</time>
    </trkpt>
    <trkpt lat="50.865428" lon="16.708573">
      <ele>711</ele>
      <time>2026-05-05T13:34:44Z</time>
    </trkpt>
    <trkpt lat="50.86543" lon="16.708537">
      <ele>710</ele>
      <time>2026-05-05T13:34:46Z</time>
    </trkpt>
    <trkpt lat="50.865465" lon="16.708422">
      <ele>707</ele>
      <time>2026-05-05T13:34:55Z</time>
    </trkpt>
    <trkpt lat="50.865456" lon="16.70835">
      <ele>705</ele>
      <time>2026-05-05T13:35:00Z</time>
    </trkpt>
    <trkpt lat="50.865383" lon="16.708287">
      <ele>705</ele>
      <time>2026-05-05T13:35:09Z</time>
    </trkpt>
    <trkpt lat="50.865286" lon="16.708241">
      <ele>706</ele>
      <time>2026-05-05T13:35:19Z</time>
    </trkpt>
    <trkpt lat="50.865268" lon="16.708161">
      <ele>705</ele>
      <time>2026-05-05T13:35:25Z</time>
    </trkpt>
    <trkpt lat="50.865234" lon="16.708036">
      <ele>703</ele>
      <time>2026-05-05T13:35:34Z</time>
    </trkpt>
    <trkpt lat="50.865219" lon="16.707901">
      <ele>701</ele>
      <time>2026-05-05T13:35:44Z</time>
    </trkpt>
    <trkpt lat="50.86517" lon="16.707815">
      <ele>702</ele>
      <time>2026-05-05T13:35:51Z</time>
    </trkpt>
    <trkpt lat="50.865071" lon="16.707745">
      <ele>705</ele>
      <time>2026-05-05T13:36:03Z</time>
    </trkpt>
    <trkpt lat="50.864967" lon="16.707743">
      <ele>707</ele>
      <time>2026-05-05T13:36:14Z</time>
    </trkpt>
    <trkpt lat="50.864901" lon="16.707815">
      <ele>708</ele>
      <time>2026-05-05T13:36:22Z</time>
    </trkpt>
    <trkpt lat="50.864792" lon="16.707786">
      <ele>707</ele>
      <time>2026-05-05T13:36:34Z</time>
    </trkpt>
    <trkpt lat="50.864692" lon="16.707722">
      <ele>706</ele>
      <time>2026-05-05T13:36:45Z</time>
    </trkpt>
    <trkpt lat="50.86466" lon="16.707702">
      <ele>705</ele>
      <time>2026-05-05T13:36:49Z</time>
    </trkpt>
    <trkpt lat="50.864512" lon="16.707709">
      <ele>705</ele>
      <time>2026-05-05T13:37:04Z</time>
    </trkpt>
    <trkpt lat="50.864325" lon="16.707616">
      <ele>703</ele>
      <time>2026-05-05T13:37:25Z</time>
    </trkpt>
    <trkpt lat="50.864272" lon="16.70759">
      <ele>702</ele>
      <time>2026-05-05T13:37:31Z</time>
    </trkpt>
    <trkpt lat="50.86423" lon="16.707546">
      <ele>702</ele>
      <time>2026-05-05T13:37:36Z</time>
    </trkpt>
    <trkpt lat="50.864185" lon="16.707529">
      <ele>701</ele>
      <time>2026-05-05T13:37:41Z</time>
    </trkpt>
    <trkpt lat="50.864163" lon="16.707492">
      <ele>701</ele>
      <time>2026-05-05T13:37:44Z</time>
    </trkpt>
    <trkpt lat="50.864195" lon="16.70743">
      <ele>701</ele>
      <time>2026-05-05T13:37:50Z</time>
    </trkpt>
    <trkpt lat="50.864186" lon="16.70734">
      <ele>700</ele>
      <time>2026-05-05T13:37:56Z</time>
    </trkpt>
    <trkpt lat="50.864141" lon="16.707169">
      <ele>699</ele>
      <time>2026-05-05T13:38:08Z</time>
    </trkpt>
    <trkpt lat="50.864207" lon="16.706936">
      <ele>694</ele>
      <time>2026-05-05T13:38:25Z</time>
    </trkpt>
    <trkpt lat="50.864238" lon="16.706755">
      <ele>690</ele>
      <time>2026-05-05T13:38:38Z</time>
    </trkpt>
    <trkpt lat="50.864219" lon="16.706608">
      <ele>688</ele>
      <time>2026-05-05T13:38:48Z</time>
    </trkpt>
    <trkpt lat="50.864217" lon="16.706403">
      <ele>684</ele>
      <time>2026-05-05T13:39:02Z</time>
    </trkpt>
    <trkpt lat="50.864204" lon="16.706352">
      <ele>683</ele>
      <time>2026-05-05T13:39:06Z</time>
    </trkpt>
    <trkpt lat="50.864157" lon="16.706152">
      <ele>681</ele>
      <time>2026-05-05T13:39:20Z</time>
    </trkpt>
    <trkpt lat="50.864146" lon="16.70608">
      <ele>680</ele>
      <time>2026-05-05T13:39:25Z</time>
    </trkpt>
    <trkpt lat="50.864112" lon="16.705857">
      <ele>677</ele>
      <time>2026-05-05T13:39:41Z</time>
    </trkpt>
    <trkpt lat="50.864072" lon="16.705682">
      <ele>676</ele>
      <time>2026-05-05T13:39:53Z</time>
    </trkpt>
    <trkpt lat="50.864031" lon="16.705503">
      <ele>675</ele>
      <time>2026-05-05T13:40:06Z</time>
    </trkpt>
    <trkpt lat="50.863995" lon="16.705323">
      <ele>673</ele>
      <time>2026-05-05T13:40:18Z</time>
    </trkpt>
    <trkpt lat="50.863916" lon="16.705192">
      <ele>672</ele>
      <time>2026-05-05T13:40:30Z</time>
    </trkpt>
    <trkpt lat="50.863634" lon="16.704744">
      <ele>666</ele>
      <time>2026-05-05T13:41:12Z</time>
    </trkpt>
    <trkpt lat="50.863472" lon="16.704461">
      <ele>664</ele>
      <time>2026-05-05T13:41:38Z</time>
    </trkpt>
    <trkpt lat="50.863388" lon="16.704262">
      <ele>663</ele>
      <time>2026-05-05T13:41:53Z</time>
    </trkpt>
    <trkpt lat="50.863317" lon="16.704106">
      <ele>661</ele>
      <time>2026-05-05T13:42:06Z</time>
    </trkpt>
    <trkpt lat="50.863283" lon="16.703872">
      <ele>659</ele>
      <time>2026-05-05T13:42:22Z</time>
    </trkpt>
    <trkpt lat="50.863274" lon="16.703676">
      <ele>658</ele>
      <time>2026-05-05T13:42:35Z</time>
    </trkpt>
    <trkpt lat="50.863257" lon="16.70323">
      <ele>656</ele>
      <time>2026-05-05T13:43:05Z</time>
    </trkpt>
    <trkpt lat="50.863235" lon="16.70272">
      <ele>654</ele>
      <time>2026-05-05T13:43:39Z</time>
    </trkpt>
    <trkpt lat="50.863203" lon="16.702194">
      <ele>651</ele>
      <time>2026-05-05T13:44:14Z</time>
    </trkpt>
    <trkpt lat="50.86322" lon="16.701598">
      <ele>645</ele>
      <time>2026-05-05T13:44:53Z</time>
    </trkpt>
    <trkpt lat="50.863254" lon="16.701409">
      <ele>645</ele>
      <time>2026-05-05T13:45:06Z</time>
    </trkpt>
    <trkpt lat="50.863342" lon="16.701191">
      <ele>644</ele>
      <time>2026-05-05T13:45:23Z</time>
    </trkpt>
    <trkpt lat="50.863425" lon="16.700987">
      <ele>644</ele>
      <time>2026-05-05T13:45:39Z</time>
    </trkpt>
    <trkpt lat="50.863534" lon="16.700663">
      <ele>645</ele>
      <time>2026-05-05T13:46:04Z</time>
    </trkpt>
    <trkpt lat="50.863654" lon="16.700341">
      <ele>646</ele>
      <time>2026-05-05T13:46:28Z</time>
    </trkpt>
    <trkpt lat="50.863784" lon="16.700048">
      <ele>648</ele>
      <time>2026-05-05T13:46:52Z</time>
    </trkpt>
    <trkpt lat="50.863841" lon="16.699872">
      <ele>649</ele>
      <time>2026-05-05T13:47:05Z</time>
    </trkpt>
    <trkpt lat="50.86387" lon="16.699832">
      <ele>649</ele>
      <time>2026-05-05T13:47:09Z</time>
    </trkpt>
    <trkpt lat="50.863902" lon="16.699787">
      <ele>650</ele>
      <time>2026-05-05T13:47:14Z</time>
    </trkpt>
    <trkpt lat="50.863957" lon="16.699719">
      <ele>650</ele>
      <time>2026-05-05T13:47:21Z</time>
    </trkpt>
    <trkpt lat="50.863926" lon="16.699569">
      <ele>650</ele>
      <time>2026-05-05T13:47:31Z</time>
    </trkpt>
    <trkpt lat="50.86399" lon="16.69955">
      <ele>650</ele>
      <time>2026-05-05T13:47:38Z</time>
    </trkpt>
    <trkpt lat="50.864056" lon="16.699546">
      <ele>649</ele>
      <time>2026-05-05T13:47:45Z</time>
    </trkpt>
    <trkpt lat="50.864048" lon="16.699413">
      <ele>649</ele>
      <time>2026-05-05T13:47:54Z</time>
    </trkpt>
    <trkpt lat="50.86409" lon="16.699428">
      <ele>649</ele>
      <time>2026-05-05T13:47:58Z</time>
    </trkpt>
    <trkpt lat="50.864163" lon="16.699486">
      <ele>649</ele>
      <time>2026-05-05T13:48:07Z</time>
    </trkpt>
    <trkpt lat="50.864201" lon="16.699515">
      <ele>649</ele>
      <time>2026-05-05T13:48:11Z</time>
    </trkpt>
    <trkpt lat="50.864238" lon="16.699545">
      <ele>648</ele>
      <time>2026-05-05T13:48:16Z</time>
    </trkpt>
    <trkpt lat="50.864285" lon="16.699392">
      <ele>647</ele>
      <time>2026-05-05T13:48:27Z</time>
    </trkpt>
    <trkpt lat="50.864287" lon="16.69927">
      <ele>647</ele>
      <time>2026-05-05T13:48:35Z</time>
    </trkpt>
    <trkpt lat="50.864299" lon="16.699193">
      <ele>646</ele>
      <time>2026-05-05T13:48:40Z</time>
    </trkpt>
    <trkpt lat="50.864308" lon="16.699141">
      <ele>646</ele>
      <time>2026-05-05T13:48:44Z</time>
    </trkpt>
    <trkpt lat="50.864249" lon="16.699079">
      <ele>646</ele>
      <time>2026-05-05T13:48:51Z</time>
    </trkpt>
    <trkpt lat="50.864209" lon="16.698948">
      <ele>646</ele>
      <time>2026-05-05T13:49:01Z</time>
    </trkpt>
    <trkpt lat="50.864213" lon="16.698789">
      <ele>645</ele>
      <time>2026-05-05T13:49:11Z</time>
    </trkpt>
    <trkpt lat="50.864221" lon="16.698656">
      <ele>643</ele>
      <time>2026-05-05T13:49:20Z</time>
    </trkpt>
    <trkpt lat="50.864278" lon="16.698499">
      <ele>642</ele>
      <time>2026-05-05T13:49:32Z</time>
    </trkpt>
    <trkpt lat="50.864489" lon="16.698375">
      <ele>642</ele>
      <time>2026-05-05T13:49:56Z</time>
    </trkpt>
    <trkpt lat="50.86469" lon="16.698332">
      <ele>640</ele>
      <time>2026-05-05T13:50:17Z</time>
    </trkpt>
    <trkpt lat="50.864754" lon="16.698246">
      <ele>639</ele>
      <time>2026-05-05T13:50:26Z</time>
    </trkpt>
    <trkpt lat="50.864802" lon="16.698094">
      <ele>638</ele>
      <time>2026-05-05T13:50:37Z</time>
    </trkpt>
    <trkpt lat="50.864828" lon="16.697942">
      <ele>637</ele>
      <time>2026-05-05T13:50:48Z</time>
    </trkpt>
    <trkpt lat="50.864873" lon="16.697757">
      <ele>637</ele>
      <time>2026-05-05T13:51:01Z</time>
    </trkpt>
    <trkpt lat="50.864861" lon="16.69759">
      <ele>636</ele>
      <time>2026-05-05T13:51:12Z</time>
    </trkpt>
    <trkpt lat="50.864806" lon="16.697472">
      <ele>635</ele>
      <time>2026-05-05T13:51:22Z</time>
    </trkpt>
    <trkpt lat="50.86469" lon="16.69713">
      <ele>631</ele>
      <time>2026-05-05T13:51:48Z</time>
    </trkpt>
    <trkpt lat="50.864624" lon="16.697086">
      <ele>629</ele>
      <time>2026-05-05T13:51:55Z</time>
    </trkpt>
    <trkpt lat="50.864582" lon="16.696999">
      <ele>627</ele>
      <time>2026-05-05T13:52:03Z</time>
    </trkpt>
    <trkpt lat="50.864402" lon="16.696806">
      <ele>621</ele>
      <time>2026-05-05T13:52:26Z</time>
    </trkpt>
    <trkpt lat="50.864363" lon="16.696735">
      <ele>620</ele>
      <time>2026-05-05T13:52:32Z</time>
    </trkpt>
    <trkpt lat="50.864324" lon="16.696597">
      <ele>617</ele>
      <time>2026-05-05T13:52:43Z</time>
    </trkpt>
    <trkpt lat="50.86421" lon="16.696445">
      <ele>612</ele>
      <time>2026-05-05T13:52:59Z</time>
    </trkpt>
    <trkpt lat="50.864186" lon="16.696364">
      <ele>609</ele>
      <time>2026-05-05T13:53:05Z</time>
    </trkpt>
    <trkpt lat="50.864184" lon="16.696191">
      <ele>604</ele>
      <time>2026-05-05T13:53:18Z</time>
    </trkpt>
    <trkpt lat="50.86417" lon="16.696058">
      <ele>601</ele>
      <time>2026-05-05T13:53:27Z</time>
    </trkpt>
    <trkpt lat="50.864157" lon="16.695989">
      <ele>599</ele>
      <time>2026-05-05T13:53:32Z</time>
    </trkpt>
    <trkpt lat="50.864238" lon="16.695893">
      <ele>597</ele>
      <time>2026-05-05T13:53:43Z</time>
    </trkpt>
    <trkpt lat="50.864369" lon="16.695869">
      <ele>597</ele>
      <time>2026-05-05T13:53:57Z</time>
    </trkpt>
    <trkpt lat="50.864466" lon="16.695859">
      <ele>597</ele>
      <time>2026-05-05T13:54:07Z</time>
    </trkpt>
    <trkpt lat="50.864523" lon="16.695875">
      <ele>598</ele>
      <time>2026-05-05T13:54:13Z</time>
    </trkpt>
    <trkpt lat="50.864587" lon="16.69587">
      <ele>598</ele>
      <time>2026-05-05T13:54:20Z</time>
    </trkpt>
    <trkpt lat="50.8647" lon="16.695856">
      <ele>598</ele>
      <time>2026-05-05T13:54:32Z</time>
    </trkpt>
    <trkpt lat="50.864734" lon="16.695909">
      <ele>600</ele>
      <time>2026-05-05T13:54:37Z</time>
    </trkpt>
    <trkpt lat="50.864796" lon="16.695918">
      <ele>601</ele>
      <time>2026-05-05T13:54:43Z</time>
    </trkpt>
    <trkpt lat="50.864946" lon="16.695903">
      <ele>601</ele>
      <time>2026-05-05T13:54:59Z</time>
    </trkpt>
    <trkpt lat="50.865027" lon="16.695698">
      <ele>595</ele>
      <time>2026-05-05T13:55:16Z</time>
    </trkpt>
    <trkpt lat="50.865078" lon="16.695559">
      <ele>591</ele>
      <time>2026-05-05T13:55:27Z</time>
    </trkpt>
    <trkpt lat="50.865086" lon="16.695481">
      <ele>589</ele>
      <time>2026-05-05T13:55:33Z</time>
    </trkpt>
    <trkpt lat="50.865087" lon="16.6954">
      <ele>587</ele>
      <time>2026-05-05T13:55:38Z</time>
    </trkpt>
    <trkpt lat="50.864814" lon="16.695416">
      <ele>588</ele>
      <time>2026-05-05T13:56:07Z</time>
    </trkpt>
    <trkpt lat="50.864677" lon="16.695433">
      <ele>588</ele>
      <time>2026-05-05T13:56:21Z</time>
    </trkpt>
    <trkpt lat="50.86457" lon="16.695429">
      <ele>588</ele>
      <time>2026-05-05T13:56:33Z</time>
    </trkpt>
    <trkpt lat="50.864398" lon="16.695457">
      <ele>588</ele>
      <time>2026-05-05T13:56:51Z</time>
    </trkpt>
    <trkpt lat="50.864126" lon="16.695471">
      <ele>589</ele>
      <time>2026-05-05T13:57:19Z</time>
    </trkpt>
    <trkpt lat="50.863876" lon="16.695514">
      <ele>591</ele>
      <time>2026-05-05T13:57:45Z</time>
    </trkpt>
    <trkpt lat="50.863708" lon="16.69555">
      <ele>593</ele>
      <time>2026-05-05T13:58:03Z</time>
    </trkpt>
    <trkpt lat="50.863496" lon="16.695608">
      <ele>593</ele>
      <time>2026-05-05T13:58:26Z</time>
    </trkpt>
    <trkpt lat="50.863275" lon="16.695676">
      <ele>590</ele>
      <time>2026-05-05T13:58:49Z</time>
    </trkpt>
    <trkpt lat="50.863268" lon="16.695534">
      <ele>588</ele>
      <time>2026-05-05T13:58:59Z</time>
    </trkpt>
    <trkpt lat="50.863277" lon="16.6953">
      <ele>583</ele>
      <time>2026-05-05T13:59:15Z</time>
    </trkpt>
    <trkpt lat="50.863295" lon="16.695099">
      <ele>580</ele>
      <time>2026-05-05T13:59:29Z</time>
    </trkpt>
    <trkpt lat="50.863304" lon="16.694952">
      <ele>577</ele>
      <time>2026-05-05T13:59:39Z</time>
    </trkpt>
    <trkpt lat="50.863307" lon="16.6948">
      <ele>573</ele>
      <time>2026-05-05T13:59:50Z</time>
    </trkpt>
    <trkpt lat="50.863298" lon="16.694619">
      <ele>568</ele>
      <time>2026-05-05T14:00:03Z</time>
    </trkpt>
    <trkpt lat="50.86334" lon="16.694367">
      <ele>563</ele>
      <time>2026-05-05T14:00:21Z</time>
    </trkpt>
    <trkpt lat="50.863379" lon="16.69421">
      <ele>560</ele>
      <time>2026-05-05T14:00:32Z</time>
    </trkpt>
    <trkpt lat="50.863466" lon="16.693954">
      <ele>556</ele>
      <time>2026-05-05T14:00:52Z</time>
    </trkpt>
    <trkpt lat="50.863586" lon="16.69373">
      <ele>553</ele>
      <time>2026-05-05T14:01:11Z</time>
    </trkpt>
    <trkpt lat="50.863706" lon="16.693538">
      <ele>550</ele>
      <time>2026-05-05T14:01:29Z</time>
    </trkpt>
    <trkpt lat="50.863787" lon="16.693371">
      <ele>547</ele>
      <time>2026-05-05T14:01:43Z</time>
    </trkpt>
    <trkpt lat="50.863869" lon="16.693176">
      <ele>543</ele>
      <time>2026-05-05T14:01:59Z</time>
    </trkpt>
    <trkpt lat="50.863934" lon="16.693051">
      <ele>540</ele>
      <time>2026-05-05T14:02:10Z</time>
    </trkpt>
    <trkpt lat="50.864009" lon="16.692981">
      <ele>538</ele>
      <time>2026-05-05T14:02:20Z</time>
    </trkpt>
    <trkpt lat="50.86414" lon="16.692738">
      <ele>532</ele>
      <time>2026-05-05T14:02:41Z</time>
    </trkpt>
    <trkpt lat="50.864163" lon="16.692566">
      <ele>528</ele>
      <time>2026-05-05T14:02:54Z</time>
    </trkpt>
    <trkpt lat="50.864147" lon="16.692369">
      <ele>525</ele>
      <time>2026-05-05T14:03:07Z</time>
    </trkpt>
    <trkpt lat="50.864069" lon="16.692068">
      <ele>517</ele>
      <time>2026-05-05T14:03:30Z</time>
    </trkpt>
    <trkpt lat="50.864004" lon="16.69208">
      <ele>516</ele>
      <time>2026-05-05T14:03:37Z</time>
    </trkpt>
    <trkpt lat="50.863913" lon="16.692101">
      <ele>516</ele>
      <time>2026-05-05T14:03:46Z</time>
    </trkpt>
    <trkpt lat="50.863794" lon="16.692128">
      <ele>516</ele>
      <time>2026-05-05T14:03:59Z</time>
    </trkpt>
    <trkpt lat="50.863666" lon="16.692153">
      <ele>517</ele>
      <time>2026-05-05T14:04:12Z</time>
    </trkpt>
    <trkpt lat="50.863422" lon="16.692209">
      <ele>520</ele>
      <time>2026-05-05T14:04:38Z</time>
    </trkpt>
    <trkpt lat="50.863219" lon="16.692258">
      <ele>521</ele>
      <time>2026-05-05T14:05:00Z</time>
    </trkpt>
    <trkpt lat="50.863085" lon="16.692288">
      <ele>521</ele>
      <time>2026-05-05T14:05:14Z</time>
    </trkpt>
    <trkpt lat="50.862905" lon="16.692339">
      <ele>520</ele>
      <time>2026-05-05T14:05:33Z</time>
    </trkpt>
    <trkpt lat="50.862526" lon="16.692452">
      <ele>520</ele>
      <time>2026-05-05T14:06:13Z</time>
    </trkpt>
    <trkpt lat="50.862155" lon="16.692516">
      <ele>522</ele>
      <time>2026-05-05T14:06:52Z</time>
    </trkpt>
    <trkpt lat="50.861839" lon="16.692565">
      <ele>524</ele>
      <time>2026-05-05T14:07:26Z</time>
    </trkpt>
    <trkpt lat="50.86166" lon="16.692561">
      <ele>525</ele>
      <time>2026-05-05T14:07:44Z</time>
    </trkpt>
    <trkpt lat="50.861414" lon="16.692575">
      <ele>525</ele>
      <time>2026-05-05T14:08:10Z</time>
    </trkpt>
    <trkpt lat="50.86075" lon="16.692471">
      <ele>524</ele>
      <time>2026-05-05T14:09:20Z</time>
    </trkpt>
    <trkpt lat="50.860634" lon="16.692267">
      <ele>524</ele>
      <time>2026-05-05T14:09:41Z</time>
    </trkpt>
    <trkpt lat="50.860569" lon="16.692165">
      <ele>524</ele>
      <time>2026-05-05T14:09:52Z</time>
    </trkpt>
    <trkpt lat="50.860505" lon="16.692084">
      <ele>524</ele>
      <time>2026-05-05T14:10:02Z</time>
    </trkpt>
    <trkpt lat="50.860406" lon="16.692008">
      <ele>524</ele>
      <time>2026-05-05T14:10:16Z</time>
    </trkpt>
    <trkpt lat="50.860243" lon="16.691793">
      <ele>523</ele>
      <time>2026-05-05T14:10:42Z</time>
    </trkpt>
    <trkpt lat="50.860108" lon="16.691686">
      <ele>523</ele>
      <time>2026-05-05T14:11:00Z</time>
    </trkpt>
    <trkpt lat="50.860018" lon="16.691642">
      <ele>523</ele>
      <time>2026-05-05T14:11:12Z</time>
    </trkpt>
    <trkpt lat="50.85975" lon="16.691496">
      <ele>518</ele>
      <time>2026-05-05T14:11:47Z</time>
    </trkpt>
    <trkpt lat="50.859561" lon="16.691461">
      <ele>518</ele>
      <time>2026-05-05T14:12:10Z</time>
    </trkpt>
    <trkpt lat="50.859432" lon="16.691437">
      <ele>518</ele>
      <time>2026-05-05T14:12:26Z</time>
    </trkpt>
    <trkpt lat="50.859329" lon="16.691398">
      <ele>518</ele>
      <time>2026-05-05T14:12:39Z</time>
    </trkpt>
    <trkpt lat="50.859138" lon="16.691316">
      <ele>518</ele>
      <time>2026-05-05T14:13:03Z</time>
    </trkpt>
    <trkpt lat="50.858927" lon="16.691265">
      <ele>518</ele>
      <time>2026-05-05T14:13:29Z</time>
    </trkpt>
    <trkpt lat="50.858792" lon="16.691175">
      <ele>519</ele>
      <time>2026-05-05T14:13:47Z</time>
    </trkpt>
    <trkpt lat="50.858767" lon="16.691132">
      <ele>518</ele>
      <time>2026-05-05T14:13:51Z</time>
    </trkpt>
    <trkpt lat="50.858717" lon="16.691046">
      <ele>519</ele>
      <time>2026-05-05T14:14:00Z</time>
    </trkpt>
    <trkpt lat="50.858648" lon="16.690928">
      <ele>521</ele>
      <time>2026-05-05T14:14:13Z</time>
    </trkpt>
    <trkpt lat="50.858618" lon="16.690851">
      <ele>522</ele>
      <time>2026-05-05T14:14:20Z</time>
    </trkpt>
    <trkpt lat="50.858577" lon="16.690747">
      <ele>523</ele>
      <time>2026-05-05T14:14:33Z</time>
    </trkpt>
    <trkpt lat="50.85847" lon="16.690542">
      <ele>525</ele>
      <time>2026-05-05T14:15:01Z</time>
    </trkpt>
    <trkpt lat="50.858377" lon="16.690289">
      <ele>525</ele>
      <time>2026-05-05T14:15:31Z</time>
    </trkpt>
    <trkpt lat="50.858285" lon="16.690156">
      <ele>526</ele>
      <time>2026-05-05T14:15:52Z</time>
    </trkpt>
    <trkpt lat="50.858135" lon="16.689956">
      <ele>527</ele>
      <time>2026-05-05T14:16:24Z</time>
    </trkpt>
    <trkpt lat="50.85802" lon="16.689861">
      <ele>527</ele>
      <time>2026-05-05T14:16:46Z</time>
    </trkpt>
    <trkpt lat="50.85794" lon="16.689794">
      <ele>527</ele>
      <time>2026-05-05T14:17:00Z</time>
    </trkpt>
    <trkpt lat="50.857823" lon="16.689775">
      <ele>529</ele>
      <time>2026-05-05T14:17:20Z</time>
    </trkpt>
    <trkpt lat="50.857773" lon="16.689802">
      <ele>530</ele>
      <time>2026-05-05T14:17:27Z</time>
    </trkpt>
    <trkpt lat="50.857758" lon="16.68992">
      <ele>531</ele>
      <time>2026-05-05T14:17:38Z</time>
    </trkpt>
    <trkpt lat="50.857715" lon="16.690026">
      <ele>532</ele>
      <time>2026-05-05T14:17:49Z</time>
    </trkpt>
    <trkpt lat="50.857666" lon="16.690083">
      <ele>533</ele>
      <time>2026-05-05T14:17:57Z</time>
    </trkpt>
    <trkpt lat="50.857625" lon="16.690172">
      <ele>534</ele>
      <time>2026-05-05T14:18:06Z</time>
    </trkpt>
    <trkpt lat="50.857593" lon="16.690238">
      <ele>534</ele>
      <time>2026-05-05T14:18:13Z</time>
    </trkpt>
    <trkpt lat="50.857555" lon="16.690285">
      <ele>535</ele>
      <time>2026-05-05T14:18:20Z</time>
    </trkpt>
    <trkpt lat="50.85751" lon="16.69023">
      <ele>535</ele>
      <time>2026-05-05T14:18:27Z</time>
    </trkpt>
    <trkpt lat="50.857473" lon="16.690148">
      <ele>534</ele>
      <time>2026-05-05T14:18:35Z</time>
    </trkpt>
    <trkpt lat="50.857441" lon="16.690066">
      <ele>533</ele>
      <time>2026-05-05T14:18:43Z</time>
    </trkpt>
    <trkpt lat="50.857339" lon="16.689742">
      <ele>525</ele>
      <time>2026-05-05T14:19:14Z</time>
    </trkpt>
    <trkpt lat="50.857285" lon="16.689576">
      <ele>520</ele>
      <time>2026-05-05T14:19:29Z</time>
    </trkpt>
    <trkpt lat="50.857207" lon="16.68949">
      <ele>517</ele>
      <time>2026-05-05T14:19:42Z</time>
    </trkpt>
    <trkpt lat="50.857096" lon="16.689386">
      <ele>512</ele>
      <time>2026-05-05T14:19:59Z</time>
    </trkpt>
    <trkpt lat="50.857003" lon="16.68929">
      <ele>508</ele>
      <time>2026-05-05T14:20:14Z</time>
    </trkpt>
    <trkpt lat="50.856875" lon="16.689041">
      <ele>501</ele>
      <time>2026-05-05T14:20:41Z</time>
    </trkpt>
    <trkpt lat="50.856807" lon="16.688932">
      <ele>498</ele>
      <time>2026-05-05T14:20:54Z</time>
    </trkpt>
    <trkpt lat="50.856726" lon="16.688847">
      <ele>493</ele>
      <time>2026-05-05T14:21:07Z</time>
    </trkpt>
    <trkpt lat="50.856635" lon="16.688787">
      <ele>489</ele>
      <time>2026-05-05T14:21:21Z</time>
    </trkpt>
    <trkpt lat="50.856606" lon="16.688691">
      <ele>487</ele>
      <time>2026-05-05T14:21:30Z</time>
    </trkpt>
    <trkpt lat="50.856542" lon="16.688639">
      <ele>484</ele>
      <time>2026-05-05T14:21:39Z</time>
    </trkpt>
    <trkpt lat="50.856464" lon="16.688553">
      <ele>481</ele>
      <time>2026-05-05T14:21:52Z</time>
    </trkpt>
    <trkpt lat="50.856334" lon="16.688443">
      <ele>476</ele>
      <time>2026-05-05T14:22:11Z</time>
    </trkpt>
    <trkpt lat="50.856247" lon="16.68834">
      <ele>473</ele>
      <time>2026-05-05T14:22:26Z</time>
    </trkpt>
    <trkpt lat="50.856173" lon="16.688174">
      <ele>468</ele>
      <time>2026-05-05T14:22:43Z</time>
    </trkpt>
    <trkpt lat="50.856163" lon="16.687851">
      <ele>464</ele>
      <time>2026-05-05T14:23:09Z</time>
    </trkpt>
    <trkpt lat="50.856131" lon="16.687709">
      <ele>462</ele>
      <time>2026-05-05T14:23:21Z</time>
    </trkpt>
    <trkpt lat="50.856056" lon="16.687611">
      <ele>458</ele>
      <time>2026-05-05T14:23:34Z</time>
    </trkpt>
    <trkpt lat="50.855983" lon="16.687536">
      <ele>455</ele>
      <time>2026-05-05T14:23:46Z</time>
    </trkpt>
    <trkpt lat="50.855895" lon="16.687507">
      <ele>452</ele>
      <time>2026-05-05T14:23:58Z</time>
    </trkpt>
    <trkpt lat="50.855722" lon="16.687483">
      <ele>446</ele>
      <time>2026-05-05T14:24:21Z</time>
    </trkpt>
    <trkpt lat="50.855656" lon="16.687464">
      <ele>443</ele>
      <time>2026-05-05T14:24:30Z</time>
    </trkpt>
    <trkpt lat="50.855594" lon="16.687315">
      <ele>439</ele>
      <time>2026-05-05T14:24:45Z</time>
    </trkpt>
    <trkpt lat="50.855585" lon="16.687184">
      <ele>438</ele>
      <time>2026-05-05T14:24:56Z</time>
    </trkpt>
    <trkpt lat="50.855562" lon="16.687091">
      <ele>436</ele>
      <time>2026-05-05T14:25:04Z</time>
    </trkpt>
    <trkpt lat="50.855483" lon="16.686879">
      <ele>431</ele>
      <time>2026-05-05T14:25:24Z</time>
    </trkpt>
    <trkpt lat="50.855429" lon="16.686663">
      <ele>428</ele>
      <time>2026-05-05T14:25:43Z</time>
    </trkpt>
    <trkpt lat="50.855443" lon="16.686467">
      <ele>426</ele>
      <time>2026-05-05T14:25:59Z</time>
    </trkpt>
    <trkpt lat="50.85548" lon="16.686221">
      <ele>424</ele>
      <time>2026-05-05T14:26:20Z</time>
    </trkpt>
    <trkpt lat="50.855467" lon="16.686001">
      <ele>421</ele>
      <time>2026-05-05T14:26:38Z</time>
    </trkpt>
    <trkpt lat="50.855413" lon="16.685724">
      <ele>416</ele>
      <time>2026-05-05T14:27:02Z</time>
    </trkpt>
    <trkpt lat="50.85538" lon="16.685578">
      <ele>413</ele>
      <time>2026-05-05T14:27:15Z</time>
    </trkpt>
    <trkpt lat="50.855345" lon="16.68546">
      <ele>411</ele>
      <time>2026-05-05T14:27:25Z</time>
    </trkpt>
    <trkpt lat="50.855303" lon="16.685346">
      <ele>408</ele>
      <time>2026-05-05T14:27:36Z</time>
    </trkpt>
    <trkpt lat="50.855245" lon="16.685283">
      <ele>406</ele>
      <time>2026-05-05T14:27:46Z</time>
    </trkpt>
    <trkpt lat="50.85513" lon="16.685134">
      <ele>403</ele>
      <time>2026-05-05T14:28:05Z</time>
    </trkpt>
    <trkpt lat="50.855057" lon="16.684987">
      <ele>401</ele>
      <time>2026-05-05T14:28:20Z</time>
    </trkpt>
    <trkpt lat="50.854972" lon="16.685313">
      <ele>402</ele>
      <time>2026-05-05T14:28:45Z</time>
    </trkpt>
    <trkpt lat="50.854911" lon="16.685622">
      <ele>404</ele>
      <time>2026-05-05T14:29:08Z</time>
    </trkpt>
    <trkpt lat="50.854819" lon="16.685918">
      <ele>404</ele>
      <time>2026-05-05T14:29:31Z</time>
    </trkpt>
    <trkpt lat="50.854604" lon="16.686466">
      <ele>404</ele>
      <time>2026-05-05T14:30:16Z</time>
    </trkpt>
    <trkpt lat="50.854545" lon="16.686694">
      <ele>404</ele>
      <time>2026-05-05T14:30:34Z</time>
    </trkpt>
    <trkpt lat="50.854554" lon="16.686922">
      <ele>406</ele>
      <time>2026-05-05T14:30:50Z</time>
    </trkpt>
    <trkpt lat="50.854564" lon="16.687116">
      <ele>407</ele>
      <time>2026-05-05T14:31:04Z</time>
    </trkpt>
    <trkpt lat="50.854575" lon="16.687312">
      <ele>409</ele>
      <time>2026-05-05T14:31:18Z</time>
    </trkpt>
    <trkpt lat="50.854556" lon="16.687582">
      <ele>411</ele>
      <time>2026-05-05T14:31:37Z</time>
    </trkpt>
    <trkpt lat="50.854469" lon="16.687958">
      <ele>413</ele>
      <time>2026-05-05T14:32:05Z</time>
    </trkpt>
    <trkpt lat="50.854324" lon="16.688354">
      <ele>415</ele>
      <time>2026-05-05T14:32:38Z</time>
    </trkpt>
    <trkpt lat="50.853907" lon="16.689068">
      <ele>412</ele>
      <time>2026-05-05T14:33:46Z</time>
    </trkpt>
    <trkpt lat="50.853627" lon="16.689812">
      <ele>416</ele>
      <time>2026-05-05T14:34:47Z</time>
    </trkpt>
    <trkpt lat="50.853537" lon="16.689989">
      <ele>417</ele>
      <time>2026-05-05T14:35:03Z</time>
    </trkpt>
    <trkpt lat="50.853344" lon="16.690263">
      <ele>415</ele>
      <time>2026-05-05T14:35:32Z</time>
    </trkpt>
    <trkpt lat="50.853066" lon="16.690621">
      <ele>414</ele>
      <time>2026-05-05T14:36:12Z</time>
    </trkpt>
    <trkpt lat="50.852904" lon="16.690812">
      <ele>414</ele>
      <time>2026-05-05T14:36:35Z</time>
    </trkpt>
    <trkpt lat="50.852736" lon="16.691022">
      <ele>415</ele>
      <time>2026-05-05T14:36:59Z</time>
    </trkpt>
    <trkpt lat="50.852367" lon="16.69147">
      <ele>419</ele>
      <time>2026-05-05T14:37:51Z</time>
    </trkpt>
    <trkpt lat="50.852171" lon="16.691653">
      <ele>422</ele>
      <time>2026-05-05T14:38:16Z</time>
    </trkpt>
    <trkpt lat="50.852022" lon="16.69178">
      <ele>423</ele>
      <time>2026-05-05T14:38:35Z</time>
    </trkpt>
    <trkpt lat="50.851861" lon="16.691855">
      <ele>422</ele>
      <time>2026-05-05T14:38:54Z</time>
    </trkpt>
    <trkpt lat="50.851637" lon="16.691996">
      <ele>419</ele>
      <time>2026-05-05T14:39:21Z</time>
    </trkpt>
    <trkpt lat="50.851464" lon="16.692168">
      <ele>420</ele>
      <time>2026-05-05T14:39:44Z</time>
    </trkpt>
    <trkpt lat="50.851339" lon="16.692388">
      <ele>421</ele>
      <time>2026-05-05T14:40:05Z</time>
    </trkpt>
    <trkpt lat="50.851218" lon="16.692709">
      <ele>423</ele>
      <time>2026-05-05T14:40:31Z</time>
    </trkpt>
    <trkpt lat="50.851127" lon="16.692999">
      <ele>426</ele>
      <time>2026-05-05T14:40:54Z</time>
    </trkpt>
    <trkpt lat="50.851038" lon="16.693247">
      <ele>427</ele>
      <time>2026-05-05T14:41:14Z</time>
    </trkpt>
    <trkpt lat="50.85098" lon="16.693371">
      <ele>427</ele>
      <time>2026-05-05T14:41:25Z</time>
    </trkpt>
    <trkpt lat="50.850907" lon="16.693538">
      <ele>426</ele>
      <time>2026-05-05T14:41:39Z</time>
    </trkpt>
    <trkpt lat="50.85085" lon="16.69367">
      <ele>426</ele>
      <time>2026-05-05T14:41:51Z</time>
    </trkpt>
    <trkpt lat="50.850825" lon="16.693731">
      <ele>426</ele>
      <time>2026-05-05T14:41:56Z</time>
    </trkpt>
    <trkpt lat="50.850443" lon="16.694374">
      <ele>423</ele>
      <time>2026-05-05T14:42:58Z</time>
    </trkpt>
    <trkpt lat="50.850276" lon="16.694782">
      <ele>423</ele>
      <time>2026-05-05T14:43:32Z</time>
    </trkpt>
    <trkpt lat="50.850124" lon="16.695032">
      <ele>423</ele>
      <time>2026-05-05T14:43:57Z</time>
    </trkpt>
    <trkpt lat="50.850007" lon="16.695157">
      <ele>421</ele>
      <time>2026-05-05T14:44:12Z</time>
    </trkpt>
    <trkpt lat="50.849853" lon="16.695298">
      <ele>420</ele>
      <time>2026-05-05T14:44:32Z</time>
    </trkpt>
    <trkpt lat="50.849697" lon="16.695451">
      <ele>418</ele>
      <time>2026-05-05T14:44:53Z</time>
    </trkpt>
    <trkpt lat="50.849574" lon="16.695575">
      <ele>417</ele>
      <time>2026-05-05T14:45:09Z</time>
    </trkpt>
    <trkpt lat="50.849425" lon="16.695706">
      <ele>416</ele>
      <time>2026-05-05T14:45:28Z</time>
    </trkpt>
    <trkpt lat="50.849324" lon="16.695798">
      <ele>414</ele>
      <time>2026-05-05T14:45:41Z</time>
    </trkpt>
    <trkpt lat="50.849203" lon="16.695933">
      <ele>412</ele>
      <time>2026-05-05T14:45:58Z</time>
    </trkpt>
    <trkpt lat="50.848949" lon="16.696199">
      <ele>409</ele>
      <time>2026-05-05T14:46:32Z</time>
    </trkpt>
    <trkpt lat="50.848773" lon="16.696436">
      <ele>407</ele>
      <time>2026-05-05T14:46:58Z</time>
    </trkpt>
    <trkpt lat="50.848423" lon="16.696924">
      <ele>405</ele>
      <time>2026-05-05T14:47:50Z</time>
    </trkpt>
    <trkpt lat="50.84825" lon="16.697248">
      <ele>404</ele>
      <time>2026-05-05T14:48:20Z</time>
    </trkpt>
    <trkpt lat="50.847812" lon="16.697364">
      <ele>396</ele>
      <time>2026-05-05T14:49:11Z</time>
    </trkpt>
    <trkpt lat="50.847322" lon="16.697456">
      <ele>392</ele>
      <time>2026-05-05T14:50:08Z</time>
    </trkpt>
    <trkpt lat="50.847224" lon="16.697513">
      <ele>391</ele>
      <time>2026-05-05T14:50:20Z</time>
    </trkpt>
    <trkpt lat="50.846815" lon="16.698039">
      <ele>384</ele>
      <time>2026-05-05T14:51:10Z</time>
    </trkpt>
    <trkpt lat="50.846646" lon="16.698256">
      <ele>383</ele>
      <time>2026-05-05T14:51:30Z</time>
    </trkpt>
    <trkpt lat="50.846584" lon="16.698337">
      <ele>383</ele>
      <time>2026-05-05T14:51:38Z</time>
    </trkpt>
    <trkpt lat="50.846513" lon="16.698408">
      <ele>383</ele>
      <time>2026-05-05T14:51:46Z</time>
    </trkpt>
    <trkpt lat="50.846281" lon="16.698625">
      <ele>380</ele>
      <time>2026-05-05T14:52:11Z</time>
    </trkpt>
    <trkpt lat="50.846288" lon="16.698769">
      <ele>378</ele>
      <time>2026-05-05T14:52:20Z</time>
    </trkpt>
  </trkseg>
</trk>
</gpx>