<?xml version="1.0" encoding="UTF-8"?><gpx creator="https://mapa-turystyczna.pl" xmlns="http://www.topografix.com/GPX/1/1" version="1.1" xmlns:xsi="http://www.w3.org/2001/XMLSchema-instance" xsi:schemaLocation="http://www.topografix.com/GPX/1/1 http://www.topografix.com/GPX/1/1/gpx.xsd">
  <metadata>
    <link href="https://mapa-turystyczna.pl">
      <text>mapa-turystyczna.pl</text>
    </link>
    <time>2026-05-07T08:43:22Z</time>
    <bounds maxlat="50.373614" maxlon="16.3606901" minlat="50.341644" minlon="16.309941"/>
  </metadata>

<trk>
  <name>Trasa przez: Polomský kopec</name>
  <link href="https://mapa-turystyczna.pl/route/dmds">
    <text>Trasa przez: Polomský kopec</text>
  </link>
  <trkseg>
    <trkpt lat="50.3731949" lon="16.3099655">
      <ele>606</ele>
      <time>2026-05-07T08:43:22Z</time>
    </trkpt>
    <trkpt lat="50.373134" lon="16.309941">
      <ele>605</ele>
      <time>2026-05-07T08:44:22Z</time>
    </trkpt>
    <trkpt lat="50.37311" lon="16.310255">
      <ele>605</ele>
      <time>2026-05-07T08:44:50Z</time>
    </trkpt>
    <trkpt lat="50.37308" lon="16.310602">
      <ele>606</ele>
      <time>2026-05-07T08:45:22Z</time>
    </trkpt>
    <trkpt lat="50.373034" lon="16.31082">
      <ele>605</ele>
      <time>2026-05-07T08:45:34Z</time>
    </trkpt>
    <trkpt lat="50.37299" lon="16.311034">
      <ele>604</ele>
      <time>2026-05-07T08:45:46Z</time>
    </trkpt>
    <trkpt lat="50.37292" lon="16.311374">
      <ele>604</ele>
      <time>2026-05-07T08:46:05Z</time>
    </trkpt>
    <trkpt lat="50.372837" lon="16.311677">
      <ele>605</ele>
      <time>2026-05-07T08:46:22Z</time>
    </trkpt>
    <trkpt lat="50.372693" lon="16.31223">
      <ele>605</ele>
      <time>2026-05-07T08:46:54Z</time>
    </trkpt>
    <trkpt lat="50.372567" lon="16.312733">
      <ele>605</ele>
      <time>2026-05-07T08:47:22Z</time>
    </trkpt>
    <trkpt lat="50.372509" lon="16.312931">
      <ele>605</ele>
      <time>2026-05-07T08:47:34Z</time>
    </trkpt>
    <trkpt lat="50.372462" lon="16.313109">
      <ele>605</ele>
      <time>2026-05-07T08:47:45Z</time>
    </trkpt>
    <trkpt lat="50.372411" lon="16.313329">
      <ele>606</ele>
      <time>2026-05-07T08:47:57Z</time>
    </trkpt>
    <trkpt lat="50.372386" lon="16.313478">
      <ele>606</ele>
      <time>2026-05-07T08:48:06Z</time>
    </trkpt>
    <trkpt lat="50.372359" lon="16.313735">
      <ele>606</ele>
      <time>2026-05-07T08:48:20Z</time>
    </trkpt>
    <trkpt lat="50.372326" lon="16.313946">
      <ele>606</ele>
      <time>2026-05-07T08:48:32Z</time>
    </trkpt>
    <trkpt lat="50.372288" lon="16.314065">
      <ele>606</ele>
      <time>2026-05-07T08:48:40Z</time>
    </trkpt>
    <trkpt lat="50.372258" lon="16.314153">
      <ele>605</ele>
      <time>2026-05-07T08:48:45Z</time>
    </trkpt>
    <trkpt lat="50.372101" lon="16.314559">
      <ele>607</ele>
      <time>2026-05-07T08:49:11Z</time>
    </trkpt>
    <trkpt lat="50.372076" lon="16.314698">
      <ele>607</ele>
      <time>2026-05-07T08:49:19Z</time>
    </trkpt>
    <trkpt lat="50.372063" lon="16.314836">
      <ele>607</ele>
      <time>2026-05-07T08:49:27Z</time>
    </trkpt>
    <trkpt lat="50.372089" lon="16.315208">
      <ele>608</ele>
      <time>2026-05-07T08:49:47Z</time>
    </trkpt>
    <trkpt lat="50.372182" lon="16.315754">
      <ele>608</ele>
      <time>2026-05-07T08:50:18Z</time>
    </trkpt>
    <trkpt lat="50.372209" lon="16.315943">
      <ele>608</ele>
      <time>2026-05-07T08:50:29Z</time>
    </trkpt>
    <trkpt lat="50.372214" lon="16.316134">
      <ele>607</ele>
      <time>2026-05-07T08:50:40Z</time>
    </trkpt>
    <trkpt lat="50.372213" lon="16.316191">
      <ele>607</ele>
      <time>2026-05-07T08:50:43Z</time>
    </trkpt>
    <trkpt lat="50.372211" lon="16.316331">
      <ele>608</ele>
      <time>2026-05-07T08:50:50Z</time>
    </trkpt>
    <trkpt lat="50.372199" lon="16.316481">
      <ele>609</ele>
      <time>2026-05-07T08:50:59Z</time>
    </trkpt>
    <trkpt lat="50.372182" lon="16.316597">
      <ele>610</ele>
      <time>2026-05-07T08:51:05Z</time>
    </trkpt>
    <trkpt lat="50.372147" lon="16.316688">
      <ele>610</ele>
      <time>2026-05-07T08:51:11Z</time>
    </trkpt>
    <trkpt lat="50.372101" lon="16.316762">
      <ele>611</ele>
      <time>2026-05-07T08:51:17Z</time>
    </trkpt>
    <trkpt lat="50.372039" lon="16.316847">
      <ele>611</ele>
      <time>2026-05-07T08:51:24Z</time>
    </trkpt>
    <trkpt lat="50.371964" lon="16.316952">
      <ele>611</ele>
      <time>2026-05-07T08:51:33Z</time>
    </trkpt>
    <trkpt lat="50.371937" lon="16.316989">
      <ele>611</ele>
      <time>2026-05-07T08:51:36Z</time>
    </trkpt>
    <trkpt lat="50.37182" lon="16.317149">
      <ele>612</ele>
      <time>2026-05-07T08:51:49Z</time>
    </trkpt>
    <trkpt lat="50.371766" lon="16.317238">
      <ele>612</ele>
      <time>2026-05-07T08:51:56Z</time>
    </trkpt>
    <trkpt lat="50.371692" lon="16.317394">
      <ele>612</ele>
      <time>2026-05-07T08:52:07Z</time>
    </trkpt>
    <trkpt lat="50.371655" lon="16.31752">
      <ele>612</ele>
      <time>2026-05-07T08:52:14Z</time>
    </trkpt>
    <trkpt lat="50.371651" lon="16.31766">
      <ele>613</ele>
      <time>2026-05-07T08:52:22Z</time>
    </trkpt>
    <trkpt lat="50.371672" lon="16.317751">
      <ele>613</ele>
      <time>2026-05-07T08:52:33Z</time>
    </trkpt>
    <trkpt lat="50.371697" lon="16.317825">
      <ele>613</ele>
      <time>2026-05-07T08:52:42Z</time>
    </trkpt>
    <trkpt lat="50.371717" lon="16.317863">
      <ele>613</ele>
      <time>2026-05-07T08:52:48Z</time>
    </trkpt>
    <trkpt lat="50.371781" lon="16.317906">
      <ele>613</ele>
      <time>2026-05-07T08:53:00Z</time>
    </trkpt>
    <trkpt lat="50.371878" lon="16.317909">
      <ele>613</ele>
      <time>2026-05-07T08:53:17Z</time>
    </trkpt>
    <trkpt lat="50.37195" lon="16.317894">
      <ele>613</ele>
      <time>2026-05-07T08:53:30Z</time>
    </trkpt>
    <trkpt lat="50.372278" lon="16.317797">
      <ele>614</ele>
      <time>2026-05-07T08:54:29Z</time>
    </trkpt>
    <trkpt lat="50.372447" lon="16.317804">
      <ele>615</ele>
      <time>2026-05-07T08:54:59Z</time>
    </trkpt>
    <trkpt lat="50.372703" lon="16.317915">
      <ele>617</ele>
      <time>2026-05-07T08:55:46Z</time>
    </trkpt>
    <trkpt lat="50.372898" lon="16.318041">
      <ele>620</ele>
      <time>2026-05-07T08:56:23Z</time>
    </trkpt>
    <trkpt lat="50.373029" lon="16.318144">
      <ele>622</ele>
      <time>2026-05-07T08:56:49Z</time>
    </trkpt>
    <trkpt lat="50.373049" lon="16.318171">
      <ele>623</ele>
      <time>2026-05-07T08:56:54Z</time>
    </trkpt>
    <trkpt lat="50.373105" lon="16.318247">
      <ele>623</ele>
      <time>2026-05-07T08:57:07Z</time>
    </trkpt>
    <trkpt lat="50.373175" lon="16.318371">
      <ele>623</ele>
      <time>2026-05-07T08:57:26Z</time>
    </trkpt>
    <trkpt lat="50.373266" lon="16.318582">
      <ele>624</ele>
      <time>2026-05-07T08:57:54Z</time>
    </trkpt>
    <trkpt lat="50.373371" lon="16.318838">
      <ele>625</ele>
      <time>2026-05-07T08:58:28Z</time>
    </trkpt>
    <trkpt lat="50.373454" lon="16.319126">
      <ele>625</ele>
      <time>2026-05-07T08:59:04Z</time>
    </trkpt>
    <trkpt lat="50.373523" lon="16.319359">
      <ele>626</ele>
      <time>2026-05-07T08:59:33Z</time>
    </trkpt>
    <trkpt lat="50.373571" lon="16.31957">
      <ele>628</ele>
      <time>2026-05-07T08:59:58Z</time>
    </trkpt>
    <trkpt lat="50.373604" lon="16.319868">
      <ele>629</ele>
      <time>2026-05-07T09:00:32Z</time>
    </trkpt>
    <trkpt lat="50.373614" lon="16.32013">
      <ele>631</ele>
      <time>2026-05-07T09:01:02Z</time>
    </trkpt>
    <trkpt lat="50.373601" lon="16.32026">
      <ele>632</ele>
      <time>2026-05-07T09:01:17Z</time>
    </trkpt>
    <trkpt lat="50.373539" lon="16.320914">
      <ele>636</ele>
      <time>2026-05-07T09:02:31Z</time>
    </trkpt>
    <trkpt lat="50.37353" lon="16.321141">
      <ele>637</ele>
      <time>2026-05-07T09:02:57Z</time>
    </trkpt>
    <trkpt lat="50.373523" lon="16.321386">
      <ele>636</ele>
      <time>2026-05-07T09:03:25Z</time>
    </trkpt>
    <trkpt lat="50.373513" lon="16.321624">
      <ele>636</ele>
      <time>2026-05-07T09:03:51Z</time>
    </trkpt>
    <trkpt lat="50.373397" lon="16.321673">
      <ele>638</ele>
      <time>2026-05-07T09:04:13Z</time>
    </trkpt>
    <trkpt lat="50.373292" lon="16.321791">
      <ele>639</ele>
      <time>2026-05-07T09:04:36Z</time>
    </trkpt>
    <trkpt lat="50.37294" lon="16.322345">
      <ele>641</ele>
      <time>2026-05-07T09:06:04Z</time>
    </trkpt>
    <trkpt lat="50.372219" lon="16.323724">
      <ele>655</ele>
      <time>2026-05-07T09:09:25Z</time>
    </trkpt>
    <trkpt lat="50.371773" lon="16.324577">
      <ele>661</ele>
      <time>2026-05-07T09:11:30Z</time>
    </trkpt>
    <trkpt lat="50.371481" lon="16.325175">
      <ele>665</ele>
      <time>2026-05-07T09:12:55Z</time>
    </trkpt>
    <trkpt lat="50.371041" lon="16.326014">
      <ele>672</ele>
      <time>2026-05-07T09:14:57Z</time>
    </trkpt>
    <trkpt lat="50.370638" lon="16.326861">
      <ele>675</ele>
      <time>2026-05-07T09:16:56Z</time>
    </trkpt>
    <trkpt lat="50.370372" lon="16.3275">
      <ele>680</ele>
      <time>2026-05-07T09:18:22Z</time>
    </trkpt>
    <trkpt lat="50.369867" lon="16.328633">
      <ele>688</ele>
      <time>2026-05-07T09:20:58Z</time>
    </trkpt>
    <trkpt lat="50.369447" lon="16.329524">
      <ele>695</ele>
      <time>2026-05-07T09:23:03Z</time>
    </trkpt>
    <trkpt lat="50.368824" lon="16.330763">
      <ele>713</ele>
      <time>2026-05-07T09:26:03Z</time>
    </trkpt>
    <trkpt lat="50.368718" lon="16.331081">
      <ele>715</ele>
      <time>2026-05-07T09:26:43Z</time>
    </trkpt>
    <trkpt lat="50.368681" lon="16.331378">
      <ele>719</ele>
      <time>2026-05-07T09:27:18Z</time>
    </trkpt>
    <trkpt lat="50.368672" lon="16.331644">
      <ele>722</ele>
      <time>2026-05-07T09:27:48Z</time>
    </trkpt>
    <trkpt lat="50.368685" lon="16.331914">
      <ele>724</ele>
      <time>2026-05-07T09:28:19Z</time>
    </trkpt>
    <trkpt lat="50.368669" lon="16.332389">
      <ele>726</ele>
      <time>2026-05-07T09:29:12Z</time>
    </trkpt>
    <trkpt lat="50.368595" lon="16.333346">
      <ele>732</ele>
      <time>2026-05-07T09:31:01Z</time>
    </trkpt>
    <trkpt lat="50.368474" lon="16.334375">
      <ele>748</ele>
      <time>2026-05-07T09:33:01Z</time>
    </trkpt>
    <trkpt lat="50.368367" lon="16.335734">
      <ele>761</ele>
      <time>2026-05-07T09:35:37Z</time>
    </trkpt>
    <trkpt lat="50.368316" lon="16.336066">
      <ele>767</ele>
      <time>2026-05-07T09:36:16Z</time>
    </trkpt>
    <trkpt lat="50.368268" lon="16.336279">
      <ele>772</ele>
      <time>2026-05-07T09:36:43Z</time>
    </trkpt>
    <trkpt lat="50.368134" lon="16.336643">
      <ele>780</ele>
      <time>2026-05-07T09:37:32Z</time>
    </trkpt>
    <trkpt lat="50.368006" lon="16.336877">
      <ele>783</ele>
      <time>2026-05-07T09:38:07Z</time>
    </trkpt>
    <trkpt lat="50.367821" lon="16.337181">
      <ele>784</ele>
      <time>2026-05-07T09:38:54Z</time>
    </trkpt>
    <trkpt lat="50.3676" lon="16.337486">
      <ele>787</ele>
      <time>2026-05-07T09:39:46Z</time>
    </trkpt>
    <trkpt lat="50.367494" lon="16.337581">
      <ele>788</ele>
      <time>2026-05-07T09:40:08Z</time>
    </trkpt>
    <trkpt lat="50.36715" lon="16.337809">
      <ele>792</ele>
      <time>2026-05-07T09:41:14Z</time>
    </trkpt>
    <trkpt lat="50.366762" lon="16.338099">
      <ele>797</ele>
      <time>2026-05-07T09:42:30Z</time>
    </trkpt>
    <trkpt lat="50.366609" lon="16.338302">
      <ele>801</ele>
      <time>2026-05-07T09:43:06Z</time>
    </trkpt>
    <trkpt lat="50.366157" lon="16.339407">
      <ele>808</ele>
      <time>2026-05-07T09:45:34Z</time>
    </trkpt>
    <trkpt lat="50.365878" lon="16.340356">
      <ele>814</ele>
      <time>2026-05-07T09:47:32Z</time>
    </trkpt>
    <trkpt lat="50.365702" lon="16.340984">
      <ele>818</ele>
      <time>2026-05-07T09:48:49Z</time>
    </trkpt>
    <trkpt lat="50.365586" lon="16.341227">
      <ele>820</ele>
      <time>2026-05-07T09:49:23Z</time>
    </trkpt>
    <trkpt lat="50.365478" lon="16.341377">
      <ele>821</ele>
      <time>2026-05-07T09:49:49Z</time>
    </trkpt>
    <trkpt lat="50.365059" lon="16.341817">
      <ele>831</ele>
      <time>2026-05-07T09:51:19Z</time>
    </trkpt>
    <trkpt lat="50.364654" lon="16.342463">
      <ele>838</ele>
      <time>2026-05-07T09:53:02Z</time>
    </trkpt>
    <trkpt lat="50.364132" lon="16.343203">
      <ele>849</ele>
      <time>2026-05-07T09:55:07Z</time>
    </trkpt>
    <trkpt lat="50.36398" lon="16.343371">
      <ele>851</ele>
      <time>2026-05-07T09:55:40Z</time>
    </trkpt>
    <trkpt lat="50.363812" lon="16.343463">
      <ele>854</ele>
      <time>2026-05-07T09:56:12Z</time>
    </trkpt>
    <trkpt lat="50.363622" lon="16.343473">
      <ele>858</ele>
      <time>2026-05-07T09:56:46Z</time>
    </trkpt>
    <trkpt lat="50.3634" lon="16.343493">
      <ele>861</ele>
      <time>2026-05-07T09:57:25Z</time>
    </trkpt>
    <trkpt lat="50.363274" lon="16.343575">
      <ele>862</ele>
      <time>2026-05-07T09:57:49Z</time>
    </trkpt>
    <trkpt lat="50.363169" lon="16.343726">
      <ele>863</ele>
      <time>2026-05-07T09:58:14Z</time>
    </trkpt>
    <trkpt lat="50.36291" lon="16.34489">
      <ele>872</ele>
      <time>2026-05-07T10:00:34Z</time>
    </trkpt>
    <trkpt lat="50.362849" lon="16.345193">
      <ele>874</ele>
      <time>2026-05-07T10:01:10Z</time>
    </trkpt>
    <trkpt lat="50.362834" lon="16.345426">
      <ele>875</ele>
      <time>2026-05-07T10:01:36Z</time>
    </trkpt>
    <trkpt lat="50.362805" lon="16.345859">
      <ele>877</ele>
      <time>2026-05-07T10:02:25Z</time>
    </trkpt>
    <trkpt lat="50.362777" lon="16.346125">
      <ele>879</ele>
      <time>2026-05-07T10:02:55Z</time>
    </trkpt>
    <trkpt lat="50.362723" lon="16.346405">
      <ele>882</ele>
      <time>2026-05-07T10:03:29Z</time>
    </trkpt>
    <trkpt lat="50.362585" lon="16.346948">
      <ele>888</ele>
      <time>2026-05-07T10:04:35Z</time>
    </trkpt>
    <trkpt lat="50.362455" lon="16.347262">
      <ele>893</ele>
      <time>2026-05-07T10:05:18Z</time>
    </trkpt>
    <trkpt lat="50.362302" lon="16.347402">
      <ele>893</ele>
      <time>2026-05-07T10:05:49Z</time>
    </trkpt>
    <trkpt lat="50.362165" lon="16.347549">
      <ele>893</ele>
      <time>2026-05-07T10:06:18Z</time>
    </trkpt>
    <trkpt lat="50.361984" lon="16.347716">
      <ele>895</ele>
      <time>2026-05-07T10:06:56Z</time>
    </trkpt>
    <trkpt lat="50.361841" lon="16.347788">
      <ele>897</ele>
      <time>2026-05-07T10:07:22Z</time>
    </trkpt>
    <trkpt lat="50.361677" lon="16.347914">
      <ele>900</ele>
      <time>2026-05-07T10:07:55Z</time>
    </trkpt>
    <trkpt lat="50.361471" lon="16.348165">
      <ele>904</ele>
      <time>2026-05-07T10:08:41Z</time>
    </trkpt>
    <trkpt lat="50.361242" lon="16.348389">
      <ele>907</ele>
      <time>2026-05-07T10:09:29Z</time>
    </trkpt>
    <trkpt lat="50.360913" lon="16.348652">
      <ele>910</ele>
      <time>2026-05-07T10:10:34Z</time>
    </trkpt>
    <trkpt lat="50.360578" lon="16.348952">
      <ele>915</ele>
      <time>2026-05-07T10:11:43Z</time>
    </trkpt>
    <trkpt lat="50.360308" lon="16.349164">
      <ele>921</ele>
      <time>2026-05-07T10:12:37Z</time>
    </trkpt>
    <trkpt lat="50.360179" lon="16.349307">
      <ele>925</ele>
      <time>2026-05-07T10:13:05Z</time>
    </trkpt>
    <trkpt lat="50.360068" lon="16.349587">
      <ele>929</ele>
      <time>2026-05-07T10:13:43Z</time>
    </trkpt>
    <trkpt lat="50.359939" lon="16.349747">
      <ele>934</ele>
      <time>2026-05-07T10:14:13Z</time>
    </trkpt>
    <trkpt lat="50.359641" lon="16.349918">
      <ele>941</ele>
      <time>2026-05-07T10:15:10Z</time>
    </trkpt>
    <trkpt lat="50.359495" lon="16.350034">
      <ele>944</ele>
      <time>2026-05-07T10:15:39Z</time>
    </trkpt>
    <trkpt lat="50.359401" lon="16.350191">
      <ele>945</ele>
      <time>2026-05-07T10:16:03Z</time>
    </trkpt>
    <trkpt lat="50.359045" lon="16.350749">
      <ele>950</ele>
      <time>2026-05-07T10:17:33Z</time>
    </trkpt>
    <trkpt lat="50.358919" lon="16.351054">
      <ele>952</ele>
      <time>2026-05-07T10:18:13Z</time>
    </trkpt>
    <trkpt lat="50.358774" lon="16.351424">
      <ele>955</ele>
      <time>2026-05-07T10:19:03Z</time>
    </trkpt>
    <trkpt lat="50.358628" lon="16.351984">
      <ele>959</ele>
      <time>2026-05-07T10:20:11Z</time>
    </trkpt>
    <trkpt lat="50.358569" lon="16.352124">
      <ele>960</ele>
      <time>2026-05-07T10:20:30Z</time>
    </trkpt>
    <trkpt lat="50.358345" lon="16.352557">
      <ele>965</ele>
      <time>2026-05-07T10:21:33Z</time>
    </trkpt>
    <trkpt lat="50.358287" lon="16.352683">
      <ele>967</ele>
      <time>2026-05-07T10:21:51Z</time>
    </trkpt>
    <trkpt lat="50.358295" lon="16.352762">
      <ele>967</ele>
      <time>2026-05-07T10:22:00Z</time>
    </trkpt>
    <trkpt lat="50.358326" lon="16.353052">
      <ele>969</ele>
      <time>2026-05-07T10:22:33Z</time>
    </trkpt>
    <trkpt lat="50.358321" lon="16.353199">
      <ele>970</ele>
      <time>2026-05-07T10:22:50Z</time>
    </trkpt>
    <trkpt lat="50.358099" lon="16.353929">
      <ele>978</ele>
      <time>2026-05-07T10:24:21Z</time>
    </trkpt>
    <trkpt lat="50.358001" lon="16.354203">
      <ele>978</ele>
      <time>2026-05-07T10:24:57Z</time>
    </trkpt>
    <trkpt lat="50.357827" lon="16.354435">
      <ele>980</ele>
      <time>2026-05-07T10:25:37Z</time>
    </trkpt>
    <trkpt lat="50.357703" lon="16.354512">
      <ele>980</ele>
      <time>2026-05-07T10:26:01Z</time>
    </trkpt>
    <trkpt lat="50.357599" lon="16.354551">
      <ele>981</ele>
      <time>2026-05-07T10:26:20Z</time>
    </trkpt>
    <trkpt lat="50.357323" lon="16.354652">
      <ele>981</ele>
      <time>2026-05-07T10:27:10Z</time>
    </trkpt>
    <trkpt lat="50.357087" lon="16.354924">
      <ele>982</ele>
      <time>2026-05-07T10:28:01Z</time>
    </trkpt>
    <trkpt lat="50.356788" lon="16.355414">
      <ele>985</ele>
      <time>2026-05-07T10:29:18Z</time>
    </trkpt>
    <trkpt lat="50.3566" lon="16.355664">
      <ele>987</ele>
      <time>2026-05-07T10:30:01Z</time>
    </trkpt>
    <trkpt lat="50.3565" lon="16.35579">
      <ele>988</ele>
      <time>2026-05-07T10:30:24Z</time>
    </trkpt>
    <trkpt lat="50.356179" lon="16.356516">
      <ele>993</ele>
      <time>2026-05-07T10:32:03Z</time>
    </trkpt>
    <trkpt lat="50.356045" lon="16.356787">
      <ele>995</ele>
      <time>2026-05-07T10:32:42Z</time>
    </trkpt>
    <trkpt lat="50.355594" lon="16.357637">
      <ele>1010</ele>
      <time>2026-05-07T10:34:49Z</time>
    </trkpt>
    <trkpt lat="50.355193" lon="16.358316">
      <ele>1020</ele>
      <time>2026-05-07T10:36:34Z</time>
    </trkpt>
    <trkpt lat="50.355128" lon="16.358436">
      <ele>1022</ele>
      <time>2026-05-07T10:36:52Z</time>
    </trkpt>
    <trkpt lat="50.355043" lon="16.35848">
      <ele>1024</ele>
      <time>2026-05-07T10:37:08Z</time>
    </trkpt>
    <trkpt lat="50.354947" lon="16.358586">
      <ele>1026</ele>
      <time>2026-05-07T10:37:29Z</time>
    </trkpt>
    <trkpt lat="50.35471" lon="16.358777">
      <ele>1033</ele>
      <time>2026-05-07T10:38:17Z</time>
    </trkpt>
    <trkpt lat="50.354629" lon="16.35888">
      <ele>1036</ele>
      <time>2026-05-07T10:38:36Z</time>
    </trkpt>
    <trkpt lat="50.354575" lon="16.359023">
      <ele>1039</ele>
      <time>2026-05-07T10:38:56Z</time>
    </trkpt>
    <trkpt lat="50.354549" lon="16.359187">
      <ele>1041</ele>
      <time>2026-05-07T10:39:15Z</time>
    </trkpt>
    <trkpt lat="50.354505" lon="16.359361">
      <ele>1044</ele>
      <time>2026-05-07T10:39:36Z</time>
    </trkpt>
    <trkpt lat="50.354446" lon="16.359545">
      <ele>1048</ele>
      <time>2026-05-07T10:40:00Z</time>
    </trkpt>
    <trkpt lat="50.354405" lon="16.359753">
      <ele>1053</ele>
      <time>2026-05-07T10:40:26Z</time>
    </trkpt>
    <trkpt lat="50.354317" lon="16.359939">
      <ele>1059</ele>
      <time>2026-05-07T10:40:54Z</time>
    </trkpt>
    <trkpt lat="50.354211" lon="16.360139">
      <ele>1064</ele>
      <time>2026-05-07T10:41:24Z</time>
    </trkpt>
    <trkpt lat="50.354" lon="16.360518">
      <ele>1071</ele>
      <time>2026-05-07T10:42:22Z</time>
    </trkpt>
    <trkpt lat="50.353742" lon="16.360206">
      <ele>1074</ele>
      <time>2026-05-07T10:42:53Z</time>
    </trkpt>
    <trkpt lat="50.353609" lon="16.360081">
      <ele>1075</ele>
      <time>2026-05-07T10:43:08Z</time>
    </trkpt>
    <trkpt lat="50.353529" lon="16.360021">
      <ele>1074</ele>
      <time>2026-05-07T10:43:17Z</time>
    </trkpt>
    <trkpt lat="50.353477" lon="16.36">
      <ele>1074</ele>
      <time>2026-05-07T10:43:22Z</time>
    </trkpt>
    <trkpt lat="50.353438" lon="16.360156">
      <ele>1076</ele>
      <time>2026-05-07T10:43:35Z</time>
    </trkpt>
    <trkpt lat="50.353416" lon="16.360306">
      <ele>1078</ele>
      <time>2026-05-07T10:43:47Z</time>
    </trkpt>
    <trkpt lat="50.353388" lon="16.36046">
      <ele>1079</ele>
      <time>2026-05-07T10:43:59Z</time>
    </trkpt>
    <trkpt lat="50.353292" lon="16.360651">
      <ele>1082</ele>
      <time>2026-05-07T10:44:18Z</time>
    </trkpt>
    <trkpt lat="50.3532651" lon="16.3606901">
      <ele>1083</ele>
      <time>2026-05-07T10:44:22Z</time>
    </trkpt>
    <trkpt lat="50.353292" lon="16.360651">
      <ele>1082</ele>
      <time>2026-05-07T10:44:26Z</time>
    </trkpt>
    <trkpt lat="50.353388" lon="16.36046">
      <ele>1079</ele>
      <time>2026-05-07T10:44:45Z</time>
    </trkpt>
    <trkpt lat="50.353416" lon="16.360306">
      <ele>1078</ele>
      <time>2026-05-07T10:44:57Z</time>
    </trkpt>
    <trkpt lat="50.353438" lon="16.360156">
      <ele>1076</ele>
      <time>2026-05-07T10:45:09Z</time>
    </trkpt>
    <trkpt lat="50.353477" lon="16.36">
      <ele>1074</ele>
      <time>2026-05-07T10:45:22Z</time>
    </trkpt>
    <trkpt lat="50.353338" lon="16.359974">
      <ele>1074</ele>
      <time>2026-05-07T10:45:38Z</time>
    </trkpt>
    <trkpt lat="50.351809" lon="16.359939">
      <ele>1069</ele>
      <time>2026-05-07T10:48:36Z</time>
    </trkpt>
    <trkpt lat="50.350889" lon="16.359928">
      <ele>1066</ele>
      <time>2026-05-07T10:50:23Z</time>
    </trkpt>
    <trkpt lat="50.35051" lon="16.359911">
      <ele>1065</ele>
      <time>2026-05-07T10:51:07Z</time>
    </trkpt>
    <trkpt lat="50.350269" lon="16.359899">
      <ele>1064</ele>
      <time>2026-05-07T10:51:36Z</time>
    </trkpt>
    <trkpt lat="50.350114" lon="16.359882">
      <ele>1065</ele>
      <time>2026-05-07T10:51:54Z</time>
    </trkpt>
    <trkpt lat="50.35003" lon="16.359821">
      <ele>1066</ele>
      <time>2026-05-07T10:52:04Z</time>
    </trkpt>
    <trkpt lat="50.349892" lon="16.3596">
      <ele>1064</ele>
      <time>2026-05-07T10:52:27Z</time>
    </trkpt>
    <trkpt lat="50.349719" lon="16.359232">
      <ele>1062</ele>
      <time>2026-05-07T10:53:01Z</time>
    </trkpt>
    <trkpt lat="50.349446" lon="16.358658">
      <ele>1058</ele>
      <time>2026-05-07T10:53:55Z</time>
    </trkpt>
    <trkpt lat="50.349239" lon="16.358204">
      <ele>1055</ele>
      <time>2026-05-07T10:54:36Z</time>
    </trkpt>
    <trkpt lat="50.348781" lon="16.357225">
      <ele>1047</ele>
      <time>2026-05-07T10:56:07Z</time>
    </trkpt>
    <trkpt lat="50.348714" lon="16.357081">
      <ele>1046</ele>
      <time>2026-05-07T10:56:20Z</time>
    </trkpt>
    <trkpt lat="50.348339" lon="16.356275">
      <ele>1045</ele>
      <time>2026-05-07T10:57:34Z</time>
    </trkpt>
    <trkpt lat="50.347944" lon="16.355444">
      <ele>1048</ele>
      <time>2026-05-07T10:58:51Z</time>
    </trkpt>
    <trkpt lat="50.347578" lon="16.354687">
      <ele>1051</ele>
      <time>2026-05-07T11:00:02Z</time>
    </trkpt>
    <trkpt lat="50.347494" lon="16.354446">
      <ele>1051</ele>
      <time>2026-05-07T11:00:22Z</time>
    </trkpt>
    <trkpt lat="50.347408" lon="16.354302">
      <ele>1051</ele>
      <time>2026-05-07T11:00:39Z</time>
    </trkpt>
    <trkpt lat="50.347302" lon="16.354218">
      <ele>1051</ele>
      <time>2026-05-07T11:00:54Z</time>
    </trkpt>
    <trkpt lat="50.347228" lon="16.354197">
      <ele>1051</ele>
      <time>2026-05-07T11:01:04Z</time>
    </trkpt>
    <trkpt lat="50.347148" lon="16.354262">
      <ele>1051</ele>
      <time>2026-05-07T11:01:16Z</time>
    </trkpt>
    <trkpt lat="50.347053" lon="16.354467">
      <ele>1052</ele>
      <time>2026-05-07T11:01:38Z</time>
    </trkpt>
    <trkpt lat="50.347001" lon="16.354885">
      <ele>1051</ele>
      <time>2026-05-07T11:02:14Z</time>
    </trkpt>
    <trkpt lat="50.346934" lon="16.356">
      <ele>1048</ele>
      <time>2026-05-07T11:03:49Z</time>
    </trkpt>
    <trkpt lat="50.34687" lon="16.356247">
      <ele>1047</ele>
      <time>2026-05-07T11:04:11Z</time>
    </trkpt>
    <trkpt lat="50.346789" lon="16.356414">
      <ele>1045</ele>
      <time>2026-05-07T11:04:29Z</time>
    </trkpt>
    <trkpt lat="50.345114" lon="16.35875">
      <ele>1019</ele>
      <time>2026-05-07T11:09:28Z</time>
    </trkpt>
    <trkpt lat="50.344928" lon="16.358949">
      <ele>1017</ele>
      <time>2026-05-07T11:09:58Z</time>
    </trkpt>
    <trkpt lat="50.344774" lon="16.359105">
      <ele>1017</ele>
      <time>2026-05-07T11:10:22Z</time>
    </trkpt>
    <trkpt lat="50.344793" lon="16.358696">
      <ele>1014</ele>
      <time>2026-05-07T11:11:05Z</time>
    </trkpt>
    <trkpt lat="50.344797" lon="16.358525">
      <ele>1014</ele>
      <time>2026-05-07T11:11:22Z</time>
    </trkpt>
    <trkpt lat="50.344792" lon="16.358425">
      <ele>1013</ele>
      <time>2026-05-07T11:11:33Z</time>
    </trkpt>
    <trkpt lat="50.344765" lon="16.358341">
      <ele>1013</ele>
      <time>2026-05-07T11:11:42Z</time>
    </trkpt>
    <trkpt lat="50.344703" lon="16.358255">
      <ele>1012</ele>
      <time>2026-05-07T11:11:56Z</time>
    </trkpt>
    <trkpt lat="50.344584" lon="16.35823">
      <ele>1011</ele>
      <time>2026-05-07T11:12:15Z</time>
    </trkpt>
    <trkpt lat="50.344462" lon="16.358281">
      <ele>1010</ele>
      <time>2026-05-07T11:12:36Z</time>
    </trkpt>
    <trkpt lat="50.344369" lon="16.358333">
      <ele>1009</ele>
      <time>2026-05-07T11:12:52Z</time>
    </trkpt>
    <trkpt lat="50.344324" lon="16.358381">
      <ele>1009</ele>
      <time>2026-05-07T11:13:01Z</time>
    </trkpt>
    <trkpt lat="50.344252" lon="16.358173">
      <ele>1010</ele>
      <time>2026-05-07T11:13:25Z</time>
    </trkpt>
    <trkpt lat="50.344171" lon="16.357994">
      <ele>1011</ele>
      <time>2026-05-07T11:13:48Z</time>
    </trkpt>
    <trkpt lat="50.34405" lon="16.357821">
      <ele>1012</ele>
      <time>2026-05-07T11:14:14Z</time>
    </trkpt>
    <trkpt lat="50.343698" lon="16.35748">
      <ele>1020</ele>
      <time>2026-05-07T11:15:22Z</time>
    </trkpt>
    <trkpt lat="50.343404" lon="16.357254">
      <ele>1023</ele>
      <time>2026-05-07T11:16:15Z</time>
    </trkpt>
    <trkpt lat="50.343092" lon="16.357081">
      <ele>1023</ele>
      <time>2026-05-07T11:17:09Z</time>
    </trkpt>
    <trkpt lat="50.341933" lon="16.356655">
      <ele>1032</ele>
      <time>2026-05-07T11:20:22Z</time>
    </trkpt>
    <trkpt lat="50.34182" lon="16.356603">
      <ele>1031</ele>
      <time>2026-05-07T11:20:44Z</time>
    </trkpt>
    <trkpt lat="50.341644" lon="16.356486">
      <ele>1026</ele>
      <time>2026-05-07T11:21:22Z</time>
    </trkpt>
    <trkpt lat="50.341726" lon="16.355948">
      <ele>1030</ele>
      <time>2026-05-07T11:21:59Z</time>
    </trkpt>
    <trkpt lat="50.34178" lon="16.35573">
      <ele>1029</ele>
      <time>2026-05-07T11:22:15Z</time>
    </trkpt>
    <trkpt lat="50.341869" lon="16.355422">
      <ele>1028</ele>
      <time>2026-05-07T11:22:38Z</time>
    </trkpt>
    <trkpt lat="50.342004" lon="16.354925">
      <ele>1025</ele>
      <time>2026-05-07T11:23:14Z</time>
    </trkpt>
    <trkpt lat="50.342229" lon="16.354362">
      <ele>1023</ele>
      <time>2026-05-07T11:23:59Z</time>
    </trkpt>
    <trkpt lat="50.342598" lon="16.353372">
      <ele>1021</ele>
      <time>2026-05-07T11:25:16Z</time>
    </trkpt>
    <trkpt lat="50.34295" lon="16.352357">
      <ele>1014</ele>
      <time>2026-05-07T11:26:34Z</time>
    </trkpt>
    <trkpt lat="50.343075" lon="16.351976">
      <ele>1011</ele>
      <time>2026-05-07T11:27:03Z</time>
    </trkpt>
    <trkpt lat="50.343297" lon="16.35146">
      <ele>1008</ele>
      <time>2026-05-07T11:27:45Z</time>
    </trkpt>
    <trkpt lat="50.343582" lon="16.351036">
      <ele>1005</ele>
      <time>2026-05-07T11:28:26Z</time>
    </trkpt>
    <trkpt lat="50.34384" lon="16.350698">
      <ele>1002</ele>
      <time>2026-05-07T11:29:02Z</time>
    </trkpt>
    <trkpt lat="50.344027" lon="16.350504">
      <ele>1000</ele>
      <time>2026-05-07T11:29:25Z</time>
    </trkpt>
    <trkpt lat="50.344472" lon="16.350013">
      <ele>995</ele>
      <time>2026-05-07T11:30:23Z</time>
    </trkpt>
    <trkpt lat="50.344725" lon="16.349661">
      <ele>990</ele>
      <time>2026-05-07T11:30:59Z</time>
    </trkpt>
    <trkpt lat="50.34515" lon="16.348911">
      <ele>978</ele>
      <time>2026-05-07T11:32:07Z</time>
    </trkpt>
    <trkpt lat="50.345513" lon="16.348169">
      <ele>971</ele>
      <time>2026-05-07T11:33:10Z</time>
    </trkpt>
    <trkpt lat="50.345591" lon="16.347937">
      <ele>968</ele>
      <time>2026-05-07T11:33:28Z</time>
    </trkpt>
    <trkpt lat="50.34568" lon="16.347822">
      <ele>968</ele>
      <time>2026-05-07T11:33:40Z</time>
    </trkpt>
    <trkpt lat="50.345803" lon="16.34766">
      <ele>968</ele>
      <time>2026-05-07T11:33:57Z</time>
    </trkpt>
    <trkpt lat="50.345898" lon="16.3475">
      <ele>966</ele>
      <time>2026-05-07T11:34:12Z</time>
    </trkpt>
    <trkpt lat="50.345945" lon="16.347376">
      <ele>965</ele>
      <time>2026-05-07T11:34:21Z</time>
    </trkpt>
    <trkpt lat="50.34593" lon="16.347249">
      <ele>963</ele>
      <time>2026-05-07T11:34:30Z</time>
    </trkpt>
    <trkpt lat="50.346147" lon="16.34682">
      <ele>960</ele>
      <time>2026-05-07T11:35:07Z</time>
    </trkpt>
    <trkpt lat="50.346835" lon="16.345356">
      <ele>945</ele>
      <time>2026-05-07T11:37:10Z</time>
    </trkpt>
    <trkpt lat="50.347027" lon="16.344964">
      <ele>937</ele>
      <time>2026-05-07T11:37:44Z</time>
    </trkpt>
    <trkpt lat="50.34711" lon="16.344865">
      <ele>935</ele>
      <time>2026-05-07T11:37:55Z</time>
    </trkpt>
    <trkpt lat="50.347291" lon="16.344767">
      <ele>932</ele>
      <time>2026-05-07T11:38:16Z</time>
    </trkpt>
    <trkpt lat="50.347368" lon="16.344696">
      <ele>930</ele>
      <time>2026-05-07T11:38:25Z</time>
    </trkpt>
    <trkpt lat="50.347423" lon="16.344603">
      <ele>929</ele>
      <time>2026-05-07T11:38:34Z</time>
    </trkpt>
    <trkpt lat="50.347498" lon="16.344396">
      <ele>926</ele>
      <time>2026-05-07T11:38:50Z</time>
    </trkpt>
    <trkpt lat="50.347584" lon="16.344214">
      <ele>924</ele>
      <time>2026-05-07T11:39:05Z</time>
    </trkpt>
    <trkpt lat="50.347692" lon="16.344009">
      <ele>921</ele>
      <time>2026-05-07T11:39:23Z</time>
    </trkpt>
    <trkpt lat="50.347746" lon="16.343814">
      <ele>919</ele>
      <time>2026-05-07T11:39:38Z</time>
    </trkpt>
    <trkpt lat="50.347776" lon="16.343575">
      <ele>916</ele>
      <time>2026-05-07T11:39:54Z</time>
    </trkpt>
    <trkpt lat="50.347927" lon="16.343141">
      <ele>911</ele>
      <time>2026-05-07T11:40:28Z</time>
    </trkpt>
    <trkpt lat="50.348048" lon="16.342824">
      <ele>907</ele>
      <time>2026-05-07T11:40:53Z</time>
    </trkpt>
    <trkpt lat="50.348184" lon="16.342452">
      <ele>904</ele>
      <time>2026-05-07T11:41:22Z</time>
    </trkpt>
    <trkpt lat="50.348339" lon="16.341487">
      <ele>900</ele>
      <time>2026-05-07T11:42:48Z</time>
    </trkpt>
    <trkpt lat="50.348452" lon="16.341074">
      <ele>897</ele>
      <time>2026-05-07T11:43:26Z</time>
    </trkpt>
    <trkpt lat="50.348745" lon="16.340163">
      <ele>885</ele>
      <time>2026-05-07T11:44:55Z</time>
    </trkpt>
    <trkpt lat="50.348831" lon="16.339819">
      <ele>881</ele>
      <time>2026-05-07T11:45:27Z</time>
    </trkpt>
    <trkpt lat="50.34887" lon="16.339524">
      <ele>876</ele>
      <time>2026-05-07T11:45:54Z</time>
    </trkpt>
    <trkpt lat="50.348943" lon="16.339242">
      <ele>867</ele>
      <time>2026-05-07T11:46:22Z</time>
    </trkpt>
    <trkpt lat="50.349633" lon="16.338791">
      <ele>859</ele>
      <time>2026-05-07T11:47:35Z</time>
    </trkpt>
    <trkpt lat="50.350563" lon="16.338266">
      <ele>849</ele>
      <time>2026-05-07T11:49:12Z</time>
    </trkpt>
    <trkpt lat="50.350542" lon="16.338126">
      <ele>847</ele>
      <time>2026-05-07T11:49:21Z</time>
    </trkpt>
    <trkpt lat="50.350472" lon="16.337976">
      <ele>846</ele>
      <time>2026-05-07T11:49:33Z</time>
    </trkpt>
    <trkpt lat="50.350287" lon="16.3377">
      <ele>844</ele>
      <time>2026-05-07T11:49:58Z</time>
    </trkpt>
    <trkpt lat="50.349917" lon="16.337175">
      <ele>840</ele>
      <time>2026-05-07T11:50:47Z</time>
    </trkpt>
    <trkpt lat="50.349832" lon="16.337002">
      <ele>839</ele>
      <time>2026-05-07T11:51:01Z</time>
    </trkpt>
    <trkpt lat="50.349736" lon="16.336753">
      <ele>838</ele>
      <time>2026-05-07T11:51:19Z</time>
    </trkpt>
    <trkpt lat="50.349661" lon="16.336501">
      <ele>838</ele>
      <time>2026-05-07T11:51:36Z</time>
    </trkpt>
    <trkpt lat="50.349611" lon="16.336147">
      <ele>837</ele>
      <time>2026-05-07T11:51:59Z</time>
    </trkpt>
    <trkpt lat="50.349592" lon="16.335911">
      <ele>835</ele>
      <time>2026-05-07T11:52:14Z</time>
    </trkpt>
    <trkpt lat="50.349568" lon="16.335672">
      <ele>833</ele>
      <time>2026-05-07T11:52:29Z</time>
    </trkpt>
    <trkpt lat="50.349727" lon="16.335602">
      <ele>832</ele>
      <time>2026-05-07T11:52:45Z</time>
    </trkpt>
    <trkpt lat="50.349799" lon="16.335629">
      <ele>832</ele>
      <time>2026-05-07T11:52:52Z</time>
    </trkpt>
    <trkpt lat="50.350232" lon="16.335801">
      <ele>828</ele>
      <time>2026-05-07T11:53:36Z</time>
    </trkpt>
    <trkpt lat="50.350493" lon="16.335814">
      <ele>826</ele>
      <time>2026-05-07T11:54:02Z</time>
    </trkpt>
    <trkpt lat="50.350753" lon="16.335766">
      <ele>823</ele>
      <time>2026-05-07T11:54:27Z</time>
    </trkpt>
    <trkpt lat="50.350979" lon="16.335712">
      <ele>821</ele>
      <time>2026-05-07T11:54:50Z</time>
    </trkpt>
    <trkpt lat="50.351734" lon="16.335739">
      <ele>812</ele>
      <time>2026-05-07T11:56:04Z</time>
    </trkpt>
    <trkpt lat="50.35221" lon="16.335734">
      <ele>806</ele>
      <time>2026-05-07T11:56:51Z</time>
    </trkpt>
    <trkpt lat="50.353208" lon="16.335761">
      <ele>798</ele>
      <time>2026-05-07T11:58:28Z</time>
    </trkpt>
    <trkpt lat="50.35384" lon="16.335779">
      <ele>796</ele>
      <time>2026-05-07T11:59:30Z</time>
    </trkpt>
    <trkpt lat="50.354006" lon="16.335753">
      <ele>795</ele>
      <time>2026-05-07T11:59:47Z</time>
    </trkpt>
    <trkpt lat="50.354199" lon="16.33568">
      <ele>794</ele>
      <time>2026-05-07T12:00:06Z</time>
    </trkpt>
    <trkpt lat="50.354627" lon="16.335468">
      <ele>794</ele>
      <time>2026-05-07T12:00:50Z</time>
    </trkpt>
    <trkpt lat="50.35498" lon="16.335299">
      <ele>792</ele>
      <time>2026-05-07T12:01:26Z</time>
    </trkpt>
    <trkpt lat="50.355225" lon="16.335194">
      <ele>790</ele>
      <time>2026-05-07T12:01:51Z</time>
    </trkpt>
    <trkpt lat="50.355363" lon="16.335141">
      <ele>789</ele>
      <time>2026-05-07T12:02:05Z</time>
    </trkpt>
    <trkpt lat="50.355486" lon="16.335069">
      <ele>788</ele>
      <time>2026-05-07T12:02:18Z</time>
    </trkpt>
    <trkpt lat="50.355643" lon="16.334889">
      <ele>788</ele>
      <time>2026-05-07T12:02:37Z</time>
    </trkpt>
    <trkpt lat="50.355803" lon="16.334637">
      <ele>787</ele>
      <time>2026-05-07T12:02:59Z</time>
    </trkpt>
    <trkpt lat="50.355967" lon="16.334457">
      <ele>786</ele>
      <time>2026-05-07T12:03:18Z</time>
    </trkpt>
    <trkpt lat="50.356433" lon="16.334057">
      <ele>782</ele>
      <time>2026-05-07T12:04:10Z</time>
    </trkpt>
    <trkpt lat="50.356704" lon="16.333921">
      <ele>779</ele>
      <time>2026-05-07T12:04:38Z</time>
    </trkpt>
    <trkpt lat="50.356937" lon="16.333781">
      <ele>775</ele>
      <time>2026-05-07T12:05:03Z</time>
    </trkpt>
    <trkpt lat="50.357791" lon="16.333097">
      <ele>763</ele>
      <time>2026-05-07T12:06:37Z</time>
    </trkpt>
    <trkpt lat="50.35812" lon="16.332781">
      <ele>760</ele>
      <time>2026-05-07T12:07:15Z</time>
    </trkpt>
    <trkpt lat="50.358382" lon="16.332515">
      <ele>760</ele>
      <time>2026-05-07T12:07:46Z</time>
    </trkpt>
    <trkpt lat="50.358864" lon="16.332115">
      <ele>759</ele>
      <time>2026-05-07T12:08:39Z</time>
    </trkpt>
    <trkpt lat="50.359126" lon="16.331863">
      <ele>758</ele>
      <time>2026-05-07T12:09:09Z</time>
    </trkpt>
    <trkpt lat="50.359278" lon="16.331694">
      <ele>758</ele>
      <time>2026-05-07T12:09:27Z</time>
    </trkpt>
    <trkpt lat="50.359426" lon="16.331544">
      <ele>758</ele>
      <time>2026-05-07T12:09:44Z</time>
    </trkpt>
    <trkpt lat="50.359812" lon="16.331273">
      <ele>753</ele>
      <time>2026-05-07T12:10:26Z</time>
    </trkpt>
    <trkpt lat="50.36004" lon="16.331072">
      <ele>750</ele>
      <time>2026-05-07T12:10:52Z</time>
    </trkpt>
    <trkpt lat="50.360398" lon="16.330833">
      <ele>744</ele>
      <time>2026-05-07T12:11:30Z</time>
    </trkpt>
    <trkpt lat="50.360673" lon="16.330565">
      <ele>736</ele>
      <time>2026-05-07T12:12:02Z</time>
    </trkpt>
    <trkpt lat="50.360817" lon="16.330353">
      <ele>732</ele>
      <time>2026-05-07T12:12:22Z</time>
    </trkpt>
    <trkpt lat="50.361001" lon="16.330179">
      <ele>729</ele>
      <time>2026-05-07T12:12:43Z</time>
    </trkpt>
    <trkpt lat="50.361861" lon="16.329484">
      <ele>722</ele>
      <time>2026-05-07T12:14:18Z</time>
    </trkpt>
    <trkpt lat="50.362148" lon="16.329318">
      <ele>720</ele>
      <time>2026-05-07T12:14:48Z</time>
    </trkpt>
    <trkpt lat="50.362451" lon="16.329211">
      <ele>718</ele>
      <time>2026-05-07T12:15:18Z</time>
    </trkpt>
    <trkpt lat="50.362672" lon="16.329187">
      <ele>715</ele>
      <time>2026-05-07T12:15:40Z</time>
    </trkpt>
    <trkpt lat="50.363114" lon="16.329205">
      <ele>708</ele>
      <time>2026-05-07T12:16:24Z</time>
    </trkpt>
    <trkpt lat="50.363772" lon="16.329219">
      <ele>698</ele>
      <time>2026-05-07T12:17:29Z</time>
    </trkpt>
    <trkpt lat="50.364314" lon="16.329152">
      <ele>689</ele>
      <time>2026-05-07T12:18:22Z</time>
    </trkpt>
    <trkpt lat="50.364667" lon="16.329071">
      <ele>683</ele>
      <time>2026-05-07T12:18:57Z</time>
    </trkpt>
    <trkpt lat="50.365075" lon="16.329007">
      <ele>676</ele>
      <time>2026-05-07T12:19:38Z</time>
    </trkpt>
    <trkpt lat="50.365304" lon="16.328953">
      <ele>674</ele>
      <time>2026-05-07T12:20:01Z</time>
    </trkpt>
    <trkpt lat="50.365448" lon="16.328849">
      <ele>673</ele>
      <time>2026-05-07T12:20:16Z</time>
    </trkpt>
    <trkpt lat="50.365668" lon="16.328602">
      <ele>671</ele>
      <time>2026-05-07T12:20:43Z</time>
    </trkpt>
    <trkpt lat="50.365772" lon="16.328435">
      <ele>669</ele>
      <time>2026-05-07T12:20:57Z</time>
    </trkpt>
    <trkpt lat="50.365881" lon="16.328259">
      <ele>667</ele>
      <time>2026-05-07T12:21:13Z</time>
    </trkpt>
    <trkpt lat="50.366066" lon="16.327762">
      <ele>663</ele>
      <time>2026-05-07T12:21:49Z</time>
    </trkpt>
    <trkpt lat="50.366124" lon="16.327583">
      <ele>663</ele>
      <time>2026-05-07T12:22:01Z</time>
    </trkpt>
    <trkpt lat="50.366176" lon="16.327526">
      <ele>663</ele>
      <time>2026-05-07T12:22:07Z</time>
    </trkpt>
    <trkpt lat="50.366225" lon="16.327529">
      <ele>662</ele>
      <time>2026-05-07T12:22:12Z</time>
    </trkpt>
    <trkpt lat="50.366287" lon="16.327548">
      <ele>662</ele>
      <time>2026-05-07T12:22:18Z</time>
    </trkpt>
    <trkpt lat="50.366355" lon="16.32744">
      <ele>661</ele>
      <time>2026-05-07T12:22:28Z</time>
    </trkpt>
    <trkpt lat="50.36639" lon="16.327405">
      <ele>661</ele>
      <time>2026-05-07T12:22:32Z</time>
    </trkpt>
    <trkpt lat="50.366446" lon="16.327349">
      <ele>661</ele>
      <time>2026-05-07T12:22:38Z</time>
    </trkpt>
    <trkpt lat="50.366525" lon="16.327306">
      <ele>661</ele>
      <time>2026-05-07T12:22:47Z</time>
    </trkpt>
    <trkpt lat="50.366656" lon="16.327253">
      <ele>661</ele>
      <time>2026-05-07T12:23:00Z</time>
    </trkpt>
    <trkpt lat="50.366723" lon="16.327247">
      <ele>662</ele>
      <time>2026-05-07T12:23:06Z</time>
    </trkpt>
    <trkpt lat="50.366835" lon="16.327201">
      <ele>663</ele>
      <time>2026-05-07T12:23:18Z</time>
    </trkpt>
    <trkpt lat="50.36695" lon="16.327104">
      <ele>664</ele>
      <time>2026-05-07T12:23:31Z</time>
    </trkpt>
    <trkpt lat="50.367144" lon="16.327004">
      <ele>664</ele>
      <time>2026-05-07T12:23:51Z</time>
    </trkpt>
    <trkpt lat="50.367528" lon="16.326211">
      <ele>661</ele>
      <time>2026-05-07T12:24:53Z</time>
    </trkpt>
    <trkpt lat="50.367669" lon="16.32592">
      <ele>659</ele>
      <time>2026-05-07T12:25:15Z</time>
    </trkpt>
    <trkpt lat="50.367806" lon="16.325598">
      <ele>657</ele>
      <time>2026-05-07T12:25:40Z</time>
    </trkpt>
    <trkpt lat="50.367903" lon="16.325129">
      <ele>655</ele>
      <time>2026-05-07T12:26:10Z</time>
    </trkpt>
    <trkpt lat="50.368085" lon="16.324149">
      <ele>650</ele>
      <time>2026-05-07T12:27:14Z</time>
    </trkpt>
    <trkpt lat="50.368168" lon="16.323826">
      <ele>648</ele>
      <time>2026-05-07T12:27:36Z</time>
    </trkpt>
    <trkpt lat="50.368284" lon="16.323659">
      <ele>648</ele>
      <time>2026-05-07T12:27:51Z</time>
    </trkpt>
    <trkpt lat="50.368639" lon="16.323111">
      <ele>647</ele>
      <time>2026-05-07T12:28:40Z</time>
    </trkpt>
    <trkpt lat="50.368751" lon="16.322862">
      <ele>645</ele>
      <time>2026-05-07T12:28:59Z</time>
    </trkpt>
    <trkpt lat="50.368843" lon="16.322591">
      <ele>643</ele>
      <time>2026-05-07T12:29:18Z</time>
    </trkpt>
    <trkpt lat="50.36897" lon="16.322286">
      <ele>642</ele>
      <time>2026-05-07T12:29:41Z</time>
    </trkpt>
    <trkpt lat="50.369207" lon="16.321927">
      <ele>641</ele>
      <time>2026-05-07T12:30:13Z</time>
    </trkpt>
    <trkpt lat="50.369562" lon="16.321432">
      <ele>637</ele>
      <time>2026-05-07T12:31:00Z</time>
    </trkpt>
    <trkpt lat="50.369836" lon="16.320987">
      <ele>637</ele>
      <time>2026-05-07T12:31:38Z</time>
    </trkpt>
    <trkpt lat="50.370028" lon="16.320608">
      <ele>636</ele>
      <time>2026-05-07T12:32:08Z</time>
    </trkpt>
    <trkpt lat="50.370149" lon="16.320369">
      <ele>637</ele>
      <time>2026-05-07T12:32:27Z</time>
    </trkpt>
    <trkpt lat="50.37048" lon="16.319779">
      <ele>634</ele>
      <time>2026-05-07T12:33:17Z</time>
    </trkpt>
    <trkpt lat="50.370589" lon="16.3197">
      <ele>631</ele>
      <time>2026-05-07T12:33:28Z</time>
    </trkpt>
    <trkpt lat="50.37077" lon="16.319628">
      <ele>627</ele>
      <time>2026-05-07T12:33:47Z</time>
    </trkpt>
    <trkpt lat="50.370846" lon="16.31957">
      <ele>625</ele>
      <time>2026-05-07T12:33:56Z</time>
    </trkpt>
    <trkpt lat="50.370912" lon="16.319502">
      <ele>623</ele>
      <time>2026-05-07T12:34:03Z</time>
    </trkpt>
    <trkpt lat="50.371036" lon="16.319292">
      <ele>620</ele>
      <time>2026-05-07T12:34:21Z</time>
    </trkpt>
    <trkpt lat="50.371181" lon="16.31906">
      <ele>618</ele>
      <time>2026-05-07T12:34:42Z</time>
    </trkpt>
    <trkpt lat="50.371358" lon="16.318688">
      <ele>616</ele>
      <time>2026-05-07T12:35:11Z</time>
    </trkpt>
    <trkpt lat="50.371445" lon="16.318459">
      <ele>615</ele>
      <time>2026-05-07T12:35:27Z</time>
    </trkpt>
    <trkpt lat="50.371496" lon="16.318262">
      <ele>614</ele>
      <time>2026-05-07T12:35:41Z</time>
    </trkpt>
    <trkpt lat="50.371526" lon="16.318064">
      <ele>614</ele>
      <time>2026-05-07T12:35:53Z</time>
    </trkpt>
    <trkpt lat="50.371566" lon="16.317829">
      <ele>614</ele>
      <time>2026-05-07T12:36:08Z</time>
    </trkpt>
    <trkpt lat="50.371606" lon="16.31773">
      <ele>613</ele>
      <time>2026-05-07T12:36:16Z</time>
    </trkpt>
    <trkpt lat="50.371651" lon="16.31766">
      <ele>613</ele>
      <time>2026-05-07T12:36:22Z</time>
    </trkpt>
    <trkpt lat="50.371655" lon="16.31752">
      <ele>612</ele>
      <time>2026-05-07T12:36:30Z</time>
    </trkpt>
    <trkpt lat="50.371692" lon="16.317394">
      <ele>612</ele>
      <time>2026-05-07T12:36:37Z</time>
    </trkpt>
    <trkpt lat="50.371766" lon="16.317238">
      <ele>612</ele>
      <time>2026-05-07T12:36:48Z</time>
    </trkpt>
    <trkpt lat="50.37182" lon="16.317149">
      <ele>612</ele>
      <time>2026-05-07T12:36:55Z</time>
    </trkpt>
    <trkpt lat="50.371937" lon="16.316989">
      <ele>611</ele>
      <time>2026-05-07T12:37:08Z</time>
    </trkpt>
    <trkpt lat="50.371964" lon="16.316952">
      <ele>611</ele>
      <time>2026-05-07T12:37:11Z</time>
    </trkpt>
    <trkpt lat="50.372039" lon="16.316847">
      <ele>611</ele>
      <time>2026-05-07T12:37:20Z</time>
    </trkpt>
    <trkpt lat="50.372101" lon="16.316762">
      <ele>611</ele>
      <time>2026-05-07T12:37:27Z</time>
    </trkpt>
    <trkpt lat="50.372147" lon="16.316688">
      <ele>610</ele>
      <time>2026-05-07T12:37:33Z</time>
    </trkpt>
    <trkpt lat="50.372182" lon="16.316597">
      <ele>610</ele>
      <time>2026-05-07T12:37:39Z</time>
    </trkpt>
    <trkpt lat="50.372199" lon="16.316481">
      <ele>609</ele>
      <time>2026-05-07T12:37:45Z</time>
    </trkpt>
    <trkpt lat="50.372211" lon="16.316331">
      <ele>608</ele>
      <time>2026-05-07T12:37:54Z</time>
    </trkpt>
    <trkpt lat="50.372213" lon="16.316191">
      <ele>607</ele>
      <time>2026-05-07T12:38:01Z</time>
    </trkpt>
    <trkpt lat="50.372214" lon="16.316134">
      <ele>607</ele>
      <time>2026-05-07T12:38:04Z</time>
    </trkpt>
    <trkpt lat="50.372209" lon="16.315943">
      <ele>608</ele>
      <time>2026-05-07T12:38:15Z</time>
    </trkpt>
    <trkpt lat="50.372182" lon="16.315754">
      <ele>608</ele>
      <time>2026-05-07T12:38:26Z</time>
    </trkpt>
    <trkpt lat="50.372089" lon="16.315208">
      <ele>608</ele>
      <time>2026-05-07T12:38:57Z</time>
    </trkpt>
    <trkpt lat="50.372063" lon="16.314836">
      <ele>607</ele>
      <time>2026-05-07T12:39:17Z</time>
    </trkpt>
    <trkpt lat="50.372076" lon="16.314698">
      <ele>607</ele>
      <time>2026-05-07T12:39:25Z</time>
    </trkpt>
    <trkpt lat="50.372101" lon="16.314559">
      <ele>607</ele>
      <time>2026-05-07T12:39:33Z</time>
    </trkpt>
    <trkpt lat="50.372258" lon="16.314153">
      <ele>605</ele>
      <time>2026-05-07T12:39:59Z</time>
    </trkpt>
    <trkpt lat="50.372288" lon="16.314065">
      <ele>606</ele>
      <time>2026-05-07T12:40:04Z</time>
    </trkpt>
    <trkpt lat="50.372326" lon="16.313946">
      <ele>606</ele>
      <time>2026-05-07T12:40:12Z</time>
    </trkpt>
    <trkpt lat="50.372359" lon="16.313735">
      <ele>606</ele>
      <time>2026-05-07T12:40:24Z</time>
    </trkpt>
    <trkpt lat="50.372386" lon="16.313478">
      <ele>606</ele>
      <time>2026-05-07T12:40:38Z</time>
    </trkpt>
    <trkpt lat="50.372411" lon="16.313329">
      <ele>606</ele>
      <time>2026-05-07T12:40:47Z</time>
    </trkpt>
    <trkpt lat="50.372462" lon="16.313109">
      <ele>605</ele>
      <time>2026-05-07T12:40:59Z</time>
    </trkpt>
    <trkpt lat="50.372509" lon="16.312931">
      <ele>605</ele>
      <time>2026-05-07T12:41:10Z</time>
    </trkpt>
    <trkpt lat="50.372567" lon="16.312733">
      <ele>605</ele>
      <time>2026-05-07T12:41:22Z</time>
    </trkpt>
    <trkpt lat="50.372693" lon="16.31223">
      <ele>605</ele>
      <time>2026-05-07T12:42:05Z</time>
    </trkpt>
    <trkpt lat="50.372837" lon="16.311677">
      <ele>605</ele>
      <time>2026-05-07T12:42:52Z</time>
    </trkpt>
    <trkpt lat="50.37292" lon="16.311374">
      <ele>604</ele>
      <time>2026-05-07T12:43:18Z</time>
    </trkpt>
    <trkpt lat="50.37299" lon="16.311034">
      <ele>604</ele>
      <time>2026-05-07T12:43:46Z</time>
    </trkpt>
    <trkpt lat="50.373034" lon="16.31082">
      <ele>605</ele>
      <time>2026-05-07T12:44:04Z</time>
    </trkpt>
    <trkpt lat="50.37308" lon="16.310602">
      <ele>606</ele>
      <time>2026-05-07T12:44:22Z</time>
    </trkpt>
    <trkpt lat="50.37311" lon="16.310255">
      <ele>605</ele>
      <time>2026-05-07T12:44:54Z</time>
    </trkpt>
    <trkpt lat="50.373134" lon="16.309941">
      <ele>605</ele>
      <time>2026-05-07T12:45:22Z</time>
    </trkpt>
    <trkpt lat="50.3731949" lon="16.3099655">
      <ele>606</ele>
      <time>2026-05-07T12:46:22Z</time>
    </trkpt>
  </trkseg>
</trk>
</gpx>