<?xml version="1.0" encoding="UTF-8"?><gpx creator="https://mapa-turystyczna.pl" xmlns="http://www.topografix.com/GPX/1/1" version="1.1" xmlns:xsi="http://www.w3.org/2001/XMLSchema-instance" xsi:schemaLocation="http://www.topografix.com/GPX/1/1 http://www.topografix.com/GPX/1/1/gpx.xsd">
  <metadata>
    <link href="https://mapa-turystyczna.pl">
      <text>mapa-turystyczna.pl</text>
    </link>
    <time>2026-05-07T08:43:10Z</time>
    <bounds maxlat="50.232551" maxlon="16.847394" minlat="50.204068" minlon="16.765246"/>
  </metadata>

<trk>
  <name>Międzygórze – Międzygórze</name>
  <link href="https://mapa-turystyczna.pl/route/ipz">
    <text>Międzygórze – Międzygórze</text>
  </link>
  <trkseg>
    <trkpt lat="50.228595" lon="16.765246">
      <ele>575</ele>
      <time>2026-05-07T08:43:10Z</time>
    </trkpt>
    <trkpt lat="50.228585" lon="16.765524">
      <ele>580</ele>
      <time>2026-05-07T08:43:37Z</time>
    </trkpt>
    <trkpt lat="50.228573" lon="16.765878">
      <ele>585</ele>
      <time>2026-05-07T08:44:12Z</time>
    </trkpt>
    <trkpt lat="50.22856" lon="16.765988">
      <ele>587</ele>
      <time>2026-05-07T08:44:22Z</time>
    </trkpt>
    <trkpt lat="50.228526" lon="16.766123">
      <ele>588</ele>
      <time>2026-05-07T08:44:36Z</time>
    </trkpt>
    <trkpt lat="50.228456" lon="16.766284">
      <ele>587</ele>
      <time>2026-05-07T08:44:55Z</time>
    </trkpt>
    <trkpt lat="50.228418" lon="16.766364">
      <ele>587</ele>
      <time>2026-05-07T08:45:04Z</time>
    </trkpt>
    <trkpt lat="50.22836" lon="16.766489">
      <ele>586</ele>
      <time>2026-05-07T08:45:19Z</time>
    </trkpt>
    <trkpt lat="50.228296" lon="16.76662">
      <ele>585</ele>
      <time>2026-05-07T08:45:35Z</time>
    </trkpt>
    <trkpt lat="50.228235" lon="16.766737">
      <ele>585</ele>
      <time>2026-05-07T08:45:49Z</time>
    </trkpt>
    <trkpt lat="50.228172" lon="16.766902">
      <ele>586</ele>
      <time>2026-05-07T08:46:07Z</time>
    </trkpt>
    <trkpt lat="50.228153" lon="16.76699">
      <ele>586</ele>
      <time>2026-05-07T08:46:16Z</time>
    </trkpt>
    <trkpt lat="50.228112" lon="16.767125">
      <ele>587</ele>
      <time>2026-05-07T08:46:30Z</time>
    </trkpt>
    <trkpt lat="50.228036" lon="16.767373">
      <ele>588</ele>
      <time>2026-05-07T08:46:56Z</time>
    </trkpt>
    <trkpt lat="50.227911" lon="16.767661">
      <ele>588</ele>
      <time>2026-05-07T08:47:29Z</time>
    </trkpt>
    <trkpt lat="50.227878" lon="16.767736">
      <ele>587</ele>
      <time>2026-05-07T08:47:38Z</time>
    </trkpt>
    <trkpt lat="50.227782" lon="16.767873">
      <ele>585</ele>
      <time>2026-05-07T08:47:57Z</time>
    </trkpt>
    <trkpt lat="50.227719" lon="16.767978">
      <ele>586</ele>
      <time>2026-05-07T08:48:11Z</time>
    </trkpt>
    <trkpt lat="50.227655" lon="16.768114">
      <ele>587</ele>
      <time>2026-05-07T08:48:27Z</time>
    </trkpt>
    <trkpt lat="50.227601" lon="16.768227">
      <ele>587</ele>
      <time>2026-05-07T08:48:40Z</time>
    </trkpt>
    <trkpt lat="50.22755" lon="16.768337">
      <ele>586</ele>
      <time>2026-05-07T08:48:53Z</time>
    </trkpt>
    <trkpt lat="50.227528" lon="16.768384">
      <ele>586</ele>
      <time>2026-05-07T08:48:59Z</time>
    </trkpt>
    <trkpt lat="50.227432" lon="16.768575">
      <ele>587</ele>
      <time>2026-05-07T08:49:22Z</time>
    </trkpt>
    <trkpt lat="50.227334" lon="16.768749">
      <ele>587</ele>
      <time>2026-05-07T08:49:44Z</time>
    </trkpt>
    <trkpt lat="50.227275" lon="16.768893">
      <ele>587</ele>
      <time>2026-05-07T08:50:00Z</time>
    </trkpt>
    <trkpt lat="50.227188" lon="16.769216">
      <ele>589</ele>
      <time>2026-05-07T08:50:34Z</time>
    </trkpt>
    <trkpt lat="50.227137" lon="16.769357">
      <ele>590</ele>
      <time>2026-05-07T08:50:49Z</time>
    </trkpt>
    <trkpt lat="50.22706" lon="16.769514">
      <ele>592</ele>
      <time>2026-05-07T08:51:08Z</time>
    </trkpt>
    <trkpt lat="50.226603" lon="16.770196">
      <ele>598</ele>
      <time>2026-05-07T08:52:42Z</time>
    </trkpt>
    <trkpt lat="50.22655" lon="16.770281">
      <ele>599</ele>
      <time>2026-05-07T08:52:53Z</time>
    </trkpt>
    <trkpt lat="50.226488" lon="16.770399">
      <ele>600</ele>
      <time>2026-05-07T08:53:08Z</time>
    </trkpt>
    <trkpt lat="50.226383" lon="16.770661">
      <ele>599</ele>
      <time>2026-05-07T08:53:37Z</time>
    </trkpt>
    <trkpt lat="50.226386" lon="16.770827">
      <ele>599</ele>
      <time>2026-05-07T08:53:53Z</time>
    </trkpt>
    <trkpt lat="50.226368" lon="16.77093">
      <ele>600</ele>
      <time>2026-05-07T08:54:03Z</time>
    </trkpt>
    <trkpt lat="50.226226" lon="16.77126">
      <ele>604</ele>
      <time>2026-05-07T08:54:41Z</time>
    </trkpt>
    <trkpt lat="50.226133" lon="16.771493">
      <ele>608</ele>
      <time>2026-05-07T08:55:08Z</time>
    </trkpt>
    <trkpt lat="50.226078" lon="16.771672">
      <ele>610</ele>
      <time>2026-05-07T08:55:27Z</time>
    </trkpt>
    <trkpt lat="50.225982" lon="16.771989">
      <ele>613</ele>
      <time>2026-05-07T08:56:00Z</time>
    </trkpt>
    <trkpt lat="50.225942" lon="16.772223">
      <ele>615</ele>
      <time>2026-05-07T08:56:23Z</time>
    </trkpt>
    <trkpt lat="50.225923" lon="16.772301">
      <ele>616</ele>
      <time>2026-05-07T08:56:31Z</time>
    </trkpt>
    <trkpt lat="50.225883" lon="16.772394">
      <ele>617</ele>
      <time>2026-05-07T08:56:42Z</time>
    </trkpt>
    <trkpt lat="50.225817" lon="16.772517">
      <ele>618</ele>
      <time>2026-05-07T08:56:57Z</time>
    </trkpt>
    <trkpt lat="50.225752" lon="16.772615">
      <ele>619</ele>
      <time>2026-05-07T08:57:11Z</time>
    </trkpt>
    <trkpt lat="50.225737" lon="16.772647">
      <ele>619</ele>
      <time>2026-05-07T08:57:15Z</time>
    </trkpt>
    <trkpt lat="50.225676" lon="16.772809">
      <ele>621</ele>
      <time>2026-05-07T08:57:33Z</time>
    </trkpt>
    <trkpt lat="50.225584" lon="16.773077">
      <ele>623</ele>
      <time>2026-05-07T08:58:02Z</time>
    </trkpt>
    <trkpt lat="50.22549" lon="16.773281">
      <ele>624</ele>
      <time>2026-05-07T08:58:25Z</time>
    </trkpt>
    <trkpt lat="50.225261" lon="16.773739">
      <ele>624</ele>
      <time>2026-05-07T08:59:21Z</time>
    </trkpt>
    <trkpt lat="50.225162" lon="16.773901">
      <ele>625</ele>
      <time>2026-05-07T08:59:42Z</time>
    </trkpt>
    <trkpt lat="50.224895" lon="16.774232">
      <ele>629</ele>
      <time>2026-05-07T09:00:33Z</time>
    </trkpt>
    <trkpt lat="50.224685" lon="16.774517">
      <ele>631</ele>
      <time>2026-05-07T09:01:14Z</time>
    </trkpt>
    <trkpt lat="50.224629" lon="16.774589">
      <ele>632</ele>
      <time>2026-05-07T09:01:25Z</time>
    </trkpt>
    <trkpt lat="50.224566" lon="16.774657">
      <ele>633</ele>
      <time>2026-05-07T09:01:36Z</time>
    </trkpt>
    <trkpt lat="50.224382" lon="16.774788">
      <ele>633</ele>
      <time>2026-05-07T09:02:06Z</time>
    </trkpt>
    <trkpt lat="50.224046" lon="16.775086">
      <ele>636</ele>
      <time>2026-05-07T09:03:04Z</time>
    </trkpt>
    <trkpt lat="50.223709" lon="16.775408">
      <ele>638</ele>
      <time>2026-05-07T09:04:02Z</time>
    </trkpt>
    <trkpt lat="50.223177" lon="16.775875">
      <ele>643</ele>
      <time>2026-05-07T09:05:33Z</time>
    </trkpt>
    <trkpt lat="50.222996" lon="16.776011">
      <ele>644</ele>
      <time>2026-05-07T09:06:03Z</time>
    </trkpt>
    <trkpt lat="50.222899" lon="16.776164">
      <ele>644</ele>
      <time>2026-05-07T09:06:23Z</time>
    </trkpt>
    <trkpt lat="50.222851" lon="16.776272">
      <ele>645</ele>
      <time>2026-05-07T09:06:36Z</time>
    </trkpt>
    <trkpt lat="50.2228" lon="16.776432">
      <ele>646</ele>
      <time>2026-05-07T09:06:53Z</time>
    </trkpt>
    <trkpt lat="50.222773" lon="16.776554">
      <ele>647</ele>
      <time>2026-05-07T09:07:05Z</time>
    </trkpt>
    <trkpt lat="50.22277" lon="16.776738">
      <ele>648</ele>
      <time>2026-05-07T09:07:23Z</time>
    </trkpt>
    <trkpt lat="50.222782" lon="16.776892">
      <ele>648</ele>
      <time>2026-05-07T09:07:37Z</time>
    </trkpt>
    <trkpt lat="50.222803" lon="16.777088">
      <ele>648</ele>
      <time>2026-05-07T09:07:56Z</time>
    </trkpt>
    <trkpt lat="50.222897" lon="16.777508">
      <ele>650</ele>
      <time>2026-05-07T09:08:38Z</time>
    </trkpt>
    <trkpt lat="50.222907" lon="16.77762">
      <ele>650</ele>
      <time>2026-05-07T09:08:49Z</time>
    </trkpt>
    <trkpt lat="50.2229" lon="16.777762">
      <ele>650</ele>
      <time>2026-05-07T09:09:03Z</time>
    </trkpt>
    <trkpt lat="50.222883" lon="16.777925">
      <ele>651</ele>
      <time>2026-05-07T09:09:18Z</time>
    </trkpt>
    <trkpt lat="50.222875" lon="16.778027">
      <ele>652</ele>
      <time>2026-05-07T09:09:28Z</time>
    </trkpt>
    <trkpt lat="50.222864" lon="16.778218">
      <ele>654</ele>
      <time>2026-05-07T09:09:47Z</time>
    </trkpt>
    <trkpt lat="50.22286" lon="16.778335">
      <ele>655</ele>
      <time>2026-05-07T09:09:58Z</time>
    </trkpt>
    <trkpt lat="50.222861" lon="16.778532">
      <ele>657</ele>
      <time>2026-05-07T09:10:17Z</time>
    </trkpt>
    <trkpt lat="50.222868" lon="16.778628">
      <ele>659</ele>
      <time>2026-05-07T09:10:26Z</time>
    </trkpt>
    <trkpt lat="50.222911" lon="16.778798">
      <ele>661</ele>
      <time>2026-05-07T09:10:44Z</time>
    </trkpt>
    <trkpt lat="50.222953" lon="16.779015">
      <ele>662</ele>
      <time>2026-05-07T09:11:05Z</time>
    </trkpt>
    <trkpt lat="50.222977" lon="16.779161">
      <ele>662</ele>
      <time>2026-05-07T09:11:19Z</time>
    </trkpt>
    <trkpt lat="50.223073" lon="16.779834">
      <ele>660</ele>
      <time>2026-05-07T09:12:25Z</time>
    </trkpt>
    <trkpt lat="50.223164" lon="16.780502">
      <ele>662</ele>
      <time>2026-05-07T09:13:30Z</time>
    </trkpt>
    <trkpt lat="50.223169" lon="16.7807">
      <ele>664</ele>
      <time>2026-05-07T09:13:49Z</time>
    </trkpt>
    <trkpt lat="50.223162" lon="16.780864">
      <ele>666</ele>
      <time>2026-05-07T09:14:05Z</time>
    </trkpt>
    <trkpt lat="50.223148" lon="16.781038">
      <ele>668</ele>
      <time>2026-05-07T09:14:22Z</time>
    </trkpt>
    <trkpt lat="50.223125" lon="16.781162">
      <ele>670</ele>
      <time>2026-05-07T09:14:34Z</time>
    </trkpt>
    <trkpt lat="50.223092" lon="16.781328">
      <ele>670</ele>
      <time>2026-05-07T09:14:50Z</time>
    </trkpt>
    <trkpt lat="50.222956" lon="16.781741">
      <ele>671</ele>
      <time>2026-05-07T09:15:34Z</time>
    </trkpt>
    <trkpt lat="50.222922" lon="16.7819">
      <ele>671</ele>
      <time>2026-05-07T09:15:50Z</time>
    </trkpt>
    <trkpt lat="50.222858" lon="16.782218">
      <ele>673</ele>
      <time>2026-05-07T09:16:22Z</time>
    </trkpt>
    <trkpt lat="50.222819" lon="16.782345">
      <ele>673</ele>
      <time>2026-05-07T09:16:35Z</time>
    </trkpt>
    <trkpt lat="50.22278" lon="16.782441">
      <ele>672</ele>
      <time>2026-05-07T09:16:46Z</time>
    </trkpt>
    <trkpt lat="50.222737" lon="16.782524">
      <ele>671</ele>
      <time>2026-05-07T09:16:56Z</time>
    </trkpt>
    <trkpt lat="50.222602" lon="16.782742">
      <ele>670</ele>
      <time>2026-05-07T09:17:25Z</time>
    </trkpt>
    <trkpt lat="50.222491" lon="16.782925">
      <ele>672</ele>
      <time>2026-05-07T09:17:49Z</time>
    </trkpt>
    <trkpt lat="50.22215" lon="16.783498">
      <ele>676</ele>
      <time>2026-05-07T09:19:04Z</time>
    </trkpt>
    <trkpt lat="50.22213" lon="16.78352">
      <ele>676</ele>
      <time>2026-05-07T09:19:07Z</time>
    </trkpt>
    <trkpt lat="50.222093" lon="16.783561">
      <ele>676</ele>
      <time>2026-05-07T09:19:14Z</time>
    </trkpt>
    <trkpt lat="50.221597" lon="16.784108">
      <ele>677</ele>
      <time>2026-05-07T09:20:44Z</time>
    </trkpt>
    <trkpt lat="50.221363" lon="16.784397">
      <ele>678</ele>
      <time>2026-05-07T09:21:28Z</time>
    </trkpt>
    <trkpt lat="50.221226" lon="16.784624">
      <ele>681</ele>
      <time>2026-05-07T09:21:58Z</time>
    </trkpt>
    <trkpt lat="50.221103" lon="16.784868">
      <ele>685</ele>
      <time>2026-05-07T09:22:28Z</time>
    </trkpt>
    <trkpt lat="50.221046" lon="16.78498">
      <ele>686</ele>
      <time>2026-05-07T09:22:42Z</time>
    </trkpt>
    <trkpt lat="50.220964" lon="16.785133">
      <ele>686</ele>
      <time>2026-05-07T09:23:01Z</time>
    </trkpt>
    <trkpt lat="50.220879" lon="16.785258">
      <ele>686</ele>
      <time>2026-05-07T09:23:18Z</time>
    </trkpt>
    <trkpt lat="50.220791" lon="16.785375">
      <ele>687</ele>
      <time>2026-05-07T09:23:35Z</time>
    </trkpt>
    <trkpt lat="50.220701" lon="16.785476">
      <ele>686</ele>
      <time>2026-05-07T09:23:51Z</time>
    </trkpt>
    <trkpt lat="50.220604" lon="16.78558">
      <ele>686</ele>
      <time>2026-05-07T09:24:09Z</time>
    </trkpt>
    <trkpt lat="50.220523" lon="16.78569">
      <ele>686</ele>
      <time>2026-05-07T09:24:25Z</time>
    </trkpt>
    <trkpt lat="50.220462" lon="16.785787">
      <ele>687</ele>
      <time>2026-05-07T09:24:38Z</time>
    </trkpt>
    <trkpt lat="50.220425" lon="16.785868">
      <ele>688</ele>
      <time>2026-05-07T09:24:47Z</time>
    </trkpt>
    <trkpt lat="50.220394" lon="16.785943">
      <ele>689</ele>
      <time>2026-05-07T09:24:56Z</time>
    </trkpt>
    <trkpt lat="50.220358" lon="16.786045">
      <ele>689</ele>
      <time>2026-05-07T09:25:07Z</time>
    </trkpt>
    <trkpt lat="50.220318" lon="16.786193">
      <ele>690</ele>
      <time>2026-05-07T09:25:22Z</time>
    </trkpt>
    <trkpt lat="50.220197" lon="16.786791">
      <ele>694</ele>
      <time>2026-05-07T09:26:22Z</time>
    </trkpt>
    <trkpt lat="50.220147" lon="16.78711">
      <ele>696</ele>
      <time>2026-05-07T09:26:53Z</time>
    </trkpt>
    <trkpt lat="50.220055" lon="16.787751">
      <ele>703</ele>
      <time>2026-05-07T09:27:56Z</time>
    </trkpt>
    <trkpt lat="50.220055" lon="16.787895">
      <ele>705</ele>
      <time>2026-05-07T09:28:10Z</time>
    </trkpt>
    <trkpt lat="50.220061" lon="16.788178">
      <ele>708</ele>
      <time>2026-05-07T09:28:43Z</time>
    </trkpt>
    <trkpt lat="50.220088" lon="16.788363">
      <ele>710</ele>
      <time>2026-05-07T09:29:04Z</time>
    </trkpt>
    <trkpt lat="50.220105" lon="16.788541">
      <ele>711</ele>
      <time>2026-05-07T09:29:25Z</time>
    </trkpt>
    <trkpt lat="50.220114" lon="16.788703">
      <ele>712</ele>
      <time>2026-05-07T09:29:43Z</time>
    </trkpt>
    <trkpt lat="50.220123" lon="16.788869">
      <ele>712</ele>
      <time>2026-05-07T09:30:02Z</time>
    </trkpt>
    <trkpt lat="50.22016" lon="16.789136">
      <ele>713</ele>
      <time>2026-05-07T09:30:33Z</time>
    </trkpt>
    <trkpt lat="50.220177" lon="16.789245">
      <ele>713</ele>
      <time>2026-05-07T09:30:46Z</time>
    </trkpt>
    <trkpt lat="50.220269" lon="16.789458">
      <ele>713</ele>
      <time>2026-05-07T09:31:15Z</time>
    </trkpt>
    <trkpt lat="50.220373" lon="16.78977">
      <ele>716</ele>
      <time>2026-05-07T09:31:55Z</time>
    </trkpt>
    <trkpt lat="50.220433" lon="16.790058">
      <ele>719</ele>
      <time>2026-05-07T09:32:30Z</time>
    </trkpt>
    <trkpt lat="50.220468" lon="16.790484">
      <ele>719</ele>
      <time>2026-05-07T09:33:18Z</time>
    </trkpt>
    <trkpt lat="50.220489" lon="16.790891">
      <ele>719</ele>
      <time>2026-05-07T09:34:05Z</time>
    </trkpt>
    <trkpt lat="50.220479" lon="16.79123">
      <ele>720</ele>
      <time>2026-05-07T09:34:43Z</time>
    </trkpt>
    <trkpt lat="50.220456" lon="16.791735">
      <ele>721</ele>
      <time>2026-05-07T09:35:40Z</time>
    </trkpt>
    <trkpt lat="50.220372" lon="16.792119">
      <ele>725</ele>
      <time>2026-05-07T09:36:27Z</time>
    </trkpt>
    <trkpt lat="50.220099" lon="16.792657">
      <ele>724</ele>
      <time>2026-05-07T09:37:45Z</time>
    </trkpt>
    <trkpt lat="50.219833" lon="16.793296">
      <ele>727</ele>
      <time>2026-05-07T09:39:11Z</time>
    </trkpt>
    <trkpt lat="50.219678" lon="16.793713">
      <ele>732</ele>
      <time>2026-05-07T09:40:06Z</time>
    </trkpt>
    <trkpt lat="50.219549" lon="16.794166">
      <ele>733</ele>
      <time>2026-05-07T09:41:02Z</time>
    </trkpt>
    <trkpt lat="50.219312" lon="16.795167">
      <ele>736</ele>
      <time>2026-05-07T09:43:03Z</time>
    </trkpt>
    <trkpt lat="50.218945" lon="16.797658">
      <ele>748</ele>
      <time>2026-05-07T09:47:54Z</time>
    </trkpt>
    <trkpt lat="50.218767" lon="16.799233">
      <ele>756</ele>
      <time>2026-05-07T09:50:55Z</time>
    </trkpt>
    <trkpt lat="50.218595" lon="16.800388">
      <ele>764</ele>
      <time>2026-05-07T09:53:10Z</time>
    </trkpt>
    <trkpt lat="50.218516" lon="16.800857">
      <ele>768</ele>
      <time>2026-05-07T09:54:06Z</time>
    </trkpt>
    <trkpt lat="50.218319" lon="16.8018">
      <ele>771</ele>
      <time>2026-05-07T09:55:58Z</time>
    </trkpt>
    <trkpt lat="50.218246" lon="16.802142">
      <ele>772</ele>
      <time>2026-05-07T09:56:39Z</time>
    </trkpt>
    <trkpt lat="50.218142" lon="16.802363">
      <ele>772</ele>
      <time>2026-05-07T09:57:10Z</time>
    </trkpt>
    <trkpt lat="50.218042" lon="16.802507">
      <ele>772</ele>
      <time>2026-05-07T09:57:34Z</time>
    </trkpt>
    <trkpt lat="50.217841" lon="16.802605">
      <ele>773</ele>
      <time>2026-05-07T09:58:12Z</time>
    </trkpt>
    <trkpt lat="50.217739" lon="16.802672">
      <ele>773</ele>
      <time>2026-05-07T09:58:31Z</time>
    </trkpt>
    <trkpt lat="50.217588" lon="16.803103">
      <ele>782</ele>
      <time>2026-05-07T09:59:28Z</time>
    </trkpt>
    <trkpt lat="50.217509" lon="16.803288">
      <ele>788</ele>
      <time>2026-05-07T09:59:55Z</time>
    </trkpt>
    <trkpt lat="50.217414" lon="16.803431">
      <ele>792</ele>
      <time>2026-05-07T10:00:20Z</time>
    </trkpt>
    <trkpt lat="50.217287" lon="16.80364">
      <ele>799</ele>
      <time>2026-05-07T10:00:54Z</time>
    </trkpt>
    <trkpt lat="50.217033" lon="16.804077">
      <ele>815</ele>
      <time>2026-05-07T10:02:06Z</time>
    </trkpt>
    <trkpt lat="50.216819" lon="16.804426">
      <ele>828</ele>
      <time>2026-05-07T10:03:04Z</time>
    </trkpt>
    <trkpt lat="50.216558" lon="16.804836">
      <ele>836</ele>
      <time>2026-05-07T10:04:11Z</time>
    </trkpt>
    <trkpt lat="50.215362" lon="16.806872">
      <ele>880</ele>
      <time>2026-05-07T10:09:32Z</time>
    </trkpt>
    <trkpt lat="50.215667" lon="16.807604">
      <ele>891</ele>
      <time>2026-05-07T10:11:12Z</time>
    </trkpt>
    <trkpt lat="50.215856" lon="16.808041">
      <ele>897</ele>
      <time>2026-05-07T10:12:13Z</time>
    </trkpt>
    <trkpt lat="50.216309" lon="16.808945">
      <ele>907</ele>
      <time>2026-05-07T10:14:24Z</time>
    </trkpt>
    <trkpt lat="50.216678" lon="16.809887">
      <ele>915</ele>
      <time>2026-05-07T10:16:30Z</time>
    </trkpt>
    <trkpt lat="50.21709" lon="16.810702">
      <ele>927</ele>
      <time>2026-05-07T10:18:29Z</time>
    </trkpt>
    <trkpt lat="50.217198" lon="16.810945">
      <ele>930</ele>
      <time>2026-05-07T10:19:03Z</time>
    </trkpt>
    <trkpt lat="50.217258" lon="16.811206">
      <ele>934</ele>
      <time>2026-05-07T10:19:35Z</time>
    </trkpt>
    <trkpt lat="50.217361" lon="16.811405">
      <ele>937</ele>
      <time>2026-05-07T10:20:04Z</time>
    </trkpt>
    <trkpt lat="50.217584" lon="16.811583">
      <ele>936</ele>
      <time>2026-05-07T10:20:49Z</time>
    </trkpt>
    <trkpt lat="50.217912" lon="16.812022">
      <ele>934</ele>
      <time>2026-05-07T10:22:05Z</time>
    </trkpt>
    <trkpt lat="50.21857" lon="16.813006">
      <ele>945</ele>
      <time>2026-05-07T10:24:48Z</time>
    </trkpt>
    <trkpt lat="50.218473" lon="16.813046">
      <ele>947</ele>
      <time>2026-05-07T10:25:06Z</time>
    </trkpt>
    <trkpt lat="50.21814" lon="16.813038">
      <ele>951</ele>
      <time>2026-05-07T10:26:05Z</time>
    </trkpt>
    <trkpt lat="50.217763" lon="16.813025">
      <ele>959</ele>
      <time>2026-05-07T10:27:13Z</time>
    </trkpt>
    <trkpt lat="50.217569" lon="16.81305">
      <ele>964</ele>
      <time>2026-05-07T10:27:48Z</time>
    </trkpt>
    <trkpt lat="50.217166" lon="16.813062">
      <ele>970</ele>
      <time>2026-05-07T10:29:00Z</time>
    </trkpt>
    <trkpt lat="50.216716" lon="16.81313">
      <ele>977</ele>
      <time>2026-05-07T10:30:21Z</time>
    </trkpt>
    <trkpt lat="50.216194" lon="16.813139">
      <ele>986</ele>
      <time>2026-05-07T10:31:55Z</time>
    </trkpt>
    <trkpt lat="50.215852" lon="16.813125">
      <ele>991</ele>
      <time>2026-05-07T10:32:56Z</time>
    </trkpt>
    <trkpt lat="50.215515" lon="16.813094">
      <ele>995</ele>
      <time>2026-05-07T10:33:56Z</time>
    </trkpt>
    <trkpt lat="50.215183" lon="16.813015">
      <ele>1000</ele>
      <time>2026-05-07T10:34:56Z</time>
    </trkpt>
    <trkpt lat="50.214902" lon="16.81296">
      <ele>1003</ele>
      <time>2026-05-07T10:35:46Z</time>
    </trkpt>
    <trkpt lat="50.214668" lon="16.812992">
      <ele>1006</ele>
      <time>2026-05-07T10:36:28Z</time>
    </trkpt>
    <trkpt lat="50.214404" lon="16.813065">
      <ele>1009</ele>
      <time>2026-05-07T10:37:16Z</time>
    </trkpt>
    <trkpt lat="50.214092" lon="16.81321">
      <ele>1015</ele>
      <time>2026-05-07T10:38:14Z</time>
    </trkpt>
    <trkpt lat="50.21361" lon="16.813334">
      <ele>1022</ele>
      <time>2026-05-07T10:39:42Z</time>
    </trkpt>
    <trkpt lat="50.213192" lon="16.813518">
      <ele>1029</ele>
      <time>2026-05-07T10:40:59Z</time>
    </trkpt>
    <trkpt lat="50.212899" lon="16.813571">
      <ele>1027</ele>
      <time>2026-05-07T10:41:52Z</time>
    </trkpt>
    <trkpt lat="50.212784" lon="16.8137">
      <ele>1029</ele>
      <time>2026-05-07T10:42:17Z</time>
    </trkpt>
    <trkpt lat="50.212697" lon="16.813817">
      <ele>1031</ele>
      <time>2026-05-07T10:42:37Z</time>
    </trkpt>
    <trkpt lat="50.212302" lon="16.814399">
      <ele>1043</ele>
      <time>2026-05-07T10:44:15Z</time>
    </trkpt>
    <trkpt lat="50.211992" lon="16.815012">
      <ele>1049</ele>
      <time>2026-05-07T10:45:44Z</time>
    </trkpt>
    <trkpt lat="50.211907" lon="16.815305">
      <ele>1053</ele>
      <time>2026-05-07T10:46:21Z</time>
    </trkpt>
    <trkpt lat="50.211834" lon="16.815525">
      <ele>1057</ele>
      <time>2026-05-07T10:46:50Z</time>
    </trkpt>
    <trkpt lat="50.211665" lon="16.815986">
      <ele>1065</ele>
      <time>2026-05-07T10:47:52Z</time>
    </trkpt>
    <trkpt lat="50.211455" lon="16.816708">
      <ele>1073</ele>
      <time>2026-05-07T10:49:23Z</time>
    </trkpt>
    <trkpt lat="50.211342" lon="16.817212">
      <ele>1073</ele>
      <time>2026-05-07T10:50:23Z</time>
    </trkpt>
    <trkpt lat="50.211222" lon="16.817992">
      <ele>1079</ele>
      <time>2026-05-07T10:51:54Z</time>
    </trkpt>
    <trkpt lat="50.211167" lon="16.818531">
      <ele>1085</ele>
      <time>2026-05-07T10:52:57Z</time>
    </trkpt>
    <trkpt lat="50.211148" lon="16.81887">
      <ele>1092</ele>
      <time>2026-05-07T10:53:37Z</time>
    </trkpt>
    <trkpt lat="50.211125" lon="16.819094">
      <ele>1094</ele>
      <time>2026-05-07T10:54:03Z</time>
    </trkpt>
    <trkpt lat="50.211081" lon="16.819286">
      <ele>1095</ele>
      <time>2026-05-07T10:54:26Z</time>
    </trkpt>
    <trkpt lat="50.21098" lon="16.819529">
      <ele>1095</ele>
      <time>2026-05-07T10:54:59Z</time>
    </trkpt>
    <trkpt lat="50.210775" lon="16.820043">
      <ele>1098</ele>
      <time>2026-05-07T10:56:08Z</time>
    </trkpt>
    <trkpt lat="50.210596" lon="16.820516">
      <ele>1100</ele>
      <time>2026-05-07T10:57:10Z</time>
    </trkpt>
    <trkpt lat="50.210473" lon="16.820817">
      <ele>1099</ele>
      <time>2026-05-07T10:57:51Z</time>
    </trkpt>
    <trkpt lat="50.210416" lon="16.821004">
      <ele>1101</ele>
      <time>2026-05-07T10:58:14Z</time>
    </trkpt>
    <trkpt lat="50.210372" lon="16.821256">
      <ele>1105</ele>
      <time>2026-05-07T10:58:45Z</time>
    </trkpt>
    <trkpt lat="50.210273" lon="16.821607">
      <ele>1109</ele>
      <time>2026-05-07T10:59:29Z</time>
    </trkpt>
    <trkpt lat="50.210137" lon="16.821939">
      <ele>1110</ele>
      <time>2026-05-07T11:00:13Z</time>
    </trkpt>
    <trkpt lat="50.210037" lon="16.822126">
      <ele>1110</ele>
      <time>2026-05-07T11:00:41Z</time>
    </trkpt>
    <trkpt lat="50.209874" lon="16.822386">
      <ele>1109</ele>
      <time>2026-05-07T11:01:22Z</time>
    </trkpt>
    <trkpt lat="50.209712" lon="16.822719">
      <ele>1111</ele>
      <time>2026-05-07T11:02:10Z</time>
    </trkpt>
    <trkpt lat="50.209676" lon="16.822969">
      <ele>1116</ele>
      <time>2026-05-07T11:02:40Z</time>
    </trkpt>
    <trkpt lat="50.209676" lon="16.82324">
      <ele>1123</ele>
      <time>2026-05-07T11:03:13Z</time>
    </trkpt>
    <trkpt lat="50.20965" lon="16.823448">
      <ele>1126</ele>
      <time>2026-05-07T11:03:37Z</time>
    </trkpt>
    <trkpt lat="50.209399" lon="16.82424">
      <ele>1131</ele>
      <time>2026-05-07T11:05:18Z</time>
    </trkpt>
    <trkpt lat="50.209304" lon="16.824474">
      <ele>1134</ele>
      <time>2026-05-07T11:05:49Z</time>
    </trkpt>
    <trkpt lat="50.209126" lon="16.824679">
      <ele>1135</ele>
      <time>2026-05-07T11:06:29Z</time>
    </trkpt>
    <trkpt lat="50.208833" lon="16.824961">
      <ele>1137</ele>
      <time>2026-05-07T11:07:30Z</time>
    </trkpt>
    <trkpt lat="50.20868" lon="16.825085">
      <ele>1137</ele>
      <time>2026-05-07T11:08:00Z</time>
    </trkpt>
    <trkpt lat="50.208499" lon="16.825297">
      <ele>1139</ele>
      <time>2026-05-07T11:08:40Z</time>
    </trkpt>
    <trkpt lat="50.208306" lon="16.825578">
      <ele>1142</ele>
      <time>2026-05-07T11:09:27Z</time>
    </trkpt>
    <trkpt lat="50.208216" lon="16.825848">
      <ele>1144</ele>
      <time>2026-05-07T11:10:02Z</time>
    </trkpt>
    <trkpt lat="50.208161" lon="16.826087">
      <ele>1146</ele>
      <time>2026-05-07T11:10:31Z</time>
    </trkpt>
    <trkpt lat="50.208074" lon="16.8264">
      <ele>1145</ele>
      <time>2026-05-07T11:11:10Z</time>
    </trkpt>
    <trkpt lat="50.208043" lon="16.826602">
      <ele>1146</ele>
      <time>2026-05-07T11:11:33Z</time>
    </trkpt>
    <trkpt lat="50.208051" lon="16.826822">
      <ele>1147</ele>
      <time>2026-05-07T11:11:58Z</time>
    </trkpt>
    <trkpt lat="50.208025" lon="16.826986">
      <ele>1146</ele>
      <time>2026-05-07T11:12:18Z</time>
    </trkpt>
    <trkpt lat="50.207996" lon="16.827182">
      <ele>1145</ele>
      <time>2026-05-07T11:12:40Z</time>
    </trkpt>
    <trkpt lat="50.208003" lon="16.827262">
      <ele>1146</ele>
      <time>2026-05-07T11:12:50Z</time>
    </trkpt>
    <trkpt lat="50.208008" lon="16.827404">
      <ele>1147</ele>
      <time>2026-05-07T11:13:06Z</time>
    </trkpt>
    <trkpt lat="50.208053" lon="16.827592">
      <ele>1151</ele>
      <time>2026-05-07T11:13:29Z</time>
    </trkpt>
    <trkpt lat="50.208065" lon="16.827761">
      <ele>1152</ele>
      <time>2026-05-07T11:13:49Z</time>
    </trkpt>
    <trkpt lat="50.208085" lon="16.827994">
      <ele>1153</ele>
      <time>2026-05-07T11:14:16Z</time>
    </trkpt>
    <trkpt lat="50.208127" lon="16.828171">
      <ele>1155</ele>
      <time>2026-05-07T11:14:37Z</time>
    </trkpt>
    <trkpt lat="50.208202" lon="16.828708">
      <ele>1159</ele>
      <time>2026-05-07T11:15:40Z</time>
    </trkpt>
    <trkpt lat="50.208235" lon="16.829022">
      <ele>1161</ele>
      <time>2026-05-07T11:16:16Z</time>
    </trkpt>
    <trkpt lat="50.20826" lon="16.829387">
      <ele>1165</ele>
      <time>2026-05-07T11:16:58Z</time>
    </trkpt>
    <trkpt lat="50.208224" lon="16.829757">
      <ele>1171</ele>
      <time>2026-05-07T11:17:41Z</time>
    </trkpt>
    <trkpt lat="50.208141" lon="16.830046">
      <ele>1174</ele>
      <time>2026-05-07T11:18:18Z</time>
    </trkpt>
    <trkpt lat="50.208033" lon="16.830393">
      <ele>1178</ele>
      <time>2026-05-07T11:19:02Z</time>
    </trkpt>
    <trkpt lat="50.207963" lon="16.830552">
      <ele>1181</ele>
      <time>2026-05-07T11:19:24Z</time>
    </trkpt>
    <trkpt lat="50.207883" lon="16.830737">
      <ele>1182</ele>
      <time>2026-05-07T11:19:50Z</time>
    </trkpt>
    <trkpt lat="50.207873" lon="16.830867">
      <ele>1184</ele>
      <time>2026-05-07T11:20:05Z</time>
    </trkpt>
    <trkpt lat="50.207895" lon="16.831017">
      <ele>1186</ele>
      <time>2026-05-07T11:20:23Z</time>
    </trkpt>
    <trkpt lat="50.207952" lon="16.831087">
      <ele>1188</ele>
      <time>2026-05-07T11:20:36Z</time>
    </trkpt>
    <trkpt lat="50.208029" lon="16.831159">
      <ele>1190</ele>
      <time>2026-05-07T11:20:52Z</time>
    </trkpt>
    <trkpt lat="50.208109" lon="16.83133">
      <ele>1195</ele>
      <time>2026-05-07T11:21:17Z</time>
    </trkpt>
    <trkpt lat="50.208185" lon="16.8315">
      <ele>1200</ele>
      <time>2026-05-07T11:21:42Z</time>
    </trkpt>
    <trkpt lat="50.208256" lon="16.831715">
      <ele>1205</ele>
      <time>2026-05-07T11:22:11Z</time>
    </trkpt>
    <trkpt lat="50.208321" lon="16.831897">
      <ele>1208</ele>
      <time>2026-05-07T11:22:35Z</time>
    </trkpt>
    <trkpt lat="50.208345" lon="16.832012">
      <ele>1210</ele>
      <time>2026-05-07T11:22:49Z</time>
    </trkpt>
    <trkpt lat="50.208342" lon="16.832122">
      <ele>1212</ele>
      <time>2026-05-07T11:23:02Z</time>
    </trkpt>
    <trkpt lat="50.208328" lon="16.832191">
      <ele>1213</ele>
      <time>2026-05-07T11:23:10Z</time>
    </trkpt>
    <trkpt lat="50.208219" lon="16.832291">
      <ele>1215</ele>
      <time>2026-05-07T11:23:27Z</time>
    </trkpt>
    <trkpt lat="50.208084" lon="16.832422">
      <ele>1216</ele>
      <time>2026-05-07T11:23:49Z</time>
    </trkpt>
    <trkpt lat="50.207936" lon="16.832474">
      <ele>1216</ele>
      <time>2026-05-07T11:24:10Z</time>
    </trkpt>
    <trkpt lat="50.20793" lon="16.832583">
      <ele>1217</ele>
      <time>2026-05-07T11:24:24Z</time>
    </trkpt>
    <trkpt lat="50.20793" lon="16.832595">
      <ele>1217</ele>
      <time>2026-05-07T11:24:26Z</time>
    </trkpt>
    <trkpt lat="50.207928" lon="16.832605">
      <ele>1218</ele>
      <time>2026-05-07T11:24:27Z</time>
    </trkpt>
    <trkpt lat="50.207902" lon="16.83274">
      <ele>1219</ele>
      <time>2026-05-07T11:24:45Z</time>
    </trkpt>
    <trkpt lat="50.207842" lon="16.832955">
      <ele>1222</ele>
      <time>2026-05-07T11:25:15Z</time>
    </trkpt>
    <trkpt lat="50.207697" lon="16.833289">
      <ele>1226</ele>
      <time>2026-05-07T11:26:07Z</time>
    </trkpt>
    <trkpt lat="50.207672" lon="16.83336">
      <ele>1227</ele>
      <time>2026-05-07T11:26:17Z</time>
    </trkpt>
    <trkpt lat="50.207572" lon="16.833638">
      <ele>1232</ele>
      <time>2026-05-07T11:26:58Z</time>
    </trkpt>
    <trkpt lat="50.207461" lon="16.834045">
      <ele>1238</ele>
      <time>2026-05-07T11:27:55Z</time>
    </trkpt>
    <trkpt lat="50.207376" lon="16.834314">
      <ele>1242</ele>
      <time>2026-05-07T11:28:34Z</time>
    </trkpt>
    <trkpt lat="50.207282" lon="16.834464">
      <ele>1245</ele>
      <time>2026-05-07T11:29:01Z</time>
    </trkpt>
    <trkpt lat="50.207203" lon="16.834582">
      <ele>1248</ele>
      <time>2026-05-07T11:29:23Z</time>
    </trkpt>
    <trkpt lat="50.207109" lon="16.834756">
      <ele>1251</ele>
      <time>2026-05-07T11:29:52Z</time>
    </trkpt>
    <trkpt lat="50.206989" lon="16.834952">
      <ele>1254</ele>
      <time>2026-05-07T11:30:27Z</time>
    </trkpt>
    <trkpt lat="50.20669" lon="16.835327">
      <ele>1260</ele>
      <time>2026-05-07T11:31:44Z</time>
    </trkpt>
    <trkpt lat="50.206451" lon="16.835614">
      <ele>1265</ele>
      <time>2026-05-07T11:32:44Z</time>
    </trkpt>
    <trkpt lat="50.206283" lon="16.835767">
      <ele>1268</ele>
      <time>2026-05-07T11:33:23Z</time>
    </trkpt>
    <trkpt lat="50.206139" lon="16.835931">
      <ele>1271</ele>
      <time>2026-05-07T11:33:58Z</time>
    </trkpt>
    <trkpt lat="50.205986" lon="16.836172">
      <ele>1275</ele>
      <time>2026-05-07T11:34:42Z</time>
    </trkpt>
    <trkpt lat="50.205869" lon="16.836344">
      <ele>1277</ele>
      <time>2026-05-07T11:35:14Z</time>
    </trkpt>
    <trkpt lat="50.205718" lon="16.836482">
      <ele>1279</ele>
      <time>2026-05-07T11:35:48Z</time>
    </trkpt>
    <trkpt lat="50.205586" lon="16.836534">
      <ele>1280</ele>
      <time>2026-05-07T11:36:15Z</time>
    </trkpt>
    <trkpt lat="50.205433" lon="16.836652">
      <ele>1282</ele>
      <time>2026-05-07T11:36:49Z</time>
    </trkpt>
    <trkpt lat="50.205112" lon="16.836825">
      <ele>1284</ele>
      <time>2026-05-07T11:37:57Z</time>
    </trkpt>
    <trkpt lat="50.204806" lon="16.837">
      <ele>1285</ele>
      <time>2026-05-07T11:39:01Z</time>
    </trkpt>
    <trkpt lat="50.20451" lon="16.8372">
      <ele>1289</ele>
      <time>2026-05-07T11:40:05Z</time>
    </trkpt>
    <trkpt lat="50.204329" lon="16.837293">
      <ele>1290</ele>
      <time>2026-05-07T11:40:43Z</time>
    </trkpt>
    <trkpt lat="50.204285" lon="16.837387">
      <ele>1290</ele>
      <time>2026-05-07T11:40:57Z</time>
    </trkpt>
    <trkpt lat="50.204252" lon="16.837513">
      <ele>1291</ele>
      <time>2026-05-07T11:41:15Z</time>
    </trkpt>
    <trkpt lat="50.204217" lon="16.837701">
      <ele>1292</ele>
      <time>2026-05-07T11:41:40Z</time>
    </trkpt>
    <trkpt lat="50.204175" lon="16.837891">
      <ele>1294</ele>
      <time>2026-05-07T11:42:05Z</time>
    </trkpt>
    <trkpt lat="50.204173" lon="16.838003">
      <ele>1295</ele>
      <time>2026-05-07T11:42:20Z</time>
    </trkpt>
    <trkpt lat="50.204166" lon="16.838167">
      <ele>1297</ele>
      <time>2026-05-07T11:42:41Z</time>
    </trkpt>
    <trkpt lat="50.20414" lon="16.838273">
      <ele>1298</ele>
      <time>2026-05-07T11:42:55Z</time>
    </trkpt>
    <trkpt lat="50.204124" lon="16.83846">
      <ele>1300</ele>
      <time>2026-05-07T11:43:19Z</time>
    </trkpt>
    <trkpt lat="50.204089" lon="16.838657">
      <ele>1302</ele>
      <time>2026-05-07T11:43:45Z</time>
    </trkpt>
    <trkpt lat="50.204068" lon="16.838848">
      <ele>1304</ele>
      <time>2026-05-07T11:44:10Z</time>
    </trkpt>
    <trkpt lat="50.204092" lon="16.838995">
      <ele>1305</ele>
      <time>2026-05-07T11:44:31Z</time>
    </trkpt>
    <trkpt lat="50.204117" lon="16.839092">
      <ele>1307</ele>
      <time>2026-05-07T11:44:46Z</time>
    </trkpt>
    <trkpt lat="50.204145" lon="16.839129">
      <ele>1307</ele>
      <time>2026-05-07T11:44:54Z</time>
    </trkpt>
    <trkpt lat="50.204155" lon="16.839142">
      <ele>1308</ele>
      <time>2026-05-07T11:44:57Z</time>
    </trkpt>
    <trkpt lat="50.20418" lon="16.839153">
      <ele>1308</ele>
      <time>2026-05-07T11:45:03Z</time>
    </trkpt>
    <trkpt lat="50.204282" lon="16.839198">
      <ele>1310</ele>
      <time>2026-05-07T11:45:26Z</time>
    </trkpt>
    <trkpt lat="50.204305" lon="16.839209">
      <ele>1311</ele>
      <time>2026-05-07T11:45:32Z</time>
    </trkpt>
    <trkpt lat="50.204415" lon="16.839275">
      <ele>1314</ele>
      <time>2026-05-07T11:45:58Z</time>
    </trkpt>
    <trkpt lat="50.204439" lon="16.839291">
      <ele>1314</ele>
      <time>2026-05-07T11:46:04Z</time>
    </trkpt>
    <trkpt lat="50.204471" lon="16.839313">
      <ele>1315</ele>
      <time>2026-05-07T11:46:11Z</time>
    </trkpt>
    <trkpt lat="50.204519" lon="16.839395">
      <ele>1317</ele>
      <time>2026-05-07T11:46:27Z</time>
    </trkpt>
    <trkpt lat="50.204518" lon="16.839483">
      <ele>1318</ele>
      <time>2026-05-07T11:46:40Z</time>
    </trkpt>
    <trkpt lat="50.204513" lon="16.839532">
      <ele>1319</ele>
      <time>2026-05-07T11:46:47Z</time>
    </trkpt>
    <trkpt lat="50.204498" lon="16.839609">
      <ele>1319</ele>
      <time>2026-05-07T11:46:58Z</time>
    </trkpt>
    <trkpt lat="50.204465" lon="16.839734">
      <ele>1321</ele>
      <time>2026-05-07T11:47:17Z</time>
    </trkpt>
    <trkpt lat="50.204436" lon="16.839823">
      <ele>1321</ele>
      <time>2026-05-07T11:47:31Z</time>
    </trkpt>
    <trkpt lat="50.20442" lon="16.839868">
      <ele>1321</ele>
      <time>2026-05-07T11:47:38Z</time>
    </trkpt>
    <trkpt lat="50.204391" lon="16.839968">
      <ele>1322</ele>
      <time>2026-05-07T11:47:54Z</time>
    </trkpt>
    <trkpt lat="50.204415" lon="16.840021">
      <ele>1323</ele>
      <time>2026-05-07T11:48:03Z</time>
    </trkpt>
    <trkpt lat="50.204461" lon="16.840125">
      <ele>1325</ele>
      <time>2026-05-07T11:48:21Z</time>
    </trkpt>
    <trkpt lat="50.204477" lon="16.840161">
      <ele>1326</ele>
      <time>2026-05-07T11:48:27Z</time>
    </trkpt>
    <trkpt lat="50.204498" lon="16.84019">
      <ele>1327</ele>
      <time>2026-05-07T11:48:34Z</time>
    </trkpt>
    <trkpt lat="50.204519" lon="16.840219">
      <ele>1327</ele>
      <time>2026-05-07T11:48:40Z</time>
    </trkpt>
    <trkpt lat="50.204549" lon="16.840243">
      <ele>1328</ele>
      <time>2026-05-07T11:48:47Z</time>
    </trkpt>
    <trkpt lat="50.204575" lon="16.840263">
      <ele>1329</ele>
      <time>2026-05-07T11:48:54Z</time>
    </trkpt>
    <trkpt lat="50.204663" lon="16.840331">
      <ele>1332</ele>
      <time>2026-05-07T11:49:16Z</time>
    </trkpt>
    <trkpt lat="50.20472" lon="16.840375">
      <ele>1334</ele>
      <time>2026-05-07T11:49:31Z</time>
    </trkpt>
    <trkpt lat="50.204824" lon="16.840481">
      <ele>1338</ele>
      <time>2026-05-07T11:49:58Z</time>
    </trkpt>
    <trkpt lat="50.204911" lon="16.84057">
      <ele>1340</ele>
      <time>2026-05-07T11:50:22Z</time>
    </trkpt>
    <trkpt lat="50.205047" lon="16.840731">
      <ele>1343</ele>
      <time>2026-05-07T11:50:59Z</time>
    </trkpt>
    <trkpt lat="50.205147" lon="16.840891">
      <ele>1344</ele>
      <time>2026-05-07T11:51:30Z</time>
    </trkpt>
    <trkpt lat="50.205223" lon="16.841022">
      <ele>1346</ele>
      <time>2026-05-07T11:51:55Z</time>
    </trkpt>
    <trkpt lat="50.205322" lon="16.84119">
      <ele>1349</ele>
      <time>2026-05-07T11:52:28Z</time>
    </trkpt>
    <trkpt lat="50.205456" lon="16.841405">
      <ele>1352</ele>
      <time>2026-05-07T11:53:10Z</time>
    </trkpt>
    <trkpt lat="50.205574" lon="16.841672">
      <ele>1357</ele>
      <time>2026-05-07T11:53:56Z</time>
    </trkpt>
    <trkpt lat="50.205769" lon="16.842164">
      <ele>1364</ele>
      <time>2026-05-07T11:55:18Z</time>
    </trkpt>
    <trkpt lat="50.205926" lon="16.842577">
      <ele>1369</ele>
      <time>2026-05-07T11:56:26Z</time>
    </trkpt>
    <trkpt lat="50.206003" lon="16.842777">
      <ele>1372</ele>
      <time>2026-05-07T11:56:59Z</time>
    </trkpt>
    <trkpt lat="50.206082" lon="16.843063">
      <ele>1376</ele>
      <time>2026-05-07T11:57:43Z</time>
    </trkpt>
    <trkpt lat="50.20612" lon="16.843219">
      <ele>1378</ele>
      <time>2026-05-07T11:58:06Z</time>
    </trkpt>
    <trkpt lat="50.206219" lon="16.843629">
      <ele>1385</ele>
      <time>2026-05-07T11:59:09Z</time>
    </trkpt>
    <trkpt lat="50.206323" lon="16.843949">
      <ele>1392</ele>
      <time>2026-05-07T12:00:00Z</time>
    </trkpt>
    <trkpt lat="50.206386" lon="16.844125">
      <ele>1395</ele>
      <time>2026-05-07T12:00:29Z</time>
    </trkpt>
    <trkpt lat="50.206439" lon="16.844272">
      <ele>1397</ele>
      <time>2026-05-07T12:00:53Z</time>
    </trkpt>
    <trkpt lat="50.206475" lon="16.844448">
      <ele>1399</ele>
      <time>2026-05-07T12:01:19Z</time>
    </trkpt>
    <trkpt lat="50.206495" lon="16.84457">
      <ele>1400</ele>
      <time>2026-05-07T12:01:37Z</time>
    </trkpt>
    <trkpt lat="50.206534" lon="16.8448">
      <ele>1402</ele>
      <time>2026-05-07T12:02:10Z</time>
    </trkpt>
    <trkpt lat="50.206585" lon="16.845063">
      <ele>1405</ele>
      <time>2026-05-07T12:02:49Z</time>
    </trkpt>
    <trkpt lat="50.206686" lon="16.845435">
      <ele>1408</ele>
      <time>2026-05-07T12:03:46Z</time>
    </trkpt>
    <trkpt lat="50.206748" lon="16.845638">
      <ele>1410</ele>
      <time>2026-05-07T12:04:17Z</time>
    </trkpt>
    <trkpt lat="50.206799" lon="16.845775">
      <ele>1412</ele>
      <time>2026-05-07T12:04:39Z</time>
    </trkpt>
    <trkpt lat="50.206834" lon="16.845868">
      <ele>1413</ele>
      <time>2026-05-07T12:04:55Z</time>
    </trkpt>
    <trkpt lat="50.207024" lon="16.846252">
      <ele>1417</ele>
      <time>2026-05-07T12:06:03Z</time>
    </trkpt>
    <trkpt lat="50.20707" lon="16.846346">
      <ele>1418</ele>
      <time>2026-05-07T12:06:19Z</time>
    </trkpt>
    <trkpt lat="50.207209" lon="16.846627">
      <ele>1420</ele>
      <time>2026-05-07T12:07:09Z</time>
    </trkpt>
    <trkpt lat="50.207241" lon="16.846706">
      <ele>1420</ele>
      <time>2026-05-07T12:07:22Z</time>
    </trkpt>
    <trkpt lat="50.20726" lon="16.84675">
      <ele>1420</ele>
      <time>2026-05-07T12:07:29Z</time>
    </trkpt>
    <trkpt lat="50.207248" lon="16.846887">
      <ele>1421</ele>
      <time>2026-05-07T12:07:49Z</time>
    </trkpt>
    <trkpt lat="50.207325" lon="16.847106">
      <ele>1421</ele>
      <time>2026-05-07T12:08:24Z</time>
    </trkpt>
    <trkpt lat="50.207423" lon="16.847394">
      <ele>1426</ele>
      <time>2026-05-07T12:09:10Z</time>
    </trkpt>
    <trkpt lat="50.207325" lon="16.847106">
      <ele>1421</ele>
      <time>2026-05-07T12:09:29Z</time>
    </trkpt>
    <trkpt lat="50.207248" lon="16.846887">
      <ele>1421</ele>
      <time>2026-05-07T12:09:42Z</time>
    </trkpt>
    <trkpt lat="50.20726" lon="16.84675">
      <ele>1420</ele>
      <time>2026-05-07T12:09:50Z</time>
    </trkpt>
    <trkpt lat="50.207241" lon="16.846706">
      <ele>1420</ele>
      <time>2026-05-07T12:09:53Z</time>
    </trkpt>
    <trkpt lat="50.207209" lon="16.846627">
      <ele>1420</ele>
      <time>2026-05-07T12:09:58Z</time>
    </trkpt>
    <trkpt lat="50.20707" lon="16.846346">
      <ele>1418</ele>
      <time>2026-05-07T12:10:18Z</time>
    </trkpt>
    <trkpt lat="50.207024" lon="16.846252">
      <ele>1417</ele>
      <time>2026-05-07T12:10:25Z</time>
    </trkpt>
    <trkpt lat="50.206834" lon="16.845868">
      <ele>1413</ele>
      <time>2026-05-07T12:10:52Z</time>
    </trkpt>
    <trkpt lat="50.206799" lon="16.845775">
      <ele>1412</ele>
      <time>2026-05-07T12:10:58Z</time>
    </trkpt>
    <trkpt lat="50.206748" lon="16.845638">
      <ele>1410</ele>
      <time>2026-05-07T12:11:07Z</time>
    </trkpt>
    <trkpt lat="50.206686" lon="16.845435">
      <ele>1408</ele>
      <time>2026-05-07T12:11:20Z</time>
    </trkpt>
    <trkpt lat="50.206585" lon="16.845063">
      <ele>1405</ele>
      <time>2026-05-07T12:11:42Z</time>
    </trkpt>
    <trkpt lat="50.206534" lon="16.8448">
      <ele>1402</ele>
      <time>2026-05-07T12:11:58Z</time>
    </trkpt>
    <trkpt lat="50.206495" lon="16.84457">
      <ele>1400</ele>
      <time>2026-05-07T12:12:11Z</time>
    </trkpt>
    <trkpt lat="50.206475" lon="16.844448">
      <ele>1399</ele>
      <time>2026-05-07T12:12:18Z</time>
    </trkpt>
    <trkpt lat="50.206439" lon="16.844272">
      <ele>1397</ele>
      <time>2026-05-07T12:12:29Z</time>
    </trkpt>
    <trkpt lat="50.206386" lon="16.844125">
      <ele>1395</ele>
      <time>2026-05-07T12:12:38Z</time>
    </trkpt>
    <trkpt lat="50.206323" lon="16.843949">
      <ele>1392</ele>
      <time>2026-05-07T12:12:50Z</time>
    </trkpt>
    <trkpt lat="50.206219" lon="16.843629">
      <ele>1385</ele>
      <time>2026-05-07T12:13:10Z</time>
    </trkpt>
    <trkpt lat="50.20612" lon="16.843219">
      <ele>1378</ele>
      <time>2026-05-07T12:13:35Z</time>
    </trkpt>
    <trkpt lat="50.206082" lon="16.843063">
      <ele>1376</ele>
      <time>2026-05-07T12:13:45Z</time>
    </trkpt>
    <trkpt lat="50.206003" lon="16.842777">
      <ele>1372</ele>
      <time>2026-05-07T12:14:03Z</time>
    </trkpt>
    <trkpt lat="50.205926" lon="16.842577">
      <ele>1369</ele>
      <time>2026-05-07T12:14:16Z</time>
    </trkpt>
    <trkpt lat="50.205769" lon="16.842164">
      <ele>1364</ele>
      <time>2026-05-07T12:14:43Z</time>
    </trkpt>
    <trkpt lat="50.205574" lon="16.841672">
      <ele>1357</ele>
      <time>2026-05-07T12:15:16Z</time>
    </trkpt>
    <trkpt lat="50.205456" lon="16.841405">
      <ele>1352</ele>
      <time>2026-05-07T12:15:34Z</time>
    </trkpt>
    <trkpt lat="50.205322" lon="16.84119">
      <ele>1349</ele>
      <time>2026-05-07T12:15:51Z</time>
    </trkpt>
    <trkpt lat="50.205223" lon="16.841022">
      <ele>1346</ele>
      <time>2026-05-07T12:16:04Z</time>
    </trkpt>
    <trkpt lat="50.205147" lon="16.840891">
      <ele>1344</ele>
      <time>2026-05-07T12:16:14Z</time>
    </trkpt>
    <trkpt lat="50.205047" lon="16.840731">
      <ele>1343</ele>
      <time>2026-05-07T12:16:26Z</time>
    </trkpt>
    <trkpt lat="50.204911" lon="16.84057">
      <ele>1340</ele>
      <time>2026-05-07T12:16:41Z</time>
    </trkpt>
    <trkpt lat="50.204824" lon="16.840481">
      <ele>1338</ele>
      <time>2026-05-07T12:16:51Z</time>
    </trkpt>
    <trkpt lat="50.20472" lon="16.840375">
      <ele>1334</ele>
      <time>2026-05-07T12:17:02Z</time>
    </trkpt>
    <trkpt lat="50.204663" lon="16.840331">
      <ele>1332</ele>
      <time>2026-05-07T12:17:08Z</time>
    </trkpt>
    <trkpt lat="50.204575" lon="16.840263">
      <ele>1329</ele>
      <time>2026-05-07T12:17:16Z</time>
    </trkpt>
    <trkpt lat="50.204549" lon="16.840243">
      <ele>1328</ele>
      <time>2026-05-07T12:17:19Z</time>
    </trkpt>
    <trkpt lat="50.204519" lon="16.840219">
      <ele>1327</ele>
      <time>2026-05-07T12:17:22Z</time>
    </trkpt>
    <trkpt lat="50.204498" lon="16.84019">
      <ele>1327</ele>
      <time>2026-05-07T12:17:25Z</time>
    </trkpt>
    <trkpt lat="50.204477" lon="16.840161">
      <ele>1326</ele>
      <time>2026-05-07T12:17:27Z</time>
    </trkpt>
    <trkpt lat="50.204461" lon="16.840125">
      <ele>1325</ele>
      <time>2026-05-07T12:17:30Z</time>
    </trkpt>
    <trkpt lat="50.204415" lon="16.840021">
      <ele>1323</ele>
      <time>2026-05-07T12:17:37Z</time>
    </trkpt>
    <trkpt lat="50.204391" lon="16.839968">
      <ele>1322</ele>
      <time>2026-05-07T12:17:41Z</time>
    </trkpt>
    <trkpt lat="50.20442" lon="16.839868">
      <ele>1321</ele>
      <time>2026-05-07T12:17:47Z</time>
    </trkpt>
    <trkpt lat="50.204436" lon="16.839823">
      <ele>1321</ele>
      <time>2026-05-07T12:17:50Z</time>
    </trkpt>
    <trkpt lat="50.204465" lon="16.839734">
      <ele>1321</ele>
      <time>2026-05-07T12:17:55Z</time>
    </trkpt>
    <trkpt lat="50.204498" lon="16.839609">
      <ele>1319</ele>
      <time>2026-05-07T12:18:03Z</time>
    </trkpt>
    <trkpt lat="50.204513" lon="16.839532">
      <ele>1319</ele>
      <time>2026-05-07T12:18:07Z</time>
    </trkpt>
    <trkpt lat="50.204518" lon="16.839483">
      <ele>1318</ele>
      <time>2026-05-07T12:18:10Z</time>
    </trkpt>
    <trkpt lat="50.204519" lon="16.839395">
      <ele>1317</ele>
      <time>2026-05-07T12:18:15Z</time>
    </trkpt>
    <trkpt lat="50.204471" lon="16.839313">
      <ele>1315</ele>
      <time>2026-05-07T12:18:21Z</time>
    </trkpt>
    <trkpt lat="50.204439" lon="16.839291">
      <ele>1314</ele>
      <time>2026-05-07T12:18:25Z</time>
    </trkpt>
    <trkpt lat="50.204415" lon="16.839275">
      <ele>1314</ele>
      <time>2026-05-07T12:18:27Z</time>
    </trkpt>
    <trkpt lat="50.204305" lon="16.839209">
      <ele>1311</ele>
      <time>2026-05-07T12:18:37Z</time>
    </trkpt>
    <trkpt lat="50.204282" lon="16.839198">
      <ele>1310</ele>
      <time>2026-05-07T12:18:39Z</time>
    </trkpt>
    <trkpt lat="50.20418" lon="16.839153">
      <ele>1308</ele>
      <time>2026-05-07T12:18:49Z</time>
    </trkpt>
    <trkpt lat="50.204155" lon="16.839142">
      <ele>1308</ele>
      <time>2026-05-07T12:18:51Z</time>
    </trkpt>
    <trkpt lat="50.204145" lon="16.839129">
      <ele>1307</ele>
      <time>2026-05-07T12:18:52Z</time>
    </trkpt>
    <trkpt lat="50.204117" lon="16.839092">
      <ele>1307</ele>
      <time>2026-05-07T12:18:56Z</time>
    </trkpt>
    <trkpt lat="50.204092" lon="16.838995">
      <ele>1305</ele>
      <time>2026-05-07T12:19:01Z</time>
    </trkpt>
    <trkpt lat="50.204068" lon="16.838848">
      <ele>1304</ele>
      <time>2026-05-07T12:19:10Z</time>
    </trkpt>
    <trkpt lat="50.204089" lon="16.838657">
      <ele>1302</ele>
      <time>2026-05-07T12:19:22Z</time>
    </trkpt>
    <trkpt lat="50.204124" lon="16.83846">
      <ele>1300</ele>
      <time>2026-05-07T12:19:35Z</time>
    </trkpt>
    <trkpt lat="50.20414" lon="16.838273">
      <ele>1298</ele>
      <time>2026-05-07T12:19:47Z</time>
    </trkpt>
    <trkpt lat="50.204166" lon="16.838167">
      <ele>1297</ele>
      <time>2026-05-07T12:19:55Z</time>
    </trkpt>
    <trkpt lat="50.204173" lon="16.838003">
      <ele>1295</ele>
      <time>2026-05-07T12:20:05Z</time>
    </trkpt>
    <trkpt lat="50.204175" lon="16.837891">
      <ele>1294</ele>
      <time>2026-05-07T12:20:12Z</time>
    </trkpt>
    <trkpt lat="50.204217" lon="16.837701">
      <ele>1292</ele>
      <time>2026-05-07T12:20:25Z</time>
    </trkpt>
    <trkpt lat="50.204252" lon="16.837513">
      <ele>1291</ele>
      <time>2026-05-07T12:20:38Z</time>
    </trkpt>
    <trkpt lat="50.204285" lon="16.837387">
      <ele>1290</ele>
      <time>2026-05-07T12:20:46Z</time>
    </trkpt>
    <trkpt lat="50.204329" lon="16.837293">
      <ele>1290</ele>
      <time>2026-05-07T12:20:54Z</time>
    </trkpt>
    <trkpt lat="50.20451" lon="16.8372">
      <ele>1289</ele>
      <time>2026-05-07T12:21:12Z</time>
    </trkpt>
    <trkpt lat="50.204806" lon="16.837">
      <ele>1285</ele>
      <time>2026-05-07T12:21:44Z</time>
    </trkpt>
    <trkpt lat="50.205112" lon="16.836825">
      <ele>1284</ele>
      <time>2026-05-07T12:22:17Z</time>
    </trkpt>
    <trkpt lat="50.205433" lon="16.836652">
      <ele>1282</ele>
      <time>2026-05-07T12:22:50Z</time>
    </trkpt>
    <trkpt lat="50.205586" lon="16.836534">
      <ele>1280</ele>
      <time>2026-05-07T12:23:07Z</time>
    </trkpt>
    <trkpt lat="50.205718" lon="16.836482">
      <ele>1279</ele>
      <time>2026-05-07T12:23:21Z</time>
    </trkpt>
    <trkpt lat="50.205869" lon="16.836344">
      <ele>1277</ele>
      <time>2026-05-07T12:23:38Z</time>
    </trkpt>
    <trkpt lat="50.205986" lon="16.836172">
      <ele>1275</ele>
      <time>2026-05-07T12:23:54Z</time>
    </trkpt>
    <trkpt lat="50.206139" lon="16.835931">
      <ele>1271</ele>
      <time>2026-05-07T12:24:16Z</time>
    </trkpt>
    <trkpt lat="50.206283" lon="16.835767">
      <ele>1268</ele>
      <time>2026-05-07T12:24:34Z</time>
    </trkpt>
    <trkpt lat="50.206451" lon="16.835614">
      <ele>1265</ele>
      <time>2026-05-07T12:24:53Z</time>
    </trkpt>
    <trkpt lat="50.20669" lon="16.835327">
      <ele>1260</ele>
      <time>2026-05-07T12:25:23Z</time>
    </trkpt>
    <trkpt lat="50.206989" lon="16.834952">
      <ele>1254</ele>
      <time>2026-05-07T12:26:01Z</time>
    </trkpt>
    <trkpt lat="50.207109" lon="16.834756">
      <ele>1251</ele>
      <time>2026-05-07T12:26:19Z</time>
    </trkpt>
    <trkpt lat="50.207203" lon="16.834582">
      <ele>1248</ele>
      <time>2026-05-07T12:26:34Z</time>
    </trkpt>
    <trkpt lat="50.207282" lon="16.834464">
      <ele>1245</ele>
      <time>2026-05-07T12:26:45Z</time>
    </trkpt>
    <trkpt lat="50.207376" lon="16.834314">
      <ele>1242</ele>
      <time>2026-05-07T12:26:58Z</time>
    </trkpt>
    <trkpt lat="50.207461" lon="16.834045">
      <ele>1238</ele>
      <time>2026-05-07T12:27:17Z</time>
    </trkpt>
    <trkpt lat="50.207572" lon="16.833638">
      <ele>1232</ele>
      <time>2026-05-07T12:27:46Z</time>
    </trkpt>
    <trkpt lat="50.207672" lon="16.83336">
      <ele>1227</ele>
      <time>2026-05-07T12:28:07Z</time>
    </trkpt>
    <trkpt lat="50.207697" lon="16.833289">
      <ele>1226</ele>
      <time>2026-05-07T12:28:12Z</time>
    </trkpt>
    <trkpt lat="50.207842" lon="16.832955">
      <ele>1222</ele>
      <time>2026-05-07T12:28:38Z</time>
    </trkpt>
    <trkpt lat="50.207902" lon="16.83274">
      <ele>1219</ele>
      <time>2026-05-07T12:28:53Z</time>
    </trkpt>
    <trkpt lat="50.207928" lon="16.832605">
      <ele>1218</ele>
      <time>2026-05-07T12:29:02Z</time>
    </trkpt>
    <trkpt lat="50.20793" lon="16.832595">
      <ele>1217</ele>
      <time>2026-05-07T12:29:02Z</time>
    </trkpt>
    <trkpt lat="50.20793" lon="16.832583">
      <ele>1217</ele>
      <time>2026-05-07T12:29:03Z</time>
    </trkpt>
    <trkpt lat="50.207936" lon="16.832474">
      <ele>1216</ele>
      <time>2026-05-07T12:29:10Z</time>
    </trkpt>
    <trkpt lat="50.208084" lon="16.832422">
      <ele>1216</ele>
      <time>2026-05-07T12:29:31Z</time>
    </trkpt>
    <trkpt lat="50.208219" lon="16.832291">
      <ele>1215</ele>
      <time>2026-05-07T12:29:53Z</time>
    </trkpt>
    <trkpt lat="50.208328" lon="16.832191">
      <ele>1213</ele>
      <time>2026-05-07T12:30:10Z</time>
    </trkpt>
    <trkpt lat="50.208671" lon="16.831849">
      <ele>1208</ele>
      <time>2026-05-07T12:30:57Z</time>
    </trkpt>
    <trkpt lat="50.208955" lon="16.831598">
      <ele>1205</ele>
      <time>2026-05-07T12:31:35Z</time>
    </trkpt>
    <trkpt lat="50.209149" lon="16.831461">
      <ele>1205</ele>
      <time>2026-05-07T12:31:59Z</time>
    </trkpt>
    <trkpt lat="50.209188" lon="16.831434">
      <ele>1205</ele>
      <time>2026-05-07T12:32:04Z</time>
    </trkpt>
    <trkpt lat="50.209441" lon="16.831319">
      <ele>1205</ele>
      <time>2026-05-07T12:32:34Z</time>
    </trkpt>
    <trkpt lat="50.209704" lon="16.831244">
      <ele>1204</ele>
      <time>2026-05-07T12:33:05Z</time>
    </trkpt>
    <trkpt lat="50.209988" lon="16.831179">
      <ele>1201</ele>
      <time>2026-05-07T12:33:38Z</time>
    </trkpt>
    <trkpt lat="50.210291" lon="16.831152">
      <ele>1197</ele>
      <time>2026-05-07T12:34:13Z</time>
    </trkpt>
    <trkpt lat="50.210562" lon="16.831217">
      <ele>1196</ele>
      <time>2026-05-07T12:34:45Z</time>
    </trkpt>
    <trkpt lat="50.210895" lon="16.831396">
      <ele>1192</ele>
      <time>2026-05-07T12:35:26Z</time>
    </trkpt>
    <trkpt lat="50.212476" lon="16.832749">
      <ele>1170</ele>
      <time>2026-05-07T12:38:54Z</time>
    </trkpt>
    <trkpt lat="50.212906" lon="16.833136">
      <ele>1163</ele>
      <time>2026-05-07T12:39:52Z</time>
    </trkpt>
    <trkpt lat="50.213973" lon="16.83423">
      <ele>1143</ele>
      <time>2026-05-07T12:42:20Z</time>
    </trkpt>
    <trkpt lat="50.214241" lon="16.834488">
      <ele>1140</ele>
      <time>2026-05-07T12:42:56Z</time>
    </trkpt>
    <trkpt lat="50.215015" lon="16.83496">
      <ele>1131</ele>
      <time>2026-05-07T12:44:32Z</time>
    </trkpt>
    <trkpt lat="50.215064" lon="16.834992">
      <ele>1130</ele>
      <time>2026-05-07T12:44:38Z</time>
    </trkpt>
    <trkpt lat="50.215323" lon="16.835103">
      <ele>1123</ele>
      <time>2026-05-07T12:45:10Z</time>
    </trkpt>
    <trkpt lat="50.215391" lon="16.834988">
      <ele>1125</ele>
      <time>2026-05-07T12:45:21Z</time>
    </trkpt>
    <trkpt lat="50.215756" lon="16.834461">
      <ele>1121</ele>
      <time>2026-05-07T12:46:17Z</time>
    </trkpt>
    <trkpt lat="50.216175" lon="16.833815">
      <ele>1119</ele>
      <time>2026-05-07T12:47:23Z</time>
    </trkpt>
    <trkpt lat="50.216455" lon="16.833344">
      <ele>1117</ele>
      <time>2026-05-07T12:48:10Z</time>
    </trkpt>
    <trkpt lat="50.216763" lon="16.832761">
      <ele>1111</ele>
      <time>2026-05-07T12:49:04Z</time>
    </trkpt>
    <trkpt lat="50.216941" lon="16.832404">
      <ele>1106</ele>
      <time>2026-05-07T12:49:37Z</time>
    </trkpt>
    <trkpt lat="50.217049" lon="16.832251">
      <ele>1105</ele>
      <time>2026-05-07T12:49:54Z</time>
    </trkpt>
    <trkpt lat="50.217251" lon="16.83201">
      <ele>1102</ele>
      <time>2026-05-07T12:50:22Z</time>
    </trkpt>
    <trkpt lat="50.217732" lon="16.831576">
      <ele>1096</ele>
      <time>2026-05-07T12:51:25Z</time>
    </trkpt>
    <trkpt lat="50.218327" lon="16.83074">
      <ele>1083</ele>
      <time>2026-05-07T12:52:56Z</time>
    </trkpt>
    <trkpt lat="50.21912" lon="16.829581">
      <ele>1071</ele>
      <time>2026-05-07T12:54:58Z</time>
    </trkpt>
    <trkpt lat="50.219158" lon="16.829432">
      <ele>1068</ele>
      <time>2026-05-07T12:55:10Z</time>
    </trkpt>
    <trkpt lat="50.219269" lon="16.829276">
      <ele>1066</ele>
      <time>2026-05-07T12:55:25Z</time>
    </trkpt>
    <trkpt lat="50.219477" lon="16.829039">
      <ele>1063</ele>
      <time>2026-05-07T12:55:51Z</time>
    </trkpt>
    <trkpt lat="50.219786" lon="16.828718">
      <ele>1064</ele>
      <time>2026-05-07T12:56:29Z</time>
    </trkpt>
    <trkpt lat="50.219999" lon="16.828518">
      <ele>1063</ele>
      <time>2026-05-07T12:56:54Z</time>
    </trkpt>
    <trkpt lat="50.220453" lon="16.82812">
      <ele>1060</ele>
      <time>2026-05-07T12:57:46Z</time>
    </trkpt>
    <trkpt lat="50.220716" lon="16.827849">
      <ele>1056</ele>
      <time>2026-05-07T12:58:18Z</time>
    </trkpt>
    <trkpt lat="50.220948" lon="16.827674">
      <ele>1055</ele>
      <time>2026-05-07T12:58:44Z</time>
    </trkpt>
    <trkpt lat="50.221303" lon="16.827475">
      <ele>1053</ele>
      <time>2026-05-07T12:59:22Z</time>
    </trkpt>
    <trkpt lat="50.221642" lon="16.827221">
      <ele>1049</ele>
      <time>2026-05-07T13:00:01Z</time>
    </trkpt>
    <trkpt lat="50.222145" lon="16.826613">
      <ele>1041</ele>
      <time>2026-05-07T13:01:05Z</time>
    </trkpt>
    <trkpt lat="50.222515" lon="16.826251">
      <ele>1041</ele>
      <time>2026-05-07T13:01:49Z</time>
    </trkpt>
    <trkpt lat="50.222694" lon="16.826158">
      <ele>1040</ele>
      <time>2026-05-07T13:02:08Z</time>
    </trkpt>
    <trkpt lat="50.222857" lon="16.826118">
      <ele>1039</ele>
      <time>2026-05-07T13:02:25Z</time>
    </trkpt>
    <trkpt lat="50.223424" lon="16.826101">
      <ele>1038</ele>
      <time>2026-05-07T13:03:22Z</time>
    </trkpt>
    <trkpt lat="50.223558" lon="16.826054">
      <ele>1037</ele>
      <time>2026-05-07T13:03:36Z</time>
    </trkpt>
    <trkpt lat="50.223687" lon="16.825973">
      <ele>1036</ele>
      <time>2026-05-07T13:03:50Z</time>
    </trkpt>
    <trkpt lat="50.223984" lon="16.825693">
      <ele>1034</ele>
      <time>2026-05-07T13:04:25Z</time>
    </trkpt>
    <trkpt lat="50.224107" lon="16.825559">
      <ele>1032</ele>
      <time>2026-05-07T13:04:40Z</time>
    </trkpt>
    <trkpt lat="50.224218" lon="16.825389">
      <ele>1031</ele>
      <time>2026-05-07T13:04:56Z</time>
    </trkpt>
    <trkpt lat="50.224355" lon="16.824987">
      <ele>1028</ele>
      <time>2026-05-07T13:05:25Z</time>
    </trkpt>
    <trkpt lat="50.22443" lon="16.824576">
      <ele>1025</ele>
      <time>2026-05-07T13:05:53Z</time>
    </trkpt>
    <trkpt lat="50.224449" lon="16.82434">
      <ele>1024</ele>
      <time>2026-05-07T13:06:08Z</time>
    </trkpt>
    <trkpt lat="50.22444" lon="16.824111">
      <ele>1023</ele>
      <time>2026-05-07T13:06:23Z</time>
    </trkpt>
    <trkpt lat="50.224388" lon="16.823634">
      <ele>1019</ele>
      <time>2026-05-07T13:06:55Z</time>
    </trkpt>
    <trkpt lat="50.224317" lon="16.823284">
      <ele>1016</ele>
      <time>2026-05-07T13:07:19Z</time>
    </trkpt>
    <trkpt lat="50.224285" lon="16.822543">
      <ele>1010</ele>
      <time>2026-05-07T13:08:07Z</time>
    </trkpt>
    <trkpt lat="50.224315" lon="16.822279">
      <ele>1010</ele>
      <time>2026-05-07T13:08:24Z</time>
    </trkpt>
    <trkpt lat="50.224496" lon="16.821866">
      <ele>1010</ele>
      <time>2026-05-07T13:08:56Z</time>
    </trkpt>
    <trkpt lat="50.224636" lon="16.821493">
      <ele>1010</ele>
      <time>2026-05-07T13:09:24Z</time>
    </trkpt>
    <trkpt lat="50.224751" lon="16.821096">
      <ele>1007</ele>
      <time>2026-05-07T13:09:53Z</time>
    </trkpt>
    <trkpt lat="50.22528" lon="16.81998">
      <ele>1004</ele>
      <time>2026-05-07T13:11:22Z</time>
    </trkpt>
    <trkpt lat="50.225502" lon="16.819726">
      <ele>1003</ele>
      <time>2026-05-07T13:11:50Z</time>
    </trkpt>
    <trkpt lat="50.2262" lon="16.819383">
      <ele>1004</ele>
      <time>2026-05-07T13:13:04Z</time>
    </trkpt>
    <trkpt lat="50.22653" lon="16.819268">
      <ele>1002</ele>
      <time>2026-05-07T13:13:38Z</time>
    </trkpt>
    <trkpt lat="50.226885" lon="16.819181">
      <ele>1001</ele>
      <time>2026-05-07T13:14:14Z</time>
    </trkpt>
    <trkpt lat="50.227102" lon="16.819121">
      <ele>1000</ele>
      <time>2026-05-07T13:14:36Z</time>
    </trkpt>
    <trkpt lat="50.227357" lon="16.819097">
      <ele>999</ele>
      <time>2026-05-07T13:15:02Z</time>
    </trkpt>
    <trkpt lat="50.227707" lon="16.81908">
      <ele>999</ele>
      <time>2026-05-07T13:15:38Z</time>
    </trkpt>
    <trkpt lat="50.227952" lon="16.819085">
      <ele>998</ele>
      <time>2026-05-07T13:16:02Z</time>
    </trkpt>
    <trkpt lat="50.228523" lon="16.818987">
      <ele>996</ele>
      <time>2026-05-07T13:17:00Z</time>
    </trkpt>
    <trkpt lat="50.228802" lon="16.818969">
      <ele>999</ele>
      <time>2026-05-07T13:17:29Z</time>
    </trkpt>
    <trkpt lat="50.228946" lon="16.819006">
      <ele>1001</ele>
      <time>2026-05-07T13:17:43Z</time>
    </trkpt>
    <trkpt lat="50.229111" lon="16.819045">
      <ele>1003</ele>
      <time>2026-05-07T13:18:00Z</time>
    </trkpt>
    <trkpt lat="50.229181" lon="16.818973">
      <ele>1003</ele>
      <time>2026-05-07T13:18:09Z</time>
    </trkpt>
    <trkpt lat="50.229327" lon="16.818676">
      <ele>1001</ele>
      <time>2026-05-07T13:18:33Z</time>
    </trkpt>
    <trkpt lat="50.229432" lon="16.818361">
      <ele>998</ele>
      <time>2026-05-07T13:18:56Z</time>
    </trkpt>
    <trkpt lat="50.229723" lon="16.81752">
      <ele>997</ele>
      <time>2026-05-07T13:19:58Z</time>
    </trkpt>
    <trkpt lat="50.229777" lon="16.817074">
      <ele>996</ele>
      <time>2026-05-07T13:20:27Z</time>
    </trkpt>
    <trkpt lat="50.229778" lon="16.816531">
      <ele>995</ele>
      <time>2026-05-07T13:21:02Z</time>
    </trkpt>
    <trkpt lat="50.229731" lon="16.815798">
      <ele>994</ele>
      <time>2026-05-07T13:21:50Z</time>
    </trkpt>
    <trkpt lat="50.229658" lon="16.815465">
      <ele>993</ele>
      <time>2026-05-07T13:22:12Z</time>
    </trkpt>
    <trkpt lat="50.22957" lon="16.815208">
      <ele>994</ele>
      <time>2026-05-07T13:22:31Z</time>
    </trkpt>
    <trkpt lat="50.229409" lon="16.814937">
      <ele>991</ele>
      <time>2026-05-07T13:22:55Z</time>
    </trkpt>
    <trkpt lat="50.229232" lon="16.814713">
      <ele>989</ele>
      <time>2026-05-07T13:23:18Z</time>
    </trkpt>
    <trkpt lat="50.228833" lon="16.81421">
      <ele>987</ele>
      <time>2026-05-07T13:24:10Z</time>
    </trkpt>
    <trkpt lat="50.228699" lon="16.814">
      <ele>986</ele>
      <time>2026-05-07T13:24:29Z</time>
    </trkpt>
    <trkpt lat="50.228366" lon="16.813604">
      <ele>983</ele>
      <time>2026-05-07T13:25:11Z</time>
    </trkpt>
    <trkpt lat="50.228058" lon="16.813294">
      <ele>979</ele>
      <time>2026-05-07T13:25:48Z</time>
    </trkpt>
    <trkpt lat="50.227384" lon="16.812715">
      <ele>980</ele>
      <time>2026-05-07T13:27:06Z</time>
    </trkpt>
    <trkpt lat="50.226599" lon="16.81218">
      <ele>983</ele>
      <time>2026-05-07T13:28:32Z</time>
    </trkpt>
    <trkpt lat="50.226105" lon="16.811839">
      <ele>978</ele>
      <time>2026-05-07T13:29:27Z</time>
    </trkpt>
    <trkpt lat="50.225932" lon="16.811678">
      <ele>975</ele>
      <time>2026-05-07T13:29:48Z</time>
    </trkpt>
    <trkpt lat="50.225732" lon="16.81142">
      <ele>975</ele>
      <time>2026-05-07T13:30:14Z</time>
    </trkpt>
    <trkpt lat="50.225583" lon="16.811106">
      <ele>976</ele>
      <time>2026-05-07T13:30:39Z</time>
    </trkpt>
    <trkpt lat="50.224996" lon="16.809795">
      <ele>980</ele>
      <time>2026-05-07T13:32:22Z</time>
    </trkpt>
    <trkpt lat="50.224605" lon="16.808945">
      <ele>978</ele>
      <time>2026-05-07T13:33:30Z</time>
    </trkpt>
    <trkpt lat="50.224403" lon="16.808551">
      <ele>979</ele>
      <time>2026-05-07T13:34:02Z</time>
    </trkpt>
    <trkpt lat="50.224135" lon="16.80813">
      <ele>978</ele>
      <time>2026-05-07T13:34:41Z</time>
    </trkpt>
    <trkpt lat="50.223898" lon="16.807905">
      <ele>973</ele>
      <time>2026-05-07T13:35:09Z</time>
    </trkpt>
    <trkpt lat="50.223718" lon="16.807734">
      <ele>970</ele>
      <time>2026-05-07T13:35:30Z</time>
    </trkpt>
    <trkpt lat="50.223588" lon="16.80756">
      <ele>968</ele>
      <time>2026-05-07T13:35:48Z</time>
    </trkpt>
    <trkpt lat="50.223476" lon="16.807331">
      <ele>967</ele>
      <time>2026-05-07T13:36:06Z</time>
    </trkpt>
    <trkpt lat="50.223367" lon="16.807053">
      <ele>967</ele>
      <time>2026-05-07T13:36:27Z</time>
    </trkpt>
    <trkpt lat="50.223253" lon="16.806383">
      <ele>967</ele>
      <time>2026-05-07T13:37:12Z</time>
    </trkpt>
    <trkpt lat="50.223166" lon="16.805313">
      <ele>960</ele>
      <time>2026-05-07T13:38:22Z</time>
    </trkpt>
    <trkpt lat="50.223183" lon="16.804686">
      <ele>958</ele>
      <time>2026-05-07T13:39:03Z</time>
    </trkpt>
    <trkpt lat="50.223245" lon="16.803941">
      <ele>953</ele>
      <time>2026-05-07T13:39:51Z</time>
    </trkpt>
    <trkpt lat="50.223395" lon="16.803159">
      <ele>948</ele>
      <time>2026-05-07T13:40:44Z</time>
    </trkpt>
    <trkpt lat="50.223547" lon="16.80255">
      <ele>944</ele>
      <time>2026-05-07T13:41:26Z</time>
    </trkpt>
    <trkpt lat="50.224165" lon="16.800207">
      <ele>916</ele>
      <time>2026-05-07T13:44:12Z</time>
    </trkpt>
    <trkpt lat="50.224864" lon="16.797625">
      <ele>895</ele>
      <time>2026-05-07T13:47:14Z</time>
    </trkpt>
    <trkpt lat="50.225182" lon="16.796746">
      <ele>891</ele>
      <time>2026-05-07T13:48:19Z</time>
    </trkpt>
    <trkpt lat="50.225576" lon="16.795932">
      <ele>887</ele>
      <time>2026-05-07T13:49:25Z</time>
    </trkpt>
    <trkpt lat="50.226142" lon="16.794952">
      <ele>882</ele>
      <time>2026-05-07T13:50:50Z</time>
    </trkpt>
    <trkpt lat="50.22658" lon="16.794283">
      <ele>878</ele>
      <time>2026-05-07T13:51:52Z</time>
    </trkpt>
    <trkpt lat="50.226925" lon="16.793614">
      <ele>870</ele>
      <time>2026-05-07T13:52:48Z</time>
    </trkpt>
    <trkpt lat="50.227196" lon="16.79318">
      <ele>865</ele>
      <time>2026-05-07T13:53:28Z</time>
    </trkpt>
    <trkpt lat="50.227821" lon="16.79216">
      <ele>849</ele>
      <time>2026-05-07T13:55:00Z</time>
    </trkpt>
    <trkpt lat="50.228046" lon="16.791709">
      <ele>847</ele>
      <time>2026-05-07T13:55:37Z</time>
    </trkpt>
    <trkpt lat="50.228451" lon="16.790661">
      <ele>847</ele>
      <time>2026-05-07T13:56:56Z</time>
    </trkpt>
    <trkpt lat="50.228564" lon="16.790373">
      <ele>845</ele>
      <time>2026-05-07T13:57:18Z</time>
    </trkpt>
    <trkpt lat="50.228768" lon="16.789811">
      <ele>841</ele>
      <time>2026-05-07T13:58:00Z</time>
    </trkpt>
    <trkpt lat="50.228999" lon="16.789205">
      <ele>835</ele>
      <time>2026-05-07T13:58:45Z</time>
    </trkpt>
    <trkpt lat="50.229278" lon="16.788455">
      <ele>823</ele>
      <time>2026-05-07T13:59:42Z</time>
    </trkpt>
    <trkpt lat="50.229865" lon="16.787026">
      <ele>817</ele>
      <time>2026-05-07T14:01:32Z</time>
    </trkpt>
    <trkpt lat="50.230043" lon="16.78655">
      <ele>816</ele>
      <time>2026-05-07T14:02:08Z</time>
    </trkpt>
    <trkpt lat="50.230106" lon="16.786407">
      <ele>815</ele>
      <time>2026-05-07T14:02:19Z</time>
    </trkpt>
    <trkpt lat="50.230329" lon="16.785801">
      <ele>813</ele>
      <time>2026-05-07T14:03:04Z</time>
    </trkpt>
    <trkpt lat="50.230556" lon="16.785182">
      <ele>810</ele>
      <time>2026-05-07T14:03:50Z</time>
    </trkpt>
    <trkpt lat="50.230783" lon="16.784644">
      <ele>798</ele>
      <time>2026-05-07T14:04:33Z</time>
    </trkpt>
    <trkpt lat="50.230877" lon="16.784363">
      <ele>789</ele>
      <time>2026-05-07T14:04:55Z</time>
    </trkpt>
    <trkpt lat="50.230904" lon="16.784148">
      <ele>784</ele>
      <time>2026-05-07T14:05:10Z</time>
    </trkpt>
    <trkpt lat="50.230886" lon="16.783671">
      <ele>789</ele>
      <time>2026-05-07T14:05:42Z</time>
    </trkpt>
    <trkpt lat="50.230792" lon="16.782933">
      <ele>791</ele>
      <time>2026-05-07T14:06:31Z</time>
    </trkpt>
    <trkpt lat="50.230727" lon="16.782405">
      <ele>789</ele>
      <time>2026-05-07T14:07:06Z</time>
    </trkpt>
    <trkpt lat="50.230685" lon="16.782067">
      <ele>788</ele>
      <time>2026-05-07T14:07:29Z</time>
    </trkpt>
    <trkpt lat="50.23063" lon="16.781892">
      <ele>787</ele>
      <time>2026-05-07T14:07:42Z</time>
    </trkpt>
    <trkpt lat="50.230573" lon="16.781791">
      <ele>788</ele>
      <time>2026-05-07T14:07:50Z</time>
    </trkpt>
    <trkpt lat="50.230447" lon="16.781679">
      <ele>788</ele>
      <time>2026-05-07T14:08:05Z</time>
    </trkpt>
    <trkpt lat="50.230261" lon="16.781522">
      <ele>788</ele>
      <time>2026-05-07T14:08:27Z</time>
    </trkpt>
    <trkpt lat="50.230149" lon="16.781427">
      <ele>787</ele>
      <time>2026-05-07T14:08:40Z</time>
    </trkpt>
    <trkpt lat="50.229603" lon="16.780974">
      <ele>786</ele>
      <time>2026-05-07T14:09:43Z</time>
    </trkpt>
    <trkpt lat="50.229052" lon="16.780504">
      <ele>785</ele>
      <time>2026-05-07T14:10:48Z</time>
    </trkpt>
    <trkpt lat="50.22879" lon="16.780302">
      <ele>784</ele>
      <time>2026-05-07T14:11:18Z</time>
    </trkpt>
    <trkpt lat="50.228581" lon="16.780093">
      <ele>784</ele>
      <time>2026-05-07T14:11:43Z</time>
    </trkpt>
    <trkpt lat="50.22834" lon="16.779674">
      <ele>782</ele>
      <time>2026-05-07T14:12:20Z</time>
    </trkpt>
    <trkpt lat="50.227877" lon="16.778826">
      <ele>775</ele>
      <time>2026-05-07T14:13:33Z</time>
    </trkpt>
    <trkpt lat="50.227404" lon="16.777976">
      <ele>775</ele>
      <time>2026-05-07T14:14:47Z</time>
    </trkpt>
    <trkpt lat="50.227335" lon="16.777767">
      <ele>775</ele>
      <time>2026-05-07T14:15:02Z</time>
    </trkpt>
    <trkpt lat="50.227309" lon="16.777619">
      <ele>773</ele>
      <time>2026-05-07T14:15:13Z</time>
    </trkpt>
    <trkpt lat="50.227313" lon="16.777469">
      <ele>772</ele>
      <time>2026-05-07T14:15:22Z</time>
    </trkpt>
    <trkpt lat="50.22756" lon="16.776936">
      <ele>769</ele>
      <time>2026-05-07T14:16:06Z</time>
    </trkpt>
    <trkpt lat="50.227961" lon="16.776206">
      <ele>764</ele>
      <time>2026-05-07T14:17:09Z</time>
    </trkpt>
    <trkpt lat="50.228279" lon="16.775528">
      <ele>761</ele>
      <time>2026-05-07T14:18:04Z</time>
    </trkpt>
    <trkpt lat="50.22844" lon="16.775233">
      <ele>757</ele>
      <time>2026-05-07T14:18:30Z</time>
    </trkpt>
    <trkpt lat="50.2286" lon="16.774995">
      <ele>755</ele>
      <time>2026-05-07T14:18:52Z</time>
    </trkpt>
    <trkpt lat="50.228684" lon="16.775007">
      <ele>755</ele>
      <time>2026-05-07T14:19:01Z</time>
    </trkpt>
    <trkpt lat="50.22872" lon="16.775042">
      <ele>754</ele>
      <time>2026-05-07T14:19:05Z</time>
    </trkpt>
    <trkpt lat="50.228766" lon="16.775104">
      <ele>754</ele>
      <time>2026-05-07T14:19:12Z</time>
    </trkpt>
    <trkpt lat="50.228811" lon="16.775251">
      <ele>754</ele>
      <time>2026-05-07T14:19:22Z</time>
    </trkpt>
    <trkpt lat="50.228864" lon="16.775469">
      <ele>754</ele>
      <time>2026-05-07T14:19:38Z</time>
    </trkpt>
    <trkpt lat="50.228967" lon="16.775826">
      <ele>753</ele>
      <time>2026-05-07T14:20:03Z</time>
    </trkpt>
    <trkpt lat="50.22908" lon="16.775997">
      <ele>751</ele>
      <time>2026-05-07T14:20:19Z</time>
    </trkpt>
    <trkpt lat="50.229187" lon="16.776096">
      <ele>748</ele>
      <time>2026-05-07T14:20:32Z</time>
    </trkpt>
    <trkpt lat="50.229329" lon="16.776198">
      <ele>746</ele>
      <time>2026-05-07T14:20:49Z</time>
    </trkpt>
    <trkpt lat="50.229441" lon="16.77634">
      <ele>744</ele>
      <time>2026-05-07T14:21:03Z</time>
    </trkpt>
    <trkpt lat="50.229593" lon="16.776582">
      <ele>740</ele>
      <time>2026-05-07T14:21:26Z</time>
    </trkpt>
    <trkpt lat="50.229945" lon="16.777019">
      <ele>734</ele>
      <time>2026-05-07T14:22:12Z</time>
    </trkpt>
    <trkpt lat="50.230209" lon="16.777416">
      <ele>735</ele>
      <time>2026-05-07T14:22:50Z</time>
    </trkpt>
    <trkpt lat="50.230479" lon="16.777703">
      <ele>730</ele>
      <time>2026-05-07T14:23:24Z</time>
    </trkpt>
    <trkpt lat="50.230633" lon="16.777829">
      <ele>726</ele>
      <time>2026-05-07T14:23:42Z</time>
    </trkpt>
    <trkpt lat="50.230967" lon="16.777963">
      <ele>722</ele>
      <time>2026-05-07T14:24:17Z</time>
    </trkpt>
    <trkpt lat="50.231218" lon="16.778014">
      <ele>722</ele>
      <time>2026-05-07T14:24:43Z</time>
    </trkpt>
    <trkpt lat="50.231433" lon="16.777975">
      <ele>722</ele>
      <time>2026-05-07T14:25:05Z</time>
    </trkpt>
    <trkpt lat="50.231906" lon="16.777775">
      <ele>718</ele>
      <time>2026-05-07T14:25:56Z</time>
    </trkpt>
    <trkpt lat="50.232318" lon="16.777537">
      <ele>714</ele>
      <time>2026-05-07T14:26:41Z</time>
    </trkpt>
    <trkpt lat="50.232502" lon="16.777453">
      <ele>713</ele>
      <time>2026-05-07T14:27:00Z</time>
    </trkpt>
    <trkpt lat="50.232551" lon="16.777384">
      <ele>711</ele>
      <time>2026-05-07T14:27:07Z</time>
    </trkpt>
    <trkpt lat="50.232526" lon="16.777292">
      <ele>710</ele>
      <time>2026-05-07T14:27:14Z</time>
    </trkpt>
    <trkpt lat="50.232433" lon="16.77718">
      <ele>708</ele>
      <time>2026-05-07T14:27:26Z</time>
    </trkpt>
    <trkpt lat="50.232095" lon="16.776676">
      <ele>698</ele>
      <time>2026-05-07T14:28:15Z</time>
    </trkpt>
    <trkpt lat="50.231966" lon="16.776421">
      <ele>693</ele>
      <time>2026-05-07T14:28:37Z</time>
    </trkpt>
    <trkpt lat="50.231833" lon="16.775972">
      <ele>685</ele>
      <time>2026-05-07T14:29:10Z</time>
    </trkpt>
    <trkpt lat="50.23176" lon="16.775715">
      <ele>679</ele>
      <time>2026-05-07T14:29:29Z</time>
    </trkpt>
    <trkpt lat="50.231694" lon="16.775536">
      <ele>674</ele>
      <time>2026-05-07T14:29:43Z</time>
    </trkpt>
    <trkpt lat="50.231533" lon="16.775254">
      <ele>667</ele>
      <time>2026-05-07T14:30:09Z</time>
    </trkpt>
    <trkpt lat="50.231366" lon="16.774964">
      <ele>661</ele>
      <time>2026-05-07T14:30:35Z</time>
    </trkpt>
    <trkpt lat="50.230833" lon="16.774052">
      <ele>655</ele>
      <time>2026-05-07T14:31:56Z</time>
    </trkpt>
    <trkpt lat="50.230786" lon="16.773865">
      <ele>655</ele>
      <time>2026-05-07T14:32:09Z</time>
    </trkpt>
    <trkpt lat="50.230753" lon="16.773635">
      <ele>653</ele>
      <time>2026-05-07T14:32:25Z</time>
    </trkpt>
    <trkpt lat="50.230763" lon="16.773228">
      <ele>647</ele>
      <time>2026-05-07T14:32:52Z</time>
    </trkpt>
    <trkpt lat="50.230741" lon="16.773089">
      <ele>645</ele>
      <time>2026-05-07T14:33:02Z</time>
    </trkpt>
    <trkpt lat="50.230724" lon="16.772904">
      <ele>644</ele>
      <time>2026-05-07T14:33:14Z</time>
    </trkpt>
    <trkpt lat="50.230714" lon="16.772785">
      <ele>643</ele>
      <time>2026-05-07T14:33:22Z</time>
    </trkpt>
    <trkpt lat="50.230699" lon="16.772617">
      <ele>643</ele>
      <time>2026-05-07T14:33:33Z</time>
    </trkpt>
    <trkpt lat="50.230697" lon="16.772167">
      <ele>642</ele>
      <time>2026-05-07T14:34:03Z</time>
    </trkpt>
    <trkpt lat="50.230711" lon="16.771858">
      <ele>641</ele>
      <time>2026-05-07T14:34:23Z</time>
    </trkpt>
    <trkpt lat="50.230744" lon="16.771514">
      <ele>639</ele>
      <time>2026-05-07T14:34:46Z</time>
    </trkpt>
    <trkpt lat="50.230787" lon="16.77115">
      <ele>637</ele>
      <time>2026-05-07T14:35:10Z</time>
    </trkpt>
    <trkpt lat="50.230848" lon="16.770717">
      <ele>632</ele>
      <time>2026-05-07T14:35:39Z</time>
    </trkpt>
    <trkpt lat="50.230887" lon="16.770399">
      <ele>631</ele>
      <time>2026-05-07T14:36:01Z</time>
    </trkpt>
    <trkpt lat="50.230954" lon="16.770064">
      <ele>630</ele>
      <time>2026-05-07T14:36:24Z</time>
    </trkpt>
    <trkpt lat="50.230981" lon="16.769946">
      <ele>630</ele>
      <time>2026-05-07T14:36:32Z</time>
    </trkpt>
    <trkpt lat="50.231026" lon="16.769748">
      <ele>629</ele>
      <time>2026-05-07T14:36:46Z</time>
    </trkpt>
    <trkpt lat="50.23106" lon="16.769584">
      <ele>628</ele>
      <time>2026-05-07T14:36:57Z</time>
    </trkpt>
    <trkpt lat="50.231143" lon="16.769189">
      <ele>623</ele>
      <time>2026-05-07T14:37:25Z</time>
    </trkpt>
    <trkpt lat="50.231203" lon="16.768786">
      <ele>619</ele>
      <time>2026-05-07T14:37:52Z</time>
    </trkpt>
    <trkpt lat="50.231232" lon="16.768441">
      <ele>616</ele>
      <time>2026-05-07T14:38:15Z</time>
    </trkpt>
    <trkpt lat="50.231241" lon="16.768248">
      <ele>614</ele>
      <time>2026-05-07T14:38:28Z</time>
    </trkpt>
    <trkpt lat="50.231241" lon="16.76811">
      <ele>614</ele>
      <time>2026-05-07T14:38:37Z</time>
    </trkpt>
    <trkpt lat="50.231241" lon="16.76787">
      <ele>614</ele>
      <time>2026-05-07T14:38:53Z</time>
    </trkpt>
    <trkpt lat="50.231251" lon="16.767624">
      <ele>613</ele>
      <time>2026-05-07T14:39:09Z</time>
    </trkpt>
    <trkpt lat="50.231263" lon="16.767369">
      <ele>612</ele>
      <time>2026-05-07T14:39:25Z</time>
    </trkpt>
    <trkpt lat="50.231264" lon="16.767176">
      <ele>611</ele>
      <time>2026-05-07T14:39:38Z</time>
    </trkpt>
    <trkpt lat="50.231259" lon="16.767068">
      <ele>610</ele>
      <time>2026-05-07T14:39:45Z</time>
    </trkpt>
    <trkpt lat="50.231246" lon="16.766984">
      <ele>610</ele>
      <time>2026-05-07T14:39:51Z</time>
    </trkpt>
    <trkpt lat="50.231214" lon="16.766874">
      <ele>610</ele>
      <time>2026-05-07T14:39:59Z</time>
    </trkpt>
    <trkpt lat="50.231159" lon="16.766727">
      <ele>609</ele>
      <time>2026-05-07T14:40:10Z</time>
    </trkpt>
    <trkpt lat="50.231049" lon="16.766581">
      <ele>610</ele>
      <time>2026-05-07T14:40:25Z</time>
    </trkpt>
    <trkpt lat="50.230997" lon="16.766516">
      <ele>611</ele>
      <time>2026-05-07T14:40:33Z</time>
    </trkpt>
    <trkpt lat="50.230693" lon="16.766169">
      <ele>608</ele>
      <time>2026-05-07T14:41:13Z</time>
    </trkpt>
    <trkpt lat="50.230613" lon="16.766088">
      <ele>606</ele>
      <time>2026-05-07T14:41:23Z</time>
    </trkpt>
    <trkpt lat="50.23048" lon="16.765984">
      <ele>604</ele>
      <time>2026-05-07T14:41:39Z</time>
    </trkpt>
    <trkpt lat="50.23026" lon="16.76587">
      <ele>601</ele>
      <time>2026-05-07T14:42:04Z</time>
    </trkpt>
    <trkpt lat="50.23015" lon="16.765819">
      <ele>601</ele>
      <time>2026-05-07T14:42:16Z</time>
    </trkpt>
    <trkpt lat="50.229845" lon="16.765656">
      <ele>596</ele>
      <time>2026-05-07T14:42:51Z</time>
    </trkpt>
    <trkpt lat="50.229574" lon="16.765539">
      <ele>593</ele>
      <time>2026-05-07T14:43:21Z</time>
    </trkpt>
    <trkpt lat="50.229211" lon="16.765504">
      <ele>590</ele>
      <time>2026-05-07T14:44:00Z</time>
    </trkpt>
    <trkpt lat="50.229029" lon="16.765433">
      <ele>586</ele>
      <time>2026-05-07T14:44:21Z</time>
    </trkpt>
    <trkpt lat="50.228763" lon="16.7653">
      <ele>580</ele>
      <time>2026-05-07T14:44:51Z</time>
    </trkpt>
    <trkpt lat="50.228595" lon="16.765246">
      <ele>575</ele>
      <time>2026-05-07T14:45:10Z</time>
    </trkpt>
  </trkseg>
</trk>
</gpx>