<?xml version="1.0" encoding="UTF-8"?><gpx creator="https://mapa-turystyczna.pl" xmlns="http://www.topografix.com/GPX/1/1" version="1.1" xmlns:xsi="http://www.w3.org/2001/XMLSchema-instance" xsi:schemaLocation="http://www.topografix.com/GPX/1/1 http://www.topografix.com/GPX/1/1/gpx.xsd">
  <metadata>
    <link href="https://mapa-turystyczna.pl">
      <text>mapa-turystyczna.pl</text>
    </link>
    <time>2026-05-07T08:43:18Z</time>
    <bounds maxlat="50.8525" maxlon="15.513042" minlat="50.83782" minlon="15.424416"/>
  </metadata>

<trk>
  <name>Szklarska Poręba, skrzyżowanie – Szklarska Poręba, skrzyżowanie</name>
  <link href="https://mapa-turystyczna.pl/route/a4ko">
    <text>Szklarska Poręba, skrzyżowanie – Szklarska Poręba, skrzyżowanie</text>
  </link>
  <trkseg>
    <trkpt lat="50.837881" lon="15.504383">
      <ele>759</ele>
      <time>2026-05-07T08:43:18Z</time>
    </trkpt>
    <trkpt lat="50.83801" lon="15.504111">
      <ele>760</ele>
      <time>2026-05-07T08:43:50Z</time>
    </trkpt>
    <trkpt lat="50.838047" lon="15.503965">
      <ele>760</ele>
      <time>2026-05-07T08:44:04Z</time>
    </trkpt>
    <trkpt lat="50.838064" lon="15.503633">
      <ele>761</ele>
      <time>2026-05-07T08:44:36Z</time>
    </trkpt>
    <trkpt lat="50.83806" lon="15.503545">
      <ele>761</ele>
      <time>2026-05-07T08:44:44Z</time>
    </trkpt>
    <trkpt lat="50.838055" lon="15.503095">
      <ele>763</ele>
      <time>2026-05-07T08:45:26Z</time>
    </trkpt>
    <trkpt lat="50.838075" lon="15.502433">
      <ele>762</ele>
      <time>2026-05-07T08:46:28Z</time>
    </trkpt>
    <trkpt lat="50.838099" lon="15.501979">
      <ele>766</ele>
      <time>2026-05-07T08:47:10Z</time>
    </trkpt>
    <trkpt lat="50.838092" lon="15.501769">
      <ele>767</ele>
      <time>2026-05-07T08:47:30Z</time>
    </trkpt>
    <trkpt lat="50.838046" lon="15.501281">
      <ele>771</ele>
      <time>2026-05-07T08:48:17Z</time>
    </trkpt>
    <trkpt lat="50.838021" lon="15.500828">
      <ele>773</ele>
      <time>2026-05-07T08:48:59Z</time>
    </trkpt>
    <trkpt lat="50.838017" lon="15.500788">
      <ele>773</ele>
      <time>2026-05-07T08:49:03Z</time>
    </trkpt>
    <trkpt lat="50.837981" lon="15.500457">
      <ele>775</ele>
      <time>2026-05-07T08:49:34Z</time>
    </trkpt>
    <trkpt lat="50.837874" lon="15.499654">
      <ele>784</ele>
      <time>2026-05-07T08:50:52Z</time>
    </trkpt>
    <trkpt lat="50.83782" lon="15.499253">
      <ele>785</ele>
      <time>2026-05-07T08:51:30Z</time>
    </trkpt>
    <trkpt lat="50.83782" lon="15.49905">
      <ele>785</ele>
      <time>2026-05-07T08:51:49Z</time>
    </trkpt>
    <trkpt lat="50.837833" lon="15.498892">
      <ele>785</ele>
      <time>2026-05-07T08:52:04Z</time>
    </trkpt>
    <trkpt lat="50.837966" lon="15.498356">
      <ele>783</ele>
      <time>2026-05-07T08:52:58Z</time>
    </trkpt>
    <trkpt lat="50.837975" lon="15.498272">
      <ele>784</ele>
      <time>2026-05-07T08:53:06Z</time>
    </trkpt>
    <trkpt lat="50.837973" lon="15.498172">
      <ele>784</ele>
      <time>2026-05-07T08:53:15Z</time>
    </trkpt>
    <trkpt lat="50.837967" lon="15.498092">
      <ele>785</ele>
      <time>2026-05-07T08:53:23Z</time>
    </trkpt>
    <trkpt lat="50.837953" lon="15.498005">
      <ele>785</ele>
      <time>2026-05-07T08:53:31Z</time>
    </trkpt>
    <trkpt lat="50.837922" lon="15.497815">
      <ele>785</ele>
      <time>2026-05-07T08:53:49Z</time>
    </trkpt>
    <trkpt lat="50.83791" lon="15.497727">
      <ele>785</ele>
      <time>2026-05-07T08:53:58Z</time>
    </trkpt>
    <trkpt lat="50.837903" lon="15.497617">
      <ele>785</ele>
      <time>2026-05-07T08:54:08Z</time>
    </trkpt>
    <trkpt lat="50.837902" lon="15.497496">
      <ele>786</ele>
      <time>2026-05-07T08:54:19Z</time>
    </trkpt>
    <trkpt lat="50.837913" lon="15.497308">
      <ele>787</ele>
      <time>2026-05-07T08:54:37Z</time>
    </trkpt>
    <trkpt lat="50.837945" lon="15.497008">
      <ele>789</ele>
      <time>2026-05-07T08:55:06Z</time>
    </trkpt>
    <trkpt lat="50.837986" lon="15.496778">
      <ele>792</ele>
      <time>2026-05-07T08:55:28Z</time>
    </trkpt>
    <trkpt lat="50.838013" lon="15.496519">
      <ele>794</ele>
      <time>2026-05-07T08:55:53Z</time>
    </trkpt>
    <trkpt lat="50.838009" lon="15.496111">
      <ele>796</ele>
      <time>2026-05-07T08:56:31Z</time>
    </trkpt>
    <trkpt lat="50.838019" lon="15.496011">
      <ele>796</ele>
      <time>2026-05-07T08:56:41Z</time>
    </trkpt>
    <trkpt lat="50.838108" lon="15.495414">
      <ele>798</ele>
      <time>2026-05-07T08:57:38Z</time>
    </trkpt>
    <trkpt lat="50.838199" lon="15.494836">
      <ele>799</ele>
      <time>2026-05-07T08:58:33Z</time>
    </trkpt>
    <trkpt lat="50.838204" lon="15.494803">
      <ele>799</ele>
      <time>2026-05-07T08:58:37Z</time>
    </trkpt>
    <trkpt lat="50.838222" lon="15.494743">
      <ele>800</ele>
      <time>2026-05-07T08:58:43Z</time>
    </trkpt>
    <trkpt lat="50.838239" lon="15.494682">
      <ele>800</ele>
      <time>2026-05-07T08:58:49Z</time>
    </trkpt>
    <trkpt lat="50.838283" lon="15.494501">
      <ele>801</ele>
      <time>2026-05-07T08:59:07Z</time>
    </trkpt>
    <trkpt lat="50.838308" lon="15.494227">
      <ele>802</ele>
      <time>2026-05-07T08:59:33Z</time>
    </trkpt>
    <trkpt lat="50.838339" lon="15.493904">
      <ele>804</ele>
      <time>2026-05-07T09:00:04Z</time>
    </trkpt>
    <trkpt lat="50.838456" lon="15.493303">
      <ele>808</ele>
      <time>2026-05-07T09:01:03Z</time>
    </trkpt>
    <trkpt lat="50.838487" lon="15.492943">
      <ele>809</ele>
      <time>2026-05-07T09:01:37Z</time>
    </trkpt>
    <trkpt lat="50.838512" lon="15.492821">
      <ele>810</ele>
      <time>2026-05-07T09:01:49Z</time>
    </trkpt>
    <trkpt lat="50.838534" lon="15.49274">
      <ele>811</ele>
      <time>2026-05-07T09:01:57Z</time>
    </trkpt>
    <trkpt lat="50.838624" lon="15.492526">
      <ele>813</ele>
      <time>2026-05-07T09:02:21Z</time>
    </trkpt>
    <trkpt lat="50.838659" lon="15.492412">
      <ele>814</ele>
      <time>2026-05-07T09:02:33Z</time>
    </trkpt>
    <trkpt lat="50.838683" lon="15.492279">
      <ele>814</ele>
      <time>2026-05-07T09:02:46Z</time>
    </trkpt>
    <trkpt lat="50.838701" lon="15.492117">
      <ele>814</ele>
      <time>2026-05-07T09:03:01Z</time>
    </trkpt>
    <trkpt lat="50.838716" lon="15.491919">
      <ele>815</ele>
      <time>2026-05-07T09:03:20Z</time>
    </trkpt>
    <trkpt lat="50.838793" lon="15.491481">
      <ele>819</ele>
      <time>2026-05-07T09:04:03Z</time>
    </trkpt>
    <trkpt lat="50.838909" lon="15.491045">
      <ele>825</ele>
      <time>2026-05-07T09:04:48Z</time>
    </trkpt>
    <trkpt lat="50.838969" lon="15.49067">
      <ele>828</ele>
      <time>2026-05-07T09:05:24Z</time>
    </trkpt>
    <trkpt lat="50.838976" lon="15.490456">
      <ele>828</ele>
      <time>2026-05-07T09:05:44Z</time>
    </trkpt>
    <trkpt lat="50.838945" lon="15.490087">
      <ele>828</ele>
      <time>2026-05-07T09:06:19Z</time>
    </trkpt>
    <trkpt lat="50.83892" lon="15.489885">
      <ele>829</ele>
      <time>2026-05-07T09:06:38Z</time>
    </trkpt>
    <trkpt lat="50.83896" lon="15.489835">
      <ele>829</ele>
      <time>2026-05-07T09:06:46Z</time>
    </trkpt>
    <trkpt lat="50.83917" lon="15.488782">
      <ele>838</ele>
      <time>2026-05-07T09:08:29Z</time>
    </trkpt>
    <trkpt lat="50.839292" lon="15.488216">
      <ele>844</ele>
      <time>2026-05-07T09:09:26Z</time>
    </trkpt>
    <trkpt lat="50.839403" lon="15.487863">
      <ele>848</ele>
      <time>2026-05-07T09:10:03Z</time>
    </trkpt>
    <trkpt lat="50.839484" lon="15.487504">
      <ele>852</ele>
      <time>2026-05-07T09:10:39Z</time>
    </trkpt>
    <trkpt lat="50.839848" lon="15.486733">
      <ele>861</ele>
      <time>2026-05-07T09:12:10Z</time>
    </trkpt>
    <trkpt lat="50.839992" lon="15.486375">
      <ele>867</ele>
      <time>2026-05-07T09:12:50Z</time>
    </trkpt>
    <trkpt lat="50.840067" lon="15.486176">
      <ele>869</ele>
      <time>2026-05-07T09:13:12Z</time>
    </trkpt>
    <trkpt lat="50.840104" lon="15.48609">
      <ele>870</ele>
      <time>2026-05-07T09:13:22Z</time>
    </trkpt>
    <trkpt lat="50.840314" lon="15.485771">
      <ele>875</ele>
      <time>2026-05-07T09:14:05Z</time>
    </trkpt>
    <trkpt lat="50.840485" lon="15.485683">
      <ele>878</ele>
      <time>2026-05-07T09:14:32Z</time>
    </trkpt>
    <trkpt lat="50.840656" lon="15.485554">
      <ele>881</ele>
      <time>2026-05-07T09:15:00Z</time>
    </trkpt>
    <trkpt lat="50.840749" lon="15.485463">
      <ele>883</ele>
      <time>2026-05-07T09:15:17Z</time>
    </trkpt>
    <trkpt lat="50.840859" lon="15.485299">
      <ele>885</ele>
      <time>2026-05-07T09:15:39Z</time>
    </trkpt>
    <trkpt lat="50.841039" lon="15.484937">
      <ele>890</ele>
      <time>2026-05-07T09:16:23Z</time>
    </trkpt>
    <trkpt lat="50.841219" lon="15.484452">
      <ele>895</ele>
      <time>2026-05-07T09:17:15Z</time>
    </trkpt>
    <trkpt lat="50.841389" lon="15.483931">
      <ele>901</ele>
      <time>2026-05-07T09:18:11Z</time>
    </trkpt>
    <trkpt lat="50.841569" lon="15.483438">
      <ele>905</ele>
      <time>2026-05-07T09:19:04Z</time>
    </trkpt>
    <trkpt lat="50.841796" lon="15.482992">
      <ele>909</ele>
      <time>2026-05-07T09:19:58Z</time>
    </trkpt>
    <trkpt lat="50.841925" lon="15.482711">
      <ele>910</ele>
      <time>2026-05-07T09:20:30Z</time>
    </trkpt>
    <trkpt lat="50.842046" lon="15.482381">
      <ele>911</ele>
      <time>2026-05-07T09:21:06Z</time>
    </trkpt>
    <trkpt lat="50.842143" lon="15.482134">
      <ele>914</ele>
      <time>2026-05-07T09:21:33Z</time>
    </trkpt>
    <trkpt lat="50.842241" lon="15.481966">
      <ele>917</ele>
      <time>2026-05-07T09:21:55Z</time>
    </trkpt>
    <trkpt lat="50.842538" lon="15.481697">
      <ele>925</ele>
      <time>2026-05-07T09:22:47Z</time>
    </trkpt>
    <trkpt lat="50.842614" lon="15.481592">
      <ele>926</ele>
      <time>2026-05-07T09:23:02Z</time>
    </trkpt>
    <trkpt lat="50.842748" lon="15.481389">
      <ele>928</ele>
      <time>2026-05-07T09:23:29Z</time>
    </trkpt>
    <trkpt lat="50.842824" lon="15.4813">
      <ele>928</ele>
      <time>2026-05-07T09:23:43Z</time>
    </trkpt>
    <trkpt lat="50.843113" lon="15.48106">
      <ele>933</ele>
      <time>2026-05-07T09:24:32Z</time>
    </trkpt>
    <trkpt lat="50.843206" lon="15.480941">
      <ele>937</ele>
      <time>2026-05-07T09:24:50Z</time>
    </trkpt>
    <trkpt lat="50.843334" lon="15.480709">
      <ele>941</ele>
      <time>2026-05-07T09:25:20Z</time>
    </trkpt>
    <trkpt lat="50.843386" lon="15.48053">
      <ele>943</ele>
      <time>2026-05-07T09:25:38Z</time>
    </trkpt>
    <trkpt lat="50.843441" lon="15.480249">
      <ele>947</ele>
      <time>2026-05-07T09:26:06Z</time>
    </trkpt>
    <trkpt lat="50.843464" lon="15.480131">
      <ele>948</ele>
      <time>2026-05-07T09:26:18Z</time>
    </trkpt>
    <trkpt lat="50.843498" lon="15.480023">
      <ele>950</ele>
      <time>2026-05-07T09:26:29Z</time>
    </trkpt>
    <trkpt lat="50.8436" lon="15.479768">
      <ele>952</ele>
      <time>2026-05-07T09:26:58Z</time>
    </trkpt>
    <trkpt lat="50.843871" lon="15.479269">
      <ele>958</ele>
      <time>2026-05-07T09:27:59Z</time>
    </trkpt>
    <trkpt lat="50.843928" lon="15.479107">
      <ele>959</ele>
      <time>2026-05-07T09:28:17Z</time>
    </trkpt>
    <trkpt lat="50.844027" lon="15.478706">
      <ele>960</ele>
      <time>2026-05-07T09:28:57Z</time>
    </trkpt>
    <trkpt lat="50.844169" lon="15.478387">
      <ele>963</ele>
      <time>2026-05-07T09:29:34Z</time>
    </trkpt>
    <trkpt lat="50.844272" lon="15.478119">
      <ele>964</ele>
      <time>2026-05-07T09:30:03Z</time>
    </trkpt>
    <trkpt lat="50.84432" lon="15.477949">
      <ele>965</ele>
      <time>2026-05-07T09:30:20Z</time>
    </trkpt>
    <trkpt lat="50.844418" lon="15.477591">
      <ele>967</ele>
      <time>2026-05-07T09:30:57Z</time>
    </trkpt>
    <trkpt lat="50.844891" lon="15.4766">
      <ele>980</ele>
      <time>2026-05-07T09:32:54Z</time>
    </trkpt>
    <trkpt lat="50.844938" lon="15.476414">
      <ele>982</ele>
      <time>2026-05-07T09:33:13Z</time>
    </trkpt>
    <trkpt lat="50.845084" lon="15.475263">
      <ele>987</ele>
      <time>2026-05-07T09:35:03Z</time>
    </trkpt>
    <trkpt lat="50.845129" lon="15.474927">
      <ele>988</ele>
      <time>2026-05-07T09:35:35Z</time>
    </trkpt>
    <trkpt lat="50.845205" lon="15.474517">
      <ele>988</ele>
      <time>2026-05-07T09:36:15Z</time>
    </trkpt>
    <trkpt lat="50.845266" lon="15.474259">
      <ele>989</ele>
      <time>2026-05-07T09:36:41Z</time>
    </trkpt>
    <trkpt lat="50.84538" lon="15.473929">
      <ele>992</ele>
      <time>2026-05-07T09:37:16Z</time>
    </trkpt>
    <trkpt lat="50.845626" lon="15.473372">
      <ele>994</ele>
      <time>2026-05-07T09:38:19Z</time>
    </trkpt>
    <trkpt lat="50.845675" lon="15.473205">
      <ele>995</ele>
      <time>2026-05-07T09:38:37Z</time>
    </trkpt>
    <trkpt lat="50.84573" lon="15.472802">
      <ele>995</ele>
      <time>2026-05-07T09:39:15Z</time>
    </trkpt>
    <trkpt lat="50.845774" lon="15.472631">
      <ele>997</ele>
      <time>2026-05-07T09:39:32Z</time>
    </trkpt>
    <trkpt lat="50.845984" lon="15.472071">
      <ele>1000</ele>
      <time>2026-05-07T09:40:33Z</time>
    </trkpt>
    <trkpt lat="50.846217" lon="15.471633">
      <ele>1003</ele>
      <time>2026-05-07T09:41:27Z</time>
    </trkpt>
    <trkpt lat="50.846231" lon="15.471606">
      <ele>1003</ele>
      <time>2026-05-07T09:41:30Z</time>
    </trkpt>
    <trkpt lat="50.846258" lon="15.471545">
      <ele>1003</ele>
      <time>2026-05-07T09:41:37Z</time>
    </trkpt>
    <trkpt lat="50.846288" lon="15.471468">
      <ele>1003</ele>
      <time>2026-05-07T09:41:46Z</time>
    </trkpt>
    <trkpt lat="50.846335" lon="15.471303">
      <ele>1002</ele>
      <time>2026-05-07T09:42:02Z</time>
    </trkpt>
    <trkpt lat="50.846344" lon="15.471074">
      <ele>1002</ele>
      <time>2026-05-07T09:42:24Z</time>
    </trkpt>
    <trkpt lat="50.84632" lon="15.470861">
      <ele>1001</ele>
      <time>2026-05-07T09:42:44Z</time>
    </trkpt>
    <trkpt lat="50.846306" lon="15.470598">
      <ele>1001</ele>
      <time>2026-05-07T09:43:09Z</time>
    </trkpt>
    <trkpt lat="50.846343" lon="15.47012">
      <ele>1002</ele>
      <time>2026-05-07T09:43:54Z</time>
    </trkpt>
    <trkpt lat="50.846348" lon="15.469856">
      <ele>1002</ele>
      <time>2026-05-07T09:44:18Z</time>
    </trkpt>
    <trkpt lat="50.846296" lon="15.469081">
      <ele>999</ele>
      <time>2026-05-07T09:45:31Z</time>
    </trkpt>
    <trkpt lat="50.846296" lon="15.468888">
      <ele>998</ele>
      <time>2026-05-07T09:45:49Z</time>
    </trkpt>
    <trkpt lat="50.846303" lon="15.468715">
      <ele>998</ele>
      <time>2026-05-07T09:46:05Z</time>
    </trkpt>
    <trkpt lat="50.84636" lon="15.468167">
      <ele>998</ele>
      <time>2026-05-07T09:46:57Z</time>
    </trkpt>
    <trkpt lat="50.84639" lon="15.467982">
      <ele>998</ele>
      <time>2026-05-07T09:47:15Z</time>
    </trkpt>
    <trkpt lat="50.846417" lon="15.467844">
      <ele>998</ele>
      <time>2026-05-07T09:47:29Z</time>
    </trkpt>
    <trkpt lat="50.846525" lon="15.467468">
      <ele>998</ele>
      <time>2026-05-07T09:48:07Z</time>
    </trkpt>
    <trkpt lat="50.846559" lon="15.467318">
      <ele>998</ele>
      <time>2026-05-07T09:48:22Z</time>
    </trkpt>
    <trkpt lat="50.846578" lon="15.467178">
      <ele>998</ele>
      <time>2026-05-07T09:48:35Z</time>
    </trkpt>
    <trkpt lat="50.846614" lon="15.466794">
      <ele>997</ele>
      <time>2026-05-07T09:49:12Z</time>
    </trkpt>
    <trkpt lat="50.846618" lon="15.46659">
      <ele>997</ele>
      <time>2026-05-07T09:49:31Z</time>
    </trkpt>
    <trkpt lat="50.846595" lon="15.46605">
      <ele>997</ele>
      <time>2026-05-07T09:50:21Z</time>
    </trkpt>
    <trkpt lat="50.846591" lon="15.465718">
      <ele>997</ele>
      <time>2026-05-07T09:50:52Z</time>
    </trkpt>
    <trkpt lat="50.846607" lon="15.465453">
      <ele>997</ele>
      <time>2026-05-07T09:51:17Z</time>
    </trkpt>
    <trkpt lat="50.846794" lon="15.464191">
      <ele>999</ele>
      <time>2026-05-07T09:53:18Z</time>
    </trkpt>
    <trkpt lat="50.846779" lon="15.463901">
      <ele>999</ele>
      <time>2026-05-07T09:53:37Z</time>
    </trkpt>
    <trkpt lat="50.846745" lon="15.463709">
      <ele>998</ele>
      <time>2026-05-07T09:53:51Z</time>
    </trkpt>
    <trkpt lat="50.846597" lon="15.462983">
      <ele>995</ele>
      <time>2026-05-07T09:54:41Z</time>
    </trkpt>
    <trkpt lat="50.846489" lon="15.46228">
      <ele>992</ele>
      <time>2026-05-07T09:55:30Z</time>
    </trkpt>
    <trkpt lat="50.846406" lon="15.461831">
      <ele>991</ele>
      <time>2026-05-07T09:56:01Z</time>
    </trkpt>
    <trkpt lat="50.846345" lon="15.46102">
      <ele>988</ele>
      <time>2026-05-07T09:56:55Z</time>
    </trkpt>
    <trkpt lat="50.846352" lon="15.460703">
      <ele>988</ele>
      <time>2026-05-07T09:57:16Z</time>
    </trkpt>
    <trkpt lat="50.846485" lon="15.458703">
      <ele>990</ele>
      <time>2026-05-07T09:59:30Z</time>
    </trkpt>
    <trkpt lat="50.846548" lon="15.45764">
      <ele>994</ele>
      <time>2026-05-07T10:00:41Z</time>
    </trkpt>
    <trkpt lat="50.846583" lon="15.457055">
      <ele>996</ele>
      <time>2026-05-07T10:01:20Z</time>
    </trkpt>
    <trkpt lat="50.846716" lon="15.455162">
      <ele>1000</ele>
      <time>2026-05-07T10:03:27Z</time>
    </trkpt>
    <trkpt lat="50.846821" lon="15.454652">
      <ele>1002</ele>
      <time>2026-05-07T10:04:02Z</time>
    </trkpt>
    <trkpt lat="50.846964" lon="15.454003">
      <ele>1003</ele>
      <time>2026-05-07T10:04:48Z</time>
    </trkpt>
    <trkpt lat="50.847012" lon="15.453812">
      <ele>1004</ele>
      <time>2026-05-07T10:05:02Z</time>
    </trkpt>
    <trkpt lat="50.847073" lon="15.453486">
      <ele>1004</ele>
      <time>2026-05-07T10:05:24Z</time>
    </trkpt>
    <trkpt lat="50.847253" lon="15.452536">
      <ele>1004</ele>
      <time>2026-05-07T10:06:30Z</time>
    </trkpt>
    <trkpt lat="50.847278" lon="15.452411">
      <ele>1003</ele>
      <time>2026-05-07T10:06:39Z</time>
    </trkpt>
    <trkpt lat="50.847417" lon="15.451663">
      <ele>1002</ele>
      <time>2026-05-07T10:07:31Z</time>
    </trkpt>
    <trkpt lat="50.847515" lon="15.451251">
      <ele>1000</ele>
      <time>2026-05-07T10:08:00Z</time>
    </trkpt>
    <trkpt lat="50.847546" lon="15.451082">
      <ele>1000</ele>
      <time>2026-05-07T10:08:12Z</time>
    </trkpt>
    <trkpt lat="50.84756" lon="15.45083">
      <ele>999</ele>
      <time>2026-05-07T10:08:29Z</time>
    </trkpt>
    <trkpt lat="50.847556" lon="15.450681">
      <ele>999</ele>
      <time>2026-05-07T10:08:39Z</time>
    </trkpt>
    <trkpt lat="50.847543" lon="15.450339">
      <ele>998</ele>
      <time>2026-05-07T10:09:01Z</time>
    </trkpt>
    <trkpt lat="50.847548" lon="15.450225">
      <ele>998</ele>
      <time>2026-05-07T10:09:09Z</time>
    </trkpt>
    <trkpt lat="50.847564" lon="15.450118">
      <ele>999</ele>
      <time>2026-05-07T10:09:16Z</time>
    </trkpt>
    <trkpt lat="50.847571" lon="15.450016">
      <ele>999</ele>
      <time>2026-05-07T10:09:23Z</time>
    </trkpt>
    <trkpt lat="50.847573" lon="15.449932">
      <ele>999</ele>
      <time>2026-05-07T10:09:29Z</time>
    </trkpt>
    <trkpt lat="50.847585" lon="15.449809">
      <ele>998</ele>
      <time>2026-05-07T10:09:37Z</time>
    </trkpt>
    <trkpt lat="50.847602" lon="15.44972">
      <ele>998</ele>
      <time>2026-05-07T10:09:43Z</time>
    </trkpt>
    <trkpt lat="50.847625" lon="15.449653">
      <ele>998</ele>
      <time>2026-05-07T10:09:48Z</time>
    </trkpt>
    <trkpt lat="50.847657" lon="15.449558">
      <ele>999</ele>
      <time>2026-05-07T10:09:55Z</time>
    </trkpt>
    <trkpt lat="50.847696" lon="15.449413">
      <ele>999</ele>
      <time>2026-05-07T10:10:06Z</time>
    </trkpt>
    <trkpt lat="50.8478" lon="15.449068">
      <ele>999</ele>
      <time>2026-05-07T10:10:31Z</time>
    </trkpt>
    <trkpt lat="50.847833" lon="15.448959">
      <ele>999</ele>
      <time>2026-05-07T10:10:39Z</time>
    </trkpt>
    <trkpt lat="50.847875" lon="15.448843">
      <ele>999</ele>
      <time>2026-05-07T10:10:48Z</time>
    </trkpt>
    <trkpt lat="50.847974" lon="15.448614">
      <ele>1000</ele>
      <time>2026-05-07T10:11:07Z</time>
    </trkpt>
    <trkpt lat="50.848157" lon="15.448184">
      <ele>1003</ele>
      <time>2026-05-07T10:11:41Z</time>
    </trkpt>
    <trkpt lat="50.848367" lon="15.447673">
      <ele>1007</ele>
      <time>2026-05-07T10:12:22Z</time>
    </trkpt>
    <trkpt lat="50.848563" lon="15.447229">
      <ele>1007</ele>
      <time>2026-05-07T10:12:58Z</time>
    </trkpt>
    <trkpt lat="50.848638" lon="15.44707">
      <ele>1007</ele>
      <time>2026-05-07T10:13:11Z</time>
    </trkpt>
    <trkpt lat="50.848746" lon="15.446835">
      <ele>1007</ele>
      <time>2026-05-07T10:13:30Z</time>
    </trkpt>
    <trkpt lat="50.84886" lon="15.446518">
      <ele>1008</ele>
      <time>2026-05-07T10:13:55Z</time>
    </trkpt>
    <trkpt lat="50.849102" lon="15.445601">
      <ele>1014</ele>
      <time>2026-05-07T10:15:01Z</time>
    </trkpt>
    <trkpt lat="50.849186" lon="15.444944">
      <ele>1016</ele>
      <time>2026-05-07T10:15:46Z</time>
    </trkpt>
    <trkpt lat="50.849234" lon="15.444524">
      <ele>1018</ele>
      <time>2026-05-07T10:16:14Z</time>
    </trkpt>
    <trkpt lat="50.849239" lon="15.444307">
      <ele>1018</ele>
      <time>2026-05-07T10:16:28Z</time>
    </trkpt>
    <trkpt lat="50.849233" lon="15.444075">
      <ele>1019</ele>
      <time>2026-05-07T10:16:44Z</time>
    </trkpt>
    <trkpt lat="50.849222" lon="15.443717">
      <ele>1020</ele>
      <time>2026-05-07T10:17:08Z</time>
    </trkpt>
    <trkpt lat="50.849208" lon="15.443395">
      <ele>1022</ele>
      <time>2026-05-07T10:17:29Z</time>
    </trkpt>
    <trkpt lat="50.849186" lon="15.442897">
      <ele>1022</ele>
      <time>2026-05-07T10:18:03Z</time>
    </trkpt>
    <trkpt lat="50.849166" lon="15.442835">
      <ele>1022</ele>
      <time>2026-05-07T10:18:07Z</time>
    </trkpt>
    <trkpt lat="50.849108" lon="15.442658">
      <ele>1021</ele>
      <time>2026-05-07T10:18:20Z</time>
    </trkpt>
    <trkpt lat="50.84904" lon="15.442387">
      <ele>1020</ele>
      <time>2026-05-07T10:18:40Z</time>
    </trkpt>
    <trkpt lat="50.848987" lon="15.442035">
      <ele>1021</ele>
      <time>2026-05-07T10:19:04Z</time>
    </trkpt>
    <trkpt lat="50.848907" lon="15.441418">
      <ele>1021</ele>
      <time>2026-05-07T10:19:46Z</time>
    </trkpt>
    <trkpt lat="50.848826" lon="15.441013">
      <ele>1020</ele>
      <time>2026-05-07T10:20:14Z</time>
    </trkpt>
    <trkpt lat="50.848718" lon="15.440573">
      <ele>1016</ele>
      <time>2026-05-07T10:20:46Z</time>
    </trkpt>
    <trkpt lat="50.84856" lon="15.440018">
      <ele>1015</ele>
      <time>2026-05-07T10:21:26Z</time>
    </trkpt>
    <trkpt lat="50.848384" lon="15.439543">
      <ele>1013</ele>
      <time>2026-05-07T10:22:03Z</time>
    </trkpt>
    <trkpt lat="50.848238" lon="15.439291">
      <ele>1010</ele>
      <time>2026-05-07T10:22:26Z</time>
    </trkpt>
    <trkpt lat="50.848067" lon="15.439036">
      <ele>1006</ele>
      <time>2026-05-07T10:22:51Z</time>
    </trkpt>
    <trkpt lat="50.847837" lon="15.438704">
      <ele>1006</ele>
      <time>2026-05-07T10:23:23Z</time>
    </trkpt>
    <trkpt lat="50.847539" lon="15.438307">
      <ele>1005</ele>
      <time>2026-05-07T10:24:04Z</time>
    </trkpt>
    <trkpt lat="50.847285" lon="15.437964">
      <ele>1003</ele>
      <time>2026-05-07T10:24:40Z</time>
    </trkpt>
    <trkpt lat="50.847206" lon="15.437843">
      <ele>1003</ele>
      <time>2026-05-07T10:24:51Z</time>
    </trkpt>
    <trkpt lat="50.847119" lon="15.437653">
      <ele>1003</ele>
      <time>2026-05-07T10:25:07Z</time>
    </trkpt>
    <trkpt lat="50.846973" lon="15.437219">
      <ele>1004</ele>
      <time>2026-05-07T10:25:39Z</time>
    </trkpt>
    <trkpt lat="50.84688" lon="15.436922">
      <ele>1003</ele>
      <time>2026-05-07T10:26:02Z</time>
    </trkpt>
    <trkpt lat="50.846685" lon="15.435941">
      <ele>998</ele>
      <time>2026-05-07T10:27:10Z</time>
    </trkpt>
    <trkpt lat="50.846527" lon="15.434953">
      <ele>993</ele>
      <time>2026-05-07T10:28:18Z</time>
    </trkpt>
    <trkpt lat="50.84673" lon="15.434844">
      <ele>994</ele>
      <time>2026-05-07T10:28:53Z</time>
    </trkpt>
    <trkpt lat="50.846872" lon="15.434775">
      <ele>995</ele>
      <time>2026-05-07T10:29:18Z</time>
    </trkpt>
    <trkpt lat="50.846989" lon="15.434721">
      <ele>996</ele>
      <time>2026-05-07T10:29:38Z</time>
    </trkpt>
    <trkpt lat="50.8471" lon="15.434694">
      <ele>998</ele>
      <time>2026-05-07T10:29:57Z</time>
    </trkpt>
    <trkpt lat="50.84718" lon="15.434654">
      <ele>999</ele>
      <time>2026-05-07T10:30:11Z</time>
    </trkpt>
    <trkpt lat="50.847273" lon="15.434584">
      <ele>1000</ele>
      <time>2026-05-07T10:30:28Z</time>
    </trkpt>
    <trkpt lat="50.847356" lon="15.434546">
      <ele>1001</ele>
      <time>2026-05-07T10:30:42Z</time>
    </trkpt>
    <trkpt lat="50.847437" lon="15.434509">
      <ele>1002</ele>
      <time>2026-05-07T10:30:56Z</time>
    </trkpt>
    <trkpt lat="50.847529" lon="15.434444">
      <ele>1003</ele>
      <time>2026-05-07T10:31:13Z</time>
    </trkpt>
    <trkpt lat="50.847688" lon="15.434394">
      <ele>1005</ele>
      <time>2026-05-07T10:31:40Z</time>
    </trkpt>
    <trkpt lat="50.847783" lon="15.434329">
      <ele>1006</ele>
      <time>2026-05-07T10:31:57Z</time>
    </trkpt>
    <trkpt lat="50.847873" lon="15.434289">
      <ele>1007</ele>
      <time>2026-05-07T10:32:13Z</time>
    </trkpt>
    <trkpt lat="50.847981" lon="15.434249">
      <ele>1009</ele>
      <time>2026-05-07T10:32:31Z</time>
    </trkpt>
    <trkpt lat="50.848095" lon="15.434168">
      <ele>1012</ele>
      <time>2026-05-07T10:32:52Z</time>
    </trkpt>
    <trkpt lat="50.84821" lon="15.433986">
      <ele>1014</ele>
      <time>2026-05-07T10:33:19Z</time>
    </trkpt>
    <trkpt lat="50.848282" lon="15.433876">
      <ele>1015</ele>
      <time>2026-05-07T10:33:36Z</time>
    </trkpt>
    <trkpt lat="50.84846" lon="15.433702">
      <ele>1019</ele>
      <time>2026-05-07T10:34:11Z</time>
    </trkpt>
    <trkpt lat="50.848681" lon="15.433415">
      <ele>1022</ele>
      <time>2026-05-07T10:34:58Z</time>
    </trkpt>
    <trkpt lat="50.848745" lon="15.433251">
      <ele>1023</ele>
      <time>2026-05-07T10:35:18Z</time>
    </trkpt>
    <trkpt lat="50.848829" lon="15.43312">
      <ele>1025</ele>
      <time>2026-05-07T10:35:38Z</time>
    </trkpt>
    <trkpt lat="50.848975" lon="15.432992">
      <ele>1028</ele>
      <time>2026-05-07T10:36:06Z</time>
    </trkpt>
    <trkpt lat="50.849067" lon="15.432884">
      <ele>1029</ele>
      <time>2026-05-07T10:36:25Z</time>
    </trkpt>
    <trkpt lat="50.849151" lon="15.432735">
      <ele>1031</ele>
      <time>2026-05-07T10:36:46Z</time>
    </trkpt>
    <trkpt lat="50.849172" lon="15.432613">
      <ele>1030</ele>
      <time>2026-05-07T10:36:59Z</time>
    </trkpt>
    <trkpt lat="50.849222" lon="15.432564">
      <ele>1031</ele>
      <time>2026-05-07T10:37:09Z</time>
    </trkpt>
    <trkpt lat="50.849332" lon="15.432503">
      <ele>1032</ele>
      <time>2026-05-07T10:37:28Z</time>
    </trkpt>
    <trkpt lat="50.849414" lon="15.432414">
      <ele>1033</ele>
      <time>2026-05-07T10:37:44Z</time>
    </trkpt>
    <trkpt lat="50.849526" lon="15.432315">
      <ele>1034</ele>
      <time>2026-05-07T10:38:06Z</time>
    </trkpt>
    <trkpt lat="50.849624" lon="15.432267">
      <ele>1036</ele>
      <time>2026-05-07T10:38:23Z</time>
    </trkpt>
    <trkpt lat="50.84971" lon="15.432205">
      <ele>1037</ele>
      <time>2026-05-07T10:38:38Z</time>
    </trkpt>
    <trkpt lat="50.849792" lon="15.432083">
      <ele>1039</ele>
      <time>2026-05-07T10:38:57Z</time>
    </trkpt>
    <trkpt lat="50.849944" lon="15.43187">
      <ele>1042</ele>
      <time>2026-05-07T10:39:31Z</time>
    </trkpt>
    <trkpt lat="50.849986" lon="15.431827">
      <ele>1043</ele>
      <time>2026-05-07T10:39:39Z</time>
    </trkpt>
    <trkpt lat="50.85004" lon="15.431837">
      <ele>1044</ele>
      <time>2026-05-07T10:39:49Z</time>
    </trkpt>
    <trkpt lat="50.850096" lon="15.431845">
      <ele>1045</ele>
      <time>2026-05-07T10:39:58Z</time>
    </trkpt>
    <trkpt lat="50.850147" lon="15.431829">
      <ele>1046</ele>
      <time>2026-05-07T10:40:07Z</time>
    </trkpt>
    <trkpt lat="50.850219" lon="15.431765">
      <ele>1047</ele>
      <time>2026-05-07T10:40:20Z</time>
    </trkpt>
    <trkpt lat="50.850384" lon="15.431529">
      <ele>1050</ele>
      <time>2026-05-07T10:40:57Z</time>
    </trkpt>
    <trkpt lat="50.850462" lon="15.431416">
      <ele>1051</ele>
      <time>2026-05-07T10:41:15Z</time>
    </trkpt>
    <trkpt lat="50.850504" lon="15.431357">
      <ele>1051</ele>
      <time>2026-05-07T10:41:24Z</time>
    </trkpt>
    <trkpt lat="50.850547" lon="15.431287">
      <ele>1052</ele>
      <time>2026-05-07T10:41:34Z</time>
    </trkpt>
    <trkpt lat="50.850623" lon="15.431156">
      <ele>1053</ele>
      <time>2026-05-07T10:41:53Z</time>
    </trkpt>
    <trkpt lat="50.850802" lon="15.430704">
      <ele>1054</ele>
      <time>2026-05-07T10:42:49Z</time>
    </trkpt>
    <trkpt lat="50.850853" lon="15.43048">
      <ele>1054</ele>
      <time>2026-05-07T10:43:13Z</time>
    </trkpt>
    <trkpt lat="50.850909" lon="15.430311">
      <ele>1055</ele>
      <time>2026-05-07T10:43:33Z</time>
    </trkpt>
    <trkpt lat="50.850946" lon="15.430225">
      <ele>1056</ele>
      <time>2026-05-07T10:43:44Z</time>
    </trkpt>
    <trkpt lat="50.850983" lon="15.430016">
      <ele>1056</ele>
      <time>2026-05-07T10:44:07Z</time>
    </trkpt>
    <trkpt lat="50.851024" lon="15.429791">
      <ele>1058</ele>
      <time>2026-05-07T10:44:31Z</time>
    </trkpt>
    <trkpt lat="50.851085" lon="15.429603">
      <ele>1059</ele>
      <time>2026-05-07T10:44:53Z</time>
    </trkpt>
    <trkpt lat="50.85113" lon="15.429499">
      <ele>1059</ele>
      <time>2026-05-07T10:45:07Z</time>
    </trkpt>
    <trkpt lat="50.85117" lon="15.429258">
      <ele>1060</ele>
      <time>2026-05-07T10:45:33Z</time>
    </trkpt>
    <trkpt lat="50.851177" lon="15.429204">
      <ele>1060</ele>
      <time>2026-05-07T10:45:38Z</time>
    </trkpt>
    <trkpt lat="50.851156" lon="15.429096">
      <ele>1060</ele>
      <time>2026-05-07T10:45:50Z</time>
    </trkpt>
    <trkpt lat="50.851168" lon="15.428986">
      <ele>1060</ele>
      <time>2026-05-07T10:46:02Z</time>
    </trkpt>
    <trkpt lat="50.851207" lon="15.428933">
      <ele>1060</ele>
      <time>2026-05-07T10:46:10Z</time>
    </trkpt>
    <trkpt lat="50.851278" lon="15.428908">
      <ele>1061</ele>
      <time>2026-05-07T10:46:22Z</time>
    </trkpt>
    <trkpt lat="50.851346" lon="15.428841">
      <ele>1061</ele>
      <time>2026-05-07T10:46:36Z</time>
    </trkpt>
    <trkpt lat="50.851516" lon="15.428635">
      <ele>1062</ele>
      <time>2026-05-07T10:47:11Z</time>
    </trkpt>
    <trkpt lat="50.851653" lon="15.428868">
      <ele>1062</ele>
      <time>2026-05-07T10:47:44Z</time>
    </trkpt>
    <trkpt lat="50.851704" lon="15.42893">
      <ele>1062</ele>
      <time>2026-05-07T10:47:55Z</time>
    </trkpt>
    <trkpt lat="50.851758" lon="15.428949">
      <ele>1062</ele>
      <time>2026-05-07T10:48:04Z</time>
    </trkpt>
    <trkpt lat="50.851864" lon="15.428252">
      <ele>1065</ele>
      <time>2026-05-07T10:49:19Z</time>
    </trkpt>
    <trkpt lat="50.851985" lon="15.427152">
      <ele>1072</ele>
      <time>2026-05-07T10:51:16Z</time>
    </trkpt>
    <trkpt lat="50.852057" lon="15.42688">
      <ele>1074</ele>
      <time>2026-05-07T10:51:46Z</time>
    </trkpt>
    <trkpt lat="50.852125" lon="15.426667">
      <ele>1075</ele>
      <time>2026-05-07T10:52:11Z</time>
    </trkpt>
    <trkpt lat="50.852216" lon="15.426419">
      <ele>1077</ele>
      <time>2026-05-07T10:52:41Z</time>
    </trkpt>
    <trkpt lat="50.852282" lon="15.426211">
      <ele>1079</ele>
      <time>2026-05-07T10:53:06Z</time>
    </trkpt>
    <trkpt lat="50.852455" lon="15.425155">
      <ele>1088</ele>
      <time>2026-05-07T10:55:00Z</time>
    </trkpt>
    <trkpt lat="50.85249" lon="15.424588">
      <ele>1091</ele>
      <time>2026-05-07T10:56:00Z</time>
    </trkpt>
    <trkpt lat="50.8525" lon="15.424416">
      <ele>1092</ele>
      <time>2026-05-07T10:56:18Z</time>
    </trkpt>
    <trkpt lat="50.85249" lon="15.424588">
      <ele>1091</ele>
      <time>2026-05-07T10:56:28Z</time>
    </trkpt>
    <trkpt lat="50.852455" lon="15.425155">
      <ele>1088</ele>
      <time>2026-05-07T10:57:00Z</time>
    </trkpt>
    <trkpt lat="50.852282" lon="15.426211">
      <ele>1079</ele>
      <time>2026-05-07T10:58:01Z</time>
    </trkpt>
    <trkpt lat="50.852216" lon="15.426419">
      <ele>1077</ele>
      <time>2026-05-07T10:58:14Z</time>
    </trkpt>
    <trkpt lat="50.852125" lon="15.426667">
      <ele>1075</ele>
      <time>2026-05-07T10:58:30Z</time>
    </trkpt>
    <trkpt lat="50.852057" lon="15.42688">
      <ele>1074</ele>
      <time>2026-05-07T10:58:43Z</time>
    </trkpt>
    <trkpt lat="50.851985" lon="15.427152">
      <ele>1072</ele>
      <time>2026-05-07T10:59:00Z</time>
    </trkpt>
    <trkpt lat="50.851864" lon="15.428252">
      <ele>1065</ele>
      <time>2026-05-07T11:00:03Z</time>
    </trkpt>
    <trkpt lat="50.851758" lon="15.428949">
      <ele>1062</ele>
      <time>2026-05-07T11:00:43Z</time>
    </trkpt>
    <trkpt lat="50.851704" lon="15.42893">
      <ele>1062</ele>
      <time>2026-05-07T11:00:48Z</time>
    </trkpt>
    <trkpt lat="50.851653" lon="15.428868">
      <ele>1062</ele>
      <time>2026-05-07T11:00:53Z</time>
    </trkpt>
    <trkpt lat="50.851516" lon="15.428635">
      <ele>1062</ele>
      <time>2026-05-07T11:01:11Z</time>
    </trkpt>
    <trkpt lat="50.851346" lon="15.428841">
      <ele>1061</ele>
      <time>2026-05-07T11:01:30Z</time>
    </trkpt>
    <trkpt lat="50.851278" lon="15.428908">
      <ele>1061</ele>
      <time>2026-05-07T11:01:37Z</time>
    </trkpt>
    <trkpt lat="50.851207" lon="15.428933">
      <ele>1060</ele>
      <time>2026-05-07T11:01:44Z</time>
    </trkpt>
    <trkpt lat="50.851168" lon="15.428986">
      <ele>1060</ele>
      <time>2026-05-07T11:01:48Z</time>
    </trkpt>
    <trkpt lat="50.851156" lon="15.429096">
      <ele>1060</ele>
      <time>2026-05-07T11:01:54Z</time>
    </trkpt>
    <trkpt lat="50.851177" lon="15.429204">
      <ele>1060</ele>
      <time>2026-05-07T11:02:01Z</time>
    </trkpt>
    <trkpt lat="50.85117" lon="15.429258">
      <ele>1060</ele>
      <time>2026-05-07T11:02:04Z</time>
    </trkpt>
    <trkpt lat="50.85113" lon="15.429499">
      <ele>1059</ele>
      <time>2026-05-07T11:02:18Z</time>
    </trkpt>
    <trkpt lat="50.851085" lon="15.429603">
      <ele>1059</ele>
      <time>2026-05-07T11:02:25Z</time>
    </trkpt>
    <trkpt lat="50.851024" lon="15.429791">
      <ele>1058</ele>
      <time>2026-05-07T11:02:37Z</time>
    </trkpt>
    <trkpt lat="50.850983" lon="15.430016">
      <ele>1056</ele>
      <time>2026-05-07T11:02:50Z</time>
    </trkpt>
    <trkpt lat="50.850946" lon="15.430225">
      <ele>1056</ele>
      <time>2026-05-07T11:03:02Z</time>
    </trkpt>
    <trkpt lat="50.850909" lon="15.430311">
      <ele>1055</ele>
      <time>2026-05-07T11:03:08Z</time>
    </trkpt>
    <trkpt lat="50.850853" lon="15.43048">
      <ele>1054</ele>
      <time>2026-05-07T11:03:18Z</time>
    </trkpt>
    <trkpt lat="50.850802" lon="15.430704">
      <ele>1054</ele>
      <time>2026-05-07T11:03:32Z</time>
    </trkpt>
    <trkpt lat="50.850623" lon="15.431156">
      <ele>1053</ele>
      <time>2026-05-07T11:04:01Z</time>
    </trkpt>
    <trkpt lat="50.850547" lon="15.431287">
      <ele>1052</ele>
      <time>2026-05-07T11:04:11Z</time>
    </trkpt>
    <trkpt lat="50.850504" lon="15.431357">
      <ele>1051</ele>
      <time>2026-05-07T11:04:17Z</time>
    </trkpt>
    <trkpt lat="50.850462" lon="15.431416">
      <ele>1051</ele>
      <time>2026-05-07T11:04:22Z</time>
    </trkpt>
    <trkpt lat="50.850384" lon="15.431529">
      <ele>1050</ele>
      <time>2026-05-07T11:04:31Z</time>
    </trkpt>
    <trkpt lat="50.850219" lon="15.431765">
      <ele>1047</ele>
      <time>2026-05-07T11:04:51Z</time>
    </trkpt>
    <trkpt lat="50.850147" lon="15.431829">
      <ele>1046</ele>
      <time>2026-05-07T11:04:58Z</time>
    </trkpt>
    <trkpt lat="50.850096" lon="15.431845">
      <ele>1045</ele>
      <time>2026-05-07T11:05:03Z</time>
    </trkpt>
    <trkpt lat="50.85004" lon="15.431837">
      <ele>1044</ele>
      <time>2026-05-07T11:05:08Z</time>
    </trkpt>
    <trkpt lat="50.849986" lon="15.431827">
      <ele>1043</ele>
      <time>2026-05-07T11:05:13Z</time>
    </trkpt>
    <trkpt lat="50.849944" lon="15.43187">
      <ele>1042</ele>
      <time>2026-05-07T11:05:17Z</time>
    </trkpt>
    <trkpt lat="50.849792" lon="15.432083">
      <ele>1039</ele>
      <time>2026-05-07T11:05:36Z</time>
    </trkpt>
    <trkpt lat="50.84971" lon="15.432205">
      <ele>1037</ele>
      <time>2026-05-07T11:05:46Z</time>
    </trkpt>
    <trkpt lat="50.849624" lon="15.432267">
      <ele>1036</ele>
      <time>2026-05-07T11:05:54Z</time>
    </trkpt>
    <trkpt lat="50.849526" lon="15.432315">
      <ele>1034</ele>
      <time>2026-05-07T11:06:03Z</time>
    </trkpt>
    <trkpt lat="50.849414" lon="15.432414">
      <ele>1033</ele>
      <time>2026-05-07T11:06:15Z</time>
    </trkpt>
    <trkpt lat="50.849332" lon="15.432503">
      <ele>1032</ele>
      <time>2026-05-07T11:06:23Z</time>
    </trkpt>
    <trkpt lat="50.849222" lon="15.432564">
      <ele>1031</ele>
      <time>2026-05-07T11:06:34Z</time>
    </trkpt>
    <trkpt lat="50.849172" lon="15.432613">
      <ele>1030</ele>
      <time>2026-05-07T11:06:39Z</time>
    </trkpt>
    <trkpt lat="50.849151" lon="15.432735">
      <ele>1031</ele>
      <time>2026-05-07T11:06:46Z</time>
    </trkpt>
    <trkpt lat="50.849067" lon="15.432884">
      <ele>1029</ele>
      <time>2026-05-07T11:06:57Z</time>
    </trkpt>
    <trkpt lat="50.848975" lon="15.432992">
      <ele>1028</ele>
      <time>2026-05-07T11:07:07Z</time>
    </trkpt>
    <trkpt lat="50.848829" lon="15.43312">
      <ele>1025</ele>
      <time>2026-05-07T11:07:22Z</time>
    </trkpt>
    <trkpt lat="50.848745" lon="15.433251">
      <ele>1023</ele>
      <time>2026-05-07T11:07:33Z</time>
    </trkpt>
    <trkpt lat="50.848681" lon="15.433415">
      <ele>1022</ele>
      <time>2026-05-07T11:07:44Z</time>
    </trkpt>
    <trkpt lat="50.84846" lon="15.433702">
      <ele>1019</ele>
      <time>2026-05-07T11:08:09Z</time>
    </trkpt>
    <trkpt lat="50.848282" lon="15.433876">
      <ele>1015</ele>
      <time>2026-05-07T11:08:28Z</time>
    </trkpt>
    <trkpt lat="50.84821" lon="15.433986">
      <ele>1014</ele>
      <time>2026-05-07T11:08:37Z</time>
    </trkpt>
    <trkpt lat="50.848095" lon="15.434168">
      <ele>1012</ele>
      <time>2026-05-07T11:08:51Z</time>
    </trkpt>
    <trkpt lat="50.847981" lon="15.434249">
      <ele>1009</ele>
      <time>2026-05-07T11:09:02Z</time>
    </trkpt>
    <trkpt lat="50.847873" lon="15.434289">
      <ele>1007</ele>
      <time>2026-05-07T11:09:12Z</time>
    </trkpt>
    <trkpt lat="50.847783" lon="15.434329">
      <ele>1006</ele>
      <time>2026-05-07T11:09:21Z</time>
    </trkpt>
    <trkpt lat="50.847688" lon="15.434394">
      <ele>1005</ele>
      <time>2026-05-07T11:09:30Z</time>
    </trkpt>
    <trkpt lat="50.847529" lon="15.434444">
      <ele>1003</ele>
      <time>2026-05-07T11:09:44Z</time>
    </trkpt>
    <trkpt lat="50.847437" lon="15.434509">
      <ele>1002</ele>
      <time>2026-05-07T11:09:53Z</time>
    </trkpt>
    <trkpt lat="50.847356" lon="15.434546">
      <ele>1001</ele>
      <time>2026-05-07T11:10:01Z</time>
    </trkpt>
    <trkpt lat="50.847273" lon="15.434584">
      <ele>1000</ele>
      <time>2026-05-07T11:10:08Z</time>
    </trkpt>
    <trkpt lat="50.84718" lon="15.434654">
      <ele>999</ele>
      <time>2026-05-07T11:10:18Z</time>
    </trkpt>
    <trkpt lat="50.8471" lon="15.434694">
      <ele>998</ele>
      <time>2026-05-07T11:10:25Z</time>
    </trkpt>
    <trkpt lat="50.846989" lon="15.434721">
      <ele>996</ele>
      <time>2026-05-07T11:10:35Z</time>
    </trkpt>
    <trkpt lat="50.846872" lon="15.434775">
      <ele>995</ele>
      <time>2026-05-07T11:10:46Z</time>
    </trkpt>
    <trkpt lat="50.84673" lon="15.434844">
      <ele>994</ele>
      <time>2026-05-07T11:10:59Z</time>
    </trkpt>
    <trkpt lat="50.846527" lon="15.434953">
      <ele>993</ele>
      <time>2026-05-07T11:11:18Z</time>
    </trkpt>
    <trkpt lat="50.846685" lon="15.435941">
      <ele>998</ele>
      <time>2026-05-07T11:12:36Z</time>
    </trkpt>
    <trkpt lat="50.84688" lon="15.436922">
      <ele>1003</ele>
      <time>2026-05-07T11:13:54Z</time>
    </trkpt>
    <trkpt lat="50.846973" lon="15.437219">
      <ele>1004</ele>
      <time>2026-05-07T11:14:19Z</time>
    </trkpt>
    <trkpt lat="50.847119" lon="15.437653">
      <ele>1003</ele>
      <time>2026-05-07T11:14:57Z</time>
    </trkpt>
    <trkpt lat="50.847206" lon="15.437843">
      <ele>1003</ele>
      <time>2026-05-07T11:15:14Z</time>
    </trkpt>
    <trkpt lat="50.847285" lon="15.437964">
      <ele>1003</ele>
      <time>2026-05-07T11:15:28Z</time>
    </trkpt>
    <trkpt lat="50.847539" lon="15.438307">
      <ele>1005</ele>
      <time>2026-05-07T11:16:08Z</time>
    </trkpt>
    <trkpt lat="50.847837" lon="15.438704">
      <ele>1006</ele>
      <time>2026-05-07T11:16:55Z</time>
    </trkpt>
    <trkpt lat="50.848067" lon="15.439036">
      <ele>1006</ele>
      <time>2026-05-07T11:17:32Z</time>
    </trkpt>
    <trkpt lat="50.848238" lon="15.439291">
      <ele>1010</ele>
      <time>2026-05-07T11:18:01Z</time>
    </trkpt>
    <trkpt lat="50.848384" lon="15.439543">
      <ele>1013</ele>
      <time>2026-05-07T11:18:27Z</time>
    </trkpt>
    <trkpt lat="50.84856" lon="15.440018">
      <ele>1015</ele>
      <time>2026-05-07T11:19:09Z</time>
    </trkpt>
    <trkpt lat="50.848718" lon="15.440573">
      <ele>1016</ele>
      <time>2026-05-07T11:19:55Z</time>
    </trkpt>
    <trkpt lat="50.848826" lon="15.441013">
      <ele>1020</ele>
      <time>2026-05-07T11:20:31Z</time>
    </trkpt>
    <trkpt lat="50.848907" lon="15.441418">
      <ele>1021</ele>
      <time>2026-05-07T11:21:03Z</time>
    </trkpt>
    <trkpt lat="50.848987" lon="15.442035">
      <ele>1021</ele>
      <time>2026-05-07T11:21:51Z</time>
    </trkpt>
    <trkpt lat="50.84904" lon="15.442387">
      <ele>1020</ele>
      <time>2026-05-07T11:22:19Z</time>
    </trkpt>
    <trkpt lat="50.849108" lon="15.442658">
      <ele>1021</ele>
      <time>2026-05-07T11:22:41Z</time>
    </trkpt>
    <trkpt lat="50.849166" lon="15.442835">
      <ele>1022</ele>
      <time>2026-05-07T11:22:56Z</time>
    </trkpt>
    <trkpt lat="50.849186" lon="15.442897">
      <ele>1022</ele>
      <time>2026-05-07T11:23:01Z</time>
    </trkpt>
    <trkpt lat="50.849208" lon="15.443395">
      <ele>1022</ele>
      <time>2026-05-07T11:23:39Z</time>
    </trkpt>
    <trkpt lat="50.849222" lon="15.443717">
      <ele>1020</ele>
      <time>2026-05-07T11:24:04Z</time>
    </trkpt>
    <trkpt lat="50.849233" lon="15.444075">
      <ele>1019</ele>
      <time>2026-05-07T11:24:31Z</time>
    </trkpt>
    <trkpt lat="50.849239" lon="15.444307">
      <ele>1018</ele>
      <time>2026-05-07T11:24:49Z</time>
    </trkpt>
    <trkpt lat="50.849234" lon="15.444524">
      <ele>1018</ele>
      <time>2026-05-07T11:25:05Z</time>
    </trkpt>
    <trkpt lat="50.849186" lon="15.444944">
      <ele>1016</ele>
      <time>2026-05-07T11:25:38Z</time>
    </trkpt>
    <trkpt lat="50.849102" lon="15.445601">
      <ele>1014</ele>
      <time>2026-05-07T11:26:29Z</time>
    </trkpt>
    <trkpt lat="50.84886" lon="15.446518">
      <ele>1008</ele>
      <time>2026-05-07T11:27:45Z</time>
    </trkpt>
    <trkpt lat="50.848746" lon="15.446835">
      <ele>1007</ele>
      <time>2026-05-07T11:28:12Z</time>
    </trkpt>
    <trkpt lat="50.848638" lon="15.44707">
      <ele>1007</ele>
      <time>2026-05-07T11:28:34Z</time>
    </trkpt>
    <trkpt lat="50.848563" lon="15.447229">
      <ele>1007</ele>
      <time>2026-05-07T11:28:49Z</time>
    </trkpt>
    <trkpt lat="50.848367" lon="15.447673">
      <ele>1007</ele>
      <time>2026-05-07T11:29:31Z</time>
    </trkpt>
    <trkpt lat="50.848157" lon="15.448184">
      <ele>1003</ele>
      <time>2026-05-07T11:30:17Z</time>
    </trkpt>
    <trkpt lat="50.847974" lon="15.448614">
      <ele>1000</ele>
      <time>2026-05-07T11:30:57Z</time>
    </trkpt>
    <trkpt lat="50.847875" lon="15.448843">
      <ele>999</ele>
      <time>2026-05-07T11:31:18Z</time>
    </trkpt>
    <trkpt lat="50.847833" lon="15.448959">
      <ele>999</ele>
      <time>2026-05-07T11:31:28Z</time>
    </trkpt>
    <trkpt lat="50.8478" lon="15.449068">
      <ele>999</ele>
      <time>2026-05-07T11:31:37Z</time>
    </trkpt>
    <trkpt lat="50.847696" lon="15.449413">
      <ele>999</ele>
      <time>2026-05-07T11:32:06Z</time>
    </trkpt>
    <trkpt lat="50.847657" lon="15.449558">
      <ele>999</ele>
      <time>2026-05-07T11:32:18Z</time>
    </trkpt>
    <trkpt lat="50.847625" lon="15.449653">
      <ele>998</ele>
      <time>2026-05-07T11:32:26Z</time>
    </trkpt>
    <trkpt lat="50.847602" lon="15.44972">
      <ele>998</ele>
      <time>2026-05-07T11:32:32Z</time>
    </trkpt>
    <trkpt lat="50.847585" lon="15.449809">
      <ele>998</ele>
      <time>2026-05-07T11:32:39Z</time>
    </trkpt>
    <trkpt lat="50.847573" lon="15.449932">
      <ele>999</ele>
      <time>2026-05-07T11:32:49Z</time>
    </trkpt>
    <trkpt lat="50.847571" lon="15.450016">
      <ele>999</ele>
      <time>2026-05-07T11:32:55Z</time>
    </trkpt>
    <trkpt lat="50.847564" lon="15.450118">
      <ele>999</ele>
      <time>2026-05-07T11:33:03Z</time>
    </trkpt>
    <trkpt lat="50.847548" lon="15.450225">
      <ele>998</ele>
      <time>2026-05-07T11:33:11Z</time>
    </trkpt>
    <trkpt lat="50.847543" lon="15.450339">
      <ele>998</ele>
      <time>2026-05-07T11:33:20Z</time>
    </trkpt>
    <trkpt lat="50.847556" lon="15.450681">
      <ele>999</ele>
      <time>2026-05-07T11:33:46Z</time>
    </trkpt>
    <trkpt lat="50.84756" lon="15.45083">
      <ele>999</ele>
      <time>2026-05-07T11:33:57Z</time>
    </trkpt>
    <trkpt lat="50.847546" lon="15.451082">
      <ele>1000</ele>
      <time>2026-05-07T11:34:16Z</time>
    </trkpt>
    <trkpt lat="50.847515" lon="15.451251">
      <ele>1000</ele>
      <time>2026-05-07T11:34:30Z</time>
    </trkpt>
    <trkpt lat="50.847417" lon="15.451663">
      <ele>1002</ele>
      <time>2026-05-07T11:35:03Z</time>
    </trkpt>
    <trkpt lat="50.847278" lon="15.452411">
      <ele>1003</ele>
      <time>2026-05-07T11:36:03Z</time>
    </trkpt>
    <trkpt lat="50.847253" lon="15.452536">
      <ele>1004</ele>
      <time>2026-05-07T11:36:13Z</time>
    </trkpt>
    <trkpt lat="50.847073" lon="15.453486">
      <ele>1004</ele>
      <time>2026-05-07T11:37:28Z</time>
    </trkpt>
    <trkpt lat="50.847012" lon="15.453812">
      <ele>1004</ele>
      <time>2026-05-07T11:37:54Z</time>
    </trkpt>
    <trkpt lat="50.846964" lon="15.454003">
      <ele>1003</ele>
      <time>2026-05-07T11:38:09Z</time>
    </trkpt>
    <trkpt lat="50.846821" lon="15.454652">
      <ele>1002</ele>
      <time>2026-05-07T11:39:02Z</time>
    </trkpt>
    <trkpt lat="50.846716" lon="15.455162">
      <ele>1000</ele>
      <time>2026-05-07T11:39:42Z</time>
    </trkpt>
    <trkpt lat="50.846583" lon="15.457055">
      <ele>996</ele>
      <time>2026-05-07T11:42:07Z</time>
    </trkpt>
    <trkpt lat="50.846548" lon="15.45764">
      <ele>994</ele>
      <time>2026-05-07T11:42:52Z</time>
    </trkpt>
    <trkpt lat="50.846485" lon="15.458703">
      <ele>990</ele>
      <time>2026-05-07T11:44:13Z</time>
    </trkpt>
    <trkpt lat="50.846352" lon="15.460703">
      <ele>988</ele>
      <time>2026-05-07T11:46:46Z</time>
    </trkpt>
    <trkpt lat="50.846345" lon="15.46102">
      <ele>988</ele>
      <time>2026-05-07T11:47:10Z</time>
    </trkpt>
    <trkpt lat="50.846406" lon="15.461831">
      <ele>991</ele>
      <time>2026-05-07T11:48:12Z</time>
    </trkpt>
    <trkpt lat="50.846489" lon="15.46228">
      <ele>992</ele>
      <time>2026-05-07T11:48:48Z</time>
    </trkpt>
    <trkpt lat="50.846597" lon="15.462983">
      <ele>995</ele>
      <time>2026-05-07T11:49:43Z</time>
    </trkpt>
    <trkpt lat="50.846745" lon="15.463709">
      <ele>998</ele>
      <time>2026-05-07T11:50:41Z</time>
    </trkpt>
    <trkpt lat="50.846779" lon="15.463901">
      <ele>999</ele>
      <time>2026-05-07T11:50:56Z</time>
    </trkpt>
    <trkpt lat="50.846794" lon="15.464191">
      <ele>999</ele>
      <time>2026-05-07T11:51:18Z</time>
    </trkpt>
    <trkpt lat="50.846972" lon="15.464125">
      <ele>1001</ele>
      <time>2026-05-07T11:51:40Z</time>
    </trkpt>
    <trkpt lat="50.847117" lon="15.464056">
      <ele>1001</ele>
      <time>2026-05-07T11:51:57Z</time>
    </trkpt>
    <trkpt lat="50.847239" lon="15.464027">
      <ele>1001</ele>
      <time>2026-05-07T11:52:12Z</time>
    </trkpt>
    <trkpt lat="50.847453" lon="15.464023">
      <ele>1002</ele>
      <time>2026-05-07T11:52:37Z</time>
    </trkpt>
    <trkpt lat="50.847585" lon="15.463992">
      <ele>1003</ele>
      <time>2026-05-07T11:52:53Z</time>
    </trkpt>
    <trkpt lat="50.847627" lon="15.463951">
      <ele>1003</ele>
      <time>2026-05-07T11:52:59Z</time>
    </trkpt>
    <trkpt lat="50.847686" lon="15.463847">
      <ele>1002</ele>
      <time>2026-05-07T11:53:09Z</time>
    </trkpt>
    <trkpt lat="50.847784" lon="15.463645">
      <ele>1002</ele>
      <time>2026-05-07T11:53:28Z</time>
    </trkpt>
    <trkpt lat="50.847951" lon="15.463281">
      <ele>1001</ele>
      <time>2026-05-07T11:54:02Z</time>
    </trkpt>
    <trkpt lat="50.848048" lon="15.463127">
      <ele>1000</ele>
      <time>2026-05-07T11:54:18Z</time>
    </trkpt>
    <trkpt lat="50.847708" lon="15.46731">
      <ele>1009</ele>
      <time>2026-05-07T11:59:14Z</time>
    </trkpt>
    <trkpt lat="50.84748" lon="15.47018">
      <ele>1012</ele>
      <time>2026-05-07T12:02:37Z</time>
    </trkpt>
    <trkpt lat="50.847454" lon="15.4705">
      <ele>1011</ele>
      <time>2026-05-07T12:03:00Z</time>
    </trkpt>
    <trkpt lat="50.847378" lon="15.471488">
      <ele>1010</ele>
      <time>2026-05-07T12:04:10Z</time>
    </trkpt>
    <trkpt lat="50.847235" lon="15.473426">
      <ele>1016</ele>
      <time>2026-05-07T12:06:27Z</time>
    </trkpt>
    <trkpt lat="50.846992" lon="15.476712">
      <ele>1013</ele>
      <time>2026-05-07T12:10:19Z</time>
    </trkpt>
    <trkpt lat="50.846902" lon="15.477832">
      <ele>1015</ele>
      <time>2026-05-07T12:11:38Z</time>
    </trkpt>
    <trkpt lat="50.846868" lon="15.478218">
      <ele>1016</ele>
      <time>2026-05-07T12:12:06Z</time>
    </trkpt>
    <trkpt lat="50.846841" lon="15.478556">
      <ele>1017</ele>
      <time>2026-05-07T12:12:30Z</time>
    </trkpt>
    <trkpt lat="50.846848" lon="15.478757">
      <ele>1019</ele>
      <time>2026-05-07T12:12:44Z</time>
    </trkpt>
    <trkpt lat="50.846823" lon="15.478874">
      <ele>1019</ele>
      <time>2026-05-07T12:12:53Z</time>
    </trkpt>
    <trkpt lat="50.846801" lon="15.479114">
      <ele>1020</ele>
      <time>2026-05-07T12:13:10Z</time>
    </trkpt>
    <trkpt lat="50.846768" lon="15.479457">
      <ele>1021</ele>
      <time>2026-05-07T12:13:34Z</time>
    </trkpt>
    <trkpt lat="50.846755" lon="15.479661">
      <ele>1022</ele>
      <time>2026-05-07T12:13:48Z</time>
    </trkpt>
    <trkpt lat="50.846735" lon="15.479793">
      <ele>1023</ele>
      <time>2026-05-07T12:13:58Z</time>
    </trkpt>
    <trkpt lat="50.846703" lon="15.479963">
      <ele>1024</ele>
      <time>2026-05-07T12:14:10Z</time>
    </trkpt>
    <trkpt lat="50.846692" lon="15.48014">
      <ele>1024</ele>
      <time>2026-05-07T12:14:23Z</time>
    </trkpt>
    <trkpt lat="50.846681" lon="15.480302">
      <ele>1024</ele>
      <time>2026-05-07T12:14:34Z</time>
    </trkpt>
    <trkpt lat="50.846668" lon="15.480498">
      <ele>1025</ele>
      <time>2026-05-07T12:14:48Z</time>
    </trkpt>
    <trkpt lat="50.846635" lon="15.48087">
      <ele>1024</ele>
      <time>2026-05-07T12:15:15Z</time>
    </trkpt>
    <trkpt lat="50.84663" lon="15.480993">
      <ele>1023</ele>
      <time>2026-05-07T12:15:23Z</time>
    </trkpt>
    <trkpt lat="50.846582" lon="15.481327">
      <ele>1023</ele>
      <time>2026-05-07T12:15:47Z</time>
    </trkpt>
    <trkpt lat="50.846526" lon="15.481949">
      <ele>1024</ele>
      <time>2026-05-07T12:16:31Z</time>
    </trkpt>
    <trkpt lat="50.846463" lon="15.482552">
      <ele>1025</ele>
      <time>2026-05-07T12:17:14Z</time>
    </trkpt>
    <trkpt lat="50.846398" lon="15.4831">
      <ele>1025</ele>
      <time>2026-05-07T12:17:53Z</time>
    </trkpt>
    <trkpt lat="50.846323" lon="15.483827">
      <ele>1022</ele>
      <time>2026-05-07T12:18:45Z</time>
    </trkpt>
    <trkpt lat="50.846286" lon="15.484111">
      <ele>1022</ele>
      <time>2026-05-07T12:19:06Z</time>
    </trkpt>
    <trkpt lat="50.846239" lon="15.484352">
      <ele>1022</ele>
      <time>2026-05-07T12:19:23Z</time>
    </trkpt>
    <trkpt lat="50.846163" lon="15.484512">
      <ele>1022</ele>
      <time>2026-05-07T12:19:37Z</time>
    </trkpt>
    <trkpt lat="50.845983" lon="15.484832">
      <ele>1022</ele>
      <time>2026-05-07T12:20:07Z</time>
    </trkpt>
    <trkpt lat="50.845886" lon="15.484983">
      <ele>1022</ele>
      <time>2026-05-07T12:20:23Z</time>
    </trkpt>
    <trkpt lat="50.845741" lon="15.48542">
      <ele>1024</ele>
      <time>2026-05-07T12:20:57Z</time>
    </trkpt>
    <trkpt lat="50.845647" lon="15.485703">
      <ele>1024</ele>
      <time>2026-05-07T12:21:20Z</time>
    </trkpt>
    <trkpt lat="50.845612" lon="15.48594">
      <ele>1025</ele>
      <time>2026-05-07T12:21:37Z</time>
    </trkpt>
    <trkpt lat="50.845646" lon="15.486132">
      <ele>1027</ele>
      <time>2026-05-07T12:21:51Z</time>
    </trkpt>
    <trkpt lat="50.84583" lon="15.486729">
      <ele>1034</ele>
      <time>2026-05-07T12:22:38Z</time>
    </trkpt>
    <trkpt lat="50.845947" lon="15.48711">
      <ele>1035</ele>
      <time>2026-05-07T12:23:08Z</time>
    </trkpt>
    <trkpt lat="50.845979" lon="15.48732">
      <ele>1035</ele>
      <time>2026-05-07T12:23:23Z</time>
    </trkpt>
    <trkpt lat="50.845912" lon="15.487963">
      <ele>1035</ele>
      <time>2026-05-07T12:24:09Z</time>
    </trkpt>
    <trkpt lat="50.845801" lon="15.48888">
      <ele>1038</ele>
      <time>2026-05-07T12:25:14Z</time>
    </trkpt>
    <trkpt lat="50.845773" lon="15.489028">
      <ele>1039</ele>
      <time>2026-05-07T12:25:25Z</time>
    </trkpt>
    <trkpt lat="50.845756" lon="15.489218">
      <ele>1040</ele>
      <time>2026-05-07T12:25:39Z</time>
    </trkpt>
    <trkpt lat="50.845724" lon="15.489365">
      <ele>1041</ele>
      <time>2026-05-07T12:25:50Z</time>
    </trkpt>
    <trkpt lat="50.845736" lon="15.489549">
      <ele>1042</ele>
      <time>2026-05-07T12:26:03Z</time>
    </trkpt>
    <trkpt lat="50.845651" lon="15.490356">
      <ele>1047</ele>
      <time>2026-05-07T12:27:00Z</time>
    </trkpt>
    <trkpt lat="50.845622" lon="15.490638">
      <ele>1048</ele>
      <time>2026-05-07T12:27:21Z</time>
    </trkpt>
    <trkpt lat="50.845591" lon="15.490891">
      <ele>1050</ele>
      <time>2026-05-07T12:27:39Z</time>
    </trkpt>
    <trkpt lat="50.84558" lon="15.490986">
      <ele>1050</ele>
      <time>2026-05-07T12:27:45Z</time>
    </trkpt>
    <trkpt lat="50.845531" lon="15.49098">
      <ele>1050</ele>
      <time>2026-05-07T12:27:51Z</time>
    </trkpt>
    <trkpt lat="50.845495" lon="15.490984">
      <ele>1049</ele>
      <time>2026-05-07T12:27:55Z</time>
    </trkpt>
    <trkpt lat="50.845414" lon="15.491069">
      <ele>1050</ele>
      <time>2026-05-07T12:28:06Z</time>
    </trkpt>
    <trkpt lat="50.84535" lon="15.491145">
      <ele>1051</ele>
      <time>2026-05-07T12:28:15Z</time>
    </trkpt>
    <trkpt lat="50.8453" lon="15.491224">
      <ele>1051</ele>
      <time>2026-05-07T12:28:23Z</time>
    </trkpt>
    <trkpt lat="50.845266" lon="15.491298">
      <ele>1052</ele>
      <time>2026-05-07T12:28:29Z</time>
    </trkpt>
    <trkpt lat="50.845238" lon="15.49139">
      <ele>1053</ele>
      <time>2026-05-07T12:28:36Z</time>
    </trkpt>
    <trkpt lat="50.845194" lon="15.491583">
      <ele>1055</ele>
      <time>2026-05-07T12:28:51Z</time>
    </trkpt>
    <trkpt lat="50.845167" lon="15.491682">
      <ele>1056</ele>
      <time>2026-05-07T12:28:59Z</time>
    </trkpt>
    <trkpt lat="50.845146" lon="15.491776">
      <ele>1057</ele>
      <time>2026-05-07T12:29:06Z</time>
    </trkpt>
    <trkpt lat="50.845118" lon="15.491945">
      <ele>1058</ele>
      <time>2026-05-07T12:29:18Z</time>
    </trkpt>
    <trkpt lat="50.845125" lon="15.492107">
      <ele>1054</ele>
      <time>2026-05-07T12:29:31Z</time>
    </trkpt>
    <trkpt lat="50.845134" lon="15.492224">
      <ele>1051</ele>
      <time>2026-05-07T12:29:40Z</time>
    </trkpt>
    <trkpt lat="50.845153" lon="15.492339">
      <ele>1048</ele>
      <time>2026-05-07T12:29:49Z</time>
    </trkpt>
    <trkpt lat="50.845243" lon="15.492693">
      <ele>1038</ele>
      <time>2026-05-07T12:30:19Z</time>
    </trkpt>
    <trkpt lat="50.84526" lon="15.492788">
      <ele>1035</ele>
      <time>2026-05-07T12:30:27Z</time>
    </trkpt>
    <trkpt lat="50.845271" lon="15.492885">
      <ele>1032</ele>
      <time>2026-05-07T12:30:35Z</time>
    </trkpt>
    <trkpt lat="50.845274" lon="15.493067">
      <ele>1028</ele>
      <time>2026-05-07T12:30:49Z</time>
    </trkpt>
    <trkpt lat="50.845271" lon="15.49348">
      <ele>1023</ele>
      <time>2026-05-07T12:31:20Z</time>
    </trkpt>
    <trkpt lat="50.845301" lon="15.494254">
      <ele>1014</ele>
      <time>2026-05-07T12:32:18Z</time>
    </trkpt>
    <trkpt lat="50.845298" lon="15.494886">
      <ele>1006</ele>
      <time>2026-05-07T12:32:59Z</time>
    </trkpt>
    <trkpt lat="50.845292" lon="15.495037">
      <ele>1004</ele>
      <time>2026-05-07T12:33:08Z</time>
    </trkpt>
    <trkpt lat="50.845263" lon="15.495352">
      <ele>1000</ele>
      <time>2026-05-07T12:33:29Z</time>
    </trkpt>
    <trkpt lat="50.84519" lon="15.495869">
      <ele>992</ele>
      <time>2026-05-07T12:34:03Z</time>
    </trkpt>
    <trkpt lat="50.845131" lon="15.496404">
      <ele>985</ele>
      <time>2026-05-07T12:34:38Z</time>
    </trkpt>
    <trkpt lat="50.845099" lon="15.496825">
      <ele>980</ele>
      <time>2026-05-07T12:35:05Z</time>
    </trkpt>
    <trkpt lat="50.845055" lon="15.497102">
      <ele>977</ele>
      <time>2026-05-07T12:35:23Z</time>
    </trkpt>
    <trkpt lat="50.84502" lon="15.497237">
      <ele>975</ele>
      <time>2026-05-07T12:35:33Z</time>
    </trkpt>
    <trkpt lat="50.844985" lon="15.497329">
      <ele>975</ele>
      <time>2026-05-07T12:35:40Z</time>
    </trkpt>
    <trkpt lat="50.844842" lon="15.497666">
      <ele>969</ele>
      <time>2026-05-07T12:36:06Z</time>
    </trkpt>
    <trkpt lat="50.844695" lon="15.497982">
      <ele>964</ele>
      <time>2026-05-07T12:36:31Z</time>
    </trkpt>
    <trkpt lat="50.844526" lon="15.498359">
      <ele>957</ele>
      <time>2026-05-07T12:37:01Z</time>
    </trkpt>
    <trkpt lat="50.84446" lon="15.498558">
      <ele>954</ele>
      <time>2026-05-07T12:37:15Z</time>
    </trkpt>
    <trkpt lat="50.84442" lon="15.498764">
      <ele>951</ele>
      <time>2026-05-07T12:37:29Z</time>
    </trkpt>
    <trkpt lat="50.844405" lon="15.499292">
      <ele>951</ele>
      <time>2026-05-07T12:38:03Z</time>
    </trkpt>
    <trkpt lat="50.844382" lon="15.499614">
      <ele>950</ele>
      <time>2026-05-07T12:38:23Z</time>
    </trkpt>
    <trkpt lat="50.84436" lon="15.499734">
      <ele>949</ele>
      <time>2026-05-07T12:38:31Z</time>
    </trkpt>
    <trkpt lat="50.844337" lon="15.499909">
      <ele>949</ele>
      <time>2026-05-07T12:38:43Z</time>
    </trkpt>
    <trkpt lat="50.844294" lon="15.50011">
      <ele>947</ele>
      <time>2026-05-07T12:38:56Z</time>
    </trkpt>
    <trkpt lat="50.844201" lon="15.50048">
      <ele>943</ele>
      <time>2026-05-07T12:39:22Z</time>
    </trkpt>
    <trkpt lat="50.844046" lon="15.501064">
      <ele>934</ele>
      <time>2026-05-07T12:40:02Z</time>
    </trkpt>
    <trkpt lat="50.843988" lon="15.501621">
      <ele>933</ele>
      <time>2026-05-07T12:40:38Z</time>
    </trkpt>
    <trkpt lat="50.843969" lon="15.501864">
      <ele>931</ele>
      <time>2026-05-07T12:40:54Z</time>
    </trkpt>
    <trkpt lat="50.843959" lon="15.502135">
      <ele>929</ele>
      <time>2026-05-07T12:41:11Z</time>
    </trkpt>
    <trkpt lat="50.843939" lon="15.502528">
      <ele>926</ele>
      <time>2026-05-07T12:41:36Z</time>
    </trkpt>
    <trkpt lat="50.843905" lon="15.502802">
      <ele>922</ele>
      <time>2026-05-07T12:41:54Z</time>
    </trkpt>
    <trkpt lat="50.843845" lon="15.503075">
      <ele>919</ele>
      <time>2026-05-07T12:42:13Z</time>
    </trkpt>
    <trkpt lat="50.8437" lon="15.503712">
      <ele>910</ele>
      <time>2026-05-07T12:42:56Z</time>
    </trkpt>
    <trkpt lat="50.843524" lon="15.504349">
      <ele>902</ele>
      <time>2026-05-07T12:43:41Z</time>
    </trkpt>
    <trkpt lat="50.843327" lon="15.504846">
      <ele>894</ele>
      <time>2026-05-07T12:44:18Z</time>
    </trkpt>
    <trkpt lat="50.843114" lon="15.505287">
      <ele>889</ele>
      <time>2026-05-07T12:44:54Z</time>
    </trkpt>
    <trkpt lat="50.842947" lon="15.505619">
      <ele>885</ele>
      <time>2026-05-07T12:45:21Z</time>
    </trkpt>
    <trkpt lat="50.842878" lon="15.505773">
      <ele>883</ele>
      <time>2026-05-07T12:45:33Z</time>
    </trkpt>
    <trkpt lat="50.842749" lon="15.50606">
      <ele>881</ele>
      <time>2026-05-07T12:45:55Z</time>
    </trkpt>
    <trkpt lat="50.842561" lon="15.50653">
      <ele>876</ele>
      <time>2026-05-07T12:46:31Z</time>
    </trkpt>
    <trkpt lat="50.842361" lon="15.506973">
      <ele>873</ele>
      <time>2026-05-07T12:47:05Z</time>
    </trkpt>
    <trkpt lat="50.842224" lon="15.507376">
      <ele>871</ele>
      <time>2026-05-07T12:47:34Z</time>
    </trkpt>
    <trkpt lat="50.84207" lon="15.507773">
      <ele>867</ele>
      <time>2026-05-07T12:48:04Z</time>
    </trkpt>
    <trkpt lat="50.841972" lon="15.508021">
      <ele>865</ele>
      <time>2026-05-07T12:48:23Z</time>
    </trkpt>
    <trkpt lat="50.84185" lon="15.508326">
      <ele>862</ele>
      <time>2026-05-07T12:48:46Z</time>
    </trkpt>
    <trkpt lat="50.841745" lon="15.508561">
      <ele>859</ele>
      <time>2026-05-07T12:49:04Z</time>
    </trkpt>
    <trkpt lat="50.841486" lon="15.509137">
      <ele>852</ele>
      <time>2026-05-07T12:49:49Z</time>
    </trkpt>
    <trkpt lat="50.841361" lon="15.5094">
      <ele>848</ele>
      <time>2026-05-07T12:50:10Z</time>
    </trkpt>
    <trkpt lat="50.841333" lon="15.509458">
      <ele>847</ele>
      <time>2026-05-07T12:50:15Z</time>
    </trkpt>
    <trkpt lat="50.841317" lon="15.509493">
      <ele>847</ele>
      <time>2026-05-07T12:50:18Z</time>
    </trkpt>
    <trkpt lat="50.841231" lon="15.509653">
      <ele>845</ele>
      <time>2026-05-07T12:50:31Z</time>
    </trkpt>
    <trkpt lat="50.841025" lon="15.509989">
      <ele>840</ele>
      <time>2026-05-07T12:51:01Z</time>
    </trkpt>
    <trkpt lat="50.840927" lon="15.510158">
      <ele>839</ele>
      <time>2026-05-07T12:51:16Z</time>
    </trkpt>
    <trkpt lat="50.840758" lon="15.510477">
      <ele>835</ele>
      <time>2026-05-07T12:51:42Z</time>
    </trkpt>
    <trkpt lat="50.840653" lon="15.510713">
      <ele>832</ele>
      <time>2026-05-07T12:52:01Z</time>
    </trkpt>
    <trkpt lat="50.840567" lon="15.510937">
      <ele>829</ele>
      <time>2026-05-07T12:52:18Z</time>
    </trkpt>
    <trkpt lat="50.840332" lon="15.511484">
      <ele>817</ele>
      <time>2026-05-07T12:53:01Z</time>
    </trkpt>
    <trkpt lat="50.840138" lon="15.512012">
      <ele>807</ele>
      <time>2026-05-07T12:53:41Z</time>
    </trkpt>
    <trkpt lat="50.840071" lon="15.512197">
      <ele>804</ele>
      <time>2026-05-07T12:53:54Z</time>
    </trkpt>
    <trkpt lat="50.840029" lon="15.512292">
      <ele>804</ele>
      <time>2026-05-07T12:54:02Z</time>
    </trkpt>
    <trkpt lat="50.839985" lon="15.512359">
      <ele>803</ele>
      <time>2026-05-07T12:54:08Z</time>
    </trkpt>
    <trkpt lat="50.839918" lon="15.512412">
      <ele>802</ele>
      <time>2026-05-07T12:54:15Z</time>
    </trkpt>
    <trkpt lat="50.83986" lon="15.512479">
      <ele>801</ele>
      <time>2026-05-07T12:54:23Z</time>
    </trkpt>
    <trkpt lat="50.839814" lon="15.512543">
      <ele>801</ele>
      <time>2026-05-07T12:54:29Z</time>
    </trkpt>
    <trkpt lat="50.839715" lon="15.512731">
      <ele>798</ele>
      <time>2026-05-07T12:54:44Z</time>
    </trkpt>
    <trkpt lat="50.839657" lon="15.512826">
      <ele>797</ele>
      <time>2026-05-07T12:54:53Z</time>
    </trkpt>
    <trkpt lat="50.839566" lon="15.512927">
      <ele>795</ele>
      <time>2026-05-07T12:55:04Z</time>
    </trkpt>
    <trkpt lat="50.839541" lon="15.512967">
      <ele>794</ele>
      <time>2026-05-07T12:55:08Z</time>
    </trkpt>
    <trkpt lat="50.839484" lon="15.512993">
      <ele>793</ele>
      <time>2026-05-07T12:55:14Z</time>
    </trkpt>
    <trkpt lat="50.839435" lon="15.51301">
      <ele>792</ele>
      <time>2026-05-07T12:55:19Z</time>
    </trkpt>
    <trkpt lat="50.839377" lon="15.513015">
      <ele>792</ele>
      <time>2026-05-07T12:55:25Z</time>
    </trkpt>
    <trkpt lat="50.839192" lon="15.512964">
      <ele>792</ele>
      <time>2026-05-07T12:55:43Z</time>
    </trkpt>
    <trkpt lat="50.838988" lon="15.512966">
      <ele>788</ele>
      <time>2026-05-07T12:56:04Z</time>
    </trkpt>
    <trkpt lat="50.838838" lon="15.512985">
      <ele>786</ele>
      <time>2026-05-07T12:56:19Z</time>
    </trkpt>
    <trkpt lat="50.838492" lon="15.512935">
      <ele>778</ele>
      <time>2026-05-07T12:56:55Z</time>
    </trkpt>
    <trkpt lat="50.838287" lon="15.513042">
      <ele>769</ele>
      <time>2026-05-07T12:57:18Z</time>
    </trkpt>
    <trkpt lat="50.838236" lon="15.512675">
      <ele>774</ele>
      <time>2026-05-07T12:57:43Z</time>
    </trkpt>
    <trkpt lat="50.83821" lon="15.512044">
      <ele>774</ele>
      <time>2026-05-07T12:58:25Z</time>
    </trkpt>
    <trkpt lat="50.838203" lon="15.511875">
      <ele>774</ele>
      <time>2026-05-07T12:58:36Z</time>
    </trkpt>
    <trkpt lat="50.838198" lon="15.511647">
      <ele>775</ele>
      <time>2026-05-07T12:58:52Z</time>
    </trkpt>
    <trkpt lat="50.838219" lon="15.511153">
      <ele>774</ele>
      <time>2026-05-07T12:59:24Z</time>
    </trkpt>
    <trkpt lat="50.838366" lon="15.510295">
      <ele>774</ele>
      <time>2026-05-07T13:00:23Z</time>
    </trkpt>
    <trkpt lat="50.83842" lon="15.509941">
      <ele>774</ele>
      <time>2026-05-07T13:00:47Z</time>
    </trkpt>
    <trkpt lat="50.838437" lon="15.509803">
      <ele>774</ele>
      <time>2026-05-07T13:00:56Z</time>
    </trkpt>
    <trkpt lat="50.838456" lon="15.509652">
      <ele>775</ele>
      <time>2026-05-07T13:01:07Z</time>
    </trkpt>
    <trkpt lat="50.838407" lon="15.50948">
      <ele>773</ele>
      <time>2026-05-07T13:01:19Z</time>
    </trkpt>
    <trkpt lat="50.838283" lon="15.508567">
      <ele>769</ele>
      <time>2026-05-07T13:02:21Z</time>
    </trkpt>
    <trkpt lat="50.838212" lon="15.507948">
      <ele>766</ele>
      <time>2026-05-07T13:03:03Z</time>
    </trkpt>
    <trkpt lat="50.838161" lon="15.507385">
      <ele>764</ele>
      <time>2026-05-07T13:03:41Z</time>
    </trkpt>
    <trkpt lat="50.838143" lon="15.507143">
      <ele>763</ele>
      <time>2026-05-07T13:03:57Z</time>
    </trkpt>
    <trkpt lat="50.838129" lon="15.50691">
      <ele>763</ele>
      <time>2026-05-07T13:04:12Z</time>
    </trkpt>
    <trkpt lat="50.838126" lon="15.506523">
      <ele>765</ele>
      <time>2026-05-07T13:04:38Z</time>
    </trkpt>
    <trkpt lat="50.838167" lon="15.505948">
      <ele>766</ele>
      <time>2026-05-07T13:05:16Z</time>
    </trkpt>
    <trkpt lat="50.83816" lon="15.505521">
      <ele>766</ele>
      <time>2026-05-07T13:05:44Z</time>
    </trkpt>
    <trkpt lat="50.838156" lon="15.505252">
      <ele>764</ele>
      <time>2026-05-07T13:06:02Z</time>
    </trkpt>
    <trkpt lat="50.838152" lon="15.505028">
      <ele>763</ele>
      <time>2026-05-07T13:06:17Z</time>
    </trkpt>
    <trkpt lat="50.83815" lon="15.504579">
      <ele>762</ele>
      <time>2026-05-07T13:06:47Z</time>
    </trkpt>
    <trkpt lat="50.837881" lon="15.504383">
      <ele>759</ele>
      <time>2026-05-07T13:07:18Z</time>
    </trkpt>
  </trkseg>
</trk>
</gpx>