<?xml version="1.0" encoding="UTF-8"?><gpx creator="https://mapa-turystyczna.pl" xmlns="http://www.topografix.com/GPX/1/1" version="1.1" xmlns:xsi="http://www.w3.org/2001/XMLSchema-instance" xsi:schemaLocation="http://www.topografix.com/GPX/1/1 http://www.topografix.com/GPX/1/1/gpx.xsd">
  <metadata>
    <link href="https://mapa-turystyczna.pl">
      <text>mapa-turystyczna.pl</text>
    </link>
    <time>2026-05-07T08:43:19Z</time>
    <bounds maxlat="50.8525" maxlon="15.437224" minlat="50.817356" minlon="15.415712"/>
  </metadata>

<trk>
  <name>Trasa przez: Rozdroże pod Izerskimi Garbami</name>
  <link href="https://mapa-turystyczna.pl/route/w2ql">
    <text>Trasa przez: Rozdroże pod Izerskimi Garbami</text>
  </link>
  <trkseg>
    <trkpt lat="50.8174158" lon="15.431554">
      <ele>893</ele>
      <time>2026-05-07T08:43:19Z</time>
    </trkpt>
    <trkpt lat="50.817404" lon="15.431741">
      <ele>892</ele>
      <time>2026-05-07T08:43:32Z</time>
    </trkpt>
    <trkpt lat="50.817404" lon="15.431906">
      <ele>891</ele>
      <time>2026-05-07T08:43:43Z</time>
    </trkpt>
    <trkpt lat="50.817409" lon="15.432039">
      <ele>891</ele>
      <time>2026-05-07T08:43:52Z</time>
    </trkpt>
    <trkpt lat="50.817402" lon="15.432153">
      <ele>890</ele>
      <time>2026-05-07T08:44:00Z</time>
    </trkpt>
    <trkpt lat="50.817373" lon="15.432362">
      <ele>890</ele>
      <time>2026-05-07T08:44:15Z</time>
    </trkpt>
    <trkpt lat="50.817356" lon="15.432416">
      <ele>889</ele>
      <time>2026-05-07T08:44:19Z</time>
    </trkpt>
    <trkpt lat="50.817466" lon="15.432506">
      <ele>890</ele>
      <time>2026-05-07T08:44:37Z</time>
    </trkpt>
    <trkpt lat="50.818958" lon="15.433792">
      <ele>888</ele>
      <time>2026-05-07T08:48:45Z</time>
    </trkpt>
    <trkpt lat="50.818986" lon="15.433826">
      <ele>888</ele>
      <time>2026-05-07T08:48:50Z</time>
    </trkpt>
    <trkpt lat="50.819006" lon="15.433881">
      <ele>887</ele>
      <time>2026-05-07T08:48:56Z</time>
    </trkpt>
    <trkpt lat="50.819019" lon="15.433932">
      <ele>887</ele>
      <time>2026-05-07T08:49:01Z</time>
    </trkpt>
    <trkpt lat="50.819033" lon="15.433985">
      <ele>888</ele>
      <time>2026-05-07T08:49:07Z</time>
    </trkpt>
    <trkpt lat="50.819048" lon="15.434045">
      <ele>888</ele>
      <time>2026-05-07T08:49:12Z</time>
    </trkpt>
    <trkpt lat="50.819067" lon="15.434109">
      <ele>888</ele>
      <time>2026-05-07T08:49:19Z</time>
    </trkpt>
    <trkpt lat="50.819168" lon="15.434288">
      <ele>888</ele>
      <time>2026-05-07T08:49:35Z</time>
    </trkpt>
    <trkpt lat="50.819301" lon="15.434453">
      <ele>887</ele>
      <time>2026-05-07T08:49:52Z</time>
    </trkpt>
    <trkpt lat="50.820496" lon="15.435385">
      <ele>884</ele>
      <time>2026-05-07T08:52:08Z</time>
    </trkpt>
    <trkpt lat="50.820625" lon="15.435553">
      <ele>884</ele>
      <time>2026-05-07T08:52:26Z</time>
    </trkpt>
    <trkpt lat="50.820665" lon="15.435691">
      <ele>882</ele>
      <time>2026-05-07T08:52:36Z</time>
    </trkpt>
    <trkpt lat="50.820698" lon="15.435849">
      <ele>881</ele>
      <time>2026-05-07T08:52:46Z</time>
    </trkpt>
    <trkpt lat="50.820631" lon="15.436426">
      <ele>876</ele>
      <time>2026-05-07T08:53:25Z</time>
    </trkpt>
    <trkpt lat="50.820598" lon="15.436535">
      <ele>875</ele>
      <time>2026-05-07T08:53:33Z</time>
    </trkpt>
    <trkpt lat="50.820584" lon="15.436671">
      <ele>874</ele>
      <time>2026-05-07T08:53:41Z</time>
    </trkpt>
    <trkpt lat="50.820593" lon="15.436758">
      <ele>874</ele>
      <time>2026-05-07T08:53:47Z</time>
    </trkpt>
    <trkpt lat="50.820609" lon="15.436847">
      <ele>874</ele>
      <time>2026-05-07T08:53:53Z</time>
    </trkpt>
    <trkpt lat="50.820634" lon="15.436927">
      <ele>873</ele>
      <time>2026-05-07T08:53:59Z</time>
    </trkpt>
    <trkpt lat="50.820649" lon="15.436994">
      <ele>873</ele>
      <time>2026-05-07T08:54:04Z</time>
    </trkpt>
    <trkpt lat="50.820659" lon="15.437047">
      <ele>873</ele>
      <time>2026-05-07T08:54:07Z</time>
    </trkpt>
    <trkpt lat="50.820666" lon="15.437124">
      <ele>872</ele>
      <time>2026-05-07T08:54:12Z</time>
    </trkpt>
    <trkpt lat="50.820672" lon="15.437158">
      <ele>872</ele>
      <time>2026-05-07T08:54:15Z</time>
    </trkpt>
    <trkpt lat="50.820684" lon="15.437224">
      <ele>872</ele>
      <time>2026-05-07T08:54:19Z</time>
    </trkpt>
    <trkpt lat="50.82072" lon="15.437202">
      <ele>872</ele>
      <time>2026-05-07T08:54:24Z</time>
    </trkpt>
    <trkpt lat="50.821246" lon="15.436865">
      <ele>876</ele>
      <time>2026-05-07T08:55:33Z</time>
    </trkpt>
    <trkpt lat="50.821507" lon="15.436687">
      <ele>878</ele>
      <time>2026-05-07T08:56:08Z</time>
    </trkpt>
    <trkpt lat="50.821637" lon="15.436615">
      <ele>879</ele>
      <time>2026-05-07T08:56:25Z</time>
    </trkpt>
    <trkpt lat="50.821801" lon="15.436535">
      <ele>881</ele>
      <time>2026-05-07T08:56:46Z</time>
    </trkpt>
    <trkpt lat="50.82189" lon="15.436496">
      <ele>882</ele>
      <time>2026-05-07T08:56:58Z</time>
    </trkpt>
    <trkpt lat="50.821968" lon="15.436474">
      <ele>883</ele>
      <time>2026-05-07T08:57:07Z</time>
    </trkpt>
    <trkpt lat="50.822022" lon="15.43647">
      <ele>883</ele>
      <time>2026-05-07T08:57:14Z</time>
    </trkpt>
    <trkpt lat="50.822129" lon="15.436462">
      <ele>883</ele>
      <time>2026-05-07T08:57:27Z</time>
    </trkpt>
    <trkpt lat="50.822198" lon="15.436445">
      <ele>883</ele>
      <time>2026-05-07T08:57:36Z</time>
    </trkpt>
    <trkpt lat="50.822239" lon="15.436429">
      <ele>883</ele>
      <time>2026-05-07T08:57:41Z</time>
    </trkpt>
    <trkpt lat="50.822268" lon="15.436411">
      <ele>883</ele>
      <time>2026-05-07T08:57:45Z</time>
    </trkpt>
    <trkpt lat="50.822302" lon="15.436389">
      <ele>883</ele>
      <time>2026-05-07T08:57:49Z</time>
    </trkpt>
    <trkpt lat="50.822333" lon="15.436362">
      <ele>883</ele>
      <time>2026-05-07T08:57:53Z</time>
    </trkpt>
    <trkpt lat="50.822356" lon="15.436331">
      <ele>883</ele>
      <time>2026-05-07T08:57:57Z</time>
    </trkpt>
    <trkpt lat="50.822376" lon="15.436297">
      <ele>884</ele>
      <time>2026-05-07T08:58:01Z</time>
    </trkpt>
    <trkpt lat="50.822387" lon="15.436265">
      <ele>884</ele>
      <time>2026-05-07T08:58:04Z</time>
    </trkpt>
    <trkpt lat="50.822426" lon="15.436193">
      <ele>884</ele>
      <time>2026-05-07T08:58:11Z</time>
    </trkpt>
    <trkpt lat="50.822467" lon="15.436137">
      <ele>885</ele>
      <time>2026-05-07T08:58:18Z</time>
    </trkpt>
    <trkpt lat="50.822508" lon="15.436095">
      <ele>885</ele>
      <time>2026-05-07T08:58:24Z</time>
    </trkpt>
    <trkpt lat="50.822573" lon="15.436036">
      <ele>886</ele>
      <time>2026-05-07T08:58:33Z</time>
    </trkpt>
    <trkpt lat="50.822962" lon="15.435768">
      <ele>889</ele>
      <time>2026-05-07T08:59:25Z</time>
    </trkpt>
    <trkpt lat="50.823267" lon="15.435534">
      <ele>890</ele>
      <time>2026-05-07T09:00:06Z</time>
    </trkpt>
    <trkpt lat="50.823437" lon="15.435391">
      <ele>891</ele>
      <time>2026-05-07T09:00:30Z</time>
    </trkpt>
    <trkpt lat="50.823943" lon="15.434967">
      <ele>895</ele>
      <time>2026-05-07T09:01:40Z</time>
    </trkpt>
    <trkpt lat="50.824181" lon="15.43472">
      <ele>895</ele>
      <time>2026-05-07T09:02:15Z</time>
    </trkpt>
    <trkpt lat="50.824372" lon="15.434485">
      <ele>895</ele>
      <time>2026-05-07T09:02:45Z</time>
    </trkpt>
    <trkpt lat="50.824415" lon="15.434422">
      <ele>895</ele>
      <time>2026-05-07T09:02:52Z</time>
    </trkpt>
    <trkpt lat="50.824459" lon="15.434349">
      <ele>896</ele>
      <time>2026-05-07T09:03:00Z</time>
    </trkpt>
    <trkpt lat="50.82471" lon="15.433958">
      <ele>900</ele>
      <time>2026-05-07T09:03:43Z</time>
    </trkpt>
    <trkpt lat="50.824768" lon="15.433863">
      <ele>901</ele>
      <time>2026-05-07T09:03:53Z</time>
    </trkpt>
    <trkpt lat="50.824835" lon="15.433792">
      <ele>902</ele>
      <time>2026-05-07T09:04:03Z</time>
    </trkpt>
    <trkpt lat="50.825276" lon="15.433522">
      <ele>902</ele>
      <time>2026-05-07T09:05:01Z</time>
    </trkpt>
    <trkpt lat="50.825523" lon="15.433372">
      <ele>901</ele>
      <time>2026-05-07T09:05:34Z</time>
    </trkpt>
    <trkpt lat="50.825696" lon="15.433219">
      <ele>902</ele>
      <time>2026-05-07T09:05:58Z</time>
    </trkpt>
    <trkpt lat="50.825901" lon="15.433042">
      <ele>903</ele>
      <time>2026-05-07T09:06:26Z</time>
    </trkpt>
    <trkpt lat="50.826112" lon="15.432841">
      <ele>903</ele>
      <time>2026-05-07T09:06:57Z</time>
    </trkpt>
    <trkpt lat="50.826385" lon="15.432519">
      <ele>903</ele>
      <time>2026-05-07T09:07:38Z</time>
    </trkpt>
    <trkpt lat="50.827017" lon="15.431622">
      <ele>904</ele>
      <time>2026-05-07T09:09:22Z</time>
    </trkpt>
    <trkpt lat="50.827236" lon="15.431228">
      <ele>905</ele>
      <time>2026-05-07T09:10:03Z</time>
    </trkpt>
    <trkpt lat="50.82754" lon="15.430514">
      <ele>906</ele>
      <time>2026-05-07T09:11:09Z</time>
    </trkpt>
    <trkpt lat="50.827802" lon="15.429719">
      <ele>909</ele>
      <time>2026-05-07T09:12:19Z</time>
    </trkpt>
    <trkpt lat="50.827882" lon="15.429533">
      <ele>910</ele>
      <time>2026-05-07T09:12:36Z</time>
    </trkpt>
    <trkpt lat="50.828009" lon="15.429357">
      <ele>910</ele>
      <time>2026-05-07T09:12:57Z</time>
    </trkpt>
    <trkpt lat="50.828252" lon="15.429118">
      <ele>909</ele>
      <time>2026-05-07T09:13:32Z</time>
    </trkpt>
    <trkpt lat="50.828381" lon="15.428923">
      <ele>909</ele>
      <time>2026-05-07T09:13:54Z</time>
    </trkpt>
    <trkpt lat="50.828522" lon="15.428613">
      <ele>910</ele>
      <time>2026-05-07T09:14:23Z</time>
    </trkpt>
    <trkpt lat="50.828673" lon="15.428119">
      <ele>911</ele>
      <time>2026-05-07T09:15:06Z</time>
    </trkpt>
    <trkpt lat="50.828804" lon="15.42782">
      <ele>912</ele>
      <time>2026-05-07T09:15:34Z</time>
    </trkpt>
    <trkpt lat="50.828964" lon="15.427618">
      <ele>913</ele>
      <time>2026-05-07T09:15:59Z</time>
    </trkpt>
    <trkpt lat="50.829448" lon="15.427289">
      <ele>913</ele>
      <time>2026-05-07T09:17:04Z</time>
    </trkpt>
    <trkpt lat="50.829697" lon="15.427068">
      <ele>915</ele>
      <time>2026-05-07T09:17:39Z</time>
    </trkpt>
    <trkpt lat="50.829915" lon="15.426736">
      <ele>917</ele>
      <time>2026-05-07T09:18:16Z</time>
    </trkpt>
    <trkpt lat="50.830124" lon="15.426069">
      <ele>922</ele>
      <time>2026-05-07T09:19:13Z</time>
    </trkpt>
    <trkpt lat="50.8305" lon="15.425507">
      <ele>920</ele>
      <time>2026-05-07T09:20:17Z</time>
    </trkpt>
    <trkpt lat="50.830677" lon="15.425055">
      <ele>919</ele>
      <time>2026-05-07T09:20:58Z</time>
    </trkpt>
    <trkpt lat="50.831225" lon="15.423447">
      <ele>921</ele>
      <time>2026-05-07T09:23:19Z</time>
    </trkpt>
    <trkpt lat="50.831925" lon="15.421585">
      <ele>922</ele>
      <time>2026-05-07T09:26:07Z</time>
    </trkpt>
    <trkpt lat="50.832274" lon="15.420563">
      <ele>926</ele>
      <time>2026-05-07T09:27:37Z</time>
    </trkpt>
    <trkpt lat="50.832344" lon="15.420417">
      <ele>926</ele>
      <time>2026-05-07T09:27:51Z</time>
    </trkpt>
    <trkpt lat="50.832879" lon="15.419709">
      <ele>928</ele>
      <time>2026-05-07T09:29:16Z</time>
    </trkpt>
    <trkpt lat="50.833003" lon="15.419601">
      <ele>929</ele>
      <time>2026-05-07T09:29:34Z</time>
    </trkpt>
    <trkpt lat="50.833509" lon="15.419333">
      <ele>928</ele>
      <time>2026-05-07T09:30:39Z</time>
    </trkpt>
    <trkpt lat="50.833727" lon="15.41918">
      <ele>929</ele>
      <time>2026-05-07T09:31:08Z</time>
    </trkpt>
    <trkpt lat="50.834277" lon="15.418663">
      <ele>933</ele>
      <time>2026-05-07T09:32:27Z</time>
    </trkpt>
    <trkpt lat="50.83449" lon="15.418406">
      <ele>935</ele>
      <time>2026-05-07T09:33:00Z</time>
    </trkpt>
    <trkpt lat="50.834586" lon="15.418257">
      <ele>935</ele>
      <time>2026-05-07T09:33:16Z</time>
    </trkpt>
    <trkpt lat="50.834752" lon="15.417873">
      <ele>936</ele>
      <time>2026-05-07T09:33:52Z</time>
    </trkpt>
    <trkpt lat="50.83486" lon="15.417626">
      <ele>936</ele>
      <time>2026-05-07T09:34:15Z</time>
    </trkpt>
    <trkpt lat="50.835089" lon="15.416993">
      <ele>938</ele>
      <time>2026-05-07T09:35:12Z</time>
    </trkpt>
    <trkpt lat="50.835504" lon="15.416128">
      <ele>941</ele>
      <time>2026-05-07T09:36:36Z</time>
    </trkpt>
    <trkpt lat="50.83574" lon="15.415712">
      <ele>943</ele>
      <time>2026-05-07T09:37:19Z</time>
    </trkpt>
    <trkpt lat="50.835924" lon="15.415958">
      <ele>944</ele>
      <time>2026-05-07T09:37:48Z</time>
    </trkpt>
    <trkpt lat="50.836116" lon="15.416274">
      <ele>945</ele>
      <time>2026-05-07T09:38:20Z</time>
    </trkpt>
    <trkpt lat="50.836567" lon="15.417119">
      <ele>946</ele>
      <time>2026-05-07T09:39:43Z</time>
    </trkpt>
    <trkpt lat="50.836831" lon="15.417648">
      <ele>947</ele>
      <time>2026-05-07T09:40:33Z</time>
    </trkpt>
    <trkpt lat="50.836944" lon="15.417875">
      <ele>948</ele>
      <time>2026-05-07T09:40:55Z</time>
    </trkpt>
    <trkpt lat="50.837297" lon="15.418739">
      <ele>951</ele>
      <time>2026-05-07T09:42:12Z</time>
    </trkpt>
    <trkpt lat="50.837435" lon="15.419033">
      <ele>951</ele>
      <time>2026-05-07T09:42:39Z</time>
    </trkpt>
    <trkpt lat="50.837637" lon="15.419394">
      <ele>951</ele>
      <time>2026-05-07T09:43:15Z</time>
    </trkpt>
    <trkpt lat="50.837869" lon="15.41975">
      <ele>951</ele>
      <time>2026-05-07T09:43:54Z</time>
    </trkpt>
    <trkpt lat="50.838002" lon="15.419917">
      <ele>950</ele>
      <time>2026-05-07T09:44:14Z</time>
    </trkpt>
    <trkpt lat="50.83814" lon="15.420055">
      <ele>950</ele>
      <time>2026-05-07T09:44:33Z</time>
    </trkpt>
    <trkpt lat="50.83822" lon="15.420135">
      <ele>950</ele>
      <time>2026-05-07T09:44:44Z</time>
    </trkpt>
    <trkpt lat="50.839118" lon="15.420849">
      <ele>947</ele>
      <time>2026-05-07T09:46:43Z</time>
    </trkpt>
    <trkpt lat="50.839254" lon="15.421007">
      <ele>946</ele>
      <time>2026-05-07T09:47:03Z</time>
    </trkpt>
    <trkpt lat="50.839423" lon="15.421272">
      <ele>946</ele>
      <time>2026-05-07T09:47:31Z</time>
    </trkpt>
    <trkpt lat="50.839579" lon="15.421516">
      <ele>947</ele>
      <time>2026-05-07T09:47:57Z</time>
    </trkpt>
    <trkpt lat="50.839664" lon="15.42168">
      <ele>947</ele>
      <time>2026-05-07T09:48:13Z</time>
    </trkpt>
    <trkpt lat="50.839746" lon="15.421897">
      <ele>948</ele>
      <time>2026-05-07T09:48:32Z</time>
    </trkpt>
    <trkpt lat="50.83979" lon="15.422138">
      <ele>948</ele>
      <time>2026-05-07T09:48:51Z</time>
    </trkpt>
    <trkpt lat="50.839814" lon="15.422572">
      <ele>949</ele>
      <time>2026-05-07T09:49:23Z</time>
    </trkpt>
    <trkpt lat="50.839747" lon="15.423152">
      <ele>950</ele>
      <time>2026-05-07T09:50:07Z</time>
    </trkpt>
    <trkpt lat="50.839733" lon="15.423673">
      <ele>951</ele>
      <time>2026-05-07T09:50:46Z</time>
    </trkpt>
    <trkpt lat="50.839751" lon="15.423926">
      <ele>953</ele>
      <time>2026-05-07T09:51:05Z</time>
    </trkpt>
    <trkpt lat="50.839832" lon="15.424543">
      <ele>955</ele>
      <time>2026-05-07T09:51:53Z</time>
    </trkpt>
    <trkpt lat="50.83993" lon="15.4256">
      <ele>961</ele>
      <time>2026-05-07T09:53:13Z</time>
    </trkpt>
    <trkpt lat="50.839937" lon="15.42574">
      <ele>961</ele>
      <time>2026-05-07T09:53:23Z</time>
    </trkpt>
    <trkpt lat="50.83991" lon="15.426502">
      <ele>962</ele>
      <time>2026-05-07T09:54:20Z</time>
    </trkpt>
    <trkpt lat="50.839921" lon="15.426899">
      <ele>963</ele>
      <time>2026-05-07T09:54:50Z</time>
    </trkpt>
    <trkpt lat="50.839941" lon="15.427149">
      <ele>964</ele>
      <time>2026-05-07T09:55:09Z</time>
    </trkpt>
    <trkpt lat="50.840029" lon="15.427704">
      <ele>966</ele>
      <time>2026-05-07T09:55:51Z</time>
    </trkpt>
    <trkpt lat="50.84012" lon="15.428051">
      <ele>967</ele>
      <time>2026-05-07T09:56:20Z</time>
    </trkpt>
    <trkpt lat="50.840224" lon="15.428264">
      <ele>968</ele>
      <time>2026-05-07T09:56:40Z</time>
    </trkpt>
    <trkpt lat="50.840325" lon="15.428424">
      <ele>969</ele>
      <time>2026-05-07T09:56:57Z</time>
    </trkpt>
    <trkpt lat="50.840636" lon="15.428829">
      <ele>972</ele>
      <time>2026-05-07T09:57:44Z</time>
    </trkpt>
    <trkpt lat="50.840919" lon="15.429122">
      <ele>972</ele>
      <time>2026-05-07T09:58:24Z</time>
    </trkpt>
    <trkpt lat="50.841168" lon="15.429271">
      <ele>972</ele>
      <time>2026-05-07T09:58:56Z</time>
    </trkpt>
    <trkpt lat="50.841601" lon="15.429427">
      <ele>975</ele>
      <time>2026-05-07T09:59:49Z</time>
    </trkpt>
    <trkpt lat="50.842448" lon="15.429814">
      <ele>976</ele>
      <time>2026-05-07T10:01:33Z</time>
    </trkpt>
    <trkpt lat="50.842555" lon="15.429885">
      <ele>975</ele>
      <time>2026-05-07T10:01:47Z</time>
    </trkpt>
    <trkpt lat="50.843086" lon="15.430402">
      <ele>974</ele>
      <time>2026-05-07T10:03:00Z</time>
    </trkpt>
    <trkpt lat="50.84396" lon="15.430923">
      <ele>981</ele>
      <time>2026-05-07T10:04:51Z</time>
    </trkpt>
    <trkpt lat="50.844259" lon="15.431144">
      <ele>982</ele>
      <time>2026-05-07T10:05:30Z</time>
    </trkpt>
    <trkpt lat="50.844476" lon="15.431339">
      <ele>983</ele>
      <time>2026-05-07T10:06:00Z</time>
    </trkpt>
    <trkpt lat="50.845041" lon="15.431931">
      <ele>988</ele>
      <time>2026-05-07T10:07:20Z</time>
    </trkpt>
    <trkpt lat="50.845406" lon="15.432412">
      <ele>988</ele>
      <time>2026-05-07T10:08:16Z</time>
    </trkpt>
    <trkpt lat="50.845828" lon="15.433088">
      <ele>990</ele>
      <time>2026-05-07T10:09:27Z</time>
    </trkpt>
    <trkpt lat="50.845983" lon="15.433302">
      <ele>989</ele>
      <time>2026-05-07T10:09:52Z</time>
    </trkpt>
    <trkpt lat="50.846235" lon="15.433594">
      <ele>989</ele>
      <time>2026-05-07T10:10:28Z</time>
    </trkpt>
    <trkpt lat="50.846348" lon="15.433773">
      <ele>988</ele>
      <time>2026-05-07T10:10:47Z</time>
    </trkpt>
    <trkpt lat="50.846405" lon="15.433947">
      <ele>987</ele>
      <time>2026-05-07T10:11:02Z</time>
    </trkpt>
    <trkpt lat="50.846441" lon="15.43412">
      <ele>988</ele>
      <time>2026-05-07T10:11:16Z</time>
    </trkpt>
    <trkpt lat="50.846461" lon="15.434367">
      <ele>988</ele>
      <time>2026-05-07T10:11:34Z</time>
    </trkpt>
    <trkpt lat="50.846527" lon="15.434953">
      <ele>993</ele>
      <time>2026-05-07T10:12:19Z</time>
    </trkpt>
    <trkpt lat="50.84673" lon="15.434844">
      <ele>994</ele>
      <time>2026-05-07T10:12:54Z</time>
    </trkpt>
    <trkpt lat="50.846872" lon="15.434775">
      <ele>995</ele>
      <time>2026-05-07T10:13:19Z</time>
    </trkpt>
    <trkpt lat="50.846989" lon="15.434721">
      <ele>997</ele>
      <time>2026-05-07T10:13:39Z</time>
    </trkpt>
    <trkpt lat="50.8471" lon="15.434694">
      <ele>998</ele>
      <time>2026-05-07T10:13:58Z</time>
    </trkpt>
    <trkpt lat="50.84718" lon="15.434654">
      <ele>999</ele>
      <time>2026-05-07T10:14:12Z</time>
    </trkpt>
    <trkpt lat="50.847273" lon="15.434584">
      <ele>1000</ele>
      <time>2026-05-07T10:14:29Z</time>
    </trkpt>
    <trkpt lat="50.847356" lon="15.434546">
      <ele>1001</ele>
      <time>2026-05-07T10:14:43Z</time>
    </trkpt>
    <trkpt lat="50.847437" lon="15.434509">
      <ele>1002</ele>
      <time>2026-05-07T10:14:57Z</time>
    </trkpt>
    <trkpt lat="50.847529" lon="15.434444">
      <ele>1003</ele>
      <time>2026-05-07T10:15:14Z</time>
    </trkpt>
    <trkpt lat="50.847688" lon="15.434394">
      <ele>1005</ele>
      <time>2026-05-07T10:15:41Z</time>
    </trkpt>
    <trkpt lat="50.847783" lon="15.434329">
      <ele>1006</ele>
      <time>2026-05-07T10:15:58Z</time>
    </trkpt>
    <trkpt lat="50.847873" lon="15.434289">
      <ele>1007</ele>
      <time>2026-05-07T10:16:14Z</time>
    </trkpt>
    <trkpt lat="50.847981" lon="15.434249">
      <ele>1009</ele>
      <time>2026-05-07T10:16:32Z</time>
    </trkpt>
    <trkpt lat="50.848095" lon="15.434168">
      <ele>1012</ele>
      <time>2026-05-07T10:16:53Z</time>
    </trkpt>
    <trkpt lat="50.84821" lon="15.433986">
      <ele>1014</ele>
      <time>2026-05-07T10:17:20Z</time>
    </trkpt>
    <trkpt lat="50.848282" lon="15.433876">
      <ele>1015</ele>
      <time>2026-05-07T10:17:37Z</time>
    </trkpt>
    <trkpt lat="50.84846" lon="15.433702">
      <ele>1019</ele>
      <time>2026-05-07T10:18:12Z</time>
    </trkpt>
    <trkpt lat="50.848681" lon="15.433415">
      <ele>1022</ele>
      <time>2026-05-07T10:18:59Z</time>
    </trkpt>
    <trkpt lat="50.848745" lon="15.433251">
      <ele>1023</ele>
      <time>2026-05-07T10:19:19Z</time>
    </trkpt>
    <trkpt lat="50.848829" lon="15.43312">
      <ele>1025</ele>
      <time>2026-05-07T10:19:39Z</time>
    </trkpt>
    <trkpt lat="50.848975" lon="15.432992">
      <ele>1028</ele>
      <time>2026-05-07T10:20:07Z</time>
    </trkpt>
    <trkpt lat="50.849067" lon="15.432884">
      <ele>1029</ele>
      <time>2026-05-07T10:20:26Z</time>
    </trkpt>
    <trkpt lat="50.849151" lon="15.432735">
      <ele>1031</ele>
      <time>2026-05-07T10:20:47Z</time>
    </trkpt>
    <trkpt lat="50.849172" lon="15.432613">
      <ele>1031</ele>
      <time>2026-05-07T10:21:00Z</time>
    </trkpt>
    <trkpt lat="50.849222" lon="15.432564">
      <ele>1031</ele>
      <time>2026-05-07T10:21:10Z</time>
    </trkpt>
    <trkpt lat="50.849332" lon="15.432503">
      <ele>1032</ele>
      <time>2026-05-07T10:21:29Z</time>
    </trkpt>
    <trkpt lat="50.849414" lon="15.432414">
      <ele>1033</ele>
      <time>2026-05-07T10:21:45Z</time>
    </trkpt>
    <trkpt lat="50.849526" lon="15.432315">
      <ele>1034</ele>
      <time>2026-05-07T10:22:07Z</time>
    </trkpt>
    <trkpt lat="50.849624" lon="15.432267">
      <ele>1036</ele>
      <time>2026-05-07T10:22:24Z</time>
    </trkpt>
    <trkpt lat="50.84971" lon="15.432205">
      <ele>1037</ele>
      <time>2026-05-07T10:22:39Z</time>
    </trkpt>
    <trkpt lat="50.849792" lon="15.432083">
      <ele>1039</ele>
      <time>2026-05-07T10:22:58Z</time>
    </trkpt>
    <trkpt lat="50.849944" lon="15.43187">
      <ele>1042</ele>
      <time>2026-05-07T10:23:32Z</time>
    </trkpt>
    <trkpt lat="50.849986" lon="15.431827">
      <ele>1043</ele>
      <time>2026-05-07T10:23:40Z</time>
    </trkpt>
    <trkpt lat="50.85004" lon="15.431837">
      <ele>1044</ele>
      <time>2026-05-07T10:23:50Z</time>
    </trkpt>
    <trkpt lat="50.850096" lon="15.431845">
      <ele>1045</ele>
      <time>2026-05-07T10:23:59Z</time>
    </trkpt>
    <trkpt lat="50.850147" lon="15.431829">
      <ele>1046</ele>
      <time>2026-05-07T10:24:08Z</time>
    </trkpt>
    <trkpt lat="50.850219" lon="15.431765">
      <ele>1047</ele>
      <time>2026-05-07T10:24:21Z</time>
    </trkpt>
    <trkpt lat="50.850384" lon="15.431529">
      <ele>1050</ele>
      <time>2026-05-07T10:24:58Z</time>
    </trkpt>
    <trkpt lat="50.850462" lon="15.431416">
      <ele>1051</ele>
      <time>2026-05-07T10:25:16Z</time>
    </trkpt>
    <trkpt lat="50.850504" lon="15.431357">
      <ele>1051</ele>
      <time>2026-05-07T10:25:25Z</time>
    </trkpt>
    <trkpt lat="50.850547" lon="15.431287">
      <ele>1052</ele>
      <time>2026-05-07T10:25:35Z</time>
    </trkpt>
    <trkpt lat="50.850623" lon="15.431156">
      <ele>1053</ele>
      <time>2026-05-07T10:25:54Z</time>
    </trkpt>
    <trkpt lat="50.850802" lon="15.430704">
      <ele>1054</ele>
      <time>2026-05-07T10:26:50Z</time>
    </trkpt>
    <trkpt lat="50.850853" lon="15.43048">
      <ele>1054</ele>
      <time>2026-05-07T10:27:14Z</time>
    </trkpt>
    <trkpt lat="50.850909" lon="15.430311">
      <ele>1055</ele>
      <time>2026-05-07T10:27:34Z</time>
    </trkpt>
    <trkpt lat="50.850946" lon="15.430225">
      <ele>1056</ele>
      <time>2026-05-07T10:27:45Z</time>
    </trkpt>
    <trkpt lat="50.850983" lon="15.430016">
      <ele>1056</ele>
      <time>2026-05-07T10:28:08Z</time>
    </trkpt>
    <trkpt lat="50.851024" lon="15.429791">
      <ele>1058</ele>
      <time>2026-05-07T10:28:32Z</time>
    </trkpt>
    <trkpt lat="50.851085" lon="15.429603">
      <ele>1059</ele>
      <time>2026-05-07T10:28:54Z</time>
    </trkpt>
    <trkpt lat="50.85113" lon="15.429499">
      <ele>1059</ele>
      <time>2026-05-07T10:29:08Z</time>
    </trkpt>
    <trkpt lat="50.85117" lon="15.429258">
      <ele>1060</ele>
      <time>2026-05-07T10:29:34Z</time>
    </trkpt>
    <trkpt lat="50.851177" lon="15.429204">
      <ele>1060</ele>
      <time>2026-05-07T10:29:39Z</time>
    </trkpt>
    <trkpt lat="50.851156" lon="15.429096">
      <ele>1060</ele>
      <time>2026-05-07T10:29:51Z</time>
    </trkpt>
    <trkpt lat="50.851168" lon="15.428986">
      <ele>1060</ele>
      <time>2026-05-07T10:30:03Z</time>
    </trkpt>
    <trkpt lat="50.851207" lon="15.428933">
      <ele>1060</ele>
      <time>2026-05-07T10:30:11Z</time>
    </trkpt>
    <trkpt lat="50.851278" lon="15.428908">
      <ele>1061</ele>
      <time>2026-05-07T10:30:23Z</time>
    </trkpt>
    <trkpt lat="50.851346" lon="15.428841">
      <ele>1061</ele>
      <time>2026-05-07T10:30:37Z</time>
    </trkpt>
    <trkpt lat="50.851516" lon="15.428635">
      <ele>1062</ele>
      <time>2026-05-07T10:31:12Z</time>
    </trkpt>
    <trkpt lat="50.851653" lon="15.428868">
      <ele>1062</ele>
      <time>2026-05-07T10:31:45Z</time>
    </trkpt>
    <trkpt lat="50.851704" lon="15.42893">
      <ele>1062</ele>
      <time>2026-05-07T10:31:56Z</time>
    </trkpt>
    <trkpt lat="50.851758" lon="15.428949">
      <ele>1062</ele>
      <time>2026-05-07T10:32:05Z</time>
    </trkpt>
    <trkpt lat="50.851864" lon="15.428252">
      <ele>1065</ele>
      <time>2026-05-07T10:33:20Z</time>
    </trkpt>
    <trkpt lat="50.851985" lon="15.427152">
      <ele>1072</ele>
      <time>2026-05-07T10:35:17Z</time>
    </trkpt>
    <trkpt lat="50.852057" lon="15.42688">
      <ele>1074</ele>
      <time>2026-05-07T10:35:47Z</time>
    </trkpt>
    <trkpt lat="50.852125" lon="15.426667">
      <ele>1075</ele>
      <time>2026-05-07T10:36:12Z</time>
    </trkpt>
    <trkpt lat="50.852216" lon="15.426419">
      <ele>1077</ele>
      <time>2026-05-07T10:36:42Z</time>
    </trkpt>
    <trkpt lat="50.852282" lon="15.426211">
      <ele>1079</ele>
      <time>2026-05-07T10:37:07Z</time>
    </trkpt>
    <trkpt lat="50.852455" lon="15.425155">
      <ele>1088</ele>
      <time>2026-05-07T10:39:01Z</time>
    </trkpt>
    <trkpt lat="50.85249" lon="15.424588">
      <ele>1092</ele>
      <time>2026-05-07T10:40:01Z</time>
    </trkpt>
    <trkpt lat="50.8525" lon="15.424416">
      <ele>1092</ele>
      <time>2026-05-07T10:40:19Z</time>
    </trkpt>
    <trkpt lat="50.85249" lon="15.424588">
      <ele>1092</ele>
      <time>2026-05-07T10:40:29Z</time>
    </trkpt>
    <trkpt lat="50.852455" lon="15.425155">
      <ele>1088</ele>
      <time>2026-05-07T10:41:01Z</time>
    </trkpt>
    <trkpt lat="50.852282" lon="15.426211">
      <ele>1079</ele>
      <time>2026-05-07T10:42:02Z</time>
    </trkpt>
    <trkpt lat="50.852216" lon="15.426419">
      <ele>1077</ele>
      <time>2026-05-07T10:42:15Z</time>
    </trkpt>
    <trkpt lat="50.852125" lon="15.426667">
      <ele>1075</ele>
      <time>2026-05-07T10:42:31Z</time>
    </trkpt>
    <trkpt lat="50.852057" lon="15.42688">
      <ele>1074</ele>
      <time>2026-05-07T10:42:44Z</time>
    </trkpt>
    <trkpt lat="50.851985" lon="15.427152">
      <ele>1072</ele>
      <time>2026-05-07T10:43:01Z</time>
    </trkpt>
    <trkpt lat="50.851864" lon="15.428252">
      <ele>1065</ele>
      <time>2026-05-07T10:44:04Z</time>
    </trkpt>
    <trkpt lat="50.851758" lon="15.428949">
      <ele>1062</ele>
      <time>2026-05-07T10:44:44Z</time>
    </trkpt>
    <trkpt lat="50.851704" lon="15.42893">
      <ele>1062</ele>
      <time>2026-05-07T10:44:49Z</time>
    </trkpt>
    <trkpt lat="50.851653" lon="15.428868">
      <ele>1062</ele>
      <time>2026-05-07T10:44:54Z</time>
    </trkpt>
    <trkpt lat="50.851516" lon="15.428635">
      <ele>1062</ele>
      <time>2026-05-07T10:45:12Z</time>
    </trkpt>
    <trkpt lat="50.851346" lon="15.428841">
      <ele>1061</ele>
      <time>2026-05-07T10:45:31Z</time>
    </trkpt>
    <trkpt lat="50.851278" lon="15.428908">
      <ele>1061</ele>
      <time>2026-05-07T10:45:38Z</time>
    </trkpt>
    <trkpt lat="50.851207" lon="15.428933">
      <ele>1060</ele>
      <time>2026-05-07T10:45:45Z</time>
    </trkpt>
    <trkpt lat="50.851168" lon="15.428986">
      <ele>1060</ele>
      <time>2026-05-07T10:45:49Z</time>
    </trkpt>
    <trkpt lat="50.851156" lon="15.429096">
      <ele>1060</ele>
      <time>2026-05-07T10:45:55Z</time>
    </trkpt>
    <trkpt lat="50.851177" lon="15.429204">
      <ele>1060</ele>
      <time>2026-05-07T10:46:02Z</time>
    </trkpt>
    <trkpt lat="50.85117" lon="15.429258">
      <ele>1060</ele>
      <time>2026-05-07T10:46:05Z</time>
    </trkpt>
    <trkpt lat="50.85113" lon="15.429499">
      <ele>1059</ele>
      <time>2026-05-07T10:46:19Z</time>
    </trkpt>
    <trkpt lat="50.851085" lon="15.429603">
      <ele>1059</ele>
      <time>2026-05-07T10:46:26Z</time>
    </trkpt>
    <trkpt lat="50.851024" lon="15.429791">
      <ele>1058</ele>
      <time>2026-05-07T10:46:38Z</time>
    </trkpt>
    <trkpt lat="50.850983" lon="15.430016">
      <ele>1056</ele>
      <time>2026-05-07T10:46:51Z</time>
    </trkpt>
    <trkpt lat="50.850946" lon="15.430225">
      <ele>1056</ele>
      <time>2026-05-07T10:47:03Z</time>
    </trkpt>
    <trkpt lat="50.850909" lon="15.430311">
      <ele>1055</ele>
      <time>2026-05-07T10:47:09Z</time>
    </trkpt>
    <trkpt lat="50.850853" lon="15.43048">
      <ele>1054</ele>
      <time>2026-05-07T10:47:19Z</time>
    </trkpt>
    <trkpt lat="50.850802" lon="15.430704">
      <ele>1054</ele>
      <time>2026-05-07T10:47:33Z</time>
    </trkpt>
    <trkpt lat="50.850623" lon="15.431156">
      <ele>1053</ele>
      <time>2026-05-07T10:48:02Z</time>
    </trkpt>
    <trkpt lat="50.850547" lon="15.431287">
      <ele>1052</ele>
      <time>2026-05-07T10:48:12Z</time>
    </trkpt>
    <trkpt lat="50.850504" lon="15.431357">
      <ele>1051</ele>
      <time>2026-05-07T10:48:18Z</time>
    </trkpt>
    <trkpt lat="50.850462" lon="15.431416">
      <ele>1051</ele>
      <time>2026-05-07T10:48:23Z</time>
    </trkpt>
    <trkpt lat="50.850384" lon="15.431529">
      <ele>1050</ele>
      <time>2026-05-07T10:48:32Z</time>
    </trkpt>
    <trkpt lat="50.850219" lon="15.431765">
      <ele>1047</ele>
      <time>2026-05-07T10:48:52Z</time>
    </trkpt>
    <trkpt lat="50.850147" lon="15.431829">
      <ele>1046</ele>
      <time>2026-05-07T10:48:59Z</time>
    </trkpt>
    <trkpt lat="50.850096" lon="15.431845">
      <ele>1045</ele>
      <time>2026-05-07T10:49:04Z</time>
    </trkpt>
    <trkpt lat="50.85004" lon="15.431837">
      <ele>1044</ele>
      <time>2026-05-07T10:49:09Z</time>
    </trkpt>
    <trkpt lat="50.849986" lon="15.431827">
      <ele>1043</ele>
      <time>2026-05-07T10:49:14Z</time>
    </trkpt>
    <trkpt lat="50.849944" lon="15.43187">
      <ele>1042</ele>
      <time>2026-05-07T10:49:18Z</time>
    </trkpt>
    <trkpt lat="50.849792" lon="15.432083">
      <ele>1039</ele>
      <time>2026-05-07T10:49:37Z</time>
    </trkpt>
    <trkpt lat="50.84971" lon="15.432205">
      <ele>1037</ele>
      <time>2026-05-07T10:49:47Z</time>
    </trkpt>
    <trkpt lat="50.849624" lon="15.432267">
      <ele>1036</ele>
      <time>2026-05-07T10:49:55Z</time>
    </trkpt>
    <trkpt lat="50.849526" lon="15.432315">
      <ele>1034</ele>
      <time>2026-05-07T10:50:04Z</time>
    </trkpt>
    <trkpt lat="50.849414" lon="15.432414">
      <ele>1033</ele>
      <time>2026-05-07T10:50:16Z</time>
    </trkpt>
    <trkpt lat="50.849332" lon="15.432503">
      <ele>1032</ele>
      <time>2026-05-07T10:50:24Z</time>
    </trkpt>
    <trkpt lat="50.849222" lon="15.432564">
      <ele>1031</ele>
      <time>2026-05-07T10:50:35Z</time>
    </trkpt>
    <trkpt lat="50.849172" lon="15.432613">
      <ele>1031</ele>
      <time>2026-05-07T10:50:40Z</time>
    </trkpt>
    <trkpt lat="50.849151" lon="15.432735">
      <ele>1031</ele>
      <time>2026-05-07T10:50:47Z</time>
    </trkpt>
    <trkpt lat="50.849067" lon="15.432884">
      <ele>1029</ele>
      <time>2026-05-07T10:50:58Z</time>
    </trkpt>
    <trkpt lat="50.848975" lon="15.432992">
      <ele>1028</ele>
      <time>2026-05-07T10:51:08Z</time>
    </trkpt>
    <trkpt lat="50.848829" lon="15.43312">
      <ele>1025</ele>
      <time>2026-05-07T10:51:23Z</time>
    </trkpt>
    <trkpt lat="50.848745" lon="15.433251">
      <ele>1023</ele>
      <time>2026-05-07T10:51:34Z</time>
    </trkpt>
    <trkpt lat="50.848681" lon="15.433415">
      <ele>1022</ele>
      <time>2026-05-07T10:51:45Z</time>
    </trkpt>
    <trkpt lat="50.84846" lon="15.433702">
      <ele>1019</ele>
      <time>2026-05-07T10:52:10Z</time>
    </trkpt>
    <trkpt lat="50.848282" lon="15.433876">
      <ele>1015</ele>
      <time>2026-05-07T10:52:29Z</time>
    </trkpt>
    <trkpt lat="50.84821" lon="15.433986">
      <ele>1014</ele>
      <time>2026-05-07T10:52:38Z</time>
    </trkpt>
    <trkpt lat="50.848095" lon="15.434168">
      <ele>1012</ele>
      <time>2026-05-07T10:52:52Z</time>
    </trkpt>
    <trkpt lat="50.847981" lon="15.434249">
      <ele>1009</ele>
      <time>2026-05-07T10:53:03Z</time>
    </trkpt>
    <trkpt lat="50.847873" lon="15.434289">
      <ele>1007</ele>
      <time>2026-05-07T10:53:13Z</time>
    </trkpt>
    <trkpt lat="50.847783" lon="15.434329">
      <ele>1006</ele>
      <time>2026-05-07T10:53:22Z</time>
    </trkpt>
    <trkpt lat="50.847688" lon="15.434394">
      <ele>1005</ele>
      <time>2026-05-07T10:53:31Z</time>
    </trkpt>
    <trkpt lat="50.847529" lon="15.434444">
      <ele>1003</ele>
      <time>2026-05-07T10:53:45Z</time>
    </trkpt>
    <trkpt lat="50.847437" lon="15.434509">
      <ele>1002</ele>
      <time>2026-05-07T10:53:54Z</time>
    </trkpt>
    <trkpt lat="50.847356" lon="15.434546">
      <ele>1001</ele>
      <time>2026-05-07T10:54:02Z</time>
    </trkpt>
    <trkpt lat="50.847273" lon="15.434584">
      <ele>1000</ele>
      <time>2026-05-07T10:54:09Z</time>
    </trkpt>
    <trkpt lat="50.84718" lon="15.434654">
      <ele>999</ele>
      <time>2026-05-07T10:54:19Z</time>
    </trkpt>
    <trkpt lat="50.8471" lon="15.434694">
      <ele>998</ele>
      <time>2026-05-07T10:54:26Z</time>
    </trkpt>
    <trkpt lat="50.846989" lon="15.434721">
      <ele>997</ele>
      <time>2026-05-07T10:54:36Z</time>
    </trkpt>
    <trkpt lat="50.846872" lon="15.434775">
      <ele>995</ele>
      <time>2026-05-07T10:54:47Z</time>
    </trkpt>
    <trkpt lat="50.84673" lon="15.434844">
      <ele>994</ele>
      <time>2026-05-07T10:55:00Z</time>
    </trkpt>
    <trkpt lat="50.846527" lon="15.434953">
      <ele>993</ele>
      <time>2026-05-07T10:55:19Z</time>
    </trkpt>
    <trkpt lat="50.846461" lon="15.434367">
      <ele>988</ele>
      <time>2026-05-07T10:55:57Z</time>
    </trkpt>
    <trkpt lat="50.846441" lon="15.43412">
      <ele>988</ele>
      <time>2026-05-07T10:56:13Z</time>
    </trkpt>
    <trkpt lat="50.846405" lon="15.433947">
      <ele>987</ele>
      <time>2026-05-07T10:56:25Z</time>
    </trkpt>
    <trkpt lat="50.846348" lon="15.433773">
      <ele>988</ele>
      <time>2026-05-07T10:56:38Z</time>
    </trkpt>
    <trkpt lat="50.846235" lon="15.433594">
      <ele>989</ele>
      <time>2026-05-07T10:56:54Z</time>
    </trkpt>
    <trkpt lat="50.845983" lon="15.433302">
      <ele>989</ele>
      <time>2026-05-07T10:57:25Z</time>
    </trkpt>
    <trkpt lat="50.845828" lon="15.433088">
      <ele>990</ele>
      <time>2026-05-07T10:57:46Z</time>
    </trkpt>
    <trkpt lat="50.845406" lon="15.432412">
      <ele>988</ele>
      <time>2026-05-07T10:58:47Z</time>
    </trkpt>
    <trkpt lat="50.845041" lon="15.431931">
      <ele>988</ele>
      <time>2026-05-07T10:59:35Z</time>
    </trkpt>
    <trkpt lat="50.844476" lon="15.431339">
      <ele>983</ele>
      <time>2026-05-07T11:00:44Z</time>
    </trkpt>
    <trkpt lat="50.844259" lon="15.431144">
      <ele>982</ele>
      <time>2026-05-07T11:01:09Z</time>
    </trkpt>
    <trkpt lat="50.84396" lon="15.430923">
      <ele>981</ele>
      <time>2026-05-07T11:01:43Z</time>
    </trkpt>
    <trkpt lat="50.843086" lon="15.430402">
      <ele>974</ele>
      <time>2026-05-07T11:03:18Z</time>
    </trkpt>
    <trkpt lat="50.842555" lon="15.429885">
      <ele>975</ele>
      <time>2026-05-07T11:04:21Z</time>
    </trkpt>
    <trkpt lat="50.842448" lon="15.429814">
      <ele>976</ele>
      <time>2026-05-07T11:04:33Z</time>
    </trkpt>
    <trkpt lat="50.841601" lon="15.429427">
      <ele>975</ele>
      <time>2026-05-07T11:06:02Z</time>
    </trkpt>
    <trkpt lat="50.841168" lon="15.429271">
      <ele>972</ele>
      <time>2026-05-07T11:06:47Z</time>
    </trkpt>
    <trkpt lat="50.840919" lon="15.429122">
      <ele>972</ele>
      <time>2026-05-07T11:07:14Z</time>
    </trkpt>
    <trkpt lat="50.840636" lon="15.428829">
      <ele>972</ele>
      <time>2026-05-07T11:07:49Z</time>
    </trkpt>
    <trkpt lat="50.840325" lon="15.428424">
      <ele>969</ele>
      <time>2026-05-07T11:08:30Z</time>
    </trkpt>
    <trkpt lat="50.840224" lon="15.428264">
      <ele>968</ele>
      <time>2026-05-07T11:08:44Z</time>
    </trkpt>
    <trkpt lat="50.84012" lon="15.428051">
      <ele>967</ele>
      <time>2026-05-07T11:09:01Z</time>
    </trkpt>
    <trkpt lat="50.840029" lon="15.427704">
      <ele>966</ele>
      <time>2026-05-07T11:09:25Z</time>
    </trkpt>
    <trkpt lat="50.839941" lon="15.427149">
      <ele>964</ele>
      <time>2026-05-07T11:10:02Z</time>
    </trkpt>
    <trkpt lat="50.839921" lon="15.426899">
      <ele>963</ele>
      <time>2026-05-07T11:10:18Z</time>
    </trkpt>
    <trkpt lat="50.83991" lon="15.426502">
      <ele>962</ele>
      <time>2026-05-07T11:10:44Z</time>
    </trkpt>
    <trkpt lat="50.839937" lon="15.42574">
      <ele>961</ele>
      <time>2026-05-07T11:11:33Z</time>
    </trkpt>
    <trkpt lat="50.83993" lon="15.4256">
      <ele>961</ele>
      <time>2026-05-07T11:11:42Z</time>
    </trkpt>
    <trkpt lat="50.839832" lon="15.424543">
      <ele>955</ele>
      <time>2026-05-07T11:12:50Z</time>
    </trkpt>
    <trkpt lat="50.839751" lon="15.423926">
      <ele>953</ele>
      <time>2026-05-07T11:13:31Z</time>
    </trkpt>
    <trkpt lat="50.839733" lon="15.423673">
      <ele>951</ele>
      <time>2026-05-07T11:13:47Z</time>
    </trkpt>
    <trkpt lat="50.839747" lon="15.423152">
      <ele>950</ele>
      <time>2026-05-07T11:14:20Z</time>
    </trkpt>
    <trkpt lat="50.839814" lon="15.422572">
      <ele>949</ele>
      <time>2026-05-07T11:14:58Z</time>
    </trkpt>
    <trkpt lat="50.83979" lon="15.422138">
      <ele>948</ele>
      <time>2026-05-07T11:15:26Z</time>
    </trkpt>
    <trkpt lat="50.839746" lon="15.421897">
      <ele>948</ele>
      <time>2026-05-07T11:15:42Z</time>
    </trkpt>
    <trkpt lat="50.839664" lon="15.42168">
      <ele>947</ele>
      <time>2026-05-07T11:15:58Z</time>
    </trkpt>
    <trkpt lat="50.839579" lon="15.421516">
      <ele>947</ele>
      <time>2026-05-07T11:16:12Z</time>
    </trkpt>
    <trkpt lat="50.839423" lon="15.421272">
      <ele>946</ele>
      <time>2026-05-07T11:16:34Z</time>
    </trkpt>
    <trkpt lat="50.839254" lon="15.421007">
      <ele>946</ele>
      <time>2026-05-07T11:16:58Z</time>
    </trkpt>
    <trkpt lat="50.839118" lon="15.420849">
      <ele>947</ele>
      <time>2026-05-07T11:17:16Z</time>
    </trkpt>
    <trkpt lat="50.83822" lon="15.420135">
      <ele>950</ele>
      <time>2026-05-07T11:18:57Z</time>
    </trkpt>
    <trkpt lat="50.83814" lon="15.420055">
      <ele>950</ele>
      <time>2026-05-07T11:19:07Z</time>
    </trkpt>
    <trkpt lat="50.838002" lon="15.419917">
      <ele>950</ele>
      <time>2026-05-07T11:19:24Z</time>
    </trkpt>
    <trkpt lat="50.837869" lon="15.41975">
      <ele>951</ele>
      <time>2026-05-07T11:19:41Z</time>
    </trkpt>
    <trkpt lat="50.837637" lon="15.419394">
      <ele>951</ele>
      <time>2026-05-07T11:20:14Z</time>
    </trkpt>
    <trkpt lat="50.837435" lon="15.419033">
      <ele>951</ele>
      <time>2026-05-07T11:20:44Z</time>
    </trkpt>
    <trkpt lat="50.837297" lon="15.418739">
      <ele>951</ele>
      <time>2026-05-07T11:21:08Z</time>
    </trkpt>
    <trkpt lat="50.836944" lon="15.417875">
      <ele>948</ele>
      <time>2026-05-07T11:22:14Z</time>
    </trkpt>
    <trkpt lat="50.836831" lon="15.417648">
      <ele>947</ele>
      <time>2026-05-07T11:22:32Z</time>
    </trkpt>
    <trkpt lat="50.836567" lon="15.417119">
      <ele>946</ele>
      <time>2026-05-07T11:23:16Z</time>
    </trkpt>
    <trkpt lat="50.836116" lon="15.416274">
      <ele>945</ele>
      <time>2026-05-07T11:24:26Z</time>
    </trkpt>
    <trkpt lat="50.835924" lon="15.415958">
      <ele>944</ele>
      <time>2026-05-07T11:24:55Z</time>
    </trkpt>
    <trkpt lat="50.83574" lon="15.415712">
      <ele>943</ele>
      <time>2026-05-07T11:25:19Z</time>
    </trkpt>
    <trkpt lat="50.835504" lon="15.416128">
      <ele>941</ele>
      <time>2026-05-07T11:25:52Z</time>
    </trkpt>
    <trkpt lat="50.835089" lon="15.416993">
      <ele>938</ele>
      <time>2026-05-07T11:26:56Z</time>
    </trkpt>
    <trkpt lat="50.83486" lon="15.417626">
      <ele>936</ele>
      <time>2026-05-07T11:27:40Z</time>
    </trkpt>
    <trkpt lat="50.834752" lon="15.417873">
      <ele>936</ele>
      <time>2026-05-07T11:27:57Z</time>
    </trkpt>
    <trkpt lat="50.834586" lon="15.418257">
      <ele>935</ele>
      <time>2026-05-07T11:28:25Z</time>
    </trkpt>
    <trkpt lat="50.83449" lon="15.418406">
      <ele>935</ele>
      <time>2026-05-07T11:28:38Z</time>
    </trkpt>
    <trkpt lat="50.834277" lon="15.418663">
      <ele>933</ele>
      <time>2026-05-07T11:29:03Z</time>
    </trkpt>
    <trkpt lat="50.833727" lon="15.41918">
      <ele>929</ele>
      <time>2026-05-07T11:30:03Z</time>
    </trkpt>
    <trkpt lat="50.833509" lon="15.419333">
      <ele>928</ele>
      <time>2026-05-07T11:30:25Z</time>
    </trkpt>
    <trkpt lat="50.833003" lon="15.419601">
      <ele>929</ele>
      <time>2026-05-07T11:31:15Z</time>
    </trkpt>
    <trkpt lat="50.832879" lon="15.419709">
      <ele>928</ele>
      <time>2026-05-07T11:31:28Z</time>
    </trkpt>
    <trkpt lat="50.832344" lon="15.420417">
      <ele>926</ele>
      <time>2026-05-07T11:32:34Z</time>
    </trkpt>
    <trkpt lat="50.832274" lon="15.420563">
      <ele>926</ele>
      <time>2026-05-07T11:32:44Z</time>
    </trkpt>
    <trkpt lat="50.831925" lon="15.421585">
      <ele>922</ele>
      <time>2026-05-07T11:33:53Z</time>
    </trkpt>
    <trkpt lat="50.831225" lon="15.423447">
      <ele>921</ele>
      <time>2026-05-07T11:36:01Z</time>
    </trkpt>
    <trkpt lat="50.830677" lon="15.425055">
      <ele>919</ele>
      <time>2026-05-07T11:37:50Z</time>
    </trkpt>
    <trkpt lat="50.8305" lon="15.425507">
      <ele>920</ele>
      <time>2026-05-07T11:38:21Z</time>
    </trkpt>
    <trkpt lat="50.830124" lon="15.426069">
      <ele>922</ele>
      <time>2026-05-07T11:39:10Z</time>
    </trkpt>
    <trkpt lat="50.829915" lon="15.426736">
      <ele>917</ele>
      <time>2026-05-07T11:39:54Z</time>
    </trkpt>
    <trkpt lat="50.829697" lon="15.427068">
      <ele>915</ele>
      <time>2026-05-07T11:40:22Z</time>
    </trkpt>
    <trkpt lat="50.829448" lon="15.427289">
      <ele>913</ele>
      <time>2026-05-07T11:40:49Z</time>
    </trkpt>
    <trkpt lat="50.828964" lon="15.427618">
      <ele>913</ele>
      <time>2026-05-07T11:41:38Z</time>
    </trkpt>
    <trkpt lat="50.828804" lon="15.42782">
      <ele>912</ele>
      <time>2026-05-07T11:41:58Z</time>
    </trkpt>
    <trkpt lat="50.828673" lon="15.428119">
      <ele>911</ele>
      <time>2026-05-07T11:42:19Z</time>
    </trkpt>
    <trkpt lat="50.828522" lon="15.428613">
      <ele>910</ele>
      <time>2026-05-07T11:42:52Z</time>
    </trkpt>
    <trkpt lat="50.828381" lon="15.428923">
      <ele>909</ele>
      <time>2026-05-07T11:43:14Z</time>
    </trkpt>
    <trkpt lat="50.828252" lon="15.429118">
      <ele>909</ele>
      <time>2026-05-07T11:43:31Z</time>
    </trkpt>
    <trkpt lat="50.828009" lon="15.429357">
      <ele>910</ele>
      <time>2026-05-07T11:43:58Z</time>
    </trkpt>
    <trkpt lat="50.827882" lon="15.429533">
      <ele>910</ele>
      <time>2026-05-07T11:44:13Z</time>
    </trkpt>
    <trkpt lat="50.827802" lon="15.429719">
      <ele>909</ele>
      <time>2026-05-07T11:44:27Z</time>
    </trkpt>
    <trkpt lat="50.82754" lon="15.430514">
      <ele>906</ele>
      <time>2026-05-07T11:45:20Z</time>
    </trkpt>
    <trkpt lat="50.827236" lon="15.431228">
      <ele>905</ele>
      <time>2026-05-07T11:46:11Z</time>
    </trkpt>
    <trkpt lat="50.827017" lon="15.431622">
      <ele>904</ele>
      <time>2026-05-07T11:46:42Z</time>
    </trkpt>
    <trkpt lat="50.826385" lon="15.432519">
      <ele>903</ele>
      <time>2026-05-07T11:48:01Z</time>
    </trkpt>
    <trkpt lat="50.826112" lon="15.432841">
      <ele>903</ele>
      <time>2026-05-07T11:48:33Z</time>
    </trkpt>
    <trkpt lat="50.825901" lon="15.433042">
      <ele>903</ele>
      <time>2026-05-07T11:48:56Z</time>
    </trkpt>
    <trkpt lat="50.825696" lon="15.433219">
      <ele>902</ele>
      <time>2026-05-07T11:49:18Z</time>
    </trkpt>
    <trkpt lat="50.825523" lon="15.433372">
      <ele>901</ele>
      <time>2026-05-07T11:49:37Z</time>
    </trkpt>
    <trkpt lat="50.825276" lon="15.433522">
      <ele>902</ele>
      <time>2026-05-07T11:50:02Z</time>
    </trkpt>
    <trkpt lat="50.824835" lon="15.433792">
      <ele>902</ele>
      <time>2026-05-07T11:50:46Z</time>
    </trkpt>
    <trkpt lat="50.824768" lon="15.433863">
      <ele>901</ele>
      <time>2026-05-07T11:50:54Z</time>
    </trkpt>
    <trkpt lat="50.82471" lon="15.433958">
      <ele>900</ele>
      <time>2026-05-07T11:51:01Z</time>
    </trkpt>
    <trkpt lat="50.824459" lon="15.434349">
      <ele>896</ele>
      <time>2026-05-07T11:51:35Z</time>
    </trkpt>
    <trkpt lat="50.824415" lon="15.434422">
      <ele>895</ele>
      <time>2026-05-07T11:51:41Z</time>
    </trkpt>
    <trkpt lat="50.824372" lon="15.434485">
      <ele>895</ele>
      <time>2026-05-07T11:51:46Z</time>
    </trkpt>
    <trkpt lat="50.824181" lon="15.43472">
      <ele>895</ele>
      <time>2026-05-07T11:52:09Z</time>
    </trkpt>
    <trkpt lat="50.823943" lon="15.434967">
      <ele>895</ele>
      <time>2026-05-07T11:52:35Z</time>
    </trkpt>
    <trkpt lat="50.823437" lon="15.435391">
      <ele>891</ele>
      <time>2026-05-07T11:53:29Z</time>
    </trkpt>
    <trkpt lat="50.823267" lon="15.435534">
      <ele>890</ele>
      <time>2026-05-07T11:53:47Z</time>
    </trkpt>
    <trkpt lat="50.822962" lon="15.435768">
      <ele>889</ele>
      <time>2026-05-07T11:54:19Z</time>
    </trkpt>
    <trkpt lat="50.822934" lon="15.435714">
      <ele>890</ele>
      <time>2026-05-07T11:54:23Z</time>
    </trkpt>
    <trkpt lat="50.822898" lon="15.435703">
      <ele>890</ele>
      <time>2026-05-07T11:54:27Z</time>
    </trkpt>
    <trkpt lat="50.822655" lon="15.435745">
      <ele>889</ele>
      <time>2026-05-07T11:54:50Z</time>
    </trkpt>
    <trkpt lat="50.822474" lon="15.43575">
      <ele>888</ele>
      <time>2026-05-07T11:55:08Z</time>
    </trkpt>
    <trkpt lat="50.822288" lon="15.435657">
      <ele>888</ele>
      <time>2026-05-07T11:55:27Z</time>
    </trkpt>
    <trkpt lat="50.821922" lon="15.435428">
      <ele>890</ele>
      <time>2026-05-07T11:56:05Z</time>
    </trkpt>
    <trkpt lat="50.821706" lon="15.43521">
      <ele>892</ele>
      <time>2026-05-07T11:56:30Z</time>
    </trkpt>
    <trkpt lat="50.821529" lon="15.435073">
      <ele>893</ele>
      <time>2026-05-07T11:56:49Z</time>
    </trkpt>
    <trkpt lat="50.821309" lon="15.435056">
      <ele>891</ele>
      <time>2026-05-07T11:57:10Z</time>
    </trkpt>
    <trkpt lat="50.820902" lon="15.434964">
      <ele>889</ele>
      <time>2026-05-07T11:57:50Z</time>
    </trkpt>
    <trkpt lat="50.82062" lon="15.434709">
      <ele>889</ele>
      <time>2026-05-07T11:58:21Z</time>
    </trkpt>
    <trkpt lat="50.820379" lon="15.434624">
      <ele>889</ele>
      <time>2026-05-07T11:58:45Z</time>
    </trkpt>
    <trkpt lat="50.819708" lon="15.434101">
      <ele>886</ele>
      <time>2026-05-07T11:59:58Z</time>
    </trkpt>
    <trkpt lat="50.819104" lon="15.433386">
      <ele>889</ele>
      <time>2026-05-07T12:01:11Z</time>
    </trkpt>
    <trkpt lat="50.818934" lon="15.433273">
      <ele>889</ele>
      <time>2026-05-07T12:01:29Z</time>
    </trkpt>
    <trkpt lat="50.818554" lon="15.432961">
      <ele>889</ele>
      <time>2026-05-07T12:02:10Z</time>
    </trkpt>
    <trkpt lat="50.81843" lon="15.432641">
      <ele>891</ele>
      <time>2026-05-07T12:02:33Z</time>
    </trkpt>
    <trkpt lat="50.81835" lon="15.432629">
      <ele>891</ele>
      <time>2026-05-07T12:02:41Z</time>
    </trkpt>
    <trkpt lat="50.818153" lon="15.432536">
      <ele>892</ele>
      <time>2026-05-07T12:03:01Z</time>
    </trkpt>
    <trkpt lat="50.817729" lon="15.432217">
      <ele>893</ele>
      <time>2026-05-07T12:03:46Z</time>
    </trkpt>
    <trkpt lat="50.817409" lon="15.432039">
      <ele>891</ele>
      <time>2026-05-07T12:04:19Z</time>
    </trkpt>
    <trkpt lat="50.817404" lon="15.431906">
      <ele>891</ele>
      <time>2026-05-07T12:04:35Z</time>
    </trkpt>
    <trkpt lat="50.817404" lon="15.431741">
      <ele>892</ele>
      <time>2026-05-07T12:04:56Z</time>
    </trkpt>
    <trkpt lat="50.8174158" lon="15.431554">
      <ele>893</ele>
      <time>2026-05-07T12:05:19Z</time>
    </trkpt>
  </trkseg>
</trk>
</gpx>