<?xml version="1.0" encoding="UTF-8"?><gpx creator="https://mapa-turystyczna.pl" xmlns="http://www.topografix.com/GPX/1/1" version="1.1" xmlns:xsi="http://www.w3.org/2001/XMLSchema-instance" xsi:schemaLocation="http://www.topografix.com/GPX/1/1 http://www.topografix.com/GPX/1/1/gpx.xsd">
  <metadata>
    <link href="https://mapa-turystyczna.pl">
      <text>mapa-turystyczna.pl</text>
    </link>
    <time>2026-05-07T08:43:19Z</time>
    <bounds maxlat="50.866306" maxlon="15.491945" minlat="50.845118" minlon="15.389528"/>
  </metadata>

<trk>
  <name>Rozdroże Izerskie – Rozdroże Izerskie</name>
  <link href="https://mapa-turystyczna.pl/route/ovbv">
    <text>Rozdroże Izerskie – Rozdroże Izerskie</text>
  </link>
  <trkseg>
    <trkpt lat="50.865316" lon="15.448544">
      <ele>769</ele>
      <time>2026-05-07T08:43:19Z</time>
    </trkpt>
    <trkpt lat="50.865038" lon="15.448447">
      <ele>770</ele>
      <time>2026-05-07T08:43:57Z</time>
    </trkpt>
    <trkpt lat="50.864778" lon="15.448318">
      <ele>770</ele>
      <time>2026-05-07T08:44:34Z</time>
    </trkpt>
    <trkpt lat="50.864695" lon="15.448227">
      <ele>770</ele>
      <time>2026-05-07T08:44:47Z</time>
    </trkpt>
    <trkpt lat="50.864623" lon="15.448172">
      <ele>770</ele>
      <time>2026-05-07T08:44:58Z</time>
    </trkpt>
    <trkpt lat="50.864524" lon="15.448128">
      <ele>769</ele>
      <time>2026-05-07T08:45:12Z</time>
    </trkpt>
    <trkpt lat="50.864159" lon="15.447964">
      <ele>769</ele>
      <time>2026-05-07T08:46:02Z</time>
    </trkpt>
    <trkpt lat="50.863763" lon="15.447798">
      <ele>770</ele>
      <time>2026-05-07T08:46:57Z</time>
    </trkpt>
    <trkpt lat="50.863585" lon="15.44772">
      <ele>771</ele>
      <time>2026-05-07T08:47:22Z</time>
    </trkpt>
    <trkpt lat="50.86339" lon="15.447609">
      <ele>773</ele>
      <time>2026-05-07T08:47:50Z</time>
    </trkpt>
    <trkpt lat="50.862956" lon="15.447296">
      <ele>776</ele>
      <time>2026-05-07T08:48:53Z</time>
    </trkpt>
    <trkpt lat="50.862306" lon="15.446825">
      <ele>780</ele>
      <time>2026-05-07T08:50:29Z</time>
    </trkpt>
    <trkpt lat="50.862138" lon="15.446699">
      <ele>781</ele>
      <time>2026-05-07T08:50:54Z</time>
    </trkpt>
    <trkpt lat="50.862068" lon="15.446646">
      <ele>781</ele>
      <time>2026-05-07T08:51:05Z</time>
    </trkpt>
    <trkpt lat="50.861813" lon="15.446472">
      <ele>782</ele>
      <time>2026-05-07T08:51:42Z</time>
    </trkpt>
    <trkpt lat="50.861672" lon="15.446387">
      <ele>783</ele>
      <time>2026-05-07T08:52:02Z</time>
    </trkpt>
    <trkpt lat="50.861477" lon="15.446278">
      <ele>784</ele>
      <time>2026-05-07T08:52:30Z</time>
    </trkpt>
    <trkpt lat="50.861234" lon="15.446166">
      <ele>784</ele>
      <time>2026-05-07T08:53:03Z</time>
    </trkpt>
    <trkpt lat="50.861118" lon="15.446146">
      <ele>784</ele>
      <time>2026-05-07T08:53:19Z</time>
    </trkpt>
    <trkpt lat="50.861013" lon="15.445551">
      <ele>782</ele>
      <time>2026-05-07T08:54:11Z</time>
    </trkpt>
    <trkpt lat="50.860907" lon="15.445046">
      <ele>783</ele>
      <time>2026-05-07T08:54:57Z</time>
    </trkpt>
    <trkpt lat="50.860781" lon="15.444544">
      <ele>788</ele>
      <time>2026-05-07T08:55:43Z</time>
    </trkpt>
    <trkpt lat="50.860534" lon="15.443959">
      <ele>792</ele>
      <time>2026-05-07T08:56:43Z</time>
    </trkpt>
    <trkpt lat="50.860444" lon="15.443747">
      <ele>794</ele>
      <time>2026-05-07T08:57:05Z</time>
    </trkpt>
    <trkpt lat="50.860408" lon="15.443661">
      <ele>795</ele>
      <time>2026-05-07T08:57:13Z</time>
    </trkpt>
    <trkpt lat="50.860286" lon="15.443377">
      <ele>797</ele>
      <time>2026-05-07T08:57:43Z</time>
    </trkpt>
    <trkpt lat="50.860214" lon="15.443068">
      <ele>799</ele>
      <time>2026-05-07T08:58:11Z</time>
    </trkpt>
    <trkpt lat="50.860184" lon="15.442745">
      <ele>800</ele>
      <time>2026-05-07T08:58:38Z</time>
    </trkpt>
    <trkpt lat="50.860175" lon="15.44244">
      <ele>801</ele>
      <time>2026-05-07T08:59:04Z</time>
    </trkpt>
    <trkpt lat="50.860192" lon="15.44175">
      <ele>804</ele>
      <time>2026-05-07T09:00:03Z</time>
    </trkpt>
    <trkpt lat="50.860232" lon="15.44112">
      <ele>805</ele>
      <time>2026-05-07T09:00:57Z</time>
    </trkpt>
    <trkpt lat="50.860254" lon="15.44078">
      <ele>807</ele>
      <time>2026-05-07T09:01:26Z</time>
    </trkpt>
    <trkpt lat="50.860255" lon="15.440523">
      <ele>808</ele>
      <time>2026-05-07T09:01:48Z</time>
    </trkpt>
    <trkpt lat="50.860228" lon="15.440284">
      <ele>810</ele>
      <time>2026-05-07T09:02:08Z</time>
    </trkpt>
    <trkpt lat="50.860189" lon="15.440047">
      <ele>812</ele>
      <time>2026-05-07T09:02:29Z</time>
    </trkpt>
    <trkpt lat="50.860157" lon="15.439882">
      <ele>814</ele>
      <time>2026-05-07T09:02:44Z</time>
    </trkpt>
    <trkpt lat="50.860133" lon="15.439744">
      <ele>815</ele>
      <time>2026-05-07T09:02:56Z</time>
    </trkpt>
    <trkpt lat="50.860129" lon="15.439639">
      <ele>816</ele>
      <time>2026-05-07T09:03:05Z</time>
    </trkpt>
    <trkpt lat="50.86014" lon="15.439526">
      <ele>817</ele>
      <time>2026-05-07T09:03:15Z</time>
    </trkpt>
    <trkpt lat="50.860177" lon="15.439446">
      <ele>817</ele>
      <time>2026-05-07T09:03:23Z</time>
    </trkpt>
    <trkpt lat="50.860233" lon="15.439383">
      <ele>816</ele>
      <time>2026-05-07T09:03:33Z</time>
    </trkpt>
    <trkpt lat="50.860303" lon="15.439333">
      <ele>816</ele>
      <time>2026-05-07T09:03:43Z</time>
    </trkpt>
    <trkpt lat="50.860406" lon="15.439302">
      <ele>816</ele>
      <time>2026-05-07T09:03:57Z</time>
    </trkpt>
    <trkpt lat="50.860486" lon="15.439265">
      <ele>816</ele>
      <time>2026-05-07T09:04:08Z</time>
    </trkpt>
    <trkpt lat="50.860547" lon="15.43922">
      <ele>816</ele>
      <time>2026-05-07T09:04:17Z</time>
    </trkpt>
    <trkpt lat="50.860667" lon="15.439106">
      <ele>816</ele>
      <time>2026-05-07T09:04:36Z</time>
    </trkpt>
    <trkpt lat="50.860738" lon="15.438999">
      <ele>817</ele>
      <time>2026-05-07T09:04:49Z</time>
    </trkpt>
    <trkpt lat="50.860883" lon="15.438731">
      <ele>818</ele>
      <time>2026-05-07T09:05:19Z</time>
    </trkpt>
    <trkpt lat="50.861013" lon="15.438473">
      <ele>818</ele>
      <time>2026-05-07T09:05:47Z</time>
    </trkpt>
    <trkpt lat="50.861101" lon="15.438209">
      <ele>818</ele>
      <time>2026-05-07T09:06:13Z</time>
    </trkpt>
    <trkpt lat="50.861326" lon="15.437484">
      <ele>820</ele>
      <time>2026-05-07T09:07:21Z</time>
    </trkpt>
    <trkpt lat="50.861424" lon="15.43715">
      <ele>821</ele>
      <time>2026-05-07T09:07:53Z</time>
    </trkpt>
    <trkpt lat="50.861637" lon="15.436475">
      <ele>824</ele>
      <time>2026-05-07T09:08:57Z</time>
    </trkpt>
    <trkpt lat="50.861828" lon="15.435911">
      <ele>826</ele>
      <time>2026-05-07T09:09:51Z</time>
    </trkpt>
    <trkpt lat="50.861944" lon="15.435527">
      <ele>826</ele>
      <time>2026-05-07T09:10:27Z</time>
    </trkpt>
    <trkpt lat="50.861994" lon="15.435353">
      <ele>826</ele>
      <time>2026-05-07T09:10:43Z</time>
    </trkpt>
    <trkpt lat="50.86203" lon="15.43519">
      <ele>826</ele>
      <time>2026-05-07T09:10:58Z</time>
    </trkpt>
    <trkpt lat="50.862044" lon="15.435023">
      <ele>826</ele>
      <time>2026-05-07T09:11:12Z</time>
    </trkpt>
    <trkpt lat="50.862041" lon="15.434883">
      <ele>826</ele>
      <time>2026-05-07T09:11:24Z</time>
    </trkpt>
    <trkpt lat="50.861941" lon="15.434301">
      <ele>830</ele>
      <time>2026-05-07T09:12:16Z</time>
    </trkpt>
    <trkpt lat="50.861914" lon="15.433938">
      <ele>833</ele>
      <time>2026-05-07T09:12:47Z</time>
    </trkpt>
    <trkpt lat="50.861897" lon="15.433552">
      <ele>834</ele>
      <time>2026-05-07T09:13:20Z</time>
    </trkpt>
    <trkpt lat="50.861865" lon="15.433224">
      <ele>836</ele>
      <time>2026-05-07T09:13:48Z</time>
    </trkpt>
    <trkpt lat="50.861859" lon="15.433075">
      <ele>836</ele>
      <time>2026-05-07T09:14:00Z</time>
    </trkpt>
    <trkpt lat="50.86186" lon="15.432944">
      <ele>837</ele>
      <time>2026-05-07T09:14:12Z</time>
    </trkpt>
    <trkpt lat="50.861886" lon="15.432862">
      <ele>836</ele>
      <time>2026-05-07T09:14:19Z</time>
    </trkpt>
    <trkpt lat="50.861923" lon="15.432807">
      <ele>835</ele>
      <time>2026-05-07T09:14:26Z</time>
    </trkpt>
    <trkpt lat="50.861958" lon="15.432781">
      <ele>835</ele>
      <time>2026-05-07T09:14:31Z</time>
    </trkpt>
    <trkpt lat="50.861996" lon="15.432768">
      <ele>835</ele>
      <time>2026-05-07T09:14:37Z</time>
    </trkpt>
    <trkpt lat="50.862076" lon="15.43277">
      <ele>835</ele>
      <time>2026-05-07T09:14:47Z</time>
    </trkpt>
    <trkpt lat="50.862179" lon="15.432776">
      <ele>834</ele>
      <time>2026-05-07T09:15:01Z</time>
    </trkpt>
    <trkpt lat="50.862362" lon="15.432765">
      <ele>834</ele>
      <time>2026-05-07T09:15:26Z</time>
    </trkpt>
    <trkpt lat="50.862476" lon="15.432722">
      <ele>835</ele>
      <time>2026-05-07T09:15:42Z</time>
    </trkpt>
    <trkpt lat="50.862565" lon="15.432673">
      <ele>835</ele>
      <time>2026-05-07T09:15:54Z</time>
    </trkpt>
    <trkpt lat="50.862671" lon="15.432599">
      <ele>835</ele>
      <time>2026-05-07T09:16:10Z</time>
    </trkpt>
    <trkpt lat="50.862798" lon="15.432491">
      <ele>836</ele>
      <time>2026-05-07T09:16:29Z</time>
    </trkpt>
    <trkpt lat="50.862868" lon="15.432408">
      <ele>837</ele>
      <time>2026-05-07T09:16:41Z</time>
    </trkpt>
    <trkpt lat="50.862938" lon="15.432287">
      <ele>837</ele>
      <time>2026-05-07T09:16:55Z</time>
    </trkpt>
    <trkpt lat="50.863129" lon="15.431939">
      <ele>839</ele>
      <time>2026-05-07T09:17:34Z</time>
    </trkpt>
    <trkpt lat="50.863366" lon="15.431503">
      <ele>839</ele>
      <time>2026-05-07T09:18:23Z</time>
    </trkpt>
    <trkpt lat="50.863616" lon="15.430977">
      <ele>841</ele>
      <time>2026-05-07T09:19:19Z</time>
    </trkpt>
    <trkpt lat="50.863801" lon="15.430505">
      <ele>845</ele>
      <time>2026-05-07T09:20:06Z</time>
    </trkpt>
    <trkpt lat="50.864013" lon="15.430045">
      <ele>850</ele>
      <time>2026-05-07T09:20:55Z</time>
    </trkpt>
    <trkpt lat="50.864229" lon="15.429633">
      <ele>850</ele>
      <time>2026-05-07T09:21:40Z</time>
    </trkpt>
    <trkpt lat="50.864436" lon="15.429237">
      <ele>848</ele>
      <time>2026-05-07T09:22:24Z</time>
    </trkpt>
    <trkpt lat="50.864633" lon="15.428841">
      <ele>850</ele>
      <time>2026-05-07T09:23:07Z</time>
    </trkpt>
    <trkpt lat="50.864754" lon="15.428599">
      <ele>851</ele>
      <time>2026-05-07T09:23:33Z</time>
    </trkpt>
    <trkpt lat="50.864855" lon="15.428357">
      <ele>852</ele>
      <time>2026-05-07T09:23:58Z</time>
    </trkpt>
    <trkpt lat="50.864951" lon="15.428084">
      <ele>853</ele>
      <time>2026-05-07T09:24:24Z</time>
    </trkpt>
    <trkpt lat="50.865027" lon="15.427825">
      <ele>854</ele>
      <time>2026-05-07T09:24:49Z</time>
    </trkpt>
    <trkpt lat="50.86509" lon="15.427553">
      <ele>856</ele>
      <time>2026-05-07T09:25:13Z</time>
    </trkpt>
    <trkpt lat="50.865142" lon="15.427284">
      <ele>858</ele>
      <time>2026-05-07T09:25:37Z</time>
    </trkpt>
    <trkpt lat="50.865185" lon="15.426975">
      <ele>859</ele>
      <time>2026-05-07T09:26:04Z</time>
    </trkpt>
    <trkpt lat="50.865219" lon="15.42666">
      <ele>859</ele>
      <time>2026-05-07T09:26:31Z</time>
    </trkpt>
    <trkpt lat="50.86523" lon="15.426432">
      <ele>859</ele>
      <time>2026-05-07T09:26:51Z</time>
    </trkpt>
    <trkpt lat="50.865229" lon="15.426048">
      <ele>860</ele>
      <time>2026-05-07T09:27:23Z</time>
    </trkpt>
    <trkpt lat="50.865217" lon="15.425777">
      <ele>861</ele>
      <time>2026-05-07T09:27:46Z</time>
    </trkpt>
    <trkpt lat="50.865205" lon="15.425469">
      <ele>861</ele>
      <time>2026-05-07T09:28:12Z</time>
    </trkpt>
    <trkpt lat="50.865185" lon="15.425032">
      <ele>862</ele>
      <time>2026-05-07T09:28:50Z</time>
    </trkpt>
    <trkpt lat="50.865095" lon="15.424243">
      <ele>866</ele>
      <time>2026-05-07T09:29:58Z</time>
    </trkpt>
    <trkpt lat="50.865077" lon="15.424015">
      <ele>867</ele>
      <time>2026-05-07T09:30:17Z</time>
    </trkpt>
    <trkpt lat="50.86508" lon="15.423898">
      <ele>867</ele>
      <time>2026-05-07T09:30:27Z</time>
    </trkpt>
    <trkpt lat="50.865105" lon="15.42376">
      <ele>866</ele>
      <time>2026-05-07T09:30:39Z</time>
    </trkpt>
    <trkpt lat="50.865166" lon="15.423425">
      <ele>866</ele>
      <time>2026-05-07T09:31:09Z</time>
    </trkpt>
    <trkpt lat="50.865233" lon="15.423091">
      <ele>867</ele>
      <time>2026-05-07T09:31:39Z</time>
    </trkpt>
    <trkpt lat="50.865293" lon="15.422749">
      <ele>868</ele>
      <time>2026-05-07T09:32:09Z</time>
    </trkpt>
    <trkpt lat="50.865521" lon="15.421473">
      <ele>877</ele>
      <time>2026-05-07T09:34:02Z</time>
    </trkpt>
    <trkpt lat="50.865828" lon="15.41961">
      <ele>879</ele>
      <time>2026-05-07T09:36:45Z</time>
    </trkpt>
    <trkpt lat="50.866029" lon="15.417792">
      <ele>886</ele>
      <time>2026-05-07T09:39:22Z</time>
    </trkpt>
    <trkpt lat="50.866037" lon="15.417153">
      <ele>889</ele>
      <time>2026-05-07T09:40:16Z</time>
    </trkpt>
    <trkpt lat="50.866011" lon="15.416744">
      <ele>891</ele>
      <time>2026-05-07T09:40:51Z</time>
    </trkpt>
    <trkpt lat="50.865993" lon="15.415593">
      <ele>894</ele>
      <time>2026-05-07T09:42:29Z</time>
    </trkpt>
    <trkpt lat="50.865999" lon="15.415468">
      <ele>895</ele>
      <time>2026-05-07T09:42:40Z</time>
    </trkpt>
    <trkpt lat="50.866015" lon="15.41514">
      <ele>897</ele>
      <time>2026-05-07T09:43:08Z</time>
    </trkpt>
    <trkpt lat="50.86622" lon="15.413104">
      <ele>903</ele>
      <time>2026-05-07T09:46:03Z</time>
    </trkpt>
    <trkpt lat="50.866276" lon="15.412331">
      <ele>909</ele>
      <time>2026-05-07T09:47:09Z</time>
    </trkpt>
    <trkpt lat="50.866306" lon="15.411852">
      <ele>911</ele>
      <time>2026-05-07T09:47:50Z</time>
    </trkpt>
    <trkpt lat="50.866306" lon="15.410728">
      <ele>914</ele>
      <time>2026-05-07T09:49:25Z</time>
    </trkpt>
    <trkpt lat="50.866242" lon="15.41009">
      <ele>915</ele>
      <time>2026-05-07T09:50:20Z</time>
    </trkpt>
    <trkpt lat="50.866114" lon="15.409394">
      <ele>919</ele>
      <time>2026-05-07T09:51:22Z</time>
    </trkpt>
    <trkpt lat="50.865998" lon="15.408998">
      <ele>919</ele>
      <time>2026-05-07T09:51:59Z</time>
    </trkpt>
    <trkpt lat="50.865799" lon="15.408513">
      <ele>919</ele>
      <time>2026-05-07T09:52:48Z</time>
    </trkpt>
    <trkpt lat="50.865563" lon="15.408125">
      <ele>921</ele>
      <time>2026-05-07T09:53:34Z</time>
    </trkpt>
    <trkpt lat="50.865417" lon="15.407956">
      <ele>922</ele>
      <time>2026-05-07T09:53:58Z</time>
    </trkpt>
    <trkpt lat="50.865341" lon="15.407867">
      <ele>922</ele>
      <time>2026-05-07T09:54:11Z</time>
    </trkpt>
    <trkpt lat="50.864752" lon="15.407376">
      <ele>930</ele>
      <time>2026-05-07T09:55:41Z</time>
    </trkpt>
    <trkpt lat="50.864271" lon="15.406921">
      <ele>938</ele>
      <time>2026-05-07T09:56:57Z</time>
    </trkpt>
    <trkpt lat="50.864203" lon="15.406809">
      <ele>939</ele>
      <time>2026-05-07T09:57:10Z</time>
    </trkpt>
    <trkpt lat="50.864167" lon="15.406628">
      <ele>939</ele>
      <time>2026-05-07T09:57:26Z</time>
    </trkpt>
    <trkpt lat="50.864133" lon="15.406037">
      <ele>936</ele>
      <time>2026-05-07T09:58:16Z</time>
    </trkpt>
    <trkpt lat="50.864061" lon="15.405301">
      <ele>941</ele>
      <time>2026-05-07T09:59:20Z</time>
    </trkpt>
    <trkpt lat="50.864056" lon="15.404703">
      <ele>943</ele>
      <time>2026-05-07T10:00:11Z</time>
    </trkpt>
    <trkpt lat="50.864101" lon="15.404073">
      <ele>944</ele>
      <time>2026-05-07T10:01:05Z</time>
    </trkpt>
    <trkpt lat="50.864277" lon="15.402838">
      <ele>949</ele>
      <time>2026-05-07T10:02:52Z</time>
    </trkpt>
    <trkpt lat="50.864411" lon="15.401708">
      <ele>956</ele>
      <time>2026-05-07T10:04:30Z</time>
    </trkpt>
    <trkpt lat="50.864483" lon="15.401013">
      <ele>955</ele>
      <time>2026-05-07T10:05:30Z</time>
    </trkpt>
    <trkpt lat="50.864516" lon="15.400507">
      <ele>955</ele>
      <time>2026-05-07T10:06:13Z</time>
    </trkpt>
    <trkpt lat="50.864517" lon="15.399383">
      <ele>958</ele>
      <time>2026-05-07T10:07:48Z</time>
    </trkpt>
    <trkpt lat="50.864532" lon="15.398935">
      <ele>960</ele>
      <time>2026-05-07T10:08:26Z</time>
    </trkpt>
    <trkpt lat="50.864545" lon="15.398176">
      <ele>965</ele>
      <time>2026-05-07T10:09:31Z</time>
    </trkpt>
    <trkpt lat="50.864626" lon="15.396495">
      <ele>969</ele>
      <time>2026-05-07T10:11:54Z</time>
    </trkpt>
    <trkpt lat="50.864627" lon="15.393094">
      <ele>982</ele>
      <time>2026-05-07T10:16:43Z</time>
    </trkpt>
    <trkpt lat="50.864554" lon="15.392176">
      <ele>987</ele>
      <time>2026-05-07T10:18:02Z</time>
    </trkpt>
    <trkpt lat="50.864505" lon="15.391782">
      <ele>988</ele>
      <time>2026-05-07T10:18:36Z</time>
    </trkpt>
    <trkpt lat="50.86447" lon="15.39161">
      <ele>988</ele>
      <time>2026-05-07T10:18:51Z</time>
    </trkpt>
    <trkpt lat="50.864369" lon="15.391332">
      <ele>989</ele>
      <time>2026-05-07T10:19:18Z</time>
    </trkpt>
    <trkpt lat="50.864225" lon="15.391044">
      <ele>989</ele>
      <time>2026-05-07T10:19:50Z</time>
    </trkpt>
    <trkpt lat="50.864006" lon="15.390712">
      <ele>990</ele>
      <time>2026-05-07T10:20:30Z</time>
    </trkpt>
    <trkpt lat="50.863311" lon="15.389961">
      <ele>998</ele>
      <time>2026-05-07T10:22:24Z</time>
    </trkpt>
    <trkpt lat="50.863117" lon="15.389698">
      <ele>998</ele>
      <time>2026-05-07T10:22:58Z</time>
    </trkpt>
    <trkpt lat="50.863005" lon="15.389528">
      <ele>999</ele>
      <time>2026-05-07T10:23:19Z</time>
    </trkpt>
    <trkpt lat="50.862929" lon="15.389719">
      <ele>1000</ele>
      <time>2026-05-07T10:23:38Z</time>
    </trkpt>
    <trkpt lat="50.862731" lon="15.390229">
      <ele>1005</ele>
      <time>2026-05-07T10:24:28Z</time>
    </trkpt>
    <trkpt lat="50.861737" lon="15.392804">
      <ele>1029</ele>
      <time>2026-05-07T10:28:40Z</time>
    </trkpt>
    <trkpt lat="50.861358" lon="15.393686">
      <ele>1036</ele>
      <time>2026-05-07T10:30:10Z</time>
    </trkpt>
    <trkpt lat="50.861119" lon="15.394421">
      <ele>1040</ele>
      <time>2026-05-07T10:31:18Z</time>
    </trkpt>
    <trkpt lat="50.860912" lon="15.395271">
      <ele>1043</ele>
      <time>2026-05-07T10:32:34Z</time>
    </trkpt>
    <trkpt lat="50.860372" lon="15.397524">
      <ele>1054</ele>
      <time>2026-05-07T10:35:55Z</time>
    </trkpt>
    <trkpt lat="50.860123" lon="15.398653">
      <ele>1058</ele>
      <time>2026-05-07T10:37:35Z</time>
    </trkpt>
    <trkpt lat="50.859952" lon="15.399305">
      <ele>1063</ele>
      <time>2026-05-07T10:38:34Z</time>
    </trkpt>
    <trkpt lat="50.85972" lon="15.400486">
      <ele>1070</ele>
      <time>2026-05-07T10:40:17Z</time>
    </trkpt>
    <trkpt lat="50.859611" lon="15.400911">
      <ele>1072</ele>
      <time>2026-05-07T10:40:55Z</time>
    </trkpt>
    <trkpt lat="50.859405" lon="15.401602">
      <ele>1078</ele>
      <time>2026-05-07T10:41:59Z</time>
    </trkpt>
    <trkpt lat="50.859326" lon="15.401794">
      <ele>1079</ele>
      <time>2026-05-07T10:42:18Z</time>
    </trkpt>
    <trkpt lat="50.85885" lon="15.402768">
      <ele>1088</ele>
      <time>2026-05-07T10:44:01Z</time>
    </trkpt>
    <trkpt lat="50.85856" lon="15.403411">
      <ele>1094</ele>
      <time>2026-05-07T10:45:07Z</time>
    </trkpt>
    <trkpt lat="50.858124" lon="15.404286">
      <ele>1110</ele>
      <time>2026-05-07T10:46:42Z</time>
    </trkpt>
    <trkpt lat="50.857955" lon="15.404573">
      <ele>1114</ele>
      <time>2026-05-07T10:47:14Z</time>
    </trkpt>
    <trkpt lat="50.857854" lon="15.404815">
      <ele>1115</ele>
      <time>2026-05-07T10:47:39Z</time>
    </trkpt>
    <trkpt lat="50.857422" lon="15.405918">
      <ele>1120</ele>
      <time>2026-05-07T10:49:27Z</time>
    </trkpt>
    <trkpt lat="50.857264" lon="15.406647">
      <ele>1118</ele>
      <time>2026-05-07T10:50:31Z</time>
    </trkpt>
    <trkpt lat="50.857231" lon="15.40712">
      <ele>1116</ele>
      <time>2026-05-07T10:51:10Z</time>
    </trkpt>
    <trkpt lat="50.857219" lon="15.407612">
      <ele>1116</ele>
      <time>2026-05-07T10:51:51Z</time>
    </trkpt>
    <trkpt lat="50.857252" lon="15.407841">
      <ele>1115</ele>
      <time>2026-05-07T10:52:11Z</time>
    </trkpt>
    <trkpt lat="50.857287" lon="15.407951">
      <ele>1114</ele>
      <time>2026-05-07T10:52:21Z</time>
    </trkpt>
    <trkpt lat="50.857517" lon="15.408444">
      <ele>1110</ele>
      <time>2026-05-07T10:53:12Z</time>
    </trkpt>
    <trkpt lat="50.857854" lon="15.409557">
      <ele>1105</ele>
      <time>2026-05-07T10:54:55Z</time>
    </trkpt>
    <trkpt lat="50.858581" lon="15.4112">
      <ele>1099</ele>
      <time>2026-05-07T10:57:42Z</time>
    </trkpt>
    <trkpt lat="50.859074" lon="15.412458">
      <ele>1104</ele>
      <time>2026-05-07T10:59:45Z</time>
    </trkpt>
    <trkpt lat="50.859318" lon="15.412958">
      <ele>1106</ele>
      <time>2026-05-07T11:00:38Z</time>
    </trkpt>
    <trkpt lat="50.859415" lon="15.41319">
      <ele>1108</ele>
      <time>2026-05-07T11:01:01Z</time>
    </trkpt>
    <trkpt lat="50.859619" lon="15.413848">
      <ele>1112</ele>
      <time>2026-05-07T11:02:02Z</time>
    </trkpt>
    <trkpt lat="50.859713" lon="15.414278">
      <ele>1112</ele>
      <time>2026-05-07T11:02:40Z</time>
    </trkpt>
    <trkpt lat="50.859778" lon="15.414779">
      <ele>1113</ele>
      <time>2026-05-07T11:03:23Z</time>
    </trkpt>
    <trkpt lat="50.85978" lon="15.415034">
      <ele>1113</ele>
      <time>2026-05-07T11:03:44Z</time>
    </trkpt>
    <trkpt lat="50.859749" lon="15.415249">
      <ele>1112</ele>
      <time>2026-05-07T11:04:02Z</time>
    </trkpt>
    <trkpt lat="50.859408" lon="15.41633">
      <ele>1106</ele>
      <time>2026-05-07T11:05:43Z</time>
    </trkpt>
    <trkpt lat="50.85936" lon="15.416449">
      <ele>1106</ele>
      <time>2026-05-07T11:05:55Z</time>
    </trkpt>
    <trkpt lat="50.859237" lon="15.416653">
      <ele>1104</ele>
      <time>2026-05-07T11:06:18Z</time>
    </trkpt>
    <trkpt lat="50.859145" lon="15.416735">
      <ele>1104</ele>
      <time>2026-05-07T11:06:32Z</time>
    </trkpt>
    <trkpt lat="50.859045" lon="15.416788">
      <ele>1103</ele>
      <time>2026-05-07T11:06:46Z</time>
    </trkpt>
    <trkpt lat="50.858563" lon="15.416981">
      <ele>1102</ele>
      <time>2026-05-07T11:07:52Z</time>
    </trkpt>
    <trkpt lat="50.858282" lon="15.417126">
      <ele>1101</ele>
      <time>2026-05-07T11:08:30Z</time>
    </trkpt>
    <trkpt lat="50.857262" lon="15.417826">
      <ele>1100</ele>
      <time>2026-05-07T11:10:57Z</time>
    </trkpt>
    <trkpt lat="50.857028" lon="15.418018">
      <ele>1099</ele>
      <time>2026-05-07T11:11:32Z</time>
    </trkpt>
    <trkpt lat="50.856812" lon="15.41824">
      <ele>1098</ele>
      <time>2026-05-07T11:12:06Z</time>
    </trkpt>
    <trkpt lat="50.85662" lon="15.41856">
      <ele>1098</ele>
      <time>2026-05-07T11:12:42Z</time>
    </trkpt>
    <trkpt lat="50.856447" lon="15.418807">
      <ele>1098</ele>
      <time>2026-05-07T11:13:13Z</time>
    </trkpt>
    <trkpt lat="50.85602" lon="15.419349">
      <ele>1098</ele>
      <time>2026-05-07T11:14:25Z</time>
    </trkpt>
    <trkpt lat="50.855869" lon="15.419589">
      <ele>1098</ele>
      <time>2026-05-07T11:14:53Z</time>
    </trkpt>
    <trkpt lat="50.855662" lon="15.420012">
      <ele>1099</ele>
      <time>2026-05-07T11:15:38Z</time>
    </trkpt>
    <trkpt lat="50.855394" lon="15.420509">
      <ele>1100</ele>
      <time>2026-05-07T11:16:32Z</time>
    </trkpt>
    <trkpt lat="50.855254" lon="15.420656">
      <ele>1102</ele>
      <time>2026-05-07T11:16:54Z</time>
    </trkpt>
    <trkpt lat="50.854935" lon="15.420823">
      <ele>1104</ele>
      <time>2026-05-07T11:17:39Z</time>
    </trkpt>
    <trkpt lat="50.854835" lon="15.420888">
      <ele>1105</ele>
      <time>2026-05-07T11:17:53Z</time>
    </trkpt>
    <trkpt lat="50.854753" lon="15.42096">
      <ele>1105</ele>
      <time>2026-05-07T11:18:05Z</time>
    </trkpt>
    <trkpt lat="50.854673" lon="15.421067">
      <ele>1106</ele>
      <time>2026-05-07T11:18:19Z</time>
    </trkpt>
    <trkpt lat="50.854628" lon="15.421154">
      <ele>1106</ele>
      <time>2026-05-07T11:18:25Z</time>
    </trkpt>
    <trkpt lat="50.854539" lon="15.421387">
      <ele>1106</ele>
      <time>2026-05-07T11:18:41Z</time>
    </trkpt>
    <trkpt lat="50.854405" lon="15.421786">
      <ele>1105</ele>
      <time>2026-05-07T11:19:07Z</time>
    </trkpt>
    <trkpt lat="50.854256" lon="15.422302">
      <ele>1103</ele>
      <time>2026-05-07T11:19:39Z</time>
    </trkpt>
    <trkpt lat="50.854147" lon="15.422594">
      <ele>1101</ele>
      <time>2026-05-07T11:19:58Z</time>
    </trkpt>
    <trkpt lat="50.85391" lon="15.423016">
      <ele>1099</ele>
      <time>2026-05-07T11:20:30Z</time>
    </trkpt>
    <trkpt lat="50.853792" lon="15.42319">
      <ele>1099</ele>
      <time>2026-05-07T11:20:45Z</time>
    </trkpt>
    <trkpt lat="50.853612" lon="15.423428">
      <ele>1098</ele>
      <time>2026-05-07T11:21:06Z</time>
    </trkpt>
    <trkpt lat="50.853289" lon="15.423852">
      <ele>1096</ele>
      <time>2026-05-07T11:21:44Z</time>
    </trkpt>
    <trkpt lat="50.853009" lon="15.424157">
      <ele>1095</ele>
      <time>2026-05-07T11:22:14Z</time>
    </trkpt>
    <trkpt lat="50.852798" lon="15.424275">
      <ele>1094</ele>
      <time>2026-05-07T11:22:35Z</time>
    </trkpt>
    <trkpt lat="50.8526" lon="15.424351">
      <ele>1093</ele>
      <time>2026-05-07T11:22:53Z</time>
    </trkpt>
    <trkpt lat="50.8525" lon="15.424416">
      <ele>1092</ele>
      <time>2026-05-07T11:23:03Z</time>
    </trkpt>
    <trkpt lat="50.85249" lon="15.424588">
      <ele>1091</ele>
      <time>2026-05-07T11:23:13Z</time>
    </trkpt>
    <trkpt lat="50.852455" lon="15.425155">
      <ele>1088</ele>
      <time>2026-05-07T11:23:45Z</time>
    </trkpt>
    <trkpt lat="50.852282" lon="15.426211">
      <ele>1078</ele>
      <time>2026-05-07T11:24:48Z</time>
    </trkpt>
    <trkpt lat="50.852216" lon="15.426419">
      <ele>1077</ele>
      <time>2026-05-07T11:25:01Z</time>
    </trkpt>
    <trkpt lat="50.852125" lon="15.426667">
      <ele>1075</ele>
      <time>2026-05-07T11:25:17Z</time>
    </trkpt>
    <trkpt lat="50.852057" lon="15.42688">
      <ele>1074</ele>
      <time>2026-05-07T11:25:31Z</time>
    </trkpt>
    <trkpt lat="50.851985" lon="15.427152">
      <ele>1072</ele>
      <time>2026-05-07T11:25:48Z</time>
    </trkpt>
    <trkpt lat="50.851864" lon="15.428252">
      <ele>1065</ele>
      <time>2026-05-07T11:26:51Z</time>
    </trkpt>
    <trkpt lat="50.851758" lon="15.428949">
      <ele>1062</ele>
      <time>2026-05-07T11:27:32Z</time>
    </trkpt>
    <trkpt lat="50.851704" lon="15.42893">
      <ele>1062</ele>
      <time>2026-05-07T11:27:37Z</time>
    </trkpt>
    <trkpt lat="50.851653" lon="15.428868">
      <ele>1062</ele>
      <time>2026-05-07T11:27:43Z</time>
    </trkpt>
    <trkpt lat="50.851516" lon="15.428635">
      <ele>1062</ele>
      <time>2026-05-07T11:28:01Z</time>
    </trkpt>
    <trkpt lat="50.851346" lon="15.428841">
      <ele>1061</ele>
      <time>2026-05-07T11:28:20Z</time>
    </trkpt>
    <trkpt lat="50.851278" lon="15.428908">
      <ele>1061</ele>
      <time>2026-05-07T11:28:28Z</time>
    </trkpt>
    <trkpt lat="50.851207" lon="15.428933">
      <ele>1060</ele>
      <time>2026-05-07T11:28:34Z</time>
    </trkpt>
    <trkpt lat="50.851168" lon="15.428986">
      <ele>1060</ele>
      <time>2026-05-07T11:28:39Z</time>
    </trkpt>
    <trkpt lat="50.851156" lon="15.429096">
      <ele>1060</ele>
      <time>2026-05-07T11:28:45Z</time>
    </trkpt>
    <trkpt lat="50.851177" lon="15.429204">
      <ele>1060</ele>
      <time>2026-05-07T11:28:52Z</time>
    </trkpt>
    <trkpt lat="50.85117" lon="15.429258">
      <ele>1060</ele>
      <time>2026-05-07T11:28:55Z</time>
    </trkpt>
    <trkpt lat="50.85113" lon="15.429499">
      <ele>1059</ele>
      <time>2026-05-07T11:29:09Z</time>
    </trkpt>
    <trkpt lat="50.851085" lon="15.429603">
      <ele>1059</ele>
      <time>2026-05-07T11:29:16Z</time>
    </trkpt>
    <trkpt lat="50.851024" lon="15.429791">
      <ele>1058</ele>
      <time>2026-05-07T11:29:28Z</time>
    </trkpt>
    <trkpt lat="50.850983" lon="15.430016">
      <ele>1056</ele>
      <time>2026-05-07T11:29:41Z</time>
    </trkpt>
    <trkpt lat="50.850946" lon="15.430225">
      <ele>1056</ele>
      <time>2026-05-07T11:29:54Z</time>
    </trkpt>
    <trkpt lat="50.850909" lon="15.430311">
      <ele>1055</ele>
      <time>2026-05-07T11:30:00Z</time>
    </trkpt>
    <trkpt lat="50.850853" lon="15.43048">
      <ele>1054</ele>
      <time>2026-05-07T11:30:11Z</time>
    </trkpt>
    <trkpt lat="50.850802" lon="15.430704">
      <ele>1054</ele>
      <time>2026-05-07T11:30:24Z</time>
    </trkpt>
    <trkpt lat="50.850623" lon="15.431156">
      <ele>1053</ele>
      <time>2026-05-07T11:30:55Z</time>
    </trkpt>
    <trkpt lat="50.850547" lon="15.431287">
      <ele>1052</ele>
      <time>2026-05-07T11:31:05Z</time>
    </trkpt>
    <trkpt lat="50.850504" lon="15.431357">
      <ele>1051</ele>
      <time>2026-05-07T11:31:10Z</time>
    </trkpt>
    <trkpt lat="50.850462" lon="15.431416">
      <ele>1051</ele>
      <time>2026-05-07T11:31:15Z</time>
    </trkpt>
    <trkpt lat="50.850384" lon="15.431529">
      <ele>1050</ele>
      <time>2026-05-07T11:31:25Z</time>
    </trkpt>
    <trkpt lat="50.850219" lon="15.431765">
      <ele>1047</ele>
      <time>2026-05-07T11:31:45Z</time>
    </trkpt>
    <trkpt lat="50.850147" lon="15.431829">
      <ele>1046</ele>
      <time>2026-05-07T11:31:52Z</time>
    </trkpt>
    <trkpt lat="50.850096" lon="15.431845">
      <ele>1045</ele>
      <time>2026-05-07T11:31:57Z</time>
    </trkpt>
    <trkpt lat="50.85004" lon="15.431837">
      <ele>1044</ele>
      <time>2026-05-07T11:32:02Z</time>
    </trkpt>
    <trkpt lat="50.849986" lon="15.431827">
      <ele>1043</ele>
      <time>2026-05-07T11:32:07Z</time>
    </trkpt>
    <trkpt lat="50.849944" lon="15.43187">
      <ele>1042</ele>
      <time>2026-05-07T11:32:12Z</time>
    </trkpt>
    <trkpt lat="50.849792" lon="15.432083">
      <ele>1039</ele>
      <time>2026-05-07T11:32:30Z</time>
    </trkpt>
    <trkpt lat="50.84971" lon="15.432205">
      <ele>1037</ele>
      <time>2026-05-07T11:32:41Z</time>
    </trkpt>
    <trkpt lat="50.849624" lon="15.432267">
      <ele>1036</ele>
      <time>2026-05-07T11:32:49Z</time>
    </trkpt>
    <trkpt lat="50.849526" lon="15.432315">
      <ele>1034</ele>
      <time>2026-05-07T11:32:58Z</time>
    </trkpt>
    <trkpt lat="50.849414" lon="15.432414">
      <ele>1033</ele>
      <time>2026-05-07T11:33:10Z</time>
    </trkpt>
    <trkpt lat="50.849332" lon="15.432503">
      <ele>1032</ele>
      <time>2026-05-07T11:33:19Z</time>
    </trkpt>
    <trkpt lat="50.849222" lon="15.432564">
      <ele>1031</ele>
      <time>2026-05-07T11:33:30Z</time>
    </trkpt>
    <trkpt lat="50.849172" lon="15.432613">
      <ele>1030</ele>
      <time>2026-05-07T11:33:35Z</time>
    </trkpt>
    <trkpt lat="50.849151" lon="15.432735">
      <ele>1031</ele>
      <time>2026-05-07T11:33:42Z</time>
    </trkpt>
    <trkpt lat="50.849067" lon="15.432884">
      <ele>1029</ele>
      <time>2026-05-07T11:33:54Z</time>
    </trkpt>
    <trkpt lat="50.848975" lon="15.432992">
      <ele>1028</ele>
      <time>2026-05-07T11:34:04Z</time>
    </trkpt>
    <trkpt lat="50.848829" lon="15.43312">
      <ele>1025</ele>
      <time>2026-05-07T11:34:19Z</time>
    </trkpt>
    <trkpt lat="50.848745" lon="15.433251">
      <ele>1023</ele>
      <time>2026-05-07T11:34:30Z</time>
    </trkpt>
    <trkpt lat="50.848681" lon="15.433415">
      <ele>1022</ele>
      <time>2026-05-07T11:34:41Z</time>
    </trkpt>
    <trkpt lat="50.84846" lon="15.433702">
      <ele>1018</ele>
      <time>2026-05-07T11:35:07Z</time>
    </trkpt>
    <trkpt lat="50.848282" lon="15.433876">
      <ele>1015</ele>
      <time>2026-05-07T11:35:26Z</time>
    </trkpt>
    <trkpt lat="50.84821" lon="15.433986">
      <ele>1014</ele>
      <time>2026-05-07T11:35:35Z</time>
    </trkpt>
    <trkpt lat="50.848095" lon="15.434168">
      <ele>1012</ele>
      <time>2026-05-07T11:35:50Z</time>
    </trkpt>
    <trkpt lat="50.847981" lon="15.434249">
      <ele>1009</ele>
      <time>2026-05-07T11:36:01Z</time>
    </trkpt>
    <trkpt lat="50.847873" lon="15.434289">
      <ele>1007</ele>
      <time>2026-05-07T11:36:11Z</time>
    </trkpt>
    <trkpt lat="50.847783" lon="15.434329">
      <ele>1006</ele>
      <time>2026-05-07T11:36:20Z</time>
    </trkpt>
    <trkpt lat="50.847688" lon="15.434394">
      <ele>1005</ele>
      <time>2026-05-07T11:36:29Z</time>
    </trkpt>
    <trkpt lat="50.847529" lon="15.434444">
      <ele>1003</ele>
      <time>2026-05-07T11:36:44Z</time>
    </trkpt>
    <trkpt lat="50.847437" lon="15.434509">
      <ele>1002</ele>
      <time>2026-05-07T11:36:53Z</time>
    </trkpt>
    <trkpt lat="50.847356" lon="15.434546">
      <ele>1001</ele>
      <time>2026-05-07T11:37:00Z</time>
    </trkpt>
    <trkpt lat="50.847273" lon="15.434584">
      <ele>1000</ele>
      <time>2026-05-07T11:37:08Z</time>
    </trkpt>
    <trkpt lat="50.84718" lon="15.434654">
      <ele>998</ele>
      <time>2026-05-07T11:37:18Z</time>
    </trkpt>
    <trkpt lat="50.8471" lon="15.434694">
      <ele>998</ele>
      <time>2026-05-07T11:37:25Z</time>
    </trkpt>
    <trkpt lat="50.846989" lon="15.434721">
      <ele>996</ele>
      <time>2026-05-07T11:37:35Z</time>
    </trkpt>
    <trkpt lat="50.846872" lon="15.434775">
      <ele>995</ele>
      <time>2026-05-07T11:37:46Z</time>
    </trkpt>
    <trkpt lat="50.84673" lon="15.434844">
      <ele>994</ele>
      <time>2026-05-07T11:38:00Z</time>
    </trkpt>
    <trkpt lat="50.846527" lon="15.434953">
      <ele>993</ele>
      <time>2026-05-07T11:38:19Z</time>
    </trkpt>
    <trkpt lat="50.846685" lon="15.435941">
      <ele>998</ele>
      <time>2026-05-07T11:39:37Z</time>
    </trkpt>
    <trkpt lat="50.84688" lon="15.436922">
      <ele>1003</ele>
      <time>2026-05-07T11:40:55Z</time>
    </trkpt>
    <trkpt lat="50.846973" lon="15.437219">
      <ele>1004</ele>
      <time>2026-05-07T11:41:20Z</time>
    </trkpt>
    <trkpt lat="50.847119" lon="15.437653">
      <ele>1003</ele>
      <time>2026-05-07T11:41:58Z</time>
    </trkpt>
    <trkpt lat="50.847206" lon="15.437843">
      <ele>1003</ele>
      <time>2026-05-07T11:42:15Z</time>
    </trkpt>
    <trkpt lat="50.847285" lon="15.437964">
      <ele>1003</ele>
      <time>2026-05-07T11:42:29Z</time>
    </trkpt>
    <trkpt lat="50.847539" lon="15.438307">
      <ele>1005</ele>
      <time>2026-05-07T11:43:09Z</time>
    </trkpt>
    <trkpt lat="50.847837" lon="15.438704">
      <ele>1006</ele>
      <time>2026-05-07T11:43:56Z</time>
    </trkpt>
    <trkpt lat="50.848067" lon="15.439036">
      <ele>1006</ele>
      <time>2026-05-07T11:44:33Z</time>
    </trkpt>
    <trkpt lat="50.848238" lon="15.439291">
      <ele>1010</ele>
      <time>2026-05-07T11:45:02Z</time>
    </trkpt>
    <trkpt lat="50.848384" lon="15.439543">
      <ele>1013</ele>
      <time>2026-05-07T11:45:28Z</time>
    </trkpt>
    <trkpt lat="50.84856" lon="15.440018">
      <ele>1015</ele>
      <time>2026-05-07T11:46:10Z</time>
    </trkpt>
    <trkpt lat="50.848718" lon="15.440573">
      <ele>1016</ele>
      <time>2026-05-07T11:46:56Z</time>
    </trkpt>
    <trkpt lat="50.848826" lon="15.441013">
      <ele>1019</ele>
      <time>2026-05-07T11:47:32Z</time>
    </trkpt>
    <trkpt lat="50.848907" lon="15.441418">
      <ele>1021</ele>
      <time>2026-05-07T11:48:04Z</time>
    </trkpt>
    <trkpt lat="50.848987" lon="15.442035">
      <ele>1021</ele>
      <time>2026-05-07T11:48:52Z</time>
    </trkpt>
    <trkpt lat="50.84904" lon="15.442387">
      <ele>1020</ele>
      <time>2026-05-07T11:49:20Z</time>
    </trkpt>
    <trkpt lat="50.849108" lon="15.442658">
      <ele>1021</ele>
      <time>2026-05-07T11:49:42Z</time>
    </trkpt>
    <trkpt lat="50.849166" lon="15.442835">
      <ele>1022</ele>
      <time>2026-05-07T11:49:57Z</time>
    </trkpt>
    <trkpt lat="50.849186" lon="15.442897">
      <ele>1022</ele>
      <time>2026-05-07T11:50:02Z</time>
    </trkpt>
    <trkpt lat="50.849208" lon="15.443395">
      <ele>1022</ele>
      <time>2026-05-07T11:50:40Z</time>
    </trkpt>
    <trkpt lat="50.849222" lon="15.443717">
      <ele>1020</ele>
      <time>2026-05-07T11:51:05Z</time>
    </trkpt>
    <trkpt lat="50.849233" lon="15.444075">
      <ele>1019</ele>
      <time>2026-05-07T11:51:32Z</time>
    </trkpt>
    <trkpt lat="50.849239" lon="15.444307">
      <ele>1018</ele>
      <time>2026-05-07T11:51:50Z</time>
    </trkpt>
    <trkpt lat="50.849234" lon="15.444524">
      <ele>1018</ele>
      <time>2026-05-07T11:52:06Z</time>
    </trkpt>
    <trkpt lat="50.849186" lon="15.444944">
      <ele>1016</ele>
      <time>2026-05-07T11:52:39Z</time>
    </trkpt>
    <trkpt lat="50.849102" lon="15.445601">
      <ele>1014</ele>
      <time>2026-05-07T11:53:30Z</time>
    </trkpt>
    <trkpt lat="50.84886" lon="15.446518">
      <ele>1008</ele>
      <time>2026-05-07T11:54:46Z</time>
    </trkpt>
    <trkpt lat="50.848746" lon="15.446835">
      <ele>1007</ele>
      <time>2026-05-07T11:55:13Z</time>
    </trkpt>
    <trkpt lat="50.848638" lon="15.44707">
      <ele>1007</ele>
      <time>2026-05-07T11:55:35Z</time>
    </trkpt>
    <trkpt lat="50.848563" lon="15.447229">
      <ele>1007</ele>
      <time>2026-05-07T11:55:50Z</time>
    </trkpt>
    <trkpt lat="50.848367" lon="15.447673">
      <ele>1007</ele>
      <time>2026-05-07T11:56:32Z</time>
    </trkpt>
    <trkpt lat="50.848157" lon="15.448184">
      <ele>1003</ele>
      <time>2026-05-07T11:57:18Z</time>
    </trkpt>
    <trkpt lat="50.847974" lon="15.448614">
      <ele>1000</ele>
      <time>2026-05-07T11:57:58Z</time>
    </trkpt>
    <trkpt lat="50.847875" lon="15.448843">
      <ele>999</ele>
      <time>2026-05-07T11:58:19Z</time>
    </trkpt>
    <trkpt lat="50.847833" lon="15.448959">
      <ele>999</ele>
      <time>2026-05-07T11:58:29Z</time>
    </trkpt>
    <trkpt lat="50.8478" lon="15.449068">
      <ele>999</ele>
      <time>2026-05-07T11:58:38Z</time>
    </trkpt>
    <trkpt lat="50.847696" lon="15.449413">
      <ele>999</ele>
      <time>2026-05-07T11:59:07Z</time>
    </trkpt>
    <trkpt lat="50.847657" lon="15.449558">
      <ele>999</ele>
      <time>2026-05-07T11:59:19Z</time>
    </trkpt>
    <trkpt lat="50.847625" lon="15.449653">
      <ele>998</ele>
      <time>2026-05-07T11:59:27Z</time>
    </trkpt>
    <trkpt lat="50.847602" lon="15.44972">
      <ele>998</ele>
      <time>2026-05-07T11:59:33Z</time>
    </trkpt>
    <trkpt lat="50.847585" lon="15.449809">
      <ele>998</ele>
      <time>2026-05-07T11:59:40Z</time>
    </trkpt>
    <trkpt lat="50.847573" lon="15.449932">
      <ele>998</ele>
      <time>2026-05-07T11:59:50Z</time>
    </trkpt>
    <trkpt lat="50.847571" lon="15.450016">
      <ele>999</ele>
      <time>2026-05-07T11:59:56Z</time>
    </trkpt>
    <trkpt lat="50.847564" lon="15.450118">
      <ele>999</ele>
      <time>2026-05-07T12:00:04Z</time>
    </trkpt>
    <trkpt lat="50.847548" lon="15.450225">
      <ele>998</ele>
      <time>2026-05-07T12:00:12Z</time>
    </trkpt>
    <trkpt lat="50.847543" lon="15.450339">
      <ele>998</ele>
      <time>2026-05-07T12:00:21Z</time>
    </trkpt>
    <trkpt lat="50.847556" lon="15.450681">
      <ele>999</ele>
      <time>2026-05-07T12:00:47Z</time>
    </trkpt>
    <trkpt lat="50.84756" lon="15.45083">
      <ele>999</ele>
      <time>2026-05-07T12:00:58Z</time>
    </trkpt>
    <trkpt lat="50.847546" lon="15.451082">
      <ele>1000</ele>
      <time>2026-05-07T12:01:17Z</time>
    </trkpt>
    <trkpt lat="50.847515" lon="15.451251">
      <ele>1000</ele>
      <time>2026-05-07T12:01:31Z</time>
    </trkpt>
    <trkpt lat="50.847417" lon="15.451663">
      <ele>1002</ele>
      <time>2026-05-07T12:02:04Z</time>
    </trkpt>
    <trkpt lat="50.847278" lon="15.452411">
      <ele>1003</ele>
      <time>2026-05-07T12:03:04Z</time>
    </trkpt>
    <trkpt lat="50.847253" lon="15.452536">
      <ele>1004</ele>
      <time>2026-05-07T12:03:14Z</time>
    </trkpt>
    <trkpt lat="50.847073" lon="15.453486">
      <ele>1004</ele>
      <time>2026-05-07T12:04:29Z</time>
    </trkpt>
    <trkpt lat="50.847012" lon="15.453812">
      <ele>1004</ele>
      <time>2026-05-07T12:04:55Z</time>
    </trkpt>
    <trkpt lat="50.846964" lon="15.454003">
      <ele>1003</ele>
      <time>2026-05-07T12:05:10Z</time>
    </trkpt>
    <trkpt lat="50.846821" lon="15.454652">
      <ele>1002</ele>
      <time>2026-05-07T12:06:03Z</time>
    </trkpt>
    <trkpt lat="50.846716" lon="15.455162">
      <ele>1000</ele>
      <time>2026-05-07T12:06:43Z</time>
    </trkpt>
    <trkpt lat="50.846583" lon="15.457055">
      <ele>996</ele>
      <time>2026-05-07T12:09:08Z</time>
    </trkpt>
    <trkpt lat="50.846548" lon="15.45764">
      <ele>994</ele>
      <time>2026-05-07T12:09:53Z</time>
    </trkpt>
    <trkpt lat="50.846485" lon="15.458703">
      <ele>990</ele>
      <time>2026-05-07T12:11:14Z</time>
    </trkpt>
    <trkpt lat="50.846352" lon="15.460703">
      <ele>987</ele>
      <time>2026-05-07T12:13:47Z</time>
    </trkpt>
    <trkpt lat="50.846345" lon="15.46102">
      <ele>988</ele>
      <time>2026-05-07T12:14:11Z</time>
    </trkpt>
    <trkpt lat="50.846406" lon="15.461831">
      <ele>991</ele>
      <time>2026-05-07T12:15:13Z</time>
    </trkpt>
    <trkpt lat="50.846489" lon="15.46228">
      <ele>992</ele>
      <time>2026-05-07T12:15:49Z</time>
    </trkpt>
    <trkpt lat="50.846597" lon="15.462983">
      <ele>995</ele>
      <time>2026-05-07T12:16:44Z</time>
    </trkpt>
    <trkpt lat="50.846745" lon="15.463709">
      <ele>998</ele>
      <time>2026-05-07T12:17:42Z</time>
    </trkpt>
    <trkpt lat="50.846779" lon="15.463901">
      <ele>999</ele>
      <time>2026-05-07T12:17:57Z</time>
    </trkpt>
    <trkpt lat="50.846794" lon="15.464191">
      <ele>999</ele>
      <time>2026-05-07T12:18:19Z</time>
    </trkpt>
    <trkpt lat="50.846972" lon="15.464125">
      <ele>1001</ele>
      <time>2026-05-07T12:18:41Z</time>
    </trkpt>
    <trkpt lat="50.847117" lon="15.464056">
      <ele>1001</ele>
      <time>2026-05-07T12:18:58Z</time>
    </trkpt>
    <trkpt lat="50.847239" lon="15.464027">
      <ele>1001</ele>
      <time>2026-05-07T12:19:13Z</time>
    </trkpt>
    <trkpt lat="50.847453" lon="15.464023">
      <ele>1002</ele>
      <time>2026-05-07T12:19:38Z</time>
    </trkpt>
    <trkpt lat="50.847585" lon="15.463992">
      <ele>1002</ele>
      <time>2026-05-07T12:19:54Z</time>
    </trkpt>
    <trkpt lat="50.847627" lon="15.463951">
      <ele>1002</ele>
      <time>2026-05-07T12:20:00Z</time>
    </trkpt>
    <trkpt lat="50.847686" lon="15.463847">
      <ele>1002</ele>
      <time>2026-05-07T12:20:10Z</time>
    </trkpt>
    <trkpt lat="50.847784" lon="15.463645">
      <ele>1002</ele>
      <time>2026-05-07T12:20:29Z</time>
    </trkpt>
    <trkpt lat="50.847951" lon="15.463281">
      <ele>1001</ele>
      <time>2026-05-07T12:21:03Z</time>
    </trkpt>
    <trkpt lat="50.848048" lon="15.463127">
      <ele>1000</ele>
      <time>2026-05-07T12:21:19Z</time>
    </trkpt>
    <trkpt lat="50.847708" lon="15.46731">
      <ele>1009</ele>
      <time>2026-05-07T12:26:15Z</time>
    </trkpt>
    <trkpt lat="50.84748" lon="15.47018">
      <ele>1012</ele>
      <time>2026-05-07T12:29:38Z</time>
    </trkpt>
    <trkpt lat="50.847454" lon="15.4705">
      <ele>1011</ele>
      <time>2026-05-07T12:30:01Z</time>
    </trkpt>
    <trkpt lat="50.847378" lon="15.471488">
      <ele>1010</ele>
      <time>2026-05-07T12:31:11Z</time>
    </trkpt>
    <trkpt lat="50.847235" lon="15.473426">
      <ele>1016</ele>
      <time>2026-05-07T12:33:28Z</time>
    </trkpt>
    <trkpt lat="50.846992" lon="15.476712">
      <ele>1013</ele>
      <time>2026-05-07T12:37:20Z</time>
    </trkpt>
    <trkpt lat="50.846902" lon="15.477832">
      <ele>1015</ele>
      <time>2026-05-07T12:38:39Z</time>
    </trkpt>
    <trkpt lat="50.846868" lon="15.478218">
      <ele>1016</ele>
      <time>2026-05-07T12:39:07Z</time>
    </trkpt>
    <trkpt lat="50.846841" lon="15.478556">
      <ele>1017</ele>
      <time>2026-05-07T12:39:31Z</time>
    </trkpt>
    <trkpt lat="50.846848" lon="15.478757">
      <ele>1019</ele>
      <time>2026-05-07T12:39:45Z</time>
    </trkpt>
    <trkpt lat="50.846823" lon="15.478874">
      <ele>1019</ele>
      <time>2026-05-07T12:39:54Z</time>
    </trkpt>
    <trkpt lat="50.846801" lon="15.479114">
      <ele>1020</ele>
      <time>2026-05-07T12:40:11Z</time>
    </trkpt>
    <trkpt lat="50.846768" lon="15.479457">
      <ele>1021</ele>
      <time>2026-05-07T12:40:35Z</time>
    </trkpt>
    <trkpt lat="50.846755" lon="15.479661">
      <ele>1022</ele>
      <time>2026-05-07T12:40:49Z</time>
    </trkpt>
    <trkpt lat="50.846735" lon="15.479793">
      <ele>1023</ele>
      <time>2026-05-07T12:40:59Z</time>
    </trkpt>
    <trkpt lat="50.846703" lon="15.479963">
      <ele>1024</ele>
      <time>2026-05-07T12:41:11Z</time>
    </trkpt>
    <trkpt lat="50.846692" lon="15.48014">
      <ele>1024</ele>
      <time>2026-05-07T12:41:24Z</time>
    </trkpt>
    <trkpt lat="50.846681" lon="15.480302">
      <ele>1024</ele>
      <time>2026-05-07T12:41:35Z</time>
    </trkpt>
    <trkpt lat="50.846668" lon="15.480498">
      <ele>1025</ele>
      <time>2026-05-07T12:41:49Z</time>
    </trkpt>
    <trkpt lat="50.846635" lon="15.48087">
      <ele>1024</ele>
      <time>2026-05-07T12:42:16Z</time>
    </trkpt>
    <trkpt lat="50.84663" lon="15.480993">
      <ele>1023</ele>
      <time>2026-05-07T12:42:24Z</time>
    </trkpt>
    <trkpt lat="50.846582" lon="15.481327">
      <ele>1023</ele>
      <time>2026-05-07T12:42:48Z</time>
    </trkpt>
    <trkpt lat="50.846526" lon="15.481949">
      <ele>1024</ele>
      <time>2026-05-07T12:43:32Z</time>
    </trkpt>
    <trkpt lat="50.846463" lon="15.482552">
      <ele>1025</ele>
      <time>2026-05-07T12:44:15Z</time>
    </trkpt>
    <trkpt lat="50.846398" lon="15.4831">
      <ele>1025</ele>
      <time>2026-05-07T12:44:54Z</time>
    </trkpt>
    <trkpt lat="50.846323" lon="15.483827">
      <ele>1022</ele>
      <time>2026-05-07T12:45:46Z</time>
    </trkpt>
    <trkpt lat="50.846286" lon="15.484111">
      <ele>1022</ele>
      <time>2026-05-07T12:46:07Z</time>
    </trkpt>
    <trkpt lat="50.846239" lon="15.484352">
      <ele>1022</ele>
      <time>2026-05-07T12:46:24Z</time>
    </trkpt>
    <trkpt lat="50.846163" lon="15.484512">
      <ele>1022</ele>
      <time>2026-05-07T12:46:38Z</time>
    </trkpt>
    <trkpt lat="50.845983" lon="15.484832">
      <ele>1022</ele>
      <time>2026-05-07T12:47:08Z</time>
    </trkpt>
    <trkpt lat="50.845886" lon="15.484983">
      <ele>1022</ele>
      <time>2026-05-07T12:47:24Z</time>
    </trkpt>
    <trkpt lat="50.845741" lon="15.48542">
      <ele>1023</ele>
      <time>2026-05-07T12:47:58Z</time>
    </trkpt>
    <trkpt lat="50.845647" lon="15.485703">
      <ele>1024</ele>
      <time>2026-05-07T12:48:21Z</time>
    </trkpt>
    <trkpt lat="50.845612" lon="15.48594">
      <ele>1025</ele>
      <time>2026-05-07T12:48:38Z</time>
    </trkpt>
    <trkpt lat="50.845646" lon="15.486132">
      <ele>1027</ele>
      <time>2026-05-07T12:48:52Z</time>
    </trkpt>
    <trkpt lat="50.84583" lon="15.486729">
      <ele>1034</ele>
      <time>2026-05-07T12:49:39Z</time>
    </trkpt>
    <trkpt lat="50.845947" lon="15.48711">
      <ele>1035</ele>
      <time>2026-05-07T12:50:09Z</time>
    </trkpt>
    <trkpt lat="50.845979" lon="15.48732">
      <ele>1035</ele>
      <time>2026-05-07T12:50:24Z</time>
    </trkpt>
    <trkpt lat="50.845912" lon="15.487963">
      <ele>1035</ele>
      <time>2026-05-07T12:51:10Z</time>
    </trkpt>
    <trkpt lat="50.845801" lon="15.48888">
      <ele>1038</ele>
      <time>2026-05-07T12:52:15Z</time>
    </trkpt>
    <trkpt lat="50.845773" lon="15.489028">
      <ele>1039</ele>
      <time>2026-05-07T12:52:26Z</time>
    </trkpt>
    <trkpt lat="50.845756" lon="15.489218">
      <ele>1040</ele>
      <time>2026-05-07T12:52:40Z</time>
    </trkpt>
    <trkpt lat="50.845724" lon="15.489365">
      <ele>1041</ele>
      <time>2026-05-07T12:52:51Z</time>
    </trkpt>
    <trkpt lat="50.845736" lon="15.489549">
      <ele>1042</ele>
      <time>2026-05-07T12:53:04Z</time>
    </trkpt>
    <trkpt lat="50.845651" lon="15.490356">
      <ele>1047</ele>
      <time>2026-05-07T12:54:01Z</time>
    </trkpt>
    <trkpt lat="50.845622" lon="15.490638">
      <ele>1048</ele>
      <time>2026-05-07T12:54:22Z</time>
    </trkpt>
    <trkpt lat="50.845591" lon="15.490891">
      <ele>1050</ele>
      <time>2026-05-07T12:54:40Z</time>
    </trkpt>
    <trkpt lat="50.84558" lon="15.490986">
      <ele>1050</ele>
      <time>2026-05-07T12:54:46Z</time>
    </trkpt>
    <trkpt lat="50.845531" lon="15.49098">
      <ele>1049</ele>
      <time>2026-05-07T12:54:52Z</time>
    </trkpt>
    <trkpt lat="50.845495" lon="15.490984">
      <ele>1049</ele>
      <time>2026-05-07T12:54:56Z</time>
    </trkpt>
    <trkpt lat="50.845414" lon="15.491069">
      <ele>1050</ele>
      <time>2026-05-07T12:55:07Z</time>
    </trkpt>
    <trkpt lat="50.84535" lon="15.491145">
      <ele>1051</ele>
      <time>2026-05-07T12:55:16Z</time>
    </trkpt>
    <trkpt lat="50.8453" lon="15.491224">
      <ele>1051</ele>
      <time>2026-05-07T12:55:24Z</time>
    </trkpt>
    <trkpt lat="50.845266" lon="15.491298">
      <ele>1052</ele>
      <time>2026-05-07T12:55:30Z</time>
    </trkpt>
    <trkpt lat="50.845238" lon="15.49139">
      <ele>1053</ele>
      <time>2026-05-07T12:55:37Z</time>
    </trkpt>
    <trkpt lat="50.845194" lon="15.491583">
      <ele>1055</ele>
      <time>2026-05-07T12:55:52Z</time>
    </trkpt>
    <trkpt lat="50.845167" lon="15.491682">
      <ele>1056</ele>
      <time>2026-05-07T12:56:00Z</time>
    </trkpt>
    <trkpt lat="50.845146" lon="15.491776">
      <ele>1057</ele>
      <time>2026-05-07T12:56:07Z</time>
    </trkpt>
    <trkpt lat="50.845118" lon="15.491945">
      <ele>1058</ele>
      <time>2026-05-07T12:56:19Z</time>
    </trkpt>
    <trkpt lat="50.845146" lon="15.491776">
      <ele>1057</ele>
      <time>2026-05-07T12:56:30Z</time>
    </trkpt>
    <trkpt lat="50.845167" lon="15.491682">
      <ele>1056</ele>
      <time>2026-05-07T12:56:36Z</time>
    </trkpt>
    <trkpt lat="50.845194" lon="15.491583">
      <ele>1055</ele>
      <time>2026-05-07T12:56:42Z</time>
    </trkpt>
    <trkpt lat="50.845238" lon="15.49139">
      <ele>1053</ele>
      <time>2026-05-07T12:56:55Z</time>
    </trkpt>
    <trkpt lat="50.845266" lon="15.491298">
      <ele>1052</ele>
      <time>2026-05-07T12:57:01Z</time>
    </trkpt>
    <trkpt lat="50.8453" lon="15.491224">
      <ele>1051</ele>
      <time>2026-05-07T12:57:06Z</time>
    </trkpt>
    <trkpt lat="50.84535" lon="15.491145">
      <ele>1051</ele>
      <time>2026-05-07T12:57:13Z</time>
    </trkpt>
    <trkpt lat="50.845414" lon="15.491069">
      <ele>1050</ele>
      <time>2026-05-07T12:57:21Z</time>
    </trkpt>
    <trkpt lat="50.845495" lon="15.490984">
      <ele>1049</ele>
      <time>2026-05-07T12:57:30Z</time>
    </trkpt>
    <trkpt lat="50.845531" lon="15.49098">
      <ele>1049</ele>
      <time>2026-05-07T12:57:34Z</time>
    </trkpt>
    <trkpt lat="50.84558" lon="15.490986">
      <ele>1050</ele>
      <time>2026-05-07T12:57:38Z</time>
    </trkpt>
    <trkpt lat="50.845591" lon="15.490891">
      <ele>1050</ele>
      <time>2026-05-07T12:57:44Z</time>
    </trkpt>
    <trkpt lat="50.845622" lon="15.490638">
      <ele>1048</ele>
      <time>2026-05-07T12:58:00Z</time>
    </trkpt>
    <trkpt lat="50.845651" lon="15.490356">
      <ele>1047</ele>
      <time>2026-05-07T12:58:17Z</time>
    </trkpt>
    <trkpt lat="50.845736" lon="15.489549">
      <ele>1042</ele>
      <time>2026-05-07T12:59:06Z</time>
    </trkpt>
    <trkpt lat="50.845724" lon="15.489365">
      <ele>1041</ele>
      <time>2026-05-07T12:59:17Z</time>
    </trkpt>
    <trkpt lat="50.845756" lon="15.489218">
      <ele>1040</ele>
      <time>2026-05-07T12:59:27Z</time>
    </trkpt>
    <trkpt lat="50.845773" lon="15.489028">
      <ele>1039</ele>
      <time>2026-05-07T12:59:38Z</time>
    </trkpt>
    <trkpt lat="50.845801" lon="15.48888">
      <ele>1038</ele>
      <time>2026-05-07T12:59:48Z</time>
    </trkpt>
    <trkpt lat="50.845912" lon="15.487963">
      <ele>1035</ele>
      <time>2026-05-07T13:00:44Z</time>
    </trkpt>
    <trkpt lat="50.845979" lon="15.48732">
      <ele>1035</ele>
      <time>2026-05-07T13:01:23Z</time>
    </trkpt>
    <trkpt lat="50.845947" lon="15.48711">
      <ele>1035</ele>
      <time>2026-05-07T13:01:36Z</time>
    </trkpt>
    <trkpt lat="50.84583" lon="15.486729">
      <ele>1034</ele>
      <time>2026-05-07T13:02:02Z</time>
    </trkpt>
    <trkpt lat="50.845646" lon="15.486132">
      <ele>1027</ele>
      <time>2026-05-07T13:02:42Z</time>
    </trkpt>
    <trkpt lat="50.845612" lon="15.48594">
      <ele>1025</ele>
      <time>2026-05-07T13:02:54Z</time>
    </trkpt>
    <trkpt lat="50.845647" lon="15.485703">
      <ele>1024</ele>
      <time>2026-05-07T13:03:09Z</time>
    </trkpt>
    <trkpt lat="50.845741" lon="15.48542">
      <ele>1023</ele>
      <time>2026-05-07T13:03:28Z</time>
    </trkpt>
    <trkpt lat="50.845886" lon="15.484983">
      <ele>1022</ele>
      <time>2026-05-07T13:03:58Z</time>
    </trkpt>
    <trkpt lat="50.845983" lon="15.484832">
      <ele>1022</ele>
      <time>2026-05-07T13:04:11Z</time>
    </trkpt>
    <trkpt lat="50.846163" lon="15.484512">
      <ele>1022</ele>
      <time>2026-05-07T13:04:37Z</time>
    </trkpt>
    <trkpt lat="50.846239" lon="15.484352">
      <ele>1022</ele>
      <time>2026-05-07T13:04:49Z</time>
    </trkpt>
    <trkpt lat="50.846286" lon="15.484111">
      <ele>1022</ele>
      <time>2026-05-07T13:05:04Z</time>
    </trkpt>
    <trkpt lat="50.846323" lon="15.483827">
      <ele>1022</ele>
      <time>2026-05-07T13:05:21Z</time>
    </trkpt>
    <trkpt lat="50.846398" lon="15.4831">
      <ele>1025</ele>
      <time>2026-05-07T13:06:06Z</time>
    </trkpt>
    <trkpt lat="50.846463" lon="15.482552">
      <ele>1025</ele>
      <time>2026-05-07T13:06:39Z</time>
    </trkpt>
    <trkpt lat="50.846526" lon="15.481949">
      <ele>1024</ele>
      <time>2026-05-07T13:07:16Z</time>
    </trkpt>
    <trkpt lat="50.846582" lon="15.481327">
      <ele>1023</ele>
      <time>2026-05-07T13:07:54Z</time>
    </trkpt>
    <trkpt lat="50.84663" lon="15.480993">
      <ele>1023</ele>
      <time>2026-05-07T13:08:15Z</time>
    </trkpt>
    <trkpt lat="50.846635" lon="15.48087">
      <ele>1024</ele>
      <time>2026-05-07T13:08:22Z</time>
    </trkpt>
    <trkpt lat="50.846668" lon="15.480498">
      <ele>1025</ele>
      <time>2026-05-07T13:08:45Z</time>
    </trkpt>
    <trkpt lat="50.846681" lon="15.480302">
      <ele>1024</ele>
      <time>2026-05-07T13:08:56Z</time>
    </trkpt>
    <trkpt lat="50.846692" lon="15.48014">
      <ele>1024</ele>
      <time>2026-05-07T13:09:06Z</time>
    </trkpt>
    <trkpt lat="50.846703" lon="15.479963">
      <ele>1024</ele>
      <time>2026-05-07T13:09:17Z</time>
    </trkpt>
    <trkpt lat="50.846735" lon="15.479793">
      <ele>1023</ele>
      <time>2026-05-07T13:09:28Z</time>
    </trkpt>
    <trkpt lat="50.846755" lon="15.479661">
      <ele>1022</ele>
      <time>2026-05-07T13:09:36Z</time>
    </trkpt>
    <trkpt lat="50.846768" lon="15.479457">
      <ele>1021</ele>
      <time>2026-05-07T13:09:48Z</time>
    </trkpt>
    <trkpt lat="50.846801" lon="15.479114">
      <ele>1020</ele>
      <time>2026-05-07T13:10:09Z</time>
    </trkpt>
    <trkpt lat="50.846823" lon="15.478874">
      <ele>1019</ele>
      <time>2026-05-07T13:10:24Z</time>
    </trkpt>
    <trkpt lat="50.846848" lon="15.478757">
      <ele>1019</ele>
      <time>2026-05-07T13:10:31Z</time>
    </trkpt>
    <trkpt lat="50.846841" lon="15.478556">
      <ele>1017</ele>
      <time>2026-05-07T13:10:43Z</time>
    </trkpt>
    <trkpt lat="50.846868" lon="15.478218">
      <ele>1016</ele>
      <time>2026-05-07T13:11:04Z</time>
    </trkpt>
    <trkpt lat="50.846902" lon="15.477832">
      <ele>1015</ele>
      <time>2026-05-07T13:11:27Z</time>
    </trkpt>
    <trkpt lat="50.846992" lon="15.476712">
      <ele>1013</ele>
      <time>2026-05-07T13:12:35Z</time>
    </trkpt>
    <trkpt lat="50.847235" lon="15.473426">
      <ele>1016</ele>
      <time>2026-05-07T13:15:54Z</time>
    </trkpt>
    <trkpt lat="50.847378" lon="15.471488">
      <ele>1010</ele>
      <time>2026-05-07T13:17:52Z</time>
    </trkpt>
    <trkpt lat="50.847454" lon="15.4705">
      <ele>1011</ele>
      <time>2026-05-07T13:18:52Z</time>
    </trkpt>
    <trkpt lat="50.84748" lon="15.47018">
      <ele>1012</ele>
      <time>2026-05-07T13:19:11Z</time>
    </trkpt>
    <trkpt lat="50.847708" lon="15.46731">
      <ele>1009</ele>
      <time>2026-05-07T13:22:05Z</time>
    </trkpt>
    <trkpt lat="50.848048" lon="15.463127">
      <ele>1000</ele>
      <time>2026-05-07T13:26:19Z</time>
    </trkpt>
    <trkpt lat="50.84814" lon="15.46292">
      <ele>999</ele>
      <time>2026-05-07T13:26:34Z</time>
    </trkpt>
    <trkpt lat="50.848827" lon="15.461267">
      <ele>993</ele>
      <time>2026-05-07T13:28:36Z</time>
    </trkpt>
    <trkpt lat="50.849406" lon="15.460031">
      <ele>987</ele>
      <time>2026-05-07T13:30:10Z</time>
    </trkpt>
    <trkpt lat="50.849993" lon="15.458693">
      <ele>977</ele>
      <time>2026-05-07T13:31:50Z</time>
    </trkpt>
    <trkpt lat="50.850713" lon="15.457147">
      <ele>960</ele>
      <time>2026-05-07T13:33:48Z</time>
    </trkpt>
    <trkpt lat="50.851285" lon="15.455865">
      <ele>951</ele>
      <time>2026-05-07T13:35:24Z</time>
    </trkpt>
    <trkpt lat="50.851553" lon="15.455296">
      <ele>948</ele>
      <time>2026-05-07T13:36:08Z</time>
    </trkpt>
    <trkpt lat="50.8518" lon="15.454743">
      <ele>944</ele>
      <time>2026-05-07T13:36:49Z</time>
    </trkpt>
    <trkpt lat="50.852057" lon="15.454287">
      <ele>939</ele>
      <time>2026-05-07T13:37:27Z</time>
    </trkpt>
    <trkpt lat="50.85221" lon="15.454068">
      <ele>936</ele>
      <time>2026-05-07T13:37:47Z</time>
    </trkpt>
    <trkpt lat="50.852294" lon="15.454019">
      <ele>933</ele>
      <time>2026-05-07T13:37:56Z</time>
    </trkpt>
    <trkpt lat="50.852372" lon="15.454051">
      <ele>930</ele>
      <time>2026-05-07T13:38:04Z</time>
    </trkpt>
    <trkpt lat="50.85247" lon="15.454137">
      <ele>926</ele>
      <time>2026-05-07T13:38:15Z</time>
    </trkpt>
    <trkpt lat="50.852575" lon="15.45425">
      <ele>922</ele>
      <time>2026-05-07T13:38:28Z</time>
    </trkpt>
    <trkpt lat="50.852745" lon="15.454357">
      <ele>915</ele>
      <time>2026-05-07T13:38:47Z</time>
    </trkpt>
    <trkpt lat="50.853087" lon="15.454379">
      <ele>905</ele>
      <time>2026-05-07T13:39:21Z</time>
    </trkpt>
    <trkpt lat="50.853297" lon="15.454304">
      <ele>899</ele>
      <time>2026-05-07T13:39:42Z</time>
    </trkpt>
    <trkpt lat="50.853486" lon="15.454304">
      <ele>894</ele>
      <time>2026-05-07T13:40:01Z</time>
    </trkpt>
    <trkpt lat="50.853693" lon="15.45433">
      <ele>889</ele>
      <time>2026-05-07T13:40:22Z</time>
    </trkpt>
    <trkpt lat="50.853872" lon="15.454368">
      <ele>884</ele>
      <time>2026-05-07T13:40:40Z</time>
    </trkpt>
    <trkpt lat="50.854191" lon="15.4544">
      <ele>874</ele>
      <time>2026-05-07T13:41:12Z</time>
    </trkpt>
    <trkpt lat="50.854313" lon="15.454405">
      <ele>871</ele>
      <time>2026-05-07T13:41:24Z</time>
    </trkpt>
    <trkpt lat="50.854455" lon="15.454352">
      <ele>868</ele>
      <time>2026-05-07T13:41:38Z</time>
    </trkpt>
    <trkpt lat="50.854604" lon="15.4544">
      <ele>865</ele>
      <time>2026-05-07T13:41:53Z</time>
    </trkpt>
    <trkpt lat="50.854736" lon="15.454524">
      <ele>863</ele>
      <time>2026-05-07T13:42:08Z</time>
    </trkpt>
    <trkpt lat="50.854926" lon="15.454609">
      <ele>858</ele>
      <time>2026-05-07T13:42:28Z</time>
    </trkpt>
    <trkpt lat="50.855119" lon="15.454604">
      <ele>853</ele>
      <time>2026-05-07T13:42:47Z</time>
    </trkpt>
    <trkpt lat="50.855421" lon="15.454652">
      <ele>845</ele>
      <time>2026-05-07T13:43:17Z</time>
    </trkpt>
    <trkpt lat="50.855761" lon="15.453809">
      <ele>846</ele>
      <time>2026-05-07T13:44:18Z</time>
    </trkpt>
    <trkpt lat="50.85597" lon="15.453319">
      <ele>842</ele>
      <time>2026-05-07T13:44:55Z</time>
    </trkpt>
    <trkpt lat="50.85623" lon="15.452695">
      <ele>838</ele>
      <time>2026-05-07T13:45:40Z</time>
    </trkpt>
    <trkpt lat="50.85637" lon="15.452337">
      <ele>838</ele>
      <time>2026-05-07T13:46:06Z</time>
    </trkpt>
    <trkpt lat="50.85652" lon="15.452046">
      <ele>838</ele>
      <time>2026-05-07T13:46:29Z</time>
    </trkpt>
    <trkpt lat="50.856898" lon="15.45146">
      <ele>832</ele>
      <time>2026-05-07T13:47:20Z</time>
    </trkpt>
    <trkpt lat="50.85729" lon="15.450867">
      <ele>829</ele>
      <time>2026-05-07T13:48:13Z</time>
    </trkpt>
    <trkpt lat="50.857481" lon="15.450583">
      <ele>827</ele>
      <time>2026-05-07T13:48:38Z</time>
    </trkpt>
    <trkpt lat="50.857739" lon="15.450211">
      <ele>824</ele>
      <time>2026-05-07T13:49:12Z</time>
    </trkpt>
    <trkpt lat="50.857977" lon="15.449882">
      <ele>821</ele>
      <time>2026-05-07T13:49:43Z</time>
    </trkpt>
    <trkpt lat="50.858263" lon="15.449541">
      <ele>819</ele>
      <time>2026-05-07T13:50:18Z</time>
    </trkpt>
    <trkpt lat="50.858359" lon="15.449356">
      <ele>817</ele>
      <time>2026-05-07T13:50:32Z</time>
    </trkpt>
    <trkpt lat="50.858432" lon="15.449186">
      <ele>816</ele>
      <time>2026-05-07T13:50:45Z</time>
    </trkpt>
    <trkpt lat="50.858483" lon="15.449063">
      <ele>814</ele>
      <time>2026-05-07T13:50:54Z</time>
    </trkpt>
    <trkpt lat="50.858594" lon="15.448691">
      <ele>810</ele>
      <time>2026-05-07T13:51:19Z</time>
    </trkpt>
    <trkpt lat="50.858631" lon="15.448531">
      <ele>808</ele>
      <time>2026-05-07T13:51:30Z</time>
    </trkpt>
    <trkpt lat="50.858669" lon="15.448367">
      <ele>807</ele>
      <time>2026-05-07T13:51:41Z</time>
    </trkpt>
    <trkpt lat="50.85871" lon="15.448201">
      <ele>807</ele>
      <time>2026-05-07T13:51:52Z</time>
    </trkpt>
    <trkpt lat="50.858745" lon="15.448111">
      <ele>808</ele>
      <time>2026-05-07T13:51:58Z</time>
    </trkpt>
    <trkpt lat="50.858814" lon="15.448054">
      <ele>807</ele>
      <time>2026-05-07T13:52:06Z</time>
    </trkpt>
    <trkpt lat="50.85895" lon="15.447974">
      <ele>805</ele>
      <time>2026-05-07T13:52:20Z</time>
    </trkpt>
    <trkpt lat="50.859118" lon="15.447881">
      <ele>803</ele>
      <time>2026-05-07T13:52:37Z</time>
    </trkpt>
    <trkpt lat="50.859329" lon="15.447728">
      <ele>802</ele>
      <time>2026-05-07T13:52:59Z</time>
    </trkpt>
    <trkpt lat="50.859544" lon="15.447553">
      <ele>799</ele>
      <time>2026-05-07T13:53:23Z</time>
    </trkpt>
    <trkpt lat="50.859702" lon="15.447436">
      <ele>797</ele>
      <time>2026-05-07T13:53:40Z</time>
    </trkpt>
    <trkpt lat="50.859942" lon="15.447256">
      <ele>795</ele>
      <time>2026-05-07T13:54:06Z</time>
    </trkpt>
    <trkpt lat="50.860243" lon="15.447027">
      <ele>791</ele>
      <time>2026-05-07T13:54:38Z</time>
    </trkpt>
    <trkpt lat="50.860509" lon="15.446811">
      <ele>789</ele>
      <time>2026-05-07T13:55:07Z</time>
    </trkpt>
    <trkpt lat="50.860804" lon="15.446461">
      <ele>786</ele>
      <time>2026-05-07T13:55:43Z</time>
    </trkpt>
    <trkpt lat="50.860939" lon="15.446345">
      <ele>785</ele>
      <time>2026-05-07T13:55:58Z</time>
    </trkpt>
    <trkpt lat="50.861118" lon="15.446146">
      <ele>784</ele>
      <time>2026-05-07T13:56:19Z</time>
    </trkpt>
    <trkpt lat="50.861234" lon="15.446166">
      <ele>784</ele>
      <time>2026-05-07T13:56:27Z</time>
    </trkpt>
    <trkpt lat="50.861477" lon="15.446278">
      <ele>784</ele>
      <time>2026-05-07T13:56:44Z</time>
    </trkpt>
    <trkpt lat="50.861672" lon="15.446387">
      <ele>783</ele>
      <time>2026-05-07T13:56:58Z</time>
    </trkpt>
    <trkpt lat="50.861813" lon="15.446472">
      <ele>782</ele>
      <time>2026-05-07T13:57:08Z</time>
    </trkpt>
    <trkpt lat="50.862068" lon="15.446646">
      <ele>781</ele>
      <time>2026-05-07T13:57:26Z</time>
    </trkpt>
    <trkpt lat="50.862138" lon="15.446699">
      <ele>781</ele>
      <time>2026-05-07T13:57:31Z</time>
    </trkpt>
    <trkpt lat="50.862306" lon="15.446825">
      <ele>780</ele>
      <time>2026-05-07T13:57:44Z</time>
    </trkpt>
    <trkpt lat="50.862956" lon="15.447296">
      <ele>776</ele>
      <time>2026-05-07T13:58:32Z</time>
    </trkpt>
    <trkpt lat="50.86339" lon="15.447609">
      <ele>773</ele>
      <time>2026-05-07T13:59:04Z</time>
    </trkpt>
    <trkpt lat="50.863585" lon="15.44772">
      <ele>771</ele>
      <time>2026-05-07T13:59:18Z</time>
    </trkpt>
    <trkpt lat="50.863763" lon="15.447798">
      <ele>770</ele>
      <time>2026-05-07T13:59:30Z</time>
    </trkpt>
    <trkpt lat="50.864159" lon="15.447964">
      <ele>769</ele>
      <time>2026-05-07T13:59:57Z</time>
    </trkpt>
    <trkpt lat="50.864524" lon="15.448128">
      <ele>769</ele>
      <time>2026-05-07T14:00:23Z</time>
    </trkpt>
    <trkpt lat="50.864623" lon="15.448172">
      <ele>770</ele>
      <time>2026-05-07T14:00:30Z</time>
    </trkpt>
    <trkpt lat="50.864695" lon="15.448227">
      <ele>770</ele>
      <time>2026-05-07T14:00:35Z</time>
    </trkpt>
    <trkpt lat="50.864778" lon="15.448318">
      <ele>770</ele>
      <time>2026-05-07T14:00:42Z</time>
    </trkpt>
    <trkpt lat="50.865038" lon="15.448447">
      <ele>770</ele>
      <time>2026-05-07T14:01:00Z</time>
    </trkpt>
    <trkpt lat="50.865316" lon="15.448544">
      <ele>769</ele>
      <time>2026-05-07T14:01:19Z</time>
    </trkpt>
  </trkseg>
</trk>
</gpx>