<?xml version="1.0" encoding="UTF-8"?><gpx creator="https://mapa-turystyczna.pl" xmlns="http://www.topografix.com/GPX/1/1" version="1.1" xmlns:xsi="http://www.w3.org/2001/XMLSchema-instance" xsi:schemaLocation="http://www.topografix.com/GPX/1/1 http://www.topografix.com/GPX/1/1/gpx.xsd">
  <metadata>
    <link href="https://mapa-turystyczna.pl">
      <text>mapa-turystyczna.pl</text>
    </link>
    <time>2026-05-07T08:43:23Z</time>
    <bounds maxlat="50.680131" maxlon="16.485532" minlat="50.662103" minlon="16.465886"/>
  </metadata>

<trk>
  <name>Przełęcz Sokola – Przełęcz Sokola</name>
  <link href="https://mapa-turystyczna.pl/route/4z6">
    <text>Przełęcz Sokola – Przełęcz Sokola</text>
  </link>
  <trkseg>
    <trkpt lat="50.662103" lon="16.465886">
      <ele>754</ele>
      <time>2026-05-07T08:43:23Z</time>
    </trkpt>
    <trkpt lat="50.662312" lon="16.466767">
      <ele>761</ele>
      <time>2026-05-07T08:45:43Z</time>
    </trkpt>
    <trkpt lat="50.662505" lon="16.467635">
      <ele>774</ele>
      <time>2026-05-07T08:48:02Z</time>
    </trkpt>
    <trkpt lat="50.662602" lon="16.468116">
      <ele>780</ele>
      <time>2026-05-07T08:49:18Z</time>
    </trkpt>
    <trkpt lat="50.662752" lon="16.469054">
      <ele>794</ele>
      <time>2026-05-07T08:51:44Z</time>
    </trkpt>
    <trkpt lat="50.662793" lon="16.469224">
      <ele>797</ele>
      <time>2026-05-07T08:52:12Z</time>
    </trkpt>
    <trkpt lat="50.662845" lon="16.469363">
      <ele>801</ele>
      <time>2026-05-07T08:52:37Z</time>
    </trkpt>
    <trkpt lat="50.662896" lon="16.469515">
      <ele>805</ele>
      <time>2026-05-07T08:53:03Z</time>
    </trkpt>
    <trkpt lat="50.662958" lon="16.469768">
      <ele>809</ele>
      <time>2026-05-07T08:53:44Z</time>
    </trkpt>
    <trkpt lat="50.663307" lon="16.471204">
      <ele>828</ele>
      <time>2026-05-07T08:57:36Z</time>
    </trkpt>
    <trkpt lat="50.66379" lon="16.471993">
      <ele>845</ele>
      <time>2026-05-07T09:00:22Z</time>
    </trkpt>
    <trkpt lat="50.663817" lon="16.47201">
      <ele>846</ele>
      <time>2026-05-07T09:00:29Z</time>
    </trkpt>
    <trkpt lat="50.663842" lon="16.472041">
      <ele>847</ele>
      <time>2026-05-07T09:00:36Z</time>
    </trkpt>
    <trkpt lat="50.664089" lon="16.472515">
      <ele>864</ele>
      <time>2026-05-07T09:02:14Z</time>
    </trkpt>
    <trkpt lat="50.66417" lon="16.472665">
      <ele>870</ele>
      <time>2026-05-07T09:02:46Z</time>
    </trkpt>
    <trkpt lat="50.664216" lon="16.472718">
      <ele>872</ele>
      <time>2026-05-07T09:03:00Z</time>
    </trkpt>
    <trkpt lat="50.664293" lon="16.472806">
      <ele>875</ele>
      <time>2026-05-07T09:03:23Z</time>
    </trkpt>
    <trkpt lat="50.664317" lon="16.472835">
      <ele>874</ele>
      <time>2026-05-07T09:03:27Z</time>
    </trkpt>
    <trkpt lat="50.664466" lon="16.473022">
      <ele>870</ele>
      <time>2026-05-07T09:03:55Z</time>
    </trkpt>
    <trkpt lat="50.664612" lon="16.473209">
      <ele>865</ele>
      <time>2026-05-07T09:04:23Z</time>
    </trkpt>
    <trkpt lat="50.664944" lon="16.473645">
      <ele>863</ele>
      <time>2026-05-07T09:05:24Z</time>
    </trkpt>
    <trkpt lat="50.665304" lon="16.473811">
      <ele>868</ele>
      <time>2026-05-07T09:06:18Z</time>
    </trkpt>
    <trkpt lat="50.665757" lon="16.4741">
      <ele>872</ele>
      <time>2026-05-07T09:07:28Z</time>
    </trkpt>
    <trkpt lat="50.666042" lon="16.474314">
      <ele>875</ele>
      <time>2026-05-07T09:08:13Z</time>
    </trkpt>
    <trkpt lat="50.666408" lon="16.474823">
      <ele>879</ele>
      <time>2026-05-07T09:09:23Z</time>
    </trkpt>
    <trkpt lat="50.666889" lon="16.475603">
      <ele>890</ele>
      <time>2026-05-07T09:11:02Z</time>
    </trkpt>
    <trkpt lat="50.666913" lon="16.47565">
      <ele>890</ele>
      <time>2026-05-07T09:11:08Z</time>
    </trkpt>
    <trkpt lat="50.667165" lon="16.476156">
      <ele>896</ele>
      <time>2026-05-07T09:12:06Z</time>
    </trkpt>
    <trkpt lat="50.667291" lon="16.476402">
      <ele>898</ele>
      <time>2026-05-07T09:12:35Z</time>
    </trkpt>
    <trkpt lat="50.667457" lon="16.476569">
      <ele>900</ele>
      <time>2026-05-07T09:13:03Z</time>
    </trkpt>
    <trkpt lat="50.667566" lon="16.476654">
      <ele>902</ele>
      <time>2026-05-07T09:13:21Z</time>
    </trkpt>
    <trkpt lat="50.667685" lon="16.476719">
      <ele>903</ele>
      <time>2026-05-07T09:13:39Z</time>
    </trkpt>
    <trkpt lat="50.667773" lon="16.476746">
      <ele>905</ele>
      <time>2026-05-07T09:13:51Z</time>
    </trkpt>
    <trkpt lat="50.668108" lon="16.476977">
      <ele>908</ele>
      <time>2026-05-07T09:14:44Z</time>
    </trkpt>
    <trkpt lat="50.668375" lon="16.477143">
      <ele>910</ele>
      <time>2026-05-07T09:15:25Z</time>
    </trkpt>
    <trkpt lat="50.668538" lon="16.477244">
      <ele>910</ele>
      <time>2026-05-07T09:15:50Z</time>
    </trkpt>
    <trkpt lat="50.668725" lon="16.477357">
      <ele>909</ele>
      <time>2026-05-07T09:16:18Z</time>
    </trkpt>
    <trkpt lat="50.668916" lon="16.477539">
      <ele>905</ele>
      <time>2026-05-07T09:16:50Z</time>
    </trkpt>
    <trkpt lat="50.669115" lon="16.477653">
      <ele>903</ele>
      <time>2026-05-07T09:17:21Z</time>
    </trkpt>
    <trkpt lat="50.669467" lon="16.477995">
      <ele>900</ele>
      <time>2026-05-07T09:18:20Z</time>
    </trkpt>
    <trkpt lat="50.669664" lon="16.478264">
      <ele>897</ele>
      <time>2026-05-07T09:18:57Z</time>
    </trkpt>
    <trkpt lat="50.669905" lon="16.478559">
      <ele>895</ele>
      <time>2026-05-07T09:19:41Z</time>
    </trkpt>
    <trkpt lat="50.670078" lon="16.478822">
      <ele>892</ele>
      <time>2026-05-07T09:20:15Z</time>
    </trkpt>
    <trkpt lat="50.670252" lon="16.479117">
      <ele>890</ele>
      <time>2026-05-07T09:20:52Z</time>
    </trkpt>
    <trkpt lat="50.670561" lon="16.479571">
      <ele>886</ele>
      <time>2026-05-07T09:21:52Z</time>
    </trkpt>
    <trkpt lat="50.670779" lon="16.479809">
      <ele>882</ele>
      <time>2026-05-07T09:22:30Z</time>
    </trkpt>
    <trkpt lat="50.670911" lon="16.479921">
      <ele>880</ele>
      <time>2026-05-07T09:22:52Z</time>
    </trkpt>
    <trkpt lat="50.671048" lon="16.480068">
      <ele>878</ele>
      <time>2026-05-07T09:23:15Z</time>
    </trkpt>
    <trkpt lat="50.671072" lon="16.480144">
      <ele>878</ele>
      <time>2026-05-07T09:23:23Z</time>
    </trkpt>
    <trkpt lat="50.671206" lon="16.480021">
      <ele>880</ele>
      <time>2026-05-07T09:23:48Z</time>
    </trkpt>
    <trkpt lat="50.671333" lon="16.479977">
      <ele>883</ele>
      <time>2026-05-07T09:24:09Z</time>
    </trkpt>
    <trkpt lat="50.67146" lon="16.479985">
      <ele>884</ele>
      <time>2026-05-07T09:24:30Z</time>
    </trkpt>
    <trkpt lat="50.671588" lon="16.480021">
      <ele>886</ele>
      <time>2026-05-07T09:24:50Z</time>
    </trkpt>
    <trkpt lat="50.671759" lon="16.479954">
      <ele>889</ele>
      <time>2026-05-07T09:25:19Z</time>
    </trkpt>
    <trkpt lat="50.672044" lon="16.479778">
      <ele>894</ele>
      <time>2026-05-07T09:26:08Z</time>
    </trkpt>
    <trkpt lat="50.672419" lon="16.479715">
      <ele>898</ele>
      <time>2026-05-07T09:27:09Z</time>
    </trkpt>
    <trkpt lat="50.672733" lon="16.479505">
      <ele>901</ele>
      <time>2026-05-07T09:28:04Z</time>
    </trkpt>
    <trkpt lat="50.673028" lon="16.479211">
      <ele>905</ele>
      <time>2026-05-07T09:29:00Z</time>
    </trkpt>
    <trkpt lat="50.673327" lon="16.478857">
      <ele>907</ele>
      <time>2026-05-07T09:30:00Z</time>
    </trkpt>
    <trkpt lat="50.673711" lon="16.479355">
      <ele>909</ele>
      <time>2026-05-07T09:31:19Z</time>
    </trkpt>
    <trkpt lat="50.673871" lon="16.479576">
      <ele>911</ele>
      <time>2026-05-07T09:31:53Z</time>
    </trkpt>
    <trkpt lat="50.673991" lon="16.47972">
      <ele>912</ele>
      <time>2026-05-07T09:32:18Z</time>
    </trkpt>
    <trkpt lat="50.674091" lon="16.479791">
      <ele>913</ele>
      <time>2026-05-07T09:32:35Z</time>
    </trkpt>
    <trkpt lat="50.674227" lon="16.479879">
      <ele>915</ele>
      <time>2026-05-07T09:32:59Z</time>
    </trkpt>
    <trkpt lat="50.674366" lon="16.479973">
      <ele>917</ele>
      <time>2026-05-07T09:33:23Z</time>
    </trkpt>
    <trkpt lat="50.674493" lon="16.480155">
      <ele>920</ele>
      <time>2026-05-07T09:33:51Z</time>
    </trkpt>
    <trkpt lat="50.67456" lon="16.480454">
      <ele>922</ele>
      <time>2026-05-07T09:34:23Z</time>
    </trkpt>
    <trkpt lat="50.674642" lon="16.480638">
      <ele>925</ele>
      <time>2026-05-07T09:34:46Z</time>
    </trkpt>
    <trkpt lat="50.674801" lon="16.480761">
      <ele>928</ele>
      <time>2026-05-07T09:35:15Z</time>
    </trkpt>
    <trkpt lat="50.674956" lon="16.480839">
      <ele>931</ele>
      <time>2026-05-07T09:35:41Z</time>
    </trkpt>
    <trkpt lat="50.675245" lon="16.481005">
      <ele>937</ele>
      <time>2026-05-07T09:36:31Z</time>
    </trkpt>
    <trkpt lat="50.675401" lon="16.481167">
      <ele>938</ele>
      <time>2026-05-07T09:37:01Z</time>
    </trkpt>
    <trkpt lat="50.675522" lon="16.48117">
      <ele>940</ele>
      <time>2026-05-07T09:37:21Z</time>
    </trkpt>
    <trkpt lat="50.675615" lon="16.481199">
      <ele>941</ele>
      <time>2026-05-07T09:37:36Z</time>
    </trkpt>
    <trkpt lat="50.675768" lon="16.481373">
      <ele>943</ele>
      <time>2026-05-07T09:38:06Z</time>
    </trkpt>
    <trkpt lat="50.676048" lon="16.48159">
      <ele>947</ele>
      <time>2026-05-07T09:38:56Z</time>
    </trkpt>
    <trkpt lat="50.676338" lon="16.481521">
      <ele>952</ele>
      <time>2026-05-07T09:39:44Z</time>
    </trkpt>
    <trkpt lat="50.67655" lon="16.481475">
      <ele>954</ele>
      <time>2026-05-07T09:40:18Z</time>
    </trkpt>
    <trkpt lat="50.676891" lon="16.481456">
      <ele>957</ele>
      <time>2026-05-07T09:41:13Z</time>
    </trkpt>
    <trkpt lat="50.677002" lon="16.481474">
      <ele>959</ele>
      <time>2026-05-07T09:41:31Z</time>
    </trkpt>
    <trkpt lat="50.677155" lon="16.481636">
      <ele>960</ele>
      <time>2026-05-07T09:42:00Z</time>
    </trkpt>
    <trkpt lat="50.677333" lon="16.481818">
      <ele>963</ele>
      <time>2026-05-07T09:42:35Z</time>
    </trkpt>
    <trkpt lat="50.677645" lon="16.481977">
      <ele>968</ele>
      <time>2026-05-07T09:43:27Z</time>
    </trkpt>
    <trkpt lat="50.677863" lon="16.482108">
      <ele>973</ele>
      <time>2026-05-07T09:44:05Z</time>
    </trkpt>
    <trkpt lat="50.678144" lon="16.482147">
      <ele>977</ele>
      <time>2026-05-07T09:44:51Z</time>
    </trkpt>
    <trkpt lat="50.678252" lon="16.482196">
      <ele>978</ele>
      <time>2026-05-07T09:45:09Z</time>
    </trkpt>
    <trkpt lat="50.67846" lon="16.482277">
      <ele>981</ele>
      <time>2026-05-07T09:45:44Z</time>
    </trkpt>
    <trkpt lat="50.678516" lon="16.482335">
      <ele>982</ele>
      <time>2026-05-07T09:45:54Z</time>
    </trkpt>
    <trkpt lat="50.678521" lon="16.482445">
      <ele>983</ele>
      <time>2026-05-07T09:46:06Z</time>
    </trkpt>
    <trkpt lat="50.678491" lon="16.482647">
      <ele>983</ele>
      <time>2026-05-07T09:46:27Z</time>
    </trkpt>
    <trkpt lat="50.678473" lon="16.482803">
      <ele>984</ele>
      <time>2026-05-07T09:46:43Z</time>
    </trkpt>
    <trkpt lat="50.678474" lon="16.482961">
      <ele>985</ele>
      <time>2026-05-07T09:46:59Z</time>
    </trkpt>
    <trkpt lat="50.678502" lon="16.483095">
      <ele>985</ele>
      <time>2026-05-07T09:47:13Z</time>
    </trkpt>
    <trkpt lat="50.678556" lon="16.483225">
      <ele>987</ele>
      <time>2026-05-07T09:47:29Z</time>
    </trkpt>
    <trkpt lat="50.67862" lon="16.483317">
      <ele>988</ele>
      <time>2026-05-07T09:47:43Z</time>
    </trkpt>
    <trkpt lat="50.678709" lon="16.483402">
      <ele>990</ele>
      <time>2026-05-07T09:48:00Z</time>
    </trkpt>
    <trkpt lat="50.678823" lon="16.483567">
      <ele>993</ele>
      <time>2026-05-07T09:48:25Z</time>
    </trkpt>
    <trkpt lat="50.678892" lon="16.483742">
      <ele>995</ele>
      <time>2026-05-07T09:48:46Z</time>
    </trkpt>
    <trkpt lat="50.67898" lon="16.484026">
      <ele>997</ele>
      <time>2026-05-07T09:49:18Z</time>
    </trkpt>
    <trkpt lat="50.679066" lon="16.484233">
      <ele>999</ele>
      <time>2026-05-07T09:49:43Z</time>
    </trkpt>
    <trkpt lat="50.679159" lon="16.484374">
      <ele>1000</ele>
      <time>2026-05-07T09:50:04Z</time>
    </trkpt>
    <trkpt lat="50.679449" lon="16.484859">
      <ele>1005</ele>
      <time>2026-05-07T09:51:12Z</time>
    </trkpt>
    <trkpt lat="50.679677" lon="16.485119">
      <ele>1007</ele>
      <time>2026-05-07T09:51:57Z</time>
    </trkpt>
    <trkpt lat="50.67984" lon="16.485229">
      <ele>1009</ele>
      <time>2026-05-07T09:52:26Z</time>
    </trkpt>
    <trkpt lat="50.679946" lon="16.485288">
      <ele>1010</ele>
      <time>2026-05-07T09:52:44Z</time>
    </trkpt>
    <trkpt lat="50.680049" lon="16.485404">
      <ele>1012</ele>
      <time>2026-05-07T09:53:04Z</time>
    </trkpt>
    <trkpt lat="50.680131" lon="16.485532">
      <ele>1015</ele>
      <time>2026-05-07T09:53:23Z</time>
    </trkpt>
    <trkpt lat="50.680049" lon="16.485404">
      <ele>1012</ele>
      <time>2026-05-07T09:53:36Z</time>
    </trkpt>
    <trkpt lat="50.679946" lon="16.485288">
      <ele>1010</ele>
      <time>2026-05-07T09:53:49Z</time>
    </trkpt>
    <trkpt lat="50.67984" lon="16.485229">
      <ele>1009</ele>
      <time>2026-05-07T09:54:01Z</time>
    </trkpt>
    <trkpt lat="50.679677" lon="16.485119">
      <ele>1007</ele>
      <time>2026-05-07T09:54:20Z</time>
    </trkpt>
    <trkpt lat="50.679449" lon="16.484859">
      <ele>1005</ele>
      <time>2026-05-07T09:54:50Z</time>
    </trkpt>
    <trkpt lat="50.679159" lon="16.484374">
      <ele>1000</ele>
      <time>2026-05-07T09:55:36Z</time>
    </trkpt>
    <trkpt lat="50.679066" lon="16.484233">
      <ele>999</ele>
      <time>2026-05-07T09:55:49Z</time>
    </trkpt>
    <trkpt lat="50.67898" lon="16.484026">
      <ele>997</ele>
      <time>2026-05-07T09:56:06Z</time>
    </trkpt>
    <trkpt lat="50.678892" lon="16.483742">
      <ele>995</ele>
      <time>2026-05-07T09:56:28Z</time>
    </trkpt>
    <trkpt lat="50.678823" lon="16.483567">
      <ele>993</ele>
      <time>2026-05-07T09:56:42Z</time>
    </trkpt>
    <trkpt lat="50.678709" lon="16.483402">
      <ele>990</ele>
      <time>2026-05-07T09:56:59Z</time>
    </trkpt>
    <trkpt lat="50.67862" lon="16.483317">
      <ele>988</ele>
      <time>2026-05-07T09:57:10Z</time>
    </trkpt>
    <trkpt lat="50.678556" lon="16.483225">
      <ele>987</ele>
      <time>2026-05-07T09:57:19Z</time>
    </trkpt>
    <trkpt lat="50.678502" lon="16.483095">
      <ele>985</ele>
      <time>2026-05-07T09:57:30Z</time>
    </trkpt>
    <trkpt lat="50.678474" lon="16.482961">
      <ele>985</ele>
      <time>2026-05-07T09:57:39Z</time>
    </trkpt>
    <trkpt lat="50.678473" lon="16.482803">
      <ele>984</ele>
      <time>2026-05-07T09:57:50Z</time>
    </trkpt>
    <trkpt lat="50.678491" lon="16.482647">
      <ele>983</ele>
      <time>2026-05-07T09:58:01Z</time>
    </trkpt>
    <trkpt lat="50.678521" lon="16.482445">
      <ele>983</ele>
      <time>2026-05-07T09:58:15Z</time>
    </trkpt>
    <trkpt lat="50.678516" lon="16.482335">
      <ele>982</ele>
      <time>2026-05-07T09:58:22Z</time>
    </trkpt>
    <trkpt lat="50.67846" lon="16.482277">
      <ele>981</ele>
      <time>2026-05-07T09:58:29Z</time>
    </trkpt>
    <trkpt lat="50.678252" lon="16.482196">
      <ele>978</ele>
      <time>2026-05-07T09:58:52Z</time>
    </trkpt>
    <trkpt lat="50.678144" lon="16.482147">
      <ele>977</ele>
      <time>2026-05-07T09:59:04Z</time>
    </trkpt>
    <trkpt lat="50.677863" lon="16.482108">
      <ele>973</ele>
      <time>2026-05-07T09:59:35Z</time>
    </trkpt>
    <trkpt lat="50.677645" lon="16.481977">
      <ele>968</ele>
      <time>2026-05-07T10:00:00Z</time>
    </trkpt>
    <trkpt lat="50.677333" lon="16.481818">
      <ele>963</ele>
      <time>2026-05-07T10:00:35Z</time>
    </trkpt>
    <trkpt lat="50.677155" lon="16.481636">
      <ele>960</ele>
      <time>2026-05-07T10:00:58Z</time>
    </trkpt>
    <trkpt lat="50.677002" lon="16.481474">
      <ele>959</ele>
      <time>2026-05-07T10:01:18Z</time>
    </trkpt>
    <trkpt lat="50.676891" lon="16.481456">
      <ele>957</ele>
      <time>2026-05-07T10:01:30Z</time>
    </trkpt>
    <trkpt lat="50.67655" lon="16.481475">
      <ele>954</ele>
      <time>2026-05-07T10:02:06Z</time>
    </trkpt>
    <trkpt lat="50.676338" lon="16.481521">
      <ele>952</ele>
      <time>2026-05-07T10:02:29Z</time>
    </trkpt>
    <trkpt lat="50.676048" lon="16.48159">
      <ele>947</ele>
      <time>2026-05-07T10:03:01Z</time>
    </trkpt>
    <trkpt lat="50.675768" lon="16.481373">
      <ele>943</ele>
      <time>2026-05-07T10:03:34Z</time>
    </trkpt>
    <trkpt lat="50.675615" lon="16.481199">
      <ele>941</ele>
      <time>2026-05-07T10:03:54Z</time>
    </trkpt>
    <trkpt lat="50.675522" lon="16.48117">
      <ele>940</ele>
      <time>2026-05-07T10:04:05Z</time>
    </trkpt>
    <trkpt lat="50.675401" lon="16.481167">
      <ele>938</ele>
      <time>2026-05-07T10:04:18Z</time>
    </trkpt>
    <trkpt lat="50.675245" lon="16.481005">
      <ele>937</ele>
      <time>2026-05-07T10:04:38Z</time>
    </trkpt>
    <trkpt lat="50.674956" lon="16.480839">
      <ele>931</ele>
      <time>2026-05-07T10:05:11Z</time>
    </trkpt>
    <trkpt lat="50.674801" lon="16.480761">
      <ele>928</ele>
      <time>2026-05-07T10:05:28Z</time>
    </trkpt>
    <trkpt lat="50.674642" lon="16.480638">
      <ele>925</ele>
      <time>2026-05-07T10:05:48Z</time>
    </trkpt>
    <trkpt lat="50.67456" lon="16.480454">
      <ele>922</ele>
      <time>2026-05-07T10:06:03Z</time>
    </trkpt>
    <trkpt lat="50.674493" lon="16.480155">
      <ele>920</ele>
      <time>2026-05-07T10:06:24Z</time>
    </trkpt>
    <trkpt lat="50.674366" lon="16.479973">
      <ele>917</ele>
      <time>2026-05-07T10:06:43Z</time>
    </trkpt>
    <trkpt lat="50.674227" lon="16.479879">
      <ele>915</ele>
      <time>2026-05-07T10:06:59Z</time>
    </trkpt>
    <trkpt lat="50.674091" lon="16.479791">
      <ele>913</ele>
      <time>2026-05-07T10:07:15Z</time>
    </trkpt>
    <trkpt lat="50.673991" lon="16.47972">
      <ele>912</ele>
      <time>2026-05-07T10:07:27Z</time>
    </trkpt>
    <trkpt lat="50.673871" lon="16.479576">
      <ele>911</ele>
      <time>2026-05-07T10:07:43Z</time>
    </trkpt>
    <trkpt lat="50.673711" lon="16.479355">
      <ele>909</ele>
      <time>2026-05-07T10:08:05Z</time>
    </trkpt>
    <trkpt lat="50.673327" lon="16.478857">
      <ele>907</ele>
      <time>2026-05-07T10:08:59Z</time>
    </trkpt>
    <trkpt lat="50.673028" lon="16.479211">
      <ele>905</ele>
      <time>2026-05-07T10:09:38Z</time>
    </trkpt>
    <trkpt lat="50.672733" lon="16.479505">
      <ele>901</ele>
      <time>2026-05-07T10:10:16Z</time>
    </trkpt>
    <trkpt lat="50.672419" lon="16.479715">
      <ele>898</ele>
      <time>2026-05-07T10:10:52Z</time>
    </trkpt>
    <trkpt lat="50.672044" lon="16.479778">
      <ele>894</ele>
      <time>2026-05-07T10:11:33Z</time>
    </trkpt>
    <trkpt lat="50.671759" lon="16.479954">
      <ele>889</ele>
      <time>2026-05-07T10:12:06Z</time>
    </trkpt>
    <trkpt lat="50.671588" lon="16.480021">
      <ele>886</ele>
      <time>2026-05-07T10:12:25Z</time>
    </trkpt>
    <trkpt lat="50.67146" lon="16.479985">
      <ele>884</ele>
      <time>2026-05-07T10:12:39Z</time>
    </trkpt>
    <trkpt lat="50.671333" lon="16.479977">
      <ele>883</ele>
      <time>2026-05-07T10:12:52Z</time>
    </trkpt>
    <trkpt lat="50.671206" lon="16.480021">
      <ele>880</ele>
      <time>2026-05-07T10:13:06Z</time>
    </trkpt>
    <trkpt lat="50.671072" lon="16.480144">
      <ele>878</ele>
      <time>2026-05-07T10:13:23Z</time>
    </trkpt>
    <trkpt lat="50.671048" lon="16.480068">
      <ele>878</ele>
      <time>2026-05-07T10:13:31Z</time>
    </trkpt>
    <trkpt lat="50.670911" lon="16.479921">
      <ele>880</ele>
      <time>2026-05-07T10:13:54Z</time>
    </trkpt>
    <trkpt lat="50.670779" lon="16.479809">
      <ele>882</ele>
      <time>2026-05-07T10:14:16Z</time>
    </trkpt>
    <trkpt lat="50.670561" lon="16.479571">
      <ele>886</ele>
      <time>2026-05-07T10:14:54Z</time>
    </trkpt>
    <trkpt lat="50.670252" lon="16.479117">
      <ele>890</ele>
      <time>2026-05-07T10:15:54Z</time>
    </trkpt>
    <trkpt lat="50.670078" lon="16.478822">
      <ele>892</ele>
      <time>2026-05-07T10:16:31Z</time>
    </trkpt>
    <trkpt lat="50.669905" lon="16.478559">
      <ele>895</ele>
      <time>2026-05-07T10:17:05Z</time>
    </trkpt>
    <trkpt lat="50.669664" lon="16.478264">
      <ele>897</ele>
      <time>2026-05-07T10:17:49Z</time>
    </trkpt>
    <trkpt lat="50.669467" lon="16.477995">
      <ele>900</ele>
      <time>2026-05-07T10:18:26Z</time>
    </trkpt>
    <trkpt lat="50.669115" lon="16.477653">
      <ele>903</ele>
      <time>2026-05-07T10:19:25Z</time>
    </trkpt>
    <trkpt lat="50.668916" lon="16.477539">
      <ele>905</ele>
      <time>2026-05-07T10:19:56Z</time>
    </trkpt>
    <trkpt lat="50.668725" lon="16.477357">
      <ele>909</ele>
      <time>2026-05-07T10:20:28Z</time>
    </trkpt>
    <trkpt lat="50.668538" lon="16.477244">
      <ele>910</ele>
      <time>2026-05-07T10:20:56Z</time>
    </trkpt>
    <trkpt lat="50.668375" lon="16.477143">
      <ele>910</ele>
      <time>2026-05-07T10:21:21Z</time>
    </trkpt>
    <trkpt lat="50.668108" lon="16.476977">
      <ele>908</ele>
      <time>2026-05-07T10:22:02Z</time>
    </trkpt>
    <trkpt lat="50.667773" lon="16.476746">
      <ele>905</ele>
      <time>2026-05-07T10:22:55Z</time>
    </trkpt>
    <trkpt lat="50.667685" lon="16.476719">
      <ele>903</ele>
      <time>2026-05-07T10:23:07Z</time>
    </trkpt>
    <trkpt lat="50.667566" lon="16.476654">
      <ele>902</ele>
      <time>2026-05-07T10:23:25Z</time>
    </trkpt>
    <trkpt lat="50.667457" lon="16.476569">
      <ele>900</ele>
      <time>2026-05-07T10:23:43Z</time>
    </trkpt>
    <trkpt lat="50.667291" lon="16.476402">
      <ele>898</ele>
      <time>2026-05-07T10:24:11Z</time>
    </trkpt>
    <trkpt lat="50.667165" lon="16.476156">
      <ele>896</ele>
      <time>2026-05-07T10:24:40Z</time>
    </trkpt>
    <trkpt lat="50.666913" lon="16.47565">
      <ele>890</ele>
      <time>2026-05-07T10:25:38Z</time>
    </trkpt>
    <trkpt lat="50.666889" lon="16.475603">
      <ele>890</ele>
      <time>2026-05-07T10:25:44Z</time>
    </trkpt>
    <trkpt lat="50.666408" lon="16.474823">
      <ele>879</ele>
      <time>2026-05-07T10:27:23Z</time>
    </trkpt>
    <trkpt lat="50.666042" lon="16.474314">
      <ele>875</ele>
      <time>2026-05-07T10:28:33Z</time>
    </trkpt>
    <trkpt lat="50.665757" lon="16.4741">
      <ele>872</ele>
      <time>2026-05-07T10:29:18Z</time>
    </trkpt>
    <trkpt lat="50.665304" lon="16.473811">
      <ele>868</ele>
      <time>2026-05-07T10:30:28Z</time>
    </trkpt>
    <trkpt lat="50.664944" lon="16.473645">
      <ele>863</ele>
      <time>2026-05-07T10:31:22Z</time>
    </trkpt>
    <trkpt lat="50.664612" lon="16.473209">
      <ele>865</ele>
      <time>2026-05-07T10:32:23Z</time>
    </trkpt>
    <trkpt lat="50.664466" lon="16.473022">
      <ele>870</ele>
      <time>2026-05-07T10:32:51Z</time>
    </trkpt>
    <trkpt lat="50.664317" lon="16.472835">
      <ele>874</ele>
      <time>2026-05-07T10:33:19Z</time>
    </trkpt>
    <trkpt lat="50.664293" lon="16.472806">
      <ele>875</ele>
      <time>2026-05-07T10:33:23Z</time>
    </trkpt>
    <trkpt lat="50.664216" lon="16.472718">
      <ele>872</ele>
      <time>2026-05-07T10:33:35Z</time>
    </trkpt>
    <trkpt lat="50.66417" lon="16.472665">
      <ele>870</ele>
      <time>2026-05-07T10:33:42Z</time>
    </trkpt>
    <trkpt lat="50.664089" lon="16.472515">
      <ele>864</ele>
      <time>2026-05-07T10:33:58Z</time>
    </trkpt>
    <trkpt lat="50.663842" lon="16.472041">
      <ele>847</ele>
      <time>2026-05-07T10:34:46Z</time>
    </trkpt>
    <trkpt lat="50.663817" lon="16.47201">
      <ele>846</ele>
      <time>2026-05-07T10:34:50Z</time>
    </trkpt>
    <trkpt lat="50.66379" lon="16.471993">
      <ele>845</ele>
      <time>2026-05-07T10:34:54Z</time>
    </trkpt>
    <trkpt lat="50.663307" lon="16.471204">
      <ele>828</ele>
      <time>2026-05-07T10:36:17Z</time>
    </trkpt>
    <trkpt lat="50.662958" lon="16.469768">
      <ele>809</ele>
      <time>2026-05-07T10:38:12Z</time>
    </trkpt>
    <trkpt lat="50.662896" lon="16.469515">
      <ele>805</ele>
      <time>2026-05-07T10:38:33Z</time>
    </trkpt>
    <trkpt lat="50.662845" lon="16.469363">
      <ele>801</ele>
      <time>2026-05-07T10:38:46Z</time>
    </trkpt>
    <trkpt lat="50.662793" lon="16.469224">
      <ele>797</ele>
      <time>2026-05-07T10:38:59Z</time>
    </trkpt>
    <trkpt lat="50.662752" lon="16.469054">
      <ele>794</ele>
      <time>2026-05-07T10:39:13Z</time>
    </trkpt>
    <trkpt lat="50.662602" lon="16.468116">
      <ele>780</ele>
      <time>2026-05-07T10:40:26Z</time>
    </trkpt>
    <trkpt lat="50.662505" lon="16.467635">
      <ele>774</ele>
      <time>2026-05-07T10:41:04Z</time>
    </trkpt>
    <trkpt lat="50.662312" lon="16.466767">
      <ele>761</ele>
      <time>2026-05-07T10:42:13Z</time>
    </trkpt>
    <trkpt lat="50.662103" lon="16.465886">
      <ele>754</ele>
      <time>2026-05-07T10:43:23Z</time>
    </trkpt>
  </trkseg>
</trk>
</gpx>