<?xml version="1.0" encoding="UTF-8"?><gpx creator="https://mapa-turystyczna.pl" xmlns="http://www.topografix.com/GPX/1/1" version="1.1" xmlns:xsi="http://www.w3.org/2001/XMLSchema-instance" xsi:schemaLocation="http://www.topografix.com/GPX/1/1 http://www.topografix.com/GPX/1/1/gpx.xsd">
  <metadata>
    <link href="https://mapa-turystyczna.pl">
      <text>mapa-turystyczna.pl</text>
    </link>
    <time>2026-05-07T08:43:31Z</time>
    <bounds maxlat="50.492905" maxlon="16.362933" minlat="50.478473" minlon="16.336825"/>
  </metadata>

<trk>
  <name>Trasa przez: Schronisko Na Szczelińcu</name>
  <link href="https://mapa-turystyczna.pl/route/hb2c">
    <text>Trasa przez: Schronisko Na Szczelińcu</text>
  </link>
  <trkseg>
    <trkpt lat="50.4928858" lon="16.3626701">
      <ele>466</ele>
      <time>2026-05-07T08:43:31Z</time>
    </trkpt>
    <trkpt lat="50.492881" lon="16.362615">
      <ele>465</ele>
      <time>2026-05-07T08:43:45Z</time>
    </trkpt>
    <trkpt lat="50.492808" lon="16.362459">
      <ele>464</ele>
      <time>2026-05-07T08:44:31Z</time>
    </trkpt>
    <trkpt lat="50.492648" lon="16.362265">
      <ele>464</ele>
      <time>2026-05-07T08:45:06Z</time>
    </trkpt>
    <trkpt lat="50.492587" lon="16.362191">
      <ele>465</ele>
      <time>2026-05-07T08:45:19Z</time>
    </trkpt>
    <trkpt lat="50.492364" lon="16.362021">
      <ele>468</ele>
      <time>2026-05-07T08:46:02Z</time>
    </trkpt>
    <trkpt lat="50.491999" lon="16.361695">
      <ele>470</ele>
      <time>2026-05-07T08:47:15Z</time>
    </trkpt>
    <trkpt lat="50.491739" lon="16.361417">
      <ele>472</ele>
      <time>2026-05-07T08:48:09Z</time>
    </trkpt>
    <trkpt lat="50.491518" lon="16.361128">
      <ele>474</ele>
      <time>2026-05-07T08:48:59Z</time>
    </trkpt>
    <trkpt lat="50.491303" lon="16.36077">
      <ele>477</ele>
      <time>2026-05-07T08:49:54Z</time>
    </trkpt>
    <trkpt lat="50.491229" lon="16.360647">
      <ele>478</ele>
      <time>2026-05-07T08:50:12Z</time>
    </trkpt>
    <trkpt lat="50.491005" lon="16.360261">
      <ele>478</ele>
      <time>2026-05-07T08:51:10Z</time>
    </trkpt>
    <trkpt lat="50.49091" lon="16.360099">
      <ele>479</ele>
      <time>2026-05-07T08:51:34Z</time>
    </trkpt>
    <trkpt lat="50.490795" lon="16.359877">
      <ele>481</ele>
      <time>2026-05-07T08:52:06Z</time>
    </trkpt>
    <trkpt lat="50.490752" lon="16.359717">
      <ele>483</ele>
      <time>2026-05-07T08:52:25Z</time>
    </trkpt>
    <trkpt lat="50.490735" lon="16.359673">
      <ele>484</ele>
      <time>2026-05-07T08:52:31Z</time>
    </trkpt>
    <trkpt lat="50.490689" lon="16.359437">
      <ele>486</ele>
      <time>2026-05-07T08:52:58Z</time>
    </trkpt>
    <trkpt lat="50.490626" lon="16.359233">
      <ele>491</ele>
      <time>2026-05-07T08:53:25Z</time>
    </trkpt>
    <trkpt lat="50.490559" lon="16.359133">
      <ele>494</ele>
      <time>2026-05-07T08:53:41Z</time>
    </trkpt>
    <trkpt lat="50.490441" lon="16.358959">
      <ele>500</ele>
      <time>2026-05-07T08:54:10Z</time>
    </trkpt>
    <trkpt lat="50.490429" lon="16.358779">
      <ele>503</ele>
      <time>2026-05-07T08:54:31Z</time>
    </trkpt>
    <trkpt lat="50.490439" lon="16.358734">
      <ele>504</ele>
      <time>2026-05-07T08:54:39Z</time>
    </trkpt>
    <trkpt lat="50.490511" lon="16.358593">
      <ele>505</ele>
      <time>2026-05-07T08:55:07Z</time>
    </trkpt>
    <trkpt lat="50.490521" lon="16.358587">
      <ele>505</ele>
      <time>2026-05-07T08:55:09Z</time>
    </trkpt>
    <trkpt lat="50.490639" lon="16.35856">
      <ele>505</ele>
      <time>2026-05-07T08:55:38Z</time>
    </trkpt>
    <trkpt lat="50.490789" lon="16.358592">
      <ele>504</ele>
      <time>2026-05-07T08:56:15Z</time>
    </trkpt>
    <trkpt lat="50.490926" lon="16.358611">
      <ele>503</ele>
      <time>2026-05-07T08:56:48Z</time>
    </trkpt>
    <trkpt lat="50.491115" lon="16.358643">
      <ele>502</ele>
      <time>2026-05-07T08:57:35Z</time>
    </trkpt>
    <trkpt lat="50.491233" lon="16.358652">
      <ele>501</ele>
      <time>2026-05-07T08:58:03Z</time>
    </trkpt>
    <trkpt lat="50.491281" lon="16.358655">
      <ele>501</ele>
      <time>2026-05-07T08:58:15Z</time>
    </trkpt>
    <trkpt lat="50.491446" lon="16.358588">
      <ele>501</ele>
      <time>2026-05-07T08:58:56Z</time>
    </trkpt>
    <trkpt lat="50.491519" lon="16.35848">
      <ele>503</ele>
      <time>2026-05-07T08:59:21Z</time>
    </trkpt>
    <trkpt lat="50.491436" lon="16.358423">
      <ele>505</ele>
      <time>2026-05-07T08:59:43Z</time>
    </trkpt>
    <trkpt lat="50.491341" lon="16.358434">
      <ele>506</ele>
      <time>2026-05-07T09:00:07Z</time>
    </trkpt>
    <trkpt lat="50.491292" lon="16.358451">
      <ele>506</ele>
      <time>2026-05-07T09:00:19Z</time>
    </trkpt>
    <trkpt lat="50.491142" lon="16.358408">
      <ele>509</ele>
      <time>2026-05-07T09:00:56Z</time>
    </trkpt>
    <trkpt lat="50.491008" lon="16.358304">
      <ele>512</ele>
      <time>2026-05-07T09:01:33Z</time>
    </trkpt>
    <trkpt lat="50.490869" lon="16.358157">
      <ele>515</ele>
      <time>2026-05-07T09:02:14Z</time>
    </trkpt>
    <trkpt lat="50.490735" lon="16.35801">
      <ele>520</ele>
      <time>2026-05-07T09:02:55Z</time>
    </trkpt>
    <trkpt lat="50.490581" lon="16.357944">
      <ele>522</ele>
      <time>2026-05-07T09:03:34Z</time>
    </trkpt>
    <trkpt lat="50.490438" lon="16.357766">
      <ele>529</ele>
      <time>2026-05-07T09:04:21Z</time>
    </trkpt>
    <trkpt lat="50.489873" lon="16.357203">
      <ele>553</ele>
      <time>2026-05-07T09:07:12Z</time>
    </trkpt>
    <trkpt lat="50.489682" lon="16.357061">
      <ele>560</ele>
      <time>2026-05-07T09:08:05Z</time>
    </trkpt>
    <trkpt lat="50.489516" lon="16.356834">
      <ele>569</ele>
      <time>2026-05-07T09:09:02Z</time>
    </trkpt>
    <trkpt lat="50.48945" lon="16.356738">
      <ele>572</ele>
      <time>2026-05-07T09:09:25Z</time>
    </trkpt>
    <trkpt lat="50.489339" lon="16.35659">
      <ele>579</ele>
      <time>2026-05-07T09:10:03Z</time>
    </trkpt>
    <trkpt lat="50.489317" lon="16.356454">
      <ele>583</ele>
      <time>2026-05-07T09:10:26Z</time>
    </trkpt>
    <trkpt lat="50.489274" lon="16.35636">
      <ele>586</ele>
      <time>2026-05-07T09:10:45Z</time>
    </trkpt>
    <trkpt lat="50.489232" lon="16.356309">
      <ele>587</ele>
      <time>2026-05-07T09:10:58Z</time>
    </trkpt>
    <trkpt lat="50.489174" lon="16.356239">
      <ele>590</ele>
      <time>2026-05-07T09:11:17Z</time>
    </trkpt>
    <trkpt lat="50.489117" lon="16.356184">
      <ele>593</ele>
      <time>2026-05-07T09:11:35Z</time>
    </trkpt>
    <trkpt lat="50.489063" lon="16.356185">
      <ele>595</ele>
      <time>2026-05-07T09:11:48Z</time>
    </trkpt>
    <trkpt lat="50.489012" lon="16.356208">
      <ele>597</ele>
      <time>2026-05-07T09:12:02Z</time>
    </trkpt>
    <trkpt lat="50.48895" lon="16.35625">
      <ele>598</ele>
      <time>2026-05-07T09:12:19Z</time>
    </trkpt>
    <trkpt lat="50.488874" lon="16.356313">
      <ele>600</ele>
      <time>2026-05-07T09:12:40Z</time>
    </trkpt>
    <trkpt lat="50.488839" lon="16.356306">
      <ele>602</ele>
      <time>2026-05-07T09:12:49Z</time>
    </trkpt>
    <trkpt lat="50.488809" lon="16.356246">
      <ele>605</ele>
      <time>2026-05-07T09:13:02Z</time>
    </trkpt>
    <trkpt lat="50.488741" lon="16.356035">
      <ele>613</ele>
      <time>2026-05-07T09:13:43Z</time>
    </trkpt>
    <trkpt lat="50.488718" lon="16.355982">
      <ele>616</ele>
      <time>2026-05-07T09:13:55Z</time>
    </trkpt>
    <trkpt lat="50.488693" lon="16.355969">
      <ele>617</ele>
      <time>2026-05-07T09:14:02Z</time>
    </trkpt>
    <trkpt lat="50.488648" lon="16.355999">
      <ele>618</ele>
      <time>2026-05-07T09:14:14Z</time>
    </trkpt>
    <trkpt lat="50.488531" lon="16.356082">
      <ele>620</ele>
      <time>2026-05-07T09:14:45Z</time>
    </trkpt>
    <trkpt lat="50.488471" lon="16.356118">
      <ele>621</ele>
      <time>2026-05-07T09:15:01Z</time>
    </trkpt>
    <trkpt lat="50.488425" lon="16.356094">
      <ele>623</ele>
      <time>2026-05-07T09:15:14Z</time>
    </trkpt>
    <trkpt lat="50.488409" lon="16.356038">
      <ele>625</ele>
      <time>2026-05-07T09:15:24Z</time>
    </trkpt>
    <trkpt lat="50.4884" lon="16.355972">
      <ele>627</ele>
      <time>2026-05-07T09:15:35Z</time>
    </trkpt>
    <trkpt lat="50.488405" lon="16.355917">
      <ele>628</ele>
      <time>2026-05-07T09:15:44Z</time>
    </trkpt>
    <trkpt lat="50.48845" lon="16.35584">
      <ele>628</ele>
      <time>2026-05-07T09:16:00Z</time>
    </trkpt>
    <trkpt lat="50.488583" lon="16.355754">
      <ele>626</ele>
      <time>2026-05-07T09:16:35Z</time>
    </trkpt>
    <trkpt lat="50.48868" lon="16.355604">
      <ele>627</ele>
      <time>2026-05-07T09:17:08Z</time>
    </trkpt>
    <trkpt lat="50.488723" lon="16.355447">
      <ele>629</ele>
      <time>2026-05-07T09:17:35Z</time>
    </trkpt>
    <trkpt lat="50.488755" lon="16.3552">
      <ele>634</ele>
      <time>2026-05-07T09:18:16Z</time>
    </trkpt>
    <trkpt lat="50.488753" lon="16.355174">
      <ele>635</ele>
      <time>2026-05-07T09:18:20Z</time>
    </trkpt>
    <trkpt lat="50.488735" lon="16.354965">
      <ele>639</ele>
      <time>2026-05-07T09:18:54Z</time>
    </trkpt>
    <trkpt lat="50.488705" lon="16.354823">
      <ele>642</ele>
      <time>2026-05-07T09:19:18Z</time>
    </trkpt>
    <trkpt lat="50.488648" lon="16.354699">
      <ele>645</ele>
      <time>2026-05-07T09:19:42Z</time>
    </trkpt>
    <trkpt lat="50.488573" lon="16.354649">
      <ele>647</ele>
      <time>2026-05-07T09:20:02Z</time>
    </trkpt>
    <trkpt lat="50.488513" lon="16.354613">
      <ele>648</ele>
      <time>2026-05-07T09:20:18Z</time>
    </trkpt>
    <trkpt lat="50.488423" lon="16.354463">
      <ele>651</ele>
      <time>2026-05-07T09:20:51Z</time>
    </trkpt>
    <trkpt lat="50.488369" lon="16.354369">
      <ele>653</ele>
      <time>2026-05-07T09:21:11Z</time>
    </trkpt>
    <trkpt lat="50.488337" lon="16.354276">
      <ele>654</ele>
      <time>2026-05-07T09:21:27Z</time>
    </trkpt>
    <trkpt lat="50.488326" lon="16.354203">
      <ele>656</ele>
      <time>2026-05-07T09:21:39Z</time>
    </trkpt>
    <trkpt lat="50.488292" lon="16.354067">
      <ele>657</ele>
      <time>2026-05-07T09:22:02Z</time>
    </trkpt>
    <trkpt lat="50.488246" lon="16.353967">
      <ele>659</ele>
      <time>2026-05-07T09:22:21Z</time>
    </trkpt>
    <trkpt lat="50.48815" lon="16.353841">
      <ele>661</ele>
      <time>2026-05-07T09:22:52Z</time>
    </trkpt>
    <trkpt lat="50.488088" lon="16.353653">
      <ele>664</ele>
      <time>2026-05-07T09:23:25Z</time>
    </trkpt>
    <trkpt lat="50.488019" lon="16.353491">
      <ele>667</ele>
      <time>2026-05-07T09:23:56Z</time>
    </trkpt>
    <trkpt lat="50.487937" lon="16.353314">
      <ele>671</ele>
      <time>2026-05-07T09:24:31Z</time>
    </trkpt>
    <trkpt lat="50.48796" lon="16.353195">
      <ele>673</ele>
      <time>2026-05-07T09:24:49Z</time>
    </trkpt>
    <trkpt lat="50.487979" lon="16.353148">
      <ele>673</ele>
      <time>2026-05-07T09:24:57Z</time>
    </trkpt>
    <trkpt lat="50.488038" lon="16.352999">
      <ele>674</ele>
      <time>2026-05-07T09:25:22Z</time>
    </trkpt>
    <trkpt lat="50.488059" lon="16.352944">
      <ele>675</ele>
      <time>2026-05-07T09:25:31Z</time>
    </trkpt>
    <trkpt lat="50.488127" lon="16.352789">
      <ele>677</ele>
      <time>2026-05-07T09:25:54Z</time>
    </trkpt>
    <trkpt lat="50.488217" lon="16.352658">
      <ele>679</ele>
      <time>2026-05-07T09:26:17Z</time>
    </trkpt>
    <trkpt lat="50.488353" lon="16.352559">
      <ele>680</ele>
      <time>2026-05-07T09:26:45Z</time>
    </trkpt>
    <trkpt lat="50.488489" lon="16.352503">
      <ele>681</ele>
      <time>2026-05-07T09:27:11Z</time>
    </trkpt>
    <trkpt lat="50.488661" lon="16.352452">
      <ele>682</ele>
      <time>2026-05-07T09:27:44Z</time>
    </trkpt>
    <trkpt lat="50.488817" lon="16.352417">
      <ele>682</ele>
      <time>2026-05-07T09:28:13Z</time>
    </trkpt>
    <trkpt lat="50.48893" lon="16.35234">
      <ele>683</ele>
      <time>2026-05-07T09:28:36Z</time>
    </trkpt>
    <trkpt lat="50.489014" lon="16.352198">
      <ele>685</ele>
      <time>2026-05-07T09:28:59Z</time>
    </trkpt>
    <trkpt lat="50.489053" lon="16.35207">
      <ele>686</ele>
      <time>2026-05-07T09:29:16Z</time>
    </trkpt>
    <trkpt lat="50.489092" lon="16.351727">
      <ele>687</ele>
      <time>2026-05-07T09:29:57Z</time>
    </trkpt>
    <trkpt lat="50.489101" lon="16.351486">
      <ele>688</ele>
      <time>2026-05-07T09:30:26Z</time>
    </trkpt>
    <trkpt lat="50.489204" lon="16.350858">
      <ele>693</ele>
      <time>2026-05-07T09:31:43Z</time>
    </trkpt>
    <trkpt lat="50.489232" lon="16.350784">
      <ele>694</ele>
      <time>2026-05-07T09:31:54Z</time>
    </trkpt>
    <trkpt lat="50.489173" lon="16.350502">
      <ele>697</ele>
      <time>2026-05-07T09:32:29Z</time>
    </trkpt>
    <trkpt lat="50.489138" lon="16.350267">
      <ele>703</ele>
      <time>2026-05-07T09:32:59Z</time>
    </trkpt>
    <trkpt lat="50.489086" lon="16.349966">
      <ele>709</ele>
      <time>2026-05-07T09:33:38Z</time>
    </trkpt>
    <trkpt lat="50.489046" lon="16.349745">
      <ele>713</ele>
      <time>2026-05-07T09:34:06Z</time>
    </trkpt>
    <trkpt lat="50.488969" lon="16.349491">
      <ele>718</ele>
      <time>2026-05-07T09:34:40Z</time>
    </trkpt>
    <trkpt lat="50.488859" lon="16.349315">
      <ele>720</ele>
      <time>2026-05-07T09:35:09Z</time>
    </trkpt>
    <trkpt lat="50.488823" lon="16.349157">
      <ele>722</ele>
      <time>2026-05-07T09:35:30Z</time>
    </trkpt>
    <trkpt lat="50.488775" lon="16.34905">
      <ele>723</ele>
      <time>2026-05-07T09:35:45Z</time>
    </trkpt>
    <trkpt lat="50.488683" lon="16.348969">
      <ele>723</ele>
      <time>2026-05-07T09:36:05Z</time>
    </trkpt>
    <trkpt lat="50.488395" lon="16.348632">
      <ele>731</ele>
      <time>2026-05-07T09:37:13Z</time>
    </trkpt>
    <trkpt lat="50.488266" lon="16.348551">
      <ele>734</ele>
      <time>2026-05-07T09:37:39Z</time>
    </trkpt>
    <trkpt lat="50.487999" lon="16.348286">
      <ele>743</ele>
      <time>2026-05-07T09:38:40Z</time>
    </trkpt>
    <trkpt lat="50.487841" lon="16.348215">
      <ele>744</ele>
      <time>2026-05-07T09:39:11Z</time>
    </trkpt>
    <trkpt lat="50.487695" lon="16.348174">
      <ele>745</ele>
      <time>2026-05-07T09:39:38Z</time>
    </trkpt>
    <trkpt lat="50.487611" lon="16.348133">
      <ele>746</ele>
      <time>2026-05-07T09:39:55Z</time>
    </trkpt>
    <trkpt lat="50.487518" lon="16.348027">
      <ele>747</ele>
      <time>2026-05-07T09:40:16Z</time>
    </trkpt>
    <trkpt lat="50.487495" lon="16.347894">
      <ele>748</ele>
      <time>2026-05-07T09:40:33Z</time>
    </trkpt>
    <trkpt lat="50.487439" lon="16.347777">
      <ele>751</ele>
      <time>2026-05-07T09:40:51Z</time>
    </trkpt>
    <trkpt lat="50.487345" lon="16.347654">
      <ele>755</ele>
      <time>2026-05-07T09:41:14Z</time>
    </trkpt>
    <trkpt lat="50.487357" lon="16.347533">
      <ele>755</ele>
      <time>2026-05-07T09:41:29Z</time>
    </trkpt>
    <trkpt lat="50.487414" lon="16.346974">
      <ele>760</ele>
      <time>2026-05-07T09:42:36Z</time>
    </trkpt>
    <trkpt lat="50.487419" lon="16.346829">
      <ele>762</ele>
      <time>2026-05-07T09:42:54Z</time>
    </trkpt>
    <trkpt lat="50.48741" lon="16.346542">
      <ele>766</ele>
      <time>2026-05-07T09:43:28Z</time>
    </trkpt>
    <trkpt lat="50.487418" lon="16.346266">
      <ele>769</ele>
      <time>2026-05-07T09:44:02Z</time>
    </trkpt>
    <trkpt lat="50.487452" lon="16.346032">
      <ele>771</ele>
      <time>2026-05-07T09:44:30Z</time>
    </trkpt>
    <trkpt lat="50.487514" lon="16.345762">
      <ele>773</ele>
      <time>2026-05-07T09:45:05Z</time>
    </trkpt>
    <trkpt lat="50.487602" lon="16.345547">
      <ele>774</ele>
      <time>2026-05-07T09:45:35Z</time>
    </trkpt>
    <trkpt lat="50.487695" lon="16.345406">
      <ele>773</ele>
      <time>2026-05-07T09:45:59Z</time>
    </trkpt>
    <trkpt lat="50.487843" lon="16.345229">
      <ele>771</ele>
      <time>2026-05-07T09:46:34Z</time>
    </trkpt>
    <trkpt lat="50.487938" lon="16.345074">
      <ele>770</ele>
      <time>2026-05-07T09:46:59Z</time>
    </trkpt>
    <trkpt lat="50.488001" lon="16.344902">
      <ele>769</ele>
      <time>2026-05-07T09:47:23Z</time>
    </trkpt>
    <trkpt lat="50.488037" lon="16.344674">
      <ele>769</ele>
      <time>2026-05-07T09:47:51Z</time>
    </trkpt>
    <trkpt lat="50.488078" lon="16.344074">
      <ele>768</ele>
      <time>2026-05-07T09:49:02Z</time>
    </trkpt>
    <trkpt lat="50.488026" lon="16.343725">
      <ele>769</ele>
      <time>2026-05-07T09:49:45Z</time>
    </trkpt>
    <trkpt lat="50.488002" lon="16.34306">
      <ele>774</ele>
      <time>2026-05-07T09:51:04Z</time>
    </trkpt>
    <trkpt lat="50.488075" lon="16.342632">
      <ele>778</ele>
      <time>2026-05-07T09:51:57Z</time>
    </trkpt>
    <trkpt lat="50.48812" lon="16.342393">
      <ele>780</ele>
      <time>2026-05-07T09:52:27Z</time>
    </trkpt>
    <trkpt lat="50.488134" lon="16.342008">
      <ele>783</ele>
      <time>2026-05-07T09:53:13Z</time>
    </trkpt>
    <trkpt lat="50.488123" lon="16.341797">
      <ele>785</ele>
      <time>2026-05-07T09:53:38Z</time>
    </trkpt>
    <trkpt lat="50.488094" lon="16.341557">
      <ele>785</ele>
      <time>2026-05-07T09:54:07Z</time>
    </trkpt>
    <trkpt lat="50.488075" lon="16.341354">
      <ele>785</ele>
      <time>2026-05-07T09:54:31Z</time>
    </trkpt>
    <trkpt lat="50.48799" lon="16.341145">
      <ele>785</ele>
      <time>2026-05-07T09:55:01Z</time>
    </trkpt>
    <trkpt lat="50.487916" lon="16.341017">
      <ele>786</ele>
      <time>2026-05-07T09:55:21Z</time>
    </trkpt>
    <trkpt lat="50.48769" lon="16.340629">
      <ele>791</ele>
      <time>2026-05-07T09:56:24Z</time>
    </trkpt>
    <trkpt lat="50.487618" lon="16.340523">
      <ele>793</ele>
      <time>2026-05-07T09:56:43Z</time>
    </trkpt>
    <trkpt lat="50.487556" lon="16.340315">
      <ele>793</ele>
      <time>2026-05-07T09:57:10Z</time>
    </trkpt>
    <trkpt lat="50.487439" lon="16.340095">
      <ele>796</ele>
      <time>2026-05-07T09:57:44Z</time>
    </trkpt>
    <trkpt lat="50.487319" lon="16.339943">
      <ele>799</ele>
      <time>2026-05-07T09:58:13Z</time>
    </trkpt>
    <trkpt lat="50.487167" lon="16.339836">
      <ele>802</ele>
      <time>2026-05-07T09:58:45Z</time>
    </trkpt>
    <trkpt lat="50.48707" lon="16.339724">
      <ele>804</ele>
      <time>2026-05-07T09:59:08Z</time>
    </trkpt>
    <trkpt lat="50.486953" lon="16.339581">
      <ele>806</ele>
      <time>2026-05-07T09:59:35Z</time>
    </trkpt>
    <trkpt lat="50.486866" lon="16.339449">
      <ele>808</ele>
      <time>2026-05-07T09:59:58Z</time>
    </trkpt>
    <trkpt lat="50.486752" lon="16.339352">
      <ele>811</ele>
      <time>2026-05-07T10:00:23Z</time>
    </trkpt>
    <trkpt lat="50.486655" lon="16.33925">
      <ele>813</ele>
      <time>2026-05-07T10:00:45Z</time>
    </trkpt>
    <trkpt lat="50.486503" lon="16.339051">
      <ele>818</ele>
      <time>2026-05-07T10:01:23Z</time>
    </trkpt>
    <trkpt lat="50.486357" lon="16.338868">
      <ele>822</ele>
      <time>2026-05-07T10:01:58Z</time>
    </trkpt>
    <trkpt lat="50.486192" lon="16.33872">
      <ele>829</ele>
      <time>2026-05-07T10:02:35Z</time>
    </trkpt>
    <trkpt lat="50.486043" lon="16.338557">
      <ele>834</ele>
      <time>2026-05-07T10:03:10Z</time>
    </trkpt>
    <trkpt lat="50.4859" lon="16.338455">
      <ele>841</ele>
      <time>2026-05-07T10:03:42Z</time>
    </trkpt>
    <trkpt lat="50.485735" lon="16.338267">
      <ele>846</ele>
      <time>2026-05-07T10:04:21Z</time>
    </trkpt>
    <trkpt lat="50.485589" lon="16.338175">
      <ele>852</ele>
      <time>2026-05-07T10:04:52Z</time>
    </trkpt>
    <trkpt lat="50.485356" lon="16.337936">
      <ele>851</ele>
      <time>2026-05-07T10:05:44Z</time>
    </trkpt>
    <trkpt lat="50.485184" lon="16.337763">
      <ele>852</ele>
      <time>2026-05-07T10:06:22Z</time>
    </trkpt>
    <trkpt lat="50.485018" lon="16.337661">
      <ele>857</ele>
      <time>2026-05-07T10:06:56Z</time>
    </trkpt>
    <trkpt lat="50.484837" lon="16.337472">
      <ele>860</ele>
      <time>2026-05-07T10:07:36Z</time>
    </trkpt>
    <trkpt lat="50.484623" lon="16.337279">
      <ele>862</ele>
      <time>2026-05-07T10:08:23Z</time>
    </trkpt>
    <trkpt lat="50.484399" lon="16.3371">
      <ele>864</ele>
      <time>2026-05-07T10:09:10Z</time>
    </trkpt>
    <trkpt lat="50.484166" lon="16.336932">
      <ele>866</ele>
      <time>2026-05-07T10:09:57Z</time>
    </trkpt>
    <trkpt lat="50.483999" lon="16.336825">
      <ele>865</ele>
      <time>2026-05-07T10:10:31Z</time>
    </trkpt>
    <trkpt lat="50.483848" lon="16.336941">
      <ele>867</ele>
      <time>2026-05-07T10:10:46Z</time>
    </trkpt>
    <trkpt lat="50.483803" lon="16.336991">
      <ele>867</ele>
      <time>2026-05-07T10:10:51Z</time>
    </trkpt>
    <trkpt lat="50.483724" lon="16.337104">
      <ele>868</ele>
      <time>2026-05-07T10:11:01Z</time>
    </trkpt>
    <trkpt lat="50.483653" lon="16.337266">
      <ele>869</ele>
      <time>2026-05-07T10:11:12Z</time>
    </trkpt>
    <trkpt lat="50.483592" lon="16.337572">
      <ele>867</ele>
      <time>2026-05-07T10:11:31Z</time>
    </trkpt>
    <trkpt lat="50.483618" lon="16.337728">
      <ele>873</ele>
      <time>2026-05-07T10:11:56Z</time>
    </trkpt>
    <trkpt lat="50.483694" lon="16.337877">
      <ele>880</ele>
      <time>2026-05-07T10:12:26Z</time>
    </trkpt>
    <trkpt lat="50.483871" lon="16.338224">
      <ele>889</ele>
      <time>2026-05-07T10:13:30Z</time>
    </trkpt>
    <trkpt lat="50.48388" lon="16.338312">
      <ele>890</ele>
      <time>2026-05-07T10:13:42Z</time>
    </trkpt>
    <trkpt lat="50.483868" lon="16.338419">
      <ele>891</ele>
      <time>2026-05-07T10:13:57Z</time>
    </trkpt>
    <trkpt lat="50.483942" lon="16.33852">
      <ele>893</ele>
      <time>2026-05-07T10:14:19Z</time>
    </trkpt>
    <trkpt lat="50.48407" lon="16.338669">
      <ele>895</ele>
      <time>2026-05-07T10:14:54Z</time>
    </trkpt>
    <trkpt lat="50.484294" lon="16.338693">
      <ele>895</ele>
      <time>2026-05-07T10:15:42Z</time>
    </trkpt>
    <trkpt lat="50.484374" lon="16.338759">
      <ele>896</ele>
      <time>2026-05-07T10:16:02Z</time>
    </trkpt>
    <trkpt lat="50.484458" lon="16.338652">
      <ele>894</ele>
      <time>2026-05-07T10:16:25Z</time>
    </trkpt>
    <trkpt lat="50.484576" lon="16.338669">
      <ele>894</ele>
      <time>2026-05-07T10:16:51Z</time>
    </trkpt>
    <trkpt lat="50.484608" lon="16.338745">
      <ele>895</ele>
      <time>2026-05-07T10:17:04Z</time>
    </trkpt>
    <trkpt lat="50.484619" lon="16.33883">
      <ele>897</ele>
      <time>2026-05-07T10:17:17Z</time>
    </trkpt>
    <trkpt lat="50.484661" lon="16.338881">
      <ele>899</ele>
      <time>2026-05-07T10:17:29Z</time>
    </trkpt>
    <trkpt lat="50.484677" lon="16.338955">
      <ele>901</ele>
      <time>2026-05-07T10:17:40Z</time>
    </trkpt>
    <trkpt lat="50.484693" lon="16.339027">
      <ele>902</ele>
      <time>2026-05-07T10:17:51Z</time>
    </trkpt>
    <trkpt lat="50.484717" lon="16.339073">
      <ele>903</ele>
      <time>2026-05-07T10:17:59Z</time>
    </trkpt>
    <trkpt lat="50.484778" lon="16.339094">
      <ele>904</ele>
      <time>2026-05-07T10:18:13Z</time>
    </trkpt>
    <trkpt lat="50.484887" lon="16.339103">
      <ele>906</ele>
      <time>2026-05-07T10:18:37Z</time>
    </trkpt>
    <trkpt lat="50.484904" lon="16.339128">
      <ele>907</ele>
      <time>2026-05-07T10:18:42Z</time>
    </trkpt>
    <trkpt lat="50.484906" lon="16.339188">
      <ele>907</ele>
      <time>2026-05-07T10:18:50Z</time>
    </trkpt>
    <trkpt lat="50.484917" lon="16.339214">
      <ele>908</ele>
      <time>2026-05-07T10:18:55Z</time>
    </trkpt>
    <trkpt lat="50.484954" lon="16.339239">
      <ele>909</ele>
      <time>2026-05-07T10:19:04Z</time>
    </trkpt>
    <trkpt lat="50.484968" lon="16.339272">
      <ele>909</ele>
      <time>2026-05-07T10:19:09Z</time>
    </trkpt>
    <trkpt lat="50.484974" lon="16.33937">
      <ele>910</ele>
      <time>2026-05-07T10:19:23Z</time>
    </trkpt>
    <trkpt lat="50.484995" lon="16.339407">
      <ele>911</ele>
      <time>2026-05-07T10:19:30Z</time>
    </trkpt>
    <trkpt lat="50.485006" lon="16.339411">
      <ele>911</ele>
      <time>2026-05-07T10:19:32Z</time>
    </trkpt>
    <trkpt lat="50.48506" lon="16.339429">
      <ele>912</ele>
      <time>2026-05-07T10:19:45Z</time>
    </trkpt>
    <trkpt lat="50.485082" lon="16.339464">
      <ele>912</ele>
      <time>2026-05-07T10:19:51Z</time>
    </trkpt>
    <trkpt lat="50.485113" lon="16.339538">
      <ele>912</ele>
      <time>2026-05-07T10:20:04Z</time>
    </trkpt>
    <trkpt lat="50.485148" lon="16.339565">
      <ele>913</ele>
      <time>2026-05-07T10:20:12Z</time>
    </trkpt>
    <trkpt lat="50.485181" lon="16.339563">
      <ele>913</ele>
      <time>2026-05-07T10:20:19Z</time>
    </trkpt>
    <trkpt lat="50.48522" lon="16.339531">
      <ele>914</ele>
      <time>2026-05-07T10:20:29Z</time>
    </trkpt>
    <trkpt lat="50.48524" lon="16.339444">
      <ele>914</ele>
      <time>2026-05-07T10:20:42Z</time>
    </trkpt>
    <trkpt lat="50.485236" lon="16.339316">
      <ele>914</ele>
      <time>2026-05-07T10:20:59Z</time>
    </trkpt>
    <trkpt lat="50.485307" lon="16.339222">
      <ele>914</ele>
      <time>2026-05-07T10:21:20Z</time>
    </trkpt>
    <trkpt lat="50.485355" lon="16.339189">
      <ele>913</ele>
      <time>2026-05-07T10:21:31Z</time>
    </trkpt>
    <trkpt lat="50.485406" lon="16.339282">
      <ele>910</ele>
      <time>2026-05-07T10:21:39Z</time>
    </trkpt>
    <trkpt lat="50.485484" lon="16.339426">
      <ele>907</ele>
      <time>2026-05-07T10:21:52Z</time>
    </trkpt>
    <trkpt lat="50.485507" lon="16.339443">
      <ele>906</ele>
      <time>2026-05-07T10:21:55Z</time>
    </trkpt>
    <trkpt lat="50.485533" lon="16.339492">
      <ele>905</ele>
      <time>2026-05-07T10:22:00Z</time>
    </trkpt>
    <trkpt lat="50.485574" lon="16.339573">
      <ele>902</ele>
      <time>2026-05-07T10:22:07Z</time>
    </trkpt>
    <trkpt lat="50.485585" lon="16.339673">
      <ele>900</ele>
      <time>2026-05-07T10:22:14Z</time>
    </trkpt>
    <trkpt lat="50.485498" lon="16.339793">
      <ele>905</ele>
      <time>2026-05-07T10:22:27Z</time>
    </trkpt>
    <trkpt lat="50.485419" lon="16.33972">
      <ele>908</ele>
      <time>2026-05-07T10:22:37Z</time>
    </trkpt>
    <trkpt lat="50.485401" lon="16.339775">
      <ele>908</ele>
      <time>2026-05-07T10:22:41Z</time>
    </trkpt>
    <trkpt lat="50.4853" lon="16.339877">
      <ele>910</ele>
      <time>2026-05-07T10:22:54Z</time>
    </trkpt>
    <trkpt lat="50.485274" lon="16.339927">
      <ele>910</ele>
      <time>2026-05-07T10:22:58Z</time>
    </trkpt>
    <trkpt lat="50.485251" lon="16.339971">
      <ele>910</ele>
      <time>2026-05-07T10:23:02Z</time>
    </trkpt>
    <trkpt lat="50.48524" lon="16.340043">
      <ele>909</ele>
      <time>2026-05-07T10:23:07Z</time>
    </trkpt>
    <trkpt lat="50.485233" lon="16.340082">
      <ele>908</ele>
      <time>2026-05-07T10:23:09Z</time>
    </trkpt>
    <trkpt lat="50.485256" lon="16.340155">
      <ele>907</ele>
      <time>2026-05-07T10:23:15Z</time>
    </trkpt>
    <trkpt lat="50.485247" lon="16.340212">
      <ele>906</ele>
      <time>2026-05-07T10:23:19Z</time>
    </trkpt>
    <trkpt lat="50.485216" lon="16.340231">
      <ele>907</ele>
      <time>2026-05-07T10:23:22Z</time>
    </trkpt>
    <trkpt lat="50.48512" lon="16.340452">
      <ele>905</ele>
      <time>2026-05-07T10:23:40Z</time>
    </trkpt>
    <trkpt lat="50.485063" lon="16.340582">
      <ele>907</ele>
      <time>2026-05-07T10:23:51Z</time>
    </trkpt>
    <trkpt lat="50.485031" lon="16.340596">
      <ele>907</ele>
      <time>2026-05-07T10:23:54Z</time>
    </trkpt>
    <trkpt lat="50.485009" lon="16.34063">
      <ele>908</ele>
      <time>2026-05-07T10:23:58Z</time>
    </trkpt>
    <trkpt lat="50.48497" lon="16.340703">
      <ele>908</ele>
      <time>2026-05-07T10:24:04Z</time>
    </trkpt>
    <trkpt lat="50.484937" lon="16.340663">
      <ele>908</ele>
      <time>2026-05-07T10:24:08Z</time>
    </trkpt>
    <trkpt lat="50.484906" lon="16.340635">
      <ele>908</ele>
      <time>2026-05-07T10:24:12Z</time>
    </trkpt>
    <trkpt lat="50.484854" lon="16.34074">
      <ele>908</ele>
      <time>2026-05-07T10:24:21Z</time>
    </trkpt>
    <trkpt lat="50.484821" lon="16.340803">
      <ele>909</ele>
      <time>2026-05-07T10:24:26Z</time>
    </trkpt>
    <trkpt lat="50.484802" lon="16.340849">
      <ele>909</ele>
      <time>2026-05-07T10:24:30Z</time>
    </trkpt>
    <trkpt lat="50.484748" lon="16.340977">
      <ele>908</ele>
      <time>2026-05-07T10:24:40Z</time>
    </trkpt>
    <trkpt lat="50.484728" lon="16.341024">
      <ele>908</ele>
      <time>2026-05-07T10:24:44Z</time>
    </trkpt>
    <trkpt lat="50.484701" lon="16.341082">
      <ele>908</ele>
      <time>2026-05-07T10:24:49Z</time>
    </trkpt>
    <trkpt lat="50.484676" lon="16.341156">
      <ele>908</ele>
      <time>2026-05-07T10:24:54Z</time>
    </trkpt>
    <trkpt lat="50.484663" lon="16.341235">
      <ele>908</ele>
      <time>2026-05-07T10:25:00Z</time>
    </trkpt>
    <trkpt lat="50.484666" lon="16.341324">
      <ele>907</ele>
      <time>2026-05-07T10:25:06Z</time>
    </trkpt>
    <trkpt lat="50.484681" lon="16.341379">
      <ele>906</ele>
      <time>2026-05-07T10:25:10Z</time>
    </trkpt>
    <trkpt lat="50.484708" lon="16.341381">
      <ele>906</ele>
      <time>2026-05-07T10:25:12Z</time>
    </trkpt>
    <trkpt lat="50.484738" lon="16.341367">
      <ele>906</ele>
      <time>2026-05-07T10:25:16Z</time>
    </trkpt>
    <trkpt lat="50.484829" lon="16.341214">
      <ele>907</ele>
      <time>2026-05-07T10:25:30Z</time>
    </trkpt>
    <trkpt lat="50.484838" lon="16.341155">
      <ele>907</ele>
      <time>2026-05-07T10:25:34Z</time>
    </trkpt>
    <trkpt lat="50.484931" lon="16.341038">
      <ele>907</ele>
      <time>2026-05-07T10:25:46Z</time>
    </trkpt>
    <trkpt lat="50.484941" lon="16.341028">
      <ele>907</ele>
      <time>2026-05-07T10:25:47Z</time>
    </trkpt>
    <trkpt lat="50.484993" lon="16.34098">
      <ele>907</ele>
      <time>2026-05-07T10:25:54Z</time>
    </trkpt>
    <trkpt lat="50.48502" lon="16.340954">
      <ele>907</ele>
      <time>2026-05-07T10:25:57Z</time>
    </trkpt>
    <trkpt lat="50.48518" lon="16.340811">
      <ele>905</ele>
      <time>2026-05-07T10:26:16Z</time>
    </trkpt>
    <trkpt lat="50.485188" lon="16.340801">
      <ele>905</ele>
      <time>2026-05-07T10:26:17Z</time>
    </trkpt>
    <trkpt lat="50.485298" lon="16.340643">
      <ele>903</ele>
      <time>2026-05-07T10:26:33Z</time>
    </trkpt>
    <trkpt lat="50.485323" lon="16.340549">
      <ele>902</ele>
      <time>2026-05-07T10:26:40Z</time>
    </trkpt>
    <trkpt lat="50.48534" lon="16.340389">
      <ele>902</ele>
      <time>2026-05-07T10:26:51Z</time>
    </trkpt>
    <trkpt lat="50.485357" lon="16.340347">
      <ele>902</ele>
      <time>2026-05-07T10:26:54Z</time>
    </trkpt>
    <trkpt lat="50.485383" lon="16.340293">
      <ele>902</ele>
      <time>2026-05-07T10:26:58Z</time>
    </trkpt>
    <trkpt lat="50.485431" lon="16.340317">
      <ele>900</ele>
      <time>2026-05-07T10:27:04Z</time>
    </trkpt>
    <trkpt lat="50.48545" lon="16.340411">
      <ele>899</ele>
      <time>2026-05-07T10:27:11Z</time>
    </trkpt>
    <trkpt lat="50.485433" lon="16.340528">
      <ele>899</ele>
      <time>2026-05-07T10:27:19Z</time>
    </trkpt>
    <trkpt lat="50.485398" lon="16.340681">
      <ele>899</ele>
      <time>2026-05-07T10:27:29Z</time>
    </trkpt>
    <trkpt lat="50.485385" lon="16.340738">
      <ele>899</ele>
      <time>2026-05-07T10:27:33Z</time>
    </trkpt>
    <trkpt lat="50.485392" lon="16.340763">
      <ele>899</ele>
      <time>2026-05-07T10:27:35Z</time>
    </trkpt>
    <trkpt lat="50.485405" lon="16.340811">
      <ele>898</ele>
      <time>2026-05-07T10:27:39Z</time>
    </trkpt>
    <trkpt lat="50.485466" lon="16.3409">
      <ele>894</ele>
      <time>2026-05-07T10:27:48Z</time>
    </trkpt>
    <trkpt lat="50.4855" lon="16.341006">
      <ele>891</ele>
      <time>2026-05-07T10:27:57Z</time>
    </trkpt>
    <trkpt lat="50.485504" lon="16.34104">
      <ele>890</ele>
      <time>2026-05-07T10:27:59Z</time>
    </trkpt>
    <trkpt lat="50.485496" lon="16.341067">
      <ele>890</ele>
      <time>2026-05-07T10:28:01Z</time>
    </trkpt>
    <trkpt lat="50.485441" lon="16.341211">
      <ele>890</ele>
      <time>2026-05-07T10:28:12Z</time>
    </trkpt>
    <trkpt lat="50.485395" lon="16.341295">
      <ele>891</ele>
      <time>2026-05-07T10:28:20Z</time>
    </trkpt>
    <trkpt lat="50.485376" lon="16.341278">
      <ele>893</ele>
      <time>2026-05-07T10:28:22Z</time>
    </trkpt>
    <trkpt lat="50.485392" lon="16.341241">
      <ele>892</ele>
      <time>2026-05-07T10:28:25Z</time>
    </trkpt>
    <trkpt lat="50.485378" lon="16.341229">
      <ele>893</ele>
      <time>2026-05-07T10:28:27Z</time>
    </trkpt>
    <trkpt lat="50.485335" lon="16.341372">
      <ele>893</ele>
      <time>2026-05-07T10:28:38Z</time>
    </trkpt>
    <trkpt lat="50.485279" lon="16.341474">
      <ele>894</ele>
      <time>2026-05-07T10:28:47Z</time>
    </trkpt>
    <trkpt lat="50.485225" lon="16.341484">
      <ele>896</ele>
      <time>2026-05-07T10:28:53Z</time>
    </trkpt>
    <trkpt lat="50.485161" lon="16.341631">
      <ele>895</ele>
      <time>2026-05-07T10:29:04Z</time>
    </trkpt>
    <trkpt lat="50.485121" lon="16.341702">
      <ele>895</ele>
      <time>2026-05-07T10:29:11Z</time>
    </trkpt>
    <trkpt lat="50.485078" lon="16.34178">
      <ele>895</ele>
      <time>2026-05-07T10:29:18Z</time>
    </trkpt>
    <trkpt lat="50.48502" lon="16.341777">
      <ele>898</ele>
      <time>2026-05-07T10:29:24Z</time>
    </trkpt>
    <trkpt lat="50.484996" lon="16.341835">
      <ele>898</ele>
      <time>2026-05-07T10:29:29Z</time>
    </trkpt>
    <trkpt lat="50.484967" lon="16.341906">
      <ele>897</ele>
      <time>2026-05-07T10:29:34Z</time>
    </trkpt>
    <trkpt lat="50.485022" lon="16.341977">
      <ele>895</ele>
      <time>2026-05-07T10:29:42Z</time>
    </trkpt>
    <trkpt lat="50.485053" lon="16.342017">
      <ele>893</ele>
      <time>2026-05-07T10:29:47Z</time>
    </trkpt>
    <trkpt lat="50.485088" lon="16.34206">
      <ele>890</ele>
      <time>2026-05-07T10:29:52Z</time>
    </trkpt>
    <trkpt lat="50.485051" lon="16.342132">
      <ele>891</ele>
      <time>2026-05-07T10:29:58Z</time>
    </trkpt>
    <trkpt lat="50.48504" lon="16.342153">
      <ele>891</ele>
      <time>2026-05-07T10:30:00Z</time>
    </trkpt>
    <trkpt lat="50.485013" lon="16.342211">
      <ele>891</ele>
      <time>2026-05-07T10:30:05Z</time>
    </trkpt>
    <trkpt lat="50.484949" lon="16.342343">
      <ele>892</ele>
      <time>2026-05-07T10:30:16Z</time>
    </trkpt>
    <trkpt lat="50.484929" lon="16.342382">
      <ele>893</ele>
      <time>2026-05-07T10:30:19Z</time>
    </trkpt>
    <trkpt lat="50.484914" lon="16.34242">
      <ele>893</ele>
      <time>2026-05-07T10:30:22Z</time>
    </trkpt>
    <trkpt lat="50.484832" lon="16.342634">
      <ele>894</ele>
      <time>2026-05-07T10:30:38Z</time>
    </trkpt>
    <trkpt lat="50.484797" lon="16.342812">
      <ele>893</ele>
      <time>2026-05-07T10:30:51Z</time>
    </trkpt>
    <trkpt lat="50.484737" lon="16.342881">
      <ele>894</ele>
      <time>2026-05-07T10:30:59Z</time>
    </trkpt>
    <trkpt lat="50.484691" lon="16.342973">
      <ele>894</ele>
      <time>2026-05-07T10:31:07Z</time>
    </trkpt>
    <trkpt lat="50.484654" lon="16.343046">
      <ele>894</ele>
      <time>2026-05-07T10:31:13Z</time>
    </trkpt>
    <trkpt lat="50.484646" lon="16.343065">
      <ele>894</ele>
      <time>2026-05-07T10:31:14Z</time>
    </trkpt>
    <trkpt lat="50.484636" lon="16.343091">
      <ele>893</ele>
      <time>2026-05-07T10:31:16Z</time>
    </trkpt>
    <trkpt lat="50.484604" lon="16.343022">
      <ele>895</ele>
      <time>2026-05-07T10:31:22Z</time>
    </trkpt>
    <trkpt lat="50.484594" lon="16.343001">
      <ele>896</ele>
      <time>2026-05-07T10:31:24Z</time>
    </trkpt>
    <trkpt lat="50.484539" lon="16.342963">
      <ele>898</ele>
      <time>2026-05-07T10:31:31Z</time>
    </trkpt>
    <trkpt lat="50.484486" lon="16.342879">
      <ele>901</ele>
      <time>2026-05-07T10:31:39Z</time>
    </trkpt>
    <trkpt lat="50.484462" lon="16.342827">
      <ele>902</ele>
      <time>2026-05-07T10:31:43Z</time>
    </trkpt>
    <trkpt lat="50.484448" lon="16.342798">
      <ele>903</ele>
      <time>2026-05-07T10:31:46Z</time>
    </trkpt>
    <trkpt lat="50.484433" lon="16.342781">
      <ele>903</ele>
      <time>2026-05-07T10:31:48Z</time>
    </trkpt>
    <trkpt lat="50.484412" lon="16.342758">
      <ele>904</ele>
      <time>2026-05-07T10:31:50Z</time>
    </trkpt>
    <trkpt lat="50.484352" lon="16.342749">
      <ele>905</ele>
      <time>2026-05-07T10:31:57Z</time>
    </trkpt>
    <trkpt lat="50.484241" lon="16.342834">
      <ele>905</ele>
      <time>2026-05-07T10:32:10Z</time>
    </trkpt>
    <trkpt lat="50.484229" lon="16.342839">
      <ele>905</ele>
      <time>2026-05-07T10:32:11Z</time>
    </trkpt>
    <trkpt lat="50.484184" lon="16.342861">
      <ele>906</ele>
      <time>2026-05-07T10:32:16Z</time>
    </trkpt>
    <trkpt lat="50.484139" lon="16.342861">
      <ele>906</ele>
      <time>2026-05-07T10:32:21Z</time>
    </trkpt>
    <trkpt lat="50.484041" lon="16.342863">
      <ele>907</ele>
      <time>2026-05-07T10:32:31Z</time>
    </trkpt>
    <trkpt lat="50.483986" lon="16.342896">
      <ele>907</ele>
      <time>2026-05-07T10:32:37Z</time>
    </trkpt>
    <trkpt lat="50.483945" lon="16.342947">
      <ele>906</ele>
      <time>2026-05-07T10:32:43Z</time>
    </trkpt>
    <trkpt lat="50.483881" lon="16.343012">
      <ele>906</ele>
      <time>2026-05-07T10:32:50Z</time>
    </trkpt>
    <trkpt lat="50.483799" lon="16.343063">
      <ele>907</ele>
      <time>2026-05-07T10:33:00Z</time>
    </trkpt>
    <trkpt lat="50.483761" lon="16.343141">
      <ele>906</ele>
      <time>2026-05-07T10:33:06Z</time>
    </trkpt>
    <trkpt lat="50.483731" lon="16.343126">
      <ele>907</ele>
      <time>2026-05-07T10:33:10Z</time>
    </trkpt>
    <trkpt lat="50.483691" lon="16.343106">
      <ele>907</ele>
      <time>2026-05-07T10:33:14Z</time>
    </trkpt>
    <trkpt lat="50.483644" lon="16.343025">
      <ele>908</ele>
      <time>2026-05-07T10:33:21Z</time>
    </trkpt>
    <trkpt lat="50.483608" lon="16.343001">
      <ele>908</ele>
      <time>2026-05-07T10:33:25Z</time>
    </trkpt>
    <trkpt lat="50.483549" lon="16.343004">
      <ele>908</ele>
      <time>2026-05-07T10:33:32Z</time>
    </trkpt>
    <trkpt lat="50.483491" lon="16.34305">
      <ele>908</ele>
      <time>2026-05-07T10:33:38Z</time>
    </trkpt>
    <trkpt lat="50.483457" lon="16.343055">
      <ele>907</ele>
      <time>2026-05-07T10:33:42Z</time>
    </trkpt>
    <trkpt lat="50.483424" lon="16.343051">
      <ele>907</ele>
      <time>2026-05-07T10:33:45Z</time>
    </trkpt>
    <trkpt lat="50.483388" lon="16.343045">
      <ele>907</ele>
      <time>2026-05-07T10:33:49Z</time>
    </trkpt>
    <trkpt lat="50.483349" lon="16.343053">
      <ele>907</ele>
      <time>2026-05-07T10:33:53Z</time>
    </trkpt>
    <trkpt lat="50.483313" lon="16.343082">
      <ele>907</ele>
      <time>2026-05-07T10:33:57Z</time>
    </trkpt>
    <trkpt lat="50.483289" lon="16.343117">
      <ele>907</ele>
      <time>2026-05-07T10:34:01Z</time>
    </trkpt>
    <trkpt lat="50.483265" lon="16.343177">
      <ele>907</ele>
      <time>2026-05-07T10:34:06Z</time>
    </trkpt>
    <trkpt lat="50.483251" lon="16.343212">
      <ele>907</ele>
      <time>2026-05-07T10:34:08Z</time>
    </trkpt>
    <trkpt lat="50.483209" lon="16.343294">
      <ele>906</ele>
      <time>2026-05-07T10:34:15Z</time>
    </trkpt>
    <trkpt lat="50.483127" lon="16.343463">
      <ele>906</ele>
      <time>2026-05-07T10:34:29Z</time>
    </trkpt>
    <trkpt lat="50.483105" lon="16.343517">
      <ele>906</ele>
      <time>2026-05-07T10:34:34Z</time>
    </trkpt>
    <trkpt lat="50.48305" lon="16.343597">
      <ele>906</ele>
      <time>2026-05-07T10:34:42Z</time>
    </trkpt>
    <trkpt lat="50.483018" lon="16.343618">
      <ele>906</ele>
      <time>2026-05-07T10:34:45Z</time>
    </trkpt>
    <trkpt lat="50.482983" lon="16.343646">
      <ele>905</ele>
      <time>2026-05-07T10:34:49Z</time>
    </trkpt>
    <trkpt lat="50.482954" lon="16.343717">
      <ele>905</ele>
      <time>2026-05-07T10:34:55Z</time>
    </trkpt>
    <trkpt lat="50.482951" lon="16.343824">
      <ele>905</ele>
      <time>2026-05-07T10:35:02Z</time>
    </trkpt>
    <trkpt lat="50.482954" lon="16.343846">
      <ele>905</ele>
      <time>2026-05-07T10:35:04Z</time>
    </trkpt>
    <trkpt lat="50.482949" lon="16.343903">
      <ele>905</ele>
      <time>2026-05-07T10:35:07Z</time>
    </trkpt>
    <trkpt lat="50.482947" lon="16.343968">
      <ele>904</ele>
      <time>2026-05-07T10:35:12Z</time>
    </trkpt>
    <trkpt lat="50.482967" lon="16.344051">
      <ele>904</ele>
      <time>2026-05-07T10:35:18Z</time>
    </trkpt>
    <trkpt lat="50.482966" lon="16.344076">
      <ele>904</ele>
      <time>2026-05-07T10:35:19Z</time>
    </trkpt>
    <trkpt lat="50.482962" lon="16.344097">
      <ele>904</ele>
      <time>2026-05-07T10:35:21Z</time>
    </trkpt>
    <trkpt lat="50.482954" lon="16.34412">
      <ele>904</ele>
      <time>2026-05-07T10:35:22Z</time>
    </trkpt>
    <trkpt lat="50.482934" lon="16.344143">
      <ele>904</ele>
      <time>2026-05-07T10:35:25Z</time>
    </trkpt>
    <trkpt lat="50.482909" lon="16.344144">
      <ele>904</ele>
      <time>2026-05-07T10:35:28Z</time>
    </trkpt>
    <trkpt lat="50.482872" lon="16.344127">
      <ele>903</ele>
      <time>2026-05-07T10:35:32Z</time>
    </trkpt>
    <trkpt lat="50.482806" lon="16.344121">
      <ele>903</ele>
      <time>2026-05-07T10:35:39Z</time>
    </trkpt>
    <trkpt lat="50.482753" lon="16.344138">
      <ele>902</ele>
      <time>2026-05-07T10:35:44Z</time>
    </trkpt>
    <trkpt lat="50.482686" lon="16.344148">
      <ele>901</ele>
      <time>2026-05-07T10:35:51Z</time>
    </trkpt>
    <trkpt lat="50.482622" lon="16.344221">
      <ele>900</ele>
      <time>2026-05-07T10:36:00Z</time>
    </trkpt>
    <trkpt lat="50.482588" lon="16.34424">
      <ele>899</ele>
      <time>2026-05-07T10:36:04Z</time>
    </trkpt>
    <trkpt lat="50.482574" lon="16.344289">
      <ele>899</ele>
      <time>2026-05-07T10:36:07Z</time>
    </trkpt>
    <trkpt lat="50.482534" lon="16.344416">
      <ele>898</ele>
      <time>2026-05-07T10:36:17Z</time>
    </trkpt>
    <trkpt lat="50.482464" lon="16.344473">
      <ele>897</ele>
      <time>2026-05-07T10:36:25Z</time>
    </trkpt>
    <trkpt lat="50.482409" lon="16.344489">
      <ele>895</ele>
      <time>2026-05-07T10:36:31Z</time>
    </trkpt>
    <trkpt lat="50.48239" lon="16.344629">
      <ele>895</ele>
      <time>2026-05-07T10:36:59Z</time>
    </trkpt>
    <trkpt lat="50.482363" lon="16.344788">
      <ele>895</ele>
      <time>2026-05-07T10:37:31Z</time>
    </trkpt>
    <trkpt lat="50.48239" lon="16.344629">
      <ele>895</ele>
      <time>2026-05-07T10:38:03Z</time>
    </trkpt>
    <trkpt lat="50.482409" lon="16.344489">
      <ele>895</ele>
      <time>2026-05-07T10:38:31Z</time>
    </trkpt>
    <trkpt lat="50.482349" lon="16.344395">
      <ele>893</ele>
      <time>2026-05-07T10:38:37Z</time>
    </trkpt>
    <trkpt lat="50.482328" lon="16.344308">
      <ele>891</ele>
      <time>2026-05-07T10:38:41Z</time>
    </trkpt>
    <trkpt lat="50.482305" lon="16.344223">
      <ele>890</ele>
      <time>2026-05-07T10:38:45Z</time>
    </trkpt>
    <trkpt lat="50.482286" lon="16.344034">
      <ele>887</ele>
      <time>2026-05-07T10:38:54Z</time>
    </trkpt>
    <trkpt lat="50.482285" lon="16.343898">
      <ele>886</ele>
      <time>2026-05-07T10:38:59Z</time>
    </trkpt>
    <trkpt lat="50.482311" lon="16.343828">
      <ele>887</ele>
      <time>2026-05-07T10:39:03Z</time>
    </trkpt>
    <trkpt lat="50.482358" lon="16.343773">
      <ele>888</ele>
      <time>2026-05-07T10:39:07Z</time>
    </trkpt>
    <trkpt lat="50.482365" lon="16.343721">
      <ele>888</ele>
      <time>2026-05-07T10:39:09Z</time>
    </trkpt>
    <trkpt lat="50.482359" lon="16.343632">
      <ele>887</ele>
      <time>2026-05-07T10:39:13Z</time>
    </trkpt>
    <trkpt lat="50.482325" lon="16.343573">
      <ele>885</ele>
      <time>2026-05-07T10:39:17Z</time>
    </trkpt>
    <trkpt lat="50.482274" lon="16.343565">
      <ele>883</ele>
      <time>2026-05-07T10:39:21Z</time>
    </trkpt>
    <trkpt lat="50.482232" lon="16.343594">
      <ele>881</ele>
      <time>2026-05-07T10:39:24Z</time>
    </trkpt>
    <trkpt lat="50.482192" lon="16.343657">
      <ele>880</ele>
      <time>2026-05-07T10:39:28Z</time>
    </trkpt>
    <trkpt lat="50.482162" lon="16.343692">
      <ele>878</ele>
      <time>2026-05-07T10:39:31Z</time>
    </trkpt>
    <trkpt lat="50.482135" lon="16.343724">
      <ele>877</ele>
      <time>2026-05-07T10:39:33Z</time>
    </trkpt>
    <trkpt lat="50.482088" lon="16.343732">
      <ele>875</ele>
      <time>2026-05-07T10:39:37Z</time>
    </trkpt>
    <trkpt lat="50.482031" lon="16.343742">
      <ele>872</ele>
      <time>2026-05-07T10:39:41Z</time>
    </trkpt>
    <trkpt lat="50.481977" lon="16.343737">
      <ele>869</ele>
      <time>2026-05-07T10:39:45Z</time>
    </trkpt>
    <trkpt lat="50.481921" lon="16.3437">
      <ele>866</ele>
      <time>2026-05-07T10:39:50Z</time>
    </trkpt>
    <trkpt lat="50.481864" lon="16.343668">
      <ele>862</ele>
      <time>2026-05-07T10:39:54Z</time>
    </trkpt>
    <trkpt lat="50.481802" lon="16.343665">
      <ele>858</ele>
      <time>2026-05-07T10:39:59Z</time>
    </trkpt>
    <trkpt lat="50.481751" lon="16.343687">
      <ele>855</ele>
      <time>2026-05-07T10:40:03Z</time>
    </trkpt>
    <trkpt lat="50.481704" lon="16.34366">
      <ele>852</ele>
      <time>2026-05-07T10:40:07Z</time>
    </trkpt>
    <trkpt lat="50.481644" lon="16.343613">
      <ele>848</ele>
      <time>2026-05-07T10:40:12Z</time>
    </trkpt>
    <trkpt lat="50.481624" lon="16.343574">
      <ele>846</ele>
      <time>2026-05-07T10:40:15Z</time>
    </trkpt>
    <trkpt lat="50.481602" lon="16.343528">
      <ele>844</ele>
      <time>2026-05-07T10:40:17Z</time>
    </trkpt>
    <trkpt lat="50.481601" lon="16.343501">
      <ele>844</ele>
      <time>2026-05-07T10:40:18Z</time>
    </trkpt>
    <trkpt lat="50.4816" lon="16.343443">
      <ele>843</ele>
      <time>2026-05-07T10:40:21Z</time>
    </trkpt>
    <trkpt lat="50.481593" lon="16.343322">
      <ele>841</ele>
      <time>2026-05-07T10:40:26Z</time>
    </trkpt>
    <trkpt lat="50.481587" lon="16.343228">
      <ele>840</ele>
      <time>2026-05-07T10:40:31Z</time>
    </trkpt>
    <trkpt lat="50.481582" lon="16.343142">
      <ele>838</ele>
      <time>2026-05-07T10:40:34Z</time>
    </trkpt>
    <trkpt lat="50.481548" lon="16.343015">
      <ele>835</ele>
      <time>2026-05-07T10:40:41Z</time>
    </trkpt>
    <trkpt lat="50.481514" lon="16.342883">
      <ele>832</ele>
      <time>2026-05-07T10:40:47Z</time>
    </trkpt>
    <trkpt lat="50.481556" lon="16.342672">
      <ele>832</ele>
      <time>2026-05-07T10:40:57Z</time>
    </trkpt>
    <trkpt lat="50.481618" lon="16.342403">
      <ele>832</ele>
      <time>2026-05-07T10:41:09Z</time>
    </trkpt>
    <trkpt lat="50.481635" lon="16.342308">
      <ele>832</ele>
      <time>2026-05-07T10:41:13Z</time>
    </trkpt>
    <trkpt lat="50.481644" lon="16.342235">
      <ele>831</ele>
      <time>2026-05-07T10:41:17Z</time>
    </trkpt>
    <trkpt lat="50.481646" lon="16.342138">
      <ele>831</ele>
      <time>2026-05-07T10:41:21Z</time>
    </trkpt>
    <trkpt lat="50.481653" lon="16.342095">
      <ele>831</ele>
      <time>2026-05-07T10:41:23Z</time>
    </trkpt>
    <trkpt lat="50.481663" lon="16.342069">
      <ele>831</ele>
      <time>2026-05-07T10:41:24Z</time>
    </trkpt>
    <trkpt lat="50.481664" lon="16.342025">
      <ele>830</ele>
      <time>2026-05-07T10:41:26Z</time>
    </trkpt>
    <trkpt lat="50.481659" lon="16.341949">
      <ele>830</ele>
      <time>2026-05-07T10:41:29Z</time>
    </trkpt>
    <trkpt lat="50.48169" lon="16.341819">
      <ele>830</ele>
      <time>2026-05-07T10:41:35Z</time>
    </trkpt>
    <trkpt lat="50.481729" lon="16.341631">
      <ele>831</ele>
      <time>2026-05-07T10:41:44Z</time>
    </trkpt>
    <trkpt lat="50.481759" lon="16.341535">
      <ele>831</ele>
      <time>2026-05-07T10:41:48Z</time>
    </trkpt>
    <trkpt lat="50.481778" lon="16.341427">
      <ele>831</ele>
      <time>2026-05-07T10:41:53Z</time>
    </trkpt>
    <trkpt lat="50.481787" lon="16.341338">
      <ele>831</ele>
      <time>2026-05-07T10:41:57Z</time>
    </trkpt>
    <trkpt lat="50.481733" lon="16.341175">
      <ele>827</ele>
      <time>2026-05-07T10:42:05Z</time>
    </trkpt>
    <trkpt lat="50.481671" lon="16.340935">
      <ele>823</ele>
      <time>2026-05-07T10:42:17Z</time>
    </trkpt>
    <trkpt lat="50.481607" lon="16.340718">
      <ele>819</ele>
      <time>2026-05-07T10:42:27Z</time>
    </trkpt>
    <trkpt lat="50.481588" lon="16.340549">
      <ele>818</ele>
      <time>2026-05-07T10:42:35Z</time>
    </trkpt>
    <trkpt lat="50.481578" lon="16.340459">
      <ele>817</ele>
      <time>2026-05-07T10:42:39Z</time>
    </trkpt>
    <trkpt lat="50.481518" lon="16.340294">
      <ele>814</ele>
      <time>2026-05-07T10:42:47Z</time>
    </trkpt>
    <trkpt lat="50.481222" lon="16.340107">
      <ele>803</ele>
      <time>2026-05-07T10:43:10Z</time>
    </trkpt>
    <trkpt lat="50.481144" lon="16.340018">
      <ele>801</ele>
      <time>2026-05-07T10:43:17Z</time>
    </trkpt>
    <trkpt lat="50.48106" lon="16.339907">
      <ele>798</ele>
      <time>2026-05-07T10:43:24Z</time>
    </trkpt>
    <trkpt lat="50.480985" lon="16.339809">
      <ele>796</ele>
      <time>2026-05-07T10:43:31Z</time>
    </trkpt>
    <trkpt lat="50.48089" lon="16.339822">
      <ele>792</ele>
      <time>2026-05-07T10:44:05Z</time>
    </trkpt>
    <trkpt lat="50.480817" lon="16.339848">
      <ele>790</ele>
      <time>2026-05-07T10:44:31Z</time>
    </trkpt>
    <trkpt lat="50.480773" lon="16.340211">
      <ele>789</ele>
      <time>2026-05-07T10:44:57Z</time>
    </trkpt>
    <trkpt lat="50.48072" lon="16.340401">
      <ele>787</ele>
      <time>2026-05-07T10:45:11Z</time>
    </trkpt>
    <trkpt lat="50.48062" lon="16.340698">
      <ele>787</ele>
      <time>2026-05-07T10:45:35Z</time>
    </trkpt>
    <trkpt lat="50.480328" lon="16.34136">
      <ele>789</ele>
      <time>2026-05-07T10:46:31Z</time>
    </trkpt>
    <trkpt lat="50.480193" lon="16.341708">
      <ele>786</ele>
      <time>2026-05-07T10:46:59Z</time>
    </trkpt>
    <trkpt lat="50.480131" lon="16.341911">
      <ele>785</ele>
      <time>2026-05-07T10:47:15Z</time>
    </trkpt>
    <trkpt lat="50.480016" lon="16.342294">
      <ele>782</ele>
      <time>2026-05-07T10:47:44Z</time>
    </trkpt>
    <trkpt lat="50.479929" lon="16.342516">
      <ele>781</ele>
      <time>2026-05-07T10:48:03Z</time>
    </trkpt>
    <trkpt lat="50.479661" lon="16.343135">
      <ele>780</ele>
      <time>2026-05-07T10:48:55Z</time>
    </trkpt>
    <trkpt lat="50.479402" lon="16.343847">
      <ele>782</ele>
      <time>2026-05-07T10:49:52Z</time>
    </trkpt>
    <trkpt lat="50.479339" lon="16.344001">
      <ele>783</ele>
      <time>2026-05-07T10:50:05Z</time>
    </trkpt>
    <trkpt lat="50.478876" lon="16.345114">
      <ele>783</ele>
      <time>2026-05-07T10:51:37Z</time>
    </trkpt>
    <trkpt lat="50.478815" lon="16.3453">
      <ele>782</ele>
      <time>2026-05-07T10:51:52Z</time>
    </trkpt>
    <trkpt lat="50.478683" lon="16.345695">
      <ele>779</ele>
      <time>2026-05-07T10:52:23Z</time>
    </trkpt>
    <trkpt lat="50.478603" lon="16.346015">
      <ele>777</ele>
      <time>2026-05-07T10:52:47Z</time>
    </trkpt>
    <trkpt lat="50.478549" lon="16.34631">
      <ele>776</ele>
      <time>2026-05-07T10:53:08Z</time>
    </trkpt>
    <trkpt lat="50.478505" lon="16.346721">
      <ele>775</ele>
      <time>2026-05-07T10:53:37Z</time>
    </trkpt>
    <trkpt lat="50.478473" lon="16.346986">
      <ele>774</ele>
      <time>2026-05-07T10:53:56Z</time>
    </trkpt>
    <trkpt lat="50.478476" lon="16.347363">
      <ele>773</ele>
      <time>2026-05-07T10:54:22Z</time>
    </trkpt>
    <trkpt lat="50.478547" lon="16.347714">
      <ele>773</ele>
      <time>2026-05-07T10:54:48Z</time>
    </trkpt>
    <trkpt lat="50.478623" lon="16.347947">
      <ele>773</ele>
      <time>2026-05-07T10:55:06Z</time>
    </trkpt>
    <trkpt lat="50.478675" lon="16.348186">
      <ele>773</ele>
      <time>2026-05-07T10:55:24Z</time>
    </trkpt>
    <trkpt lat="50.478742" lon="16.348439">
      <ele>773</ele>
      <time>2026-05-07T10:55:43Z</time>
    </trkpt>
    <trkpt lat="50.47879" lon="16.348674">
      <ele>771</ele>
      <time>2026-05-07T10:56:00Z</time>
    </trkpt>
    <trkpt lat="50.478791" lon="16.348963">
      <ele>769</ele>
      <time>2026-05-07T10:56:20Z</time>
    </trkpt>
    <trkpt lat="50.47881" lon="16.349198">
      <ele>767</ele>
      <time>2026-05-07T10:56:37Z</time>
    </trkpt>
    <trkpt lat="50.478849" lon="16.349412">
      <ele>765</ele>
      <time>2026-05-07T10:56:52Z</time>
    </trkpt>
    <trkpt lat="50.4789" lon="16.349711">
      <ele>764</ele>
      <time>2026-05-07T10:57:14Z</time>
    </trkpt>
    <trkpt lat="50.478978" lon="16.350304">
      <ele>763</ele>
      <time>2026-05-07T10:57:56Z</time>
    </trkpt>
    <trkpt lat="50.479039" lon="16.350691">
      <ele>761</ele>
      <time>2026-05-07T10:58:24Z</time>
    </trkpt>
    <trkpt lat="50.479101" lon="16.350959">
      <ele>760</ele>
      <time>2026-05-07T10:58:44Z</time>
    </trkpt>
    <trkpt lat="50.479319" lon="16.351127">
      <ele>758</ele>
      <time>2026-05-07T10:59:10Z</time>
    </trkpt>
    <trkpt lat="50.47951" lon="16.351319">
      <ele>758</ele>
      <time>2026-05-07T10:59:35Z</time>
    </trkpt>
    <trkpt lat="50.479755" lon="16.351606">
      <ele>758</ele>
      <time>2026-05-07T11:00:09Z</time>
    </trkpt>
    <trkpt lat="50.480052" lon="16.351931">
      <ele>759</ele>
      <time>2026-05-07T11:00:48Z</time>
    </trkpt>
    <trkpt lat="50.480574" lon="16.352246">
      <ele>761</ele>
      <time>2026-05-07T11:01:49Z</time>
    </trkpt>
    <trkpt lat="50.480797" lon="16.352365">
      <ele>761</ele>
      <time>2026-05-07T11:02:15Z</time>
    </trkpt>
    <trkpt lat="50.481019" lon="16.352542">
      <ele>762</ele>
      <time>2026-05-07T11:02:42Z</time>
    </trkpt>
    <trkpt lat="50.481257" lon="16.35265">
      <ele>762</ele>
      <time>2026-05-07T11:03:09Z</time>
    </trkpt>
    <trkpt lat="50.481391" lon="16.35271">
      <ele>761</ele>
      <time>2026-05-07T11:03:25Z</time>
    </trkpt>
    <trkpt lat="50.48154" lon="16.352761">
      <ele>762</ele>
      <time>2026-05-07T11:03:41Z</time>
    </trkpt>
    <trkpt lat="50.481677" lon="16.35262">
      <ele>763</ele>
      <time>2026-05-07T11:03:59Z</time>
    </trkpt>
    <trkpt lat="50.481764" lon="16.35256">
      <ele>763</ele>
      <time>2026-05-07T11:04:10Z</time>
    </trkpt>
    <trkpt lat="50.481862" lon="16.352517">
      <ele>764</ele>
      <time>2026-05-07T11:04:21Z</time>
    </trkpt>
    <trkpt lat="50.481956" lon="16.352528">
      <ele>764</ele>
      <time>2026-05-07T11:04:31Z</time>
    </trkpt>
    <trkpt lat="50.482006" lon="16.352633">
      <ele>763</ele>
      <time>2026-05-07T11:04:40Z</time>
    </trkpt>
    <trkpt lat="50.482063" lon="16.352778">
      <ele>763</ele>
      <time>2026-05-07T11:04:53Z</time>
    </trkpt>
    <trkpt lat="50.482069" lon="16.352872">
      <ele>763</ele>
      <time>2026-05-07T11:04:59Z</time>
    </trkpt>
    <trkpt lat="50.482111" lon="16.352973">
      <ele>763</ele>
      <time>2026-05-07T11:05:08Z</time>
    </trkpt>
    <trkpt lat="50.482257" lon="16.353139">
      <ele>763</ele>
      <time>2026-05-07T11:05:28Z</time>
    </trkpt>
    <trkpt lat="50.482332" lon="16.353236">
      <ele>762</ele>
      <time>2026-05-07T11:05:39Z</time>
    </trkpt>
    <trkpt lat="50.482394" lon="16.353288">
      <ele>762</ele>
      <time>2026-05-07T11:05:47Z</time>
    </trkpt>
    <trkpt lat="50.482512" lon="16.353354">
      <ele>761</ele>
      <time>2026-05-07T11:06:01Z</time>
    </trkpt>
    <trkpt lat="50.482562" lon="16.353433">
      <ele>759</ele>
      <time>2026-05-07T11:06:09Z</time>
    </trkpt>
    <trkpt lat="50.482578" lon="16.353474">
      <ele>759</ele>
      <time>2026-05-07T11:06:12Z</time>
    </trkpt>
    <trkpt lat="50.482597" lon="16.353605">
      <ele>757</ele>
      <time>2026-05-07T11:06:22Z</time>
    </trkpt>
    <trkpt lat="50.482608" lon="16.353678">
      <ele>756</ele>
      <time>2026-05-07T11:06:28Z</time>
    </trkpt>
    <trkpt lat="50.482649" lon="16.353708">
      <ele>756</ele>
      <time>2026-05-07T11:06:33Z</time>
    </trkpt>
    <trkpt lat="50.482746" lon="16.353722">
      <ele>755</ele>
      <time>2026-05-07T11:06:44Z</time>
    </trkpt>
    <trkpt lat="50.482837" lon="16.35372">
      <ele>755</ele>
      <time>2026-05-07T11:06:54Z</time>
    </trkpt>
    <trkpt lat="50.482882" lon="16.353769">
      <ele>754</ele>
      <time>2026-05-07T11:07:00Z</time>
    </trkpt>
    <trkpt lat="50.482911" lon="16.353837">
      <ele>754</ele>
      <time>2026-05-07T11:07:06Z</time>
    </trkpt>
    <trkpt lat="50.48294" lon="16.353915">
      <ele>752</ele>
      <time>2026-05-07T11:07:13Z</time>
    </trkpt>
    <trkpt lat="50.483041" lon="16.354127">
      <ele>748</ele>
      <time>2026-05-07T11:07:32Z</time>
    </trkpt>
    <trkpt lat="50.483123" lon="16.354257">
      <ele>743</ele>
      <time>2026-05-07T11:07:46Z</time>
    </trkpt>
    <trkpt lat="50.483191" lon="16.354478">
      <ele>738</ele>
      <time>2026-05-07T11:08:04Z</time>
    </trkpt>
    <trkpt lat="50.483274" lon="16.354553">
      <ele>735</ele>
      <time>2026-05-07T11:08:15Z</time>
    </trkpt>
    <trkpt lat="50.483419" lon="16.354673">
      <ele>731</ele>
      <time>2026-05-07T11:08:34Z</time>
    </trkpt>
    <trkpt lat="50.48353" lon="16.354754">
      <ele>728</ele>
      <time>2026-05-07T11:08:48Z</time>
    </trkpt>
    <trkpt lat="50.483631" lon="16.354849">
      <ele>727</ele>
      <time>2026-05-07T11:09:01Z</time>
    </trkpt>
    <trkpt lat="50.483732" lon="16.355041">
      <ele>725</ele>
      <time>2026-05-07T11:09:19Z</time>
    </trkpt>
    <trkpt lat="50.483813" lon="16.355212">
      <ele>722</ele>
      <time>2026-05-07T11:09:35Z</time>
    </trkpt>
    <trkpt lat="50.483985" lon="16.355413">
      <ele>719</ele>
      <time>2026-05-07T11:09:59Z</time>
    </trkpt>
    <trkpt lat="50.484315" lon="16.355801">
      <ele>711</ele>
      <time>2026-05-07T11:10:46Z</time>
    </trkpt>
    <trkpt lat="50.484641" lon="16.356191">
      <ele>703</ele>
      <time>2026-05-07T11:11:33Z</time>
    </trkpt>
    <trkpt lat="50.485087" lon="16.356645">
      <ele>693</ele>
      <time>2026-05-07T11:12:33Z</time>
    </trkpt>
    <trkpt lat="50.485277" lon="16.356782">
      <ele>689</ele>
      <time>2026-05-07T11:12:57Z</time>
    </trkpt>
    <trkpt lat="50.485549" lon="16.357109">
      <ele>678</ele>
      <time>2026-05-07T11:13:37Z</time>
    </trkpt>
    <trkpt lat="50.485702" lon="16.357312">
      <ele>674</ele>
      <time>2026-05-07T11:13:59Z</time>
    </trkpt>
    <trkpt lat="50.485789" lon="16.357445">
      <ele>673</ele>
      <time>2026-05-07T11:14:13Z</time>
    </trkpt>
    <trkpt lat="50.485876" lon="16.35765">
      <ele>670</ele>
      <time>2026-05-07T11:14:31Z</time>
    </trkpt>
    <trkpt lat="50.486261" lon="16.357979">
      <ele>665</ele>
      <time>2026-05-07T11:15:19Z</time>
    </trkpt>
    <trkpt lat="50.486426" lon="16.358069">
      <ele>664</ele>
      <time>2026-05-07T11:15:39Z</time>
    </trkpt>
    <trkpt lat="50.486595" lon="16.358089">
      <ele>663</ele>
      <time>2026-05-07T11:15:57Z</time>
    </trkpt>
    <trkpt lat="50.486737" lon="16.358053">
      <ele>662</ele>
      <time>2026-05-07T11:16:13Z</time>
    </trkpt>
    <trkpt lat="50.486977" lon="16.358046">
      <ele>657</ele>
      <time>2026-05-07T11:16:40Z</time>
    </trkpt>
    <trkpt lat="50.487303" lon="16.358085">
      <ele>646</ele>
      <time>2026-05-07T11:17:17Z</time>
    </trkpt>
    <trkpt lat="50.487436" lon="16.358136">
      <ele>638</ele>
      <time>2026-05-07T11:17:34Z</time>
    </trkpt>
    <trkpt lat="50.487638" lon="16.3583">
      <ele>622</ele>
      <time>2026-05-07T11:18:04Z</time>
    </trkpt>
    <trkpt lat="50.487822" lon="16.358492">
      <ele>610</ele>
      <time>2026-05-07T11:18:31Z</time>
    </trkpt>
    <trkpt lat="50.48789" lon="16.358651">
      <ele>605</ele>
      <time>2026-05-07T11:18:45Z</time>
    </trkpt>
    <trkpt lat="50.487974" lon="16.358912">
      <ele>599</ele>
      <time>2026-05-07T11:19:06Z</time>
    </trkpt>
    <trkpt lat="50.488024" lon="16.359121">
      <ele>599</ele>
      <time>2026-05-07T11:19:22Z</time>
    </trkpt>
    <trkpt lat="50.488127" lon="16.359285">
      <ele>596</ele>
      <time>2026-05-07T11:19:38Z</time>
    </trkpt>
    <trkpt lat="50.488254" lon="16.359506">
      <ele>593</ele>
      <time>2026-05-07T11:19:59Z</time>
    </trkpt>
    <trkpt lat="50.488407" lon="16.359619">
      <ele>587</ele>
      <time>2026-05-07T11:20:19Z</time>
    </trkpt>
    <trkpt lat="50.488523" lon="16.359734">
      <ele>584</ele>
      <time>2026-05-07T11:20:34Z</time>
    </trkpt>
    <trkpt lat="50.488608" lon="16.359856">
      <ele>583</ele>
      <time>2026-05-07T11:20:47Z</time>
    </trkpt>
    <trkpt lat="50.488771" lon="16.359978">
      <ele>577</ele>
      <time>2026-05-07T11:21:08Z</time>
    </trkpt>
    <trkpt lat="50.488881" lon="16.360054">
      <ele>573</ele>
      <time>2026-05-07T11:21:22Z</time>
    </trkpt>
    <trkpt lat="50.489042" lon="16.3602">
      <ele>568</ele>
      <time>2026-05-07T11:21:42Z</time>
    </trkpt>
    <trkpt lat="50.489226" lon="16.360398">
      <ele>562</ele>
      <time>2026-05-07T11:22:08Z</time>
    </trkpt>
    <trkpt lat="50.4894" lon="16.360556">
      <ele>558</ele>
      <time>2026-05-07T11:22:30Z</time>
    </trkpt>
    <trkpt lat="50.489475" lon="16.360594">
      <ele>556</ele>
      <time>2026-05-07T11:22:39Z</time>
    </trkpt>
    <trkpt lat="50.48961" lon="16.360676">
      <ele>553</ele>
      <time>2026-05-07T11:22:55Z</time>
    </trkpt>
    <trkpt lat="50.489723" lon="16.360791">
      <ele>551</ele>
      <time>2026-05-07T11:23:10Z</time>
    </trkpt>
    <trkpt lat="50.489889" lon="16.360991">
      <ele>545</ele>
      <time>2026-05-07T11:23:34Z</time>
    </trkpt>
    <trkpt lat="50.490103" lon="16.361225">
      <ele>537</ele>
      <time>2026-05-07T11:24:03Z</time>
    </trkpt>
    <trkpt lat="50.490177" lon="16.3613">
      <ele>534</ele>
      <time>2026-05-07T11:24:13Z</time>
    </trkpt>
    <trkpt lat="50.490272" lon="16.361372">
      <ele>530</ele>
      <time>2026-05-07T11:24:26Z</time>
    </trkpt>
    <trkpt lat="50.490411" lon="16.361521">
      <ele>526</ele>
      <time>2026-05-07T11:24:45Z</time>
    </trkpt>
    <trkpt lat="50.49053" lon="16.361629">
      <ele>520</ele>
      <time>2026-05-07T11:25:01Z</time>
    </trkpt>
    <trkpt lat="50.490639" lon="16.361696">
      <ele>516</ele>
      <time>2026-05-07T11:25:14Z</time>
    </trkpt>
    <trkpt lat="50.490808" lon="16.361757">
      <ele>508</ele>
      <time>2026-05-07T11:25:35Z</time>
    </trkpt>
    <trkpt lat="50.490973" lon="16.361859">
      <ele>504</ele>
      <time>2026-05-07T11:25:55Z</time>
    </trkpt>
    <trkpt lat="50.491111" lon="16.361898">
      <ele>499</ele>
      <time>2026-05-07T11:26:11Z</time>
    </trkpt>
    <trkpt lat="50.491301" lon="16.362071">
      <ele>496</ele>
      <time>2026-05-07T11:26:35Z</time>
    </trkpt>
    <trkpt lat="50.491532" lon="16.362278">
      <ele>493</ele>
      <time>2026-05-07T11:27:04Z</time>
    </trkpt>
    <trkpt lat="50.491658" lon="16.362344">
      <ele>490</ele>
      <time>2026-05-07T11:27:19Z</time>
    </trkpt>
    <trkpt lat="50.491863" lon="16.36245">
      <ele>486</ele>
      <time>2026-05-07T11:27:43Z</time>
    </trkpt>
    <trkpt lat="50.492037" lon="16.362534">
      <ele>483</ele>
      <time>2026-05-07T11:28:03Z</time>
    </trkpt>
    <trkpt lat="50.492154" lon="16.362542">
      <ele>480</ele>
      <time>2026-05-07T11:28:17Z</time>
    </trkpt>
    <trkpt lat="50.492294" lon="16.362514">
      <ele>476</ele>
      <time>2026-05-07T11:28:33Z</time>
    </trkpt>
    <trkpt lat="50.492468" lon="16.362514">
      <ele>472</ele>
      <time>2026-05-07T11:28:52Z</time>
    </trkpt>
    <trkpt lat="50.492573" lon="16.362534">
      <ele>470</ele>
      <time>2026-05-07T11:29:04Z</time>
    </trkpt>
    <trkpt lat="50.492665" lon="16.362495">
      <ele>467</ele>
      <time>2026-05-07T11:29:15Z</time>
    </trkpt>
    <trkpt lat="50.492808" lon="16.362459">
      <ele>464</ele>
      <time>2026-05-07T11:29:31Z</time>
    </trkpt>
    <trkpt lat="50.492881" lon="16.362615">
      <ele>465</ele>
      <time>2026-05-07T11:29:55Z</time>
    </trkpt>
    <trkpt lat="50.492905" lon="16.362893">
      <ele>469</ele>
      <time>2026-05-07T11:30:31Z</time>
    </trkpt>
    <trkpt lat="50.492854" lon="16.362904">
      <ele>470</ele>
      <time>2026-05-07T11:31:04Z</time>
    </trkpt>
    <trkpt lat="50.492816" lon="16.362933">
      <ele>471</ele>
      <time>2026-05-07T11:31:31Z</time>
    </trkpt>
  </trkseg>
</trk>
</gpx>