<?xml version="1.0" encoding="UTF-8"?><gpx creator="https://mapa-turystyczna.pl" xmlns="http://www.topografix.com/GPX/1/1" version="1.1" xmlns:xsi="http://www.w3.org/2001/XMLSchema-instance" xsi:schemaLocation="http://www.topografix.com/GPX/1/1 http://www.topografix.com/GPX/1/1/gpx.xsd">
  <metadata>
    <link href="https://mapa-turystyczna.pl">
      <text>mapa-turystyczna.pl</text>
    </link>
    <time>2026-05-07T08:43:30Z</time>
    <bounds maxlat="50.485585" maxlon="16.344489" minlat="50.475307" minlon="16.337437"/>
  </metadata>

<trk>
  <name>Karłów – Karłów</name>
  <link href="https://mapa-turystyczna.pl/route/ef3w">
    <text>Karłów – Karłów</text>
  </link>
  <trkseg>
    <trkpt lat="50.475307" lon="16.337819">
      <ele>753</ele>
      <time>2026-05-07T08:43:30Z</time>
    </trkpt>
    <trkpt lat="50.475372" lon="16.337952">
      <ele>753</ele>
      <time>2026-05-07T08:43:44Z</time>
    </trkpt>
    <trkpt lat="50.475416" lon="16.338042">
      <ele>752</ele>
      <time>2026-05-07T08:43:53Z</time>
    </trkpt>
    <trkpt lat="50.475431" lon="16.338073">
      <ele>753</ele>
      <time>2026-05-07T08:43:56Z</time>
    </trkpt>
    <trkpt lat="50.475551" lon="16.338332">
      <ele>754</ele>
      <time>2026-05-07T08:44:23Z</time>
    </trkpt>
    <trkpt lat="50.475658" lon="16.338596">
      <ele>756</ele>
      <time>2026-05-07T08:44:49Z</time>
    </trkpt>
    <trkpt lat="50.475691" lon="16.338704">
      <ele>756</ele>
      <time>2026-05-07T08:44:58Z</time>
    </trkpt>
    <trkpt lat="50.47575" lon="16.33867">
      <ele>756</ele>
      <time>2026-05-07T08:45:07Z</time>
    </trkpt>
    <trkpt lat="50.475795" lon="16.338666">
      <ele>756</ele>
      <time>2026-05-07T08:45:12Z</time>
    </trkpt>
    <trkpt lat="50.47584" lon="16.338675">
      <ele>755</ele>
      <time>2026-05-07T08:45:18Z</time>
    </trkpt>
    <trkpt lat="50.475885" lon="16.338703">
      <ele>755</ele>
      <time>2026-05-07T08:45:25Z</time>
    </trkpt>
    <trkpt lat="50.475917" lon="16.338747">
      <ele>755</ele>
      <time>2026-05-07T08:45:30Z</time>
    </trkpt>
    <trkpt lat="50.47595" lon="16.33879">
      <ele>755</ele>
      <time>2026-05-07T08:45:35Z</time>
    </trkpt>
    <trkpt lat="50.476088" lon="16.339002">
      <ele>756</ele>
      <time>2026-05-07T08:45:57Z</time>
    </trkpt>
    <trkpt lat="50.47628" lon="16.339234">
      <ele>756</ele>
      <time>2026-05-07T08:46:24Z</time>
    </trkpt>
    <trkpt lat="50.47645" lon="16.33944">
      <ele>757</ele>
      <time>2026-05-07T08:46:49Z</time>
    </trkpt>
    <trkpt lat="50.476616" lon="16.339641">
      <ele>757</ele>
      <time>2026-05-07T08:47:12Z</time>
    </trkpt>
    <trkpt lat="50.477099" lon="16.340068">
      <ele>758</ele>
      <time>2026-05-07T08:48:15Z</time>
    </trkpt>
    <trkpt lat="50.477423" lon="16.340324">
      <ele>759</ele>
      <time>2026-05-07T08:48:56Z</time>
    </trkpt>
    <trkpt lat="50.477636" lon="16.34032">
      <ele>759</ele>
      <time>2026-05-07T08:49:20Z</time>
    </trkpt>
    <trkpt lat="50.477813" lon="16.34029">
      <ele>758</ele>
      <time>2026-05-07T08:49:41Z</time>
    </trkpt>
    <trkpt lat="50.477995" lon="16.34033">
      <ele>757</ele>
      <time>2026-05-07T08:50:02Z</time>
    </trkpt>
    <trkpt lat="50.478068" lon="16.340349">
      <ele>756</ele>
      <time>2026-05-07T08:50:10Z</time>
    </trkpt>
    <trkpt lat="50.478229" lon="16.340369">
      <ele>757</ele>
      <time>2026-05-07T08:50:28Z</time>
    </trkpt>
    <trkpt lat="50.478724" lon="16.340429">
      <ele>762</ele>
      <time>2026-05-07T08:51:25Z</time>
    </trkpt>
    <trkpt lat="50.479061" lon="16.340291">
      <ele>763</ele>
      <time>2026-05-07T08:52:04Z</time>
    </trkpt>
    <trkpt lat="50.479212" lon="16.340249">
      <ele>763</ele>
      <time>2026-05-07T08:52:22Z</time>
    </trkpt>
    <trkpt lat="50.479534" lon="16.34019">
      <ele>765</ele>
      <time>2026-05-07T08:52:58Z</time>
    </trkpt>
    <trkpt lat="50.479865" lon="16.340002">
      <ele>769</ele>
      <time>2026-05-07T08:53:39Z</time>
    </trkpt>
    <trkpt lat="50.479981" lon="16.339968">
      <ele>772</ele>
      <time>2026-05-07T08:53:52Z</time>
    </trkpt>
    <trkpt lat="50.48002" lon="16.339957">
      <ele>773</ele>
      <time>2026-05-07T08:53:57Z</time>
    </trkpt>
    <trkpt lat="50.48003" lon="16.339954">
      <ele>773</ele>
      <time>2026-05-07T08:53:58Z</time>
    </trkpt>
    <trkpt lat="50.480051" lon="16.339948">
      <ele>774</ele>
      <time>2026-05-07T08:54:01Z</time>
    </trkpt>
    <trkpt lat="50.480081" lon="16.339939">
      <ele>774</ele>
      <time>2026-05-07T08:54:04Z</time>
    </trkpt>
    <trkpt lat="50.480227" lon="16.339896">
      <ele>777</ele>
      <time>2026-05-07T08:54:21Z</time>
    </trkpt>
    <trkpt lat="50.480386" lon="16.339902">
      <ele>780</ele>
      <time>2026-05-07T08:54:40Z</time>
    </trkpt>
    <trkpt lat="50.480591" lon="16.339916">
      <ele>784</ele>
      <time>2026-05-07T08:55:03Z</time>
    </trkpt>
    <trkpt lat="50.480716" lon="16.339891">
      <ele>787</ele>
      <time>2026-05-07T08:55:18Z</time>
    </trkpt>
    <trkpt lat="50.480817" lon="16.339848">
      <ele>790</ele>
      <time>2026-05-07T08:55:30Z</time>
    </trkpt>
    <trkpt lat="50.48089" lon="16.339822">
      <ele>793</ele>
      <time>2026-05-07T08:55:56Z</time>
    </trkpt>
    <trkpt lat="50.480985" lon="16.339809">
      <ele>796</ele>
      <time>2026-05-07T08:56:30Z</time>
    </trkpt>
    <trkpt lat="50.481092" lon="16.339783">
      <ele>799</ele>
      <time>2026-05-07T08:57:01Z</time>
    </trkpt>
    <trkpt lat="50.481176" lon="16.339733">
      <ele>802</ele>
      <time>2026-05-07T08:57:26Z</time>
    </trkpt>
    <trkpt lat="50.481284" lon="16.339616">
      <ele>805</ele>
      <time>2026-05-07T08:58:02Z</time>
    </trkpt>
    <trkpt lat="50.481366" lon="16.339556">
      <ele>807</ele>
      <time>2026-05-07T08:58:27Z</time>
    </trkpt>
    <trkpt lat="50.481501" lon="16.339453">
      <ele>811</ele>
      <time>2026-05-07T08:59:08Z</time>
    </trkpt>
    <trkpt lat="50.481571" lon="16.33934">
      <ele>813</ele>
      <time>2026-05-07T08:59:36Z</time>
    </trkpt>
    <trkpt lat="50.481643" lon="16.339241">
      <ele>815</ele>
      <time>2026-05-07T09:00:02Z</time>
    </trkpt>
    <trkpt lat="50.48169" lon="16.33917">
      <ele>817</ele>
      <time>2026-05-07T09:00:20Z</time>
    </trkpt>
    <trkpt lat="50.481735" lon="16.339103">
      <ele>818</ele>
      <time>2026-05-07T09:00:38Z</time>
    </trkpt>
    <trkpt lat="50.481769" lon="16.338887">
      <ele>820</ele>
      <time>2026-05-07T09:01:16Z</time>
    </trkpt>
    <trkpt lat="50.481792" lon="16.338782">
      <ele>821</ele>
      <time>2026-05-07T09:01:35Z</time>
    </trkpt>
    <trkpt lat="50.481837" lon="16.338578">
      <ele>822</ele>
      <time>2026-05-07T09:02:13Z</time>
    </trkpt>
    <trkpt lat="50.4819" lon="16.338504">
      <ele>824</ele>
      <time>2026-05-07T09:02:34Z</time>
    </trkpt>
    <trkpt lat="50.481952" lon="16.338443">
      <ele>825</ele>
      <time>2026-05-07T09:02:52Z</time>
    </trkpt>
    <trkpt lat="50.482125" lon="16.338355">
      <ele>832</ele>
      <time>2026-05-07T09:03:44Z</time>
    </trkpt>
    <trkpt lat="50.482237" lon="16.338373">
      <ele>836</ele>
      <time>2026-05-07T09:04:16Z</time>
    </trkpt>
    <trkpt lat="50.482319" lon="16.338323">
      <ele>839</ele>
      <time>2026-05-07T09:04:41Z</time>
    </trkpt>
    <trkpt lat="50.482414" lon="16.338245">
      <ele>844</ele>
      <time>2026-05-07T09:05:12Z</time>
    </trkpt>
    <trkpt lat="50.482514" lon="16.338112">
      <ele>848</ele>
      <time>2026-05-07T09:05:49Z</time>
    </trkpt>
    <trkpt lat="50.482531" lon="16.338089">
      <ele>848</ele>
      <time>2026-05-07T09:05:55Z</time>
    </trkpt>
    <trkpt lat="50.482573" lon="16.338001">
      <ele>850</ele>
      <time>2026-05-07T09:06:14Z</time>
    </trkpt>
    <trkpt lat="50.48264" lon="16.337857">
      <ele>851</ele>
      <time>2026-05-07T09:06:45Z</time>
    </trkpt>
    <trkpt lat="50.482705" lon="16.337744">
      <ele>853</ele>
      <time>2026-05-07T09:07:11Z</time>
    </trkpt>
    <trkpt lat="50.482808" lon="16.33763">
      <ele>855</ele>
      <time>2026-05-07T09:07:46Z</time>
    </trkpt>
    <trkpt lat="50.482939" lon="16.337514">
      <ele>858</ele>
      <time>2026-05-07T09:08:27Z</time>
    </trkpt>
    <trkpt lat="50.483017" lon="16.337472">
      <ele>859</ele>
      <time>2026-05-07T09:08:50Z</time>
    </trkpt>
    <trkpt lat="50.483061" lon="16.337466">
      <ele>860</ele>
      <time>2026-05-07T09:09:02Z</time>
    </trkpt>
    <trkpt lat="50.483155" lon="16.337451">
      <ele>862</ele>
      <time>2026-05-07T09:09:28Z</time>
    </trkpt>
    <trkpt lat="50.483246" lon="16.337437">
      <ele>863</ele>
      <time>2026-05-07T09:09:53Z</time>
    </trkpt>
    <trkpt lat="50.483423" lon="16.337489">
      <ele>867</ele>
      <time>2026-05-07T09:10:42Z</time>
    </trkpt>
    <trkpt lat="50.48352" lon="16.337536">
      <ele>867</ele>
      <time>2026-05-07T09:11:10Z</time>
    </trkpt>
    <trkpt lat="50.483592" lon="16.337572">
      <ele>867</ele>
      <time>2026-05-07T09:11:30Z</time>
    </trkpt>
    <trkpt lat="50.483618" lon="16.337728">
      <ele>873</ele>
      <time>2026-05-07T09:11:55Z</time>
    </trkpt>
    <trkpt lat="50.483694" lon="16.337877">
      <ele>880</ele>
      <time>2026-05-07T09:12:25Z</time>
    </trkpt>
    <trkpt lat="50.483871" lon="16.338224">
      <ele>889</ele>
      <time>2026-05-07T09:13:29Z</time>
    </trkpt>
    <trkpt lat="50.48388" lon="16.338312">
      <ele>891</ele>
      <time>2026-05-07T09:13:41Z</time>
    </trkpt>
    <trkpt lat="50.483868" lon="16.338419">
      <ele>892</ele>
      <time>2026-05-07T09:13:56Z</time>
    </trkpt>
    <trkpt lat="50.483942" lon="16.33852">
      <ele>893</ele>
      <time>2026-05-07T09:14:18Z</time>
    </trkpt>
    <trkpt lat="50.48407" lon="16.338669">
      <ele>895</ele>
      <time>2026-05-07T09:14:53Z</time>
    </trkpt>
    <trkpt lat="50.484294" lon="16.338693">
      <ele>895</ele>
      <time>2026-05-07T09:15:41Z</time>
    </trkpt>
    <trkpt lat="50.484374" lon="16.338759">
      <ele>896</ele>
      <time>2026-05-07T09:16:01Z</time>
    </trkpt>
    <trkpt lat="50.484458" lon="16.338652">
      <ele>894</ele>
      <time>2026-05-07T09:16:24Z</time>
    </trkpt>
    <trkpt lat="50.484576" lon="16.338669">
      <ele>894</ele>
      <time>2026-05-07T09:16:50Z</time>
    </trkpt>
    <trkpt lat="50.484608" lon="16.338745">
      <ele>895</ele>
      <time>2026-05-07T09:17:03Z</time>
    </trkpt>
    <trkpt lat="50.484619" lon="16.33883">
      <ele>897</ele>
      <time>2026-05-07T09:17:16Z</time>
    </trkpt>
    <trkpt lat="50.484661" lon="16.338881">
      <ele>900</ele>
      <time>2026-05-07T09:17:28Z</time>
    </trkpt>
    <trkpt lat="50.484677" lon="16.338955">
      <ele>901</ele>
      <time>2026-05-07T09:17:39Z</time>
    </trkpt>
    <trkpt lat="50.484693" lon="16.339027">
      <ele>902</ele>
      <time>2026-05-07T09:17:50Z</time>
    </trkpt>
    <trkpt lat="50.484717" lon="16.339073">
      <ele>903</ele>
      <time>2026-05-07T09:17:58Z</time>
    </trkpt>
    <trkpt lat="50.484778" lon="16.339094">
      <ele>904</ele>
      <time>2026-05-07T09:18:12Z</time>
    </trkpt>
    <trkpt lat="50.484887" lon="16.339103">
      <ele>906</ele>
      <time>2026-05-07T09:18:36Z</time>
    </trkpt>
    <trkpt lat="50.484904" lon="16.339128">
      <ele>907</ele>
      <time>2026-05-07T09:18:41Z</time>
    </trkpt>
    <trkpt lat="50.484906" lon="16.339188">
      <ele>907</ele>
      <time>2026-05-07T09:18:49Z</time>
    </trkpt>
    <trkpt lat="50.484917" lon="16.339214">
      <ele>908</ele>
      <time>2026-05-07T09:18:54Z</time>
    </trkpt>
    <trkpt lat="50.484954" lon="16.339239">
      <ele>909</ele>
      <time>2026-05-07T09:19:03Z</time>
    </trkpt>
    <trkpt lat="50.484968" lon="16.339272">
      <ele>909</ele>
      <time>2026-05-07T09:19:08Z</time>
    </trkpt>
    <trkpt lat="50.484974" lon="16.33937">
      <ele>910</ele>
      <time>2026-05-07T09:19:22Z</time>
    </trkpt>
    <trkpt lat="50.484995" lon="16.339407">
      <ele>911</ele>
      <time>2026-05-07T09:19:29Z</time>
    </trkpt>
    <trkpt lat="50.485006" lon="16.339411">
      <ele>911</ele>
      <time>2026-05-07T09:19:31Z</time>
    </trkpt>
    <trkpt lat="50.48506" lon="16.339429">
      <ele>912</ele>
      <time>2026-05-07T09:19:44Z</time>
    </trkpt>
    <trkpt lat="50.485082" lon="16.339464">
      <ele>912</ele>
      <time>2026-05-07T09:19:50Z</time>
    </trkpt>
    <trkpt lat="50.485113" lon="16.339538">
      <ele>912</ele>
      <time>2026-05-07T09:20:03Z</time>
    </trkpt>
    <trkpt lat="50.485148" lon="16.339565">
      <ele>913</ele>
      <time>2026-05-07T09:20:11Z</time>
    </trkpt>
    <trkpt lat="50.485181" lon="16.339563">
      <ele>913</ele>
      <time>2026-05-07T09:20:18Z</time>
    </trkpt>
    <trkpt lat="50.48522" lon="16.339531">
      <ele>914</ele>
      <time>2026-05-07T09:20:28Z</time>
    </trkpt>
    <trkpt lat="50.48524" lon="16.339444">
      <ele>914</ele>
      <time>2026-05-07T09:20:41Z</time>
    </trkpt>
    <trkpt lat="50.485236" lon="16.339316">
      <ele>914</ele>
      <time>2026-05-07T09:20:58Z</time>
    </trkpt>
    <trkpt lat="50.485307" lon="16.339222">
      <ele>914</ele>
      <time>2026-05-07T09:21:19Z</time>
    </trkpt>
    <trkpt lat="50.485355" lon="16.339189">
      <ele>913</ele>
      <time>2026-05-07T09:21:30Z</time>
    </trkpt>
    <trkpt lat="50.485406" lon="16.339282">
      <ele>911</ele>
      <time>2026-05-07T09:21:38Z</time>
    </trkpt>
    <trkpt lat="50.485484" lon="16.339426">
      <ele>907</ele>
      <time>2026-05-07T09:21:51Z</time>
    </trkpt>
    <trkpt lat="50.485507" lon="16.339443">
      <ele>906</ele>
      <time>2026-05-07T09:21:54Z</time>
    </trkpt>
    <trkpt lat="50.485533" lon="16.339492">
      <ele>905</ele>
      <time>2026-05-07T09:21:59Z</time>
    </trkpt>
    <trkpt lat="50.485574" lon="16.339573">
      <ele>902</ele>
      <time>2026-05-07T09:22:06Z</time>
    </trkpt>
    <trkpt lat="50.485585" lon="16.339673">
      <ele>900</ele>
      <time>2026-05-07T09:22:13Z</time>
    </trkpt>
    <trkpt lat="50.485498" lon="16.339793">
      <ele>905</ele>
      <time>2026-05-07T09:22:26Z</time>
    </trkpt>
    <trkpt lat="50.485419" lon="16.33972">
      <ele>908</ele>
      <time>2026-05-07T09:22:36Z</time>
    </trkpt>
    <trkpt lat="50.485401" lon="16.339775">
      <ele>908</ele>
      <time>2026-05-07T09:22:40Z</time>
    </trkpt>
    <trkpt lat="50.4853" lon="16.339877">
      <ele>910</ele>
      <time>2026-05-07T09:22:53Z</time>
    </trkpt>
    <trkpt lat="50.485274" lon="16.339927">
      <ele>910</ele>
      <time>2026-05-07T09:22:57Z</time>
    </trkpt>
    <trkpt lat="50.485251" lon="16.339971">
      <ele>910</ele>
      <time>2026-05-07T09:23:01Z</time>
    </trkpt>
    <trkpt lat="50.48524" lon="16.340043">
      <ele>909</ele>
      <time>2026-05-07T09:23:06Z</time>
    </trkpt>
    <trkpt lat="50.485233" lon="16.340082">
      <ele>908</ele>
      <time>2026-05-07T09:23:08Z</time>
    </trkpt>
    <trkpt lat="50.485256" lon="16.340155">
      <ele>907</ele>
      <time>2026-05-07T09:23:14Z</time>
    </trkpt>
    <trkpt lat="50.485247" lon="16.340212">
      <ele>907</ele>
      <time>2026-05-07T09:23:18Z</time>
    </trkpt>
    <trkpt lat="50.485216" lon="16.340231">
      <ele>907</ele>
      <time>2026-05-07T09:23:21Z</time>
    </trkpt>
    <trkpt lat="50.48512" lon="16.340452">
      <ele>906</ele>
      <time>2026-05-07T09:23:39Z</time>
    </trkpt>
    <trkpt lat="50.485063" lon="16.340582">
      <ele>907</ele>
      <time>2026-05-07T09:23:50Z</time>
    </trkpt>
    <trkpt lat="50.485031" lon="16.340596">
      <ele>908</ele>
      <time>2026-05-07T09:23:53Z</time>
    </trkpt>
    <trkpt lat="50.485009" lon="16.34063">
      <ele>908</ele>
      <time>2026-05-07T09:23:57Z</time>
    </trkpt>
    <trkpt lat="50.48497" lon="16.340703">
      <ele>908</ele>
      <time>2026-05-07T09:24:03Z</time>
    </trkpt>
    <trkpt lat="50.484937" lon="16.340663">
      <ele>908</ele>
      <time>2026-05-07T09:24:07Z</time>
    </trkpt>
    <trkpt lat="50.484906" lon="16.340635">
      <ele>908</ele>
      <time>2026-05-07T09:24:11Z</time>
    </trkpt>
    <trkpt lat="50.484854" lon="16.34074">
      <ele>909</ele>
      <time>2026-05-07T09:24:20Z</time>
    </trkpt>
    <trkpt lat="50.484821" lon="16.340803">
      <ele>909</ele>
      <time>2026-05-07T09:24:25Z</time>
    </trkpt>
    <trkpt lat="50.484802" lon="16.340849">
      <ele>909</ele>
      <time>2026-05-07T09:24:29Z</time>
    </trkpt>
    <trkpt lat="50.484748" lon="16.340977">
      <ele>908</ele>
      <time>2026-05-07T09:24:39Z</time>
    </trkpt>
    <trkpt lat="50.484728" lon="16.341024">
      <ele>908</ele>
      <time>2026-05-07T09:24:43Z</time>
    </trkpt>
    <trkpt lat="50.484701" lon="16.341082">
      <ele>908</ele>
      <time>2026-05-07T09:24:48Z</time>
    </trkpt>
    <trkpt lat="50.484676" lon="16.341156">
      <ele>908</ele>
      <time>2026-05-07T09:24:53Z</time>
    </trkpt>
    <trkpt lat="50.484663" lon="16.341235">
      <ele>908</ele>
      <time>2026-05-07T09:24:59Z</time>
    </trkpt>
    <trkpt lat="50.484666" lon="16.341324">
      <ele>907</ele>
      <time>2026-05-07T09:25:05Z</time>
    </trkpt>
    <trkpt lat="50.484681" lon="16.341379">
      <ele>907</ele>
      <time>2026-05-07T09:25:09Z</time>
    </trkpt>
    <trkpt lat="50.484708" lon="16.341381">
      <ele>906</ele>
      <time>2026-05-07T09:25:11Z</time>
    </trkpt>
    <trkpt lat="50.484738" lon="16.341367">
      <ele>906</ele>
      <time>2026-05-07T09:25:15Z</time>
    </trkpt>
    <trkpt lat="50.484829" lon="16.341214">
      <ele>907</ele>
      <time>2026-05-07T09:25:29Z</time>
    </trkpt>
    <trkpt lat="50.484838" lon="16.341155">
      <ele>907</ele>
      <time>2026-05-07T09:25:33Z</time>
    </trkpt>
    <trkpt lat="50.484931" lon="16.341038">
      <ele>908</ele>
      <time>2026-05-07T09:25:45Z</time>
    </trkpt>
    <trkpt lat="50.484941" lon="16.341028">
      <ele>908</ele>
      <time>2026-05-07T09:25:46Z</time>
    </trkpt>
    <trkpt lat="50.484993" lon="16.34098">
      <ele>907</ele>
      <time>2026-05-07T09:25:53Z</time>
    </trkpt>
    <trkpt lat="50.48502" lon="16.340954">
      <ele>907</ele>
      <time>2026-05-07T09:25:56Z</time>
    </trkpt>
    <trkpt lat="50.48518" lon="16.340811">
      <ele>905</ele>
      <time>2026-05-07T09:26:15Z</time>
    </trkpt>
    <trkpt lat="50.485188" lon="16.340801">
      <ele>905</ele>
      <time>2026-05-07T09:26:16Z</time>
    </trkpt>
    <trkpt lat="50.485298" lon="16.340643">
      <ele>903</ele>
      <time>2026-05-07T09:26:32Z</time>
    </trkpt>
    <trkpt lat="50.485323" lon="16.340549">
      <ele>902</ele>
      <time>2026-05-07T09:26:39Z</time>
    </trkpt>
    <trkpt lat="50.48534" lon="16.340389">
      <ele>902</ele>
      <time>2026-05-07T09:26:50Z</time>
    </trkpt>
    <trkpt lat="50.485357" lon="16.340347">
      <ele>902</ele>
      <time>2026-05-07T09:26:53Z</time>
    </trkpt>
    <trkpt lat="50.485383" lon="16.340293">
      <ele>902</ele>
      <time>2026-05-07T09:26:57Z</time>
    </trkpt>
    <trkpt lat="50.485431" lon="16.340317">
      <ele>900</ele>
      <time>2026-05-07T09:27:03Z</time>
    </trkpt>
    <trkpt lat="50.48545" lon="16.340411">
      <ele>899</ele>
      <time>2026-05-07T09:27:10Z</time>
    </trkpt>
    <trkpt lat="50.485433" lon="16.340528">
      <ele>899</ele>
      <time>2026-05-07T09:27:18Z</time>
    </trkpt>
    <trkpt lat="50.485398" lon="16.340681">
      <ele>899</ele>
      <time>2026-05-07T09:27:28Z</time>
    </trkpt>
    <trkpt lat="50.485385" lon="16.340738">
      <ele>899</ele>
      <time>2026-05-07T09:27:32Z</time>
    </trkpt>
    <trkpt lat="50.485392" lon="16.340763">
      <ele>899</ele>
      <time>2026-05-07T09:27:34Z</time>
    </trkpt>
    <trkpt lat="50.485405" lon="16.340811">
      <ele>898</ele>
      <time>2026-05-07T09:27:38Z</time>
    </trkpt>
    <trkpt lat="50.485466" lon="16.3409">
      <ele>894</ele>
      <time>2026-05-07T09:27:47Z</time>
    </trkpt>
    <trkpt lat="50.4855" lon="16.341006">
      <ele>891</ele>
      <time>2026-05-07T09:27:56Z</time>
    </trkpt>
    <trkpt lat="50.485504" lon="16.34104">
      <ele>890</ele>
      <time>2026-05-07T09:27:58Z</time>
    </trkpt>
    <trkpt lat="50.485496" lon="16.341067">
      <ele>890</ele>
      <time>2026-05-07T09:28:00Z</time>
    </trkpt>
    <trkpt lat="50.485441" lon="16.341211">
      <ele>890</ele>
      <time>2026-05-07T09:28:11Z</time>
    </trkpt>
    <trkpt lat="50.485395" lon="16.341295">
      <ele>891</ele>
      <time>2026-05-07T09:28:19Z</time>
    </trkpt>
    <trkpt lat="50.485376" lon="16.341278">
      <ele>893</ele>
      <time>2026-05-07T09:28:21Z</time>
    </trkpt>
    <trkpt lat="50.485392" lon="16.341241">
      <ele>892</ele>
      <time>2026-05-07T09:28:24Z</time>
    </trkpt>
    <trkpt lat="50.485378" lon="16.341229">
      <ele>893</ele>
      <time>2026-05-07T09:28:26Z</time>
    </trkpt>
    <trkpt lat="50.485335" lon="16.341372">
      <ele>893</ele>
      <time>2026-05-07T09:28:37Z</time>
    </trkpt>
    <trkpt lat="50.485279" lon="16.341474">
      <ele>894</ele>
      <time>2026-05-07T09:28:46Z</time>
    </trkpt>
    <trkpt lat="50.485225" lon="16.341484">
      <ele>896</ele>
      <time>2026-05-07T09:28:52Z</time>
    </trkpt>
    <trkpt lat="50.485161" lon="16.341631">
      <ele>895</ele>
      <time>2026-05-07T09:29:03Z</time>
    </trkpt>
    <trkpt lat="50.485121" lon="16.341702">
      <ele>895</ele>
      <time>2026-05-07T09:29:10Z</time>
    </trkpt>
    <trkpt lat="50.485078" lon="16.34178">
      <ele>895</ele>
      <time>2026-05-07T09:29:17Z</time>
    </trkpt>
    <trkpt lat="50.48502" lon="16.341777">
      <ele>898</ele>
      <time>2026-05-07T09:29:23Z</time>
    </trkpt>
    <trkpt lat="50.484996" lon="16.341835">
      <ele>898</ele>
      <time>2026-05-07T09:29:28Z</time>
    </trkpt>
    <trkpt lat="50.484967" lon="16.341906">
      <ele>897</ele>
      <time>2026-05-07T09:29:33Z</time>
    </trkpt>
    <trkpt lat="50.485022" lon="16.341977">
      <ele>895</ele>
      <time>2026-05-07T09:29:41Z</time>
    </trkpt>
    <trkpt lat="50.485053" lon="16.342017">
      <ele>893</ele>
      <time>2026-05-07T09:29:46Z</time>
    </trkpt>
    <trkpt lat="50.485088" lon="16.34206">
      <ele>890</ele>
      <time>2026-05-07T09:29:51Z</time>
    </trkpt>
    <trkpt lat="50.485051" lon="16.342132">
      <ele>891</ele>
      <time>2026-05-07T09:29:57Z</time>
    </trkpt>
    <trkpt lat="50.48504" lon="16.342153">
      <ele>891</ele>
      <time>2026-05-07T09:29:59Z</time>
    </trkpt>
    <trkpt lat="50.485013" lon="16.342211">
      <ele>891</ele>
      <time>2026-05-07T09:30:04Z</time>
    </trkpt>
    <trkpt lat="50.484949" lon="16.342343">
      <ele>892</ele>
      <time>2026-05-07T09:30:15Z</time>
    </trkpt>
    <trkpt lat="50.484929" lon="16.342382">
      <ele>893</ele>
      <time>2026-05-07T09:30:18Z</time>
    </trkpt>
    <trkpt lat="50.484914" lon="16.34242">
      <ele>893</ele>
      <time>2026-05-07T09:30:21Z</time>
    </trkpt>
    <trkpt lat="50.484832" lon="16.342634">
      <ele>894</ele>
      <time>2026-05-07T09:30:37Z</time>
    </trkpt>
    <trkpt lat="50.484797" lon="16.342812">
      <ele>893</ele>
      <time>2026-05-07T09:30:50Z</time>
    </trkpt>
    <trkpt lat="50.484737" lon="16.342881">
      <ele>895</ele>
      <time>2026-05-07T09:30:58Z</time>
    </trkpt>
    <trkpt lat="50.484691" lon="16.342973">
      <ele>894</ele>
      <time>2026-05-07T09:31:06Z</time>
    </trkpt>
    <trkpt lat="50.484654" lon="16.343046">
      <ele>894</ele>
      <time>2026-05-07T09:31:12Z</time>
    </trkpt>
    <trkpt lat="50.484646" lon="16.343065">
      <ele>894</ele>
      <time>2026-05-07T09:31:13Z</time>
    </trkpt>
    <trkpt lat="50.484636" lon="16.343091">
      <ele>894</ele>
      <time>2026-05-07T09:31:15Z</time>
    </trkpt>
    <trkpt lat="50.484604" lon="16.343022">
      <ele>896</ele>
      <time>2026-05-07T09:31:21Z</time>
    </trkpt>
    <trkpt lat="50.484594" lon="16.343001">
      <ele>896</ele>
      <time>2026-05-07T09:31:23Z</time>
    </trkpt>
    <trkpt lat="50.484539" lon="16.342963">
      <ele>898</ele>
      <time>2026-05-07T09:31:30Z</time>
    </trkpt>
    <trkpt lat="50.484486" lon="16.342879">
      <ele>901</ele>
      <time>2026-05-07T09:31:38Z</time>
    </trkpt>
    <trkpt lat="50.484462" lon="16.342827">
      <ele>902</ele>
      <time>2026-05-07T09:31:42Z</time>
    </trkpt>
    <trkpt lat="50.484448" lon="16.342798">
      <ele>903</ele>
      <time>2026-05-07T09:31:45Z</time>
    </trkpt>
    <trkpt lat="50.484433" lon="16.342781">
      <ele>903</ele>
      <time>2026-05-07T09:31:47Z</time>
    </trkpt>
    <trkpt lat="50.484412" lon="16.342758">
      <ele>904</ele>
      <time>2026-05-07T09:31:49Z</time>
    </trkpt>
    <trkpt lat="50.484352" lon="16.342749">
      <ele>905</ele>
      <time>2026-05-07T09:31:56Z</time>
    </trkpt>
    <trkpt lat="50.484241" lon="16.342834">
      <ele>905</ele>
      <time>2026-05-07T09:32:09Z</time>
    </trkpt>
    <trkpt lat="50.484229" lon="16.342839">
      <ele>905</ele>
      <time>2026-05-07T09:32:10Z</time>
    </trkpt>
    <trkpt lat="50.484184" lon="16.342861">
      <ele>906</ele>
      <time>2026-05-07T09:32:15Z</time>
    </trkpt>
    <trkpt lat="50.484139" lon="16.342861">
      <ele>906</ele>
      <time>2026-05-07T09:32:20Z</time>
    </trkpt>
    <trkpt lat="50.484041" lon="16.342863">
      <ele>907</ele>
      <time>2026-05-07T09:32:30Z</time>
    </trkpt>
    <trkpt lat="50.483986" lon="16.342896">
      <ele>907</ele>
      <time>2026-05-07T09:32:36Z</time>
    </trkpt>
    <trkpt lat="50.483945" lon="16.342947">
      <ele>906</ele>
      <time>2026-05-07T09:32:42Z</time>
    </trkpt>
    <trkpt lat="50.483881" lon="16.343012">
      <ele>906</ele>
      <time>2026-05-07T09:32:49Z</time>
    </trkpt>
    <trkpt lat="50.483799" lon="16.343063">
      <ele>907</ele>
      <time>2026-05-07T09:32:59Z</time>
    </trkpt>
    <trkpt lat="50.483761" lon="16.343141">
      <ele>906</ele>
      <time>2026-05-07T09:33:05Z</time>
    </trkpt>
    <trkpt lat="50.483731" lon="16.343126">
      <ele>907</ele>
      <time>2026-05-07T09:33:09Z</time>
    </trkpt>
    <trkpt lat="50.483691" lon="16.343106">
      <ele>907</ele>
      <time>2026-05-07T09:33:13Z</time>
    </trkpt>
    <trkpt lat="50.483644" lon="16.343025">
      <ele>908</ele>
      <time>2026-05-07T09:33:20Z</time>
    </trkpt>
    <trkpt lat="50.483608" lon="16.343001">
      <ele>908</ele>
      <time>2026-05-07T09:33:24Z</time>
    </trkpt>
    <trkpt lat="50.483549" lon="16.343004">
      <ele>908</ele>
      <time>2026-05-07T09:33:31Z</time>
    </trkpt>
    <trkpt lat="50.483491" lon="16.34305">
      <ele>908</ele>
      <time>2026-05-07T09:33:37Z</time>
    </trkpt>
    <trkpt lat="50.483457" lon="16.343055">
      <ele>907</ele>
      <time>2026-05-07T09:33:41Z</time>
    </trkpt>
    <trkpt lat="50.483424" lon="16.343051">
      <ele>907</ele>
      <time>2026-05-07T09:33:44Z</time>
    </trkpt>
    <trkpt lat="50.483388" lon="16.343045">
      <ele>907</ele>
      <time>2026-05-07T09:33:48Z</time>
    </trkpt>
    <trkpt lat="50.483349" lon="16.343053">
      <ele>907</ele>
      <time>2026-05-07T09:33:52Z</time>
    </trkpt>
    <trkpt lat="50.483313" lon="16.343082">
      <ele>907</ele>
      <time>2026-05-07T09:33:56Z</time>
    </trkpt>
    <trkpt lat="50.483289" lon="16.343117">
      <ele>907</ele>
      <time>2026-05-07T09:34:00Z</time>
    </trkpt>
    <trkpt lat="50.483265" lon="16.343177">
      <ele>907</ele>
      <time>2026-05-07T09:34:05Z</time>
    </trkpt>
    <trkpt lat="50.483251" lon="16.343212">
      <ele>907</ele>
      <time>2026-05-07T09:34:07Z</time>
    </trkpt>
    <trkpt lat="50.483209" lon="16.343294">
      <ele>906</ele>
      <time>2026-05-07T09:34:14Z</time>
    </trkpt>
    <trkpt lat="50.483127" lon="16.343463">
      <ele>906</ele>
      <time>2026-05-07T09:34:28Z</time>
    </trkpt>
    <trkpt lat="50.483105" lon="16.343517">
      <ele>906</ele>
      <time>2026-05-07T09:34:33Z</time>
    </trkpt>
    <trkpt lat="50.48305" lon="16.343597">
      <ele>906</ele>
      <time>2026-05-07T09:34:41Z</time>
    </trkpt>
    <trkpt lat="50.483018" lon="16.343618">
      <ele>906</ele>
      <time>2026-05-07T09:34:44Z</time>
    </trkpt>
    <trkpt lat="50.482983" lon="16.343646">
      <ele>905</ele>
      <time>2026-05-07T09:34:48Z</time>
    </trkpt>
    <trkpt lat="50.482954" lon="16.343717">
      <ele>905</ele>
      <time>2026-05-07T09:34:54Z</time>
    </trkpt>
    <trkpt lat="50.482951" lon="16.343824">
      <ele>905</ele>
      <time>2026-05-07T09:35:01Z</time>
    </trkpt>
    <trkpt lat="50.482954" lon="16.343846">
      <ele>905</ele>
      <time>2026-05-07T09:35:03Z</time>
    </trkpt>
    <trkpt lat="50.482949" lon="16.343903">
      <ele>905</ele>
      <time>2026-05-07T09:35:06Z</time>
    </trkpt>
    <trkpt lat="50.482947" lon="16.343968">
      <ele>904</ele>
      <time>2026-05-07T09:35:11Z</time>
    </trkpt>
    <trkpt lat="50.482967" lon="16.344051">
      <ele>904</ele>
      <time>2026-05-07T09:35:17Z</time>
    </trkpt>
    <trkpt lat="50.482966" lon="16.344076">
      <ele>904</ele>
      <time>2026-05-07T09:35:18Z</time>
    </trkpt>
    <trkpt lat="50.482962" lon="16.344097">
      <ele>904</ele>
      <time>2026-05-07T09:35:20Z</time>
    </trkpt>
    <trkpt lat="50.482954" lon="16.34412">
      <ele>904</ele>
      <time>2026-05-07T09:35:21Z</time>
    </trkpt>
    <trkpt lat="50.482934" lon="16.344143">
      <ele>904</ele>
      <time>2026-05-07T09:35:24Z</time>
    </trkpt>
    <trkpt lat="50.482909" lon="16.344144">
      <ele>904</ele>
      <time>2026-05-07T09:35:27Z</time>
    </trkpt>
    <trkpt lat="50.482872" lon="16.344127">
      <ele>903</ele>
      <time>2026-05-07T09:35:31Z</time>
    </trkpt>
    <trkpt lat="50.482806" lon="16.344121">
      <ele>903</ele>
      <time>2026-05-07T09:35:38Z</time>
    </trkpt>
    <trkpt lat="50.482753" lon="16.344138">
      <ele>903</ele>
      <time>2026-05-07T09:35:43Z</time>
    </trkpt>
    <trkpt lat="50.482686" lon="16.344148">
      <ele>901</ele>
      <time>2026-05-07T09:35:50Z</time>
    </trkpt>
    <trkpt lat="50.482622" lon="16.344221">
      <ele>900</ele>
      <time>2026-05-07T09:35:59Z</time>
    </trkpt>
    <trkpt lat="50.482588" lon="16.34424">
      <ele>899</ele>
      <time>2026-05-07T09:36:03Z</time>
    </trkpt>
    <trkpt lat="50.482574" lon="16.344289">
      <ele>899</ele>
      <time>2026-05-07T09:36:06Z</time>
    </trkpt>
    <trkpt lat="50.482534" lon="16.344416">
      <ele>898</ele>
      <time>2026-05-07T09:36:16Z</time>
    </trkpt>
    <trkpt lat="50.482464" lon="16.344473">
      <ele>897</ele>
      <time>2026-05-07T09:36:24Z</time>
    </trkpt>
    <trkpt lat="50.482409" lon="16.344489">
      <ele>895</ele>
      <time>2026-05-07T09:36:30Z</time>
    </trkpt>
    <trkpt lat="50.482349" lon="16.344395">
      <ele>893</ele>
      <time>2026-05-07T09:36:36Z</time>
    </trkpt>
    <trkpt lat="50.482328" lon="16.344308">
      <ele>891</ele>
      <time>2026-05-07T09:36:40Z</time>
    </trkpt>
    <trkpt lat="50.482305" lon="16.344223">
      <ele>890</ele>
      <time>2026-05-07T09:36:44Z</time>
    </trkpt>
    <trkpt lat="50.482286" lon="16.344034">
      <ele>887</ele>
      <time>2026-05-07T09:36:53Z</time>
    </trkpt>
    <trkpt lat="50.482285" lon="16.343898">
      <ele>886</ele>
      <time>2026-05-07T09:36:58Z</time>
    </trkpt>
    <trkpt lat="50.482311" lon="16.343828">
      <ele>887</ele>
      <time>2026-05-07T09:37:02Z</time>
    </trkpt>
    <trkpt lat="50.482358" lon="16.343773">
      <ele>888</ele>
      <time>2026-05-07T09:37:06Z</time>
    </trkpt>
    <trkpt lat="50.482365" lon="16.343721">
      <ele>888</ele>
      <time>2026-05-07T09:37:08Z</time>
    </trkpt>
    <trkpt lat="50.482359" lon="16.343632">
      <ele>887</ele>
      <time>2026-05-07T09:37:12Z</time>
    </trkpt>
    <trkpt lat="50.482325" lon="16.343573">
      <ele>885</ele>
      <time>2026-05-07T09:37:16Z</time>
    </trkpt>
    <trkpt lat="50.482274" lon="16.343565">
      <ele>883</ele>
      <time>2026-05-07T09:37:20Z</time>
    </trkpt>
    <trkpt lat="50.482232" lon="16.343594">
      <ele>881</ele>
      <time>2026-05-07T09:37:23Z</time>
    </trkpt>
    <trkpt lat="50.482192" lon="16.343657">
      <ele>880</ele>
      <time>2026-05-07T09:37:27Z</time>
    </trkpt>
    <trkpt lat="50.482162" lon="16.343692">
      <ele>878</ele>
      <time>2026-05-07T09:37:30Z</time>
    </trkpt>
    <trkpt lat="50.482135" lon="16.343724">
      <ele>877</ele>
      <time>2026-05-07T09:37:32Z</time>
    </trkpt>
    <trkpt lat="50.482088" lon="16.343732">
      <ele>875</ele>
      <time>2026-05-07T09:37:36Z</time>
    </trkpt>
    <trkpt lat="50.482031" lon="16.343742">
      <ele>872</ele>
      <time>2026-05-07T09:37:40Z</time>
    </trkpt>
    <trkpt lat="50.481977" lon="16.343737">
      <ele>869</ele>
      <time>2026-05-07T09:37:44Z</time>
    </trkpt>
    <trkpt lat="50.481921" lon="16.3437">
      <ele>866</ele>
      <time>2026-05-07T09:37:49Z</time>
    </trkpt>
    <trkpt lat="50.481864" lon="16.343668">
      <ele>862</ele>
      <time>2026-05-07T09:37:53Z</time>
    </trkpt>
    <trkpt lat="50.481802" lon="16.343665">
      <ele>858</ele>
      <time>2026-05-07T09:37:58Z</time>
    </trkpt>
    <trkpt lat="50.481751" lon="16.343687">
      <ele>855</ele>
      <time>2026-05-07T09:38:02Z</time>
    </trkpt>
    <trkpt lat="50.481704" lon="16.34366">
      <ele>852</ele>
      <time>2026-05-07T09:38:06Z</time>
    </trkpt>
    <trkpt lat="50.481644" lon="16.343613">
      <ele>848</ele>
      <time>2026-05-07T09:38:11Z</time>
    </trkpt>
    <trkpt lat="50.481624" lon="16.343574">
      <ele>846</ele>
      <time>2026-05-07T09:38:14Z</time>
    </trkpt>
    <trkpt lat="50.481602" lon="16.343528">
      <ele>845</ele>
      <time>2026-05-07T09:38:16Z</time>
    </trkpt>
    <trkpt lat="50.481601" lon="16.343501">
      <ele>844</ele>
      <time>2026-05-07T09:38:17Z</time>
    </trkpt>
    <trkpt lat="50.4816" lon="16.343443">
      <ele>843</ele>
      <time>2026-05-07T09:38:20Z</time>
    </trkpt>
    <trkpt lat="50.481593" lon="16.343322">
      <ele>841</ele>
      <time>2026-05-07T09:38:25Z</time>
    </trkpt>
    <trkpt lat="50.481587" lon="16.343228">
      <ele>840</ele>
      <time>2026-05-07T09:38:30Z</time>
    </trkpt>
    <trkpt lat="50.481582" lon="16.343142">
      <ele>838</ele>
      <time>2026-05-07T09:38:33Z</time>
    </trkpt>
    <trkpt lat="50.481548" lon="16.343015">
      <ele>835</ele>
      <time>2026-05-07T09:38:40Z</time>
    </trkpt>
    <trkpt lat="50.481514" lon="16.342883">
      <ele>832</ele>
      <time>2026-05-07T09:38:46Z</time>
    </trkpt>
    <trkpt lat="50.481556" lon="16.342672">
      <ele>832</ele>
      <time>2026-05-07T09:38:56Z</time>
    </trkpt>
    <trkpt lat="50.481618" lon="16.342403">
      <ele>832</ele>
      <time>2026-05-07T09:39:08Z</time>
    </trkpt>
    <trkpt lat="50.481635" lon="16.342308">
      <ele>832</ele>
      <time>2026-05-07T09:39:12Z</time>
    </trkpt>
    <trkpt lat="50.481644" lon="16.342235">
      <ele>831</ele>
      <time>2026-05-07T09:39:16Z</time>
    </trkpt>
    <trkpt lat="50.481646" lon="16.342138">
      <ele>831</ele>
      <time>2026-05-07T09:39:20Z</time>
    </trkpt>
    <trkpt lat="50.481653" lon="16.342095">
      <ele>831</ele>
      <time>2026-05-07T09:39:22Z</time>
    </trkpt>
    <trkpt lat="50.481663" lon="16.342069">
      <ele>831</ele>
      <time>2026-05-07T09:39:23Z</time>
    </trkpt>
    <trkpt lat="50.481664" lon="16.342025">
      <ele>830</ele>
      <time>2026-05-07T09:39:25Z</time>
    </trkpt>
    <trkpt lat="50.481659" lon="16.341949">
      <ele>830</ele>
      <time>2026-05-07T09:39:28Z</time>
    </trkpt>
    <trkpt lat="50.48169" lon="16.341819">
      <ele>831</ele>
      <time>2026-05-07T09:39:34Z</time>
    </trkpt>
    <trkpt lat="50.481729" lon="16.341631">
      <ele>831</ele>
      <time>2026-05-07T09:39:43Z</time>
    </trkpt>
    <trkpt lat="50.481759" lon="16.341535">
      <ele>832</ele>
      <time>2026-05-07T09:39:47Z</time>
    </trkpt>
    <trkpt lat="50.481778" lon="16.341427">
      <ele>831</ele>
      <time>2026-05-07T09:39:52Z</time>
    </trkpt>
    <trkpt lat="50.481787" lon="16.341338">
      <ele>831</ele>
      <time>2026-05-07T09:39:56Z</time>
    </trkpt>
    <trkpt lat="50.481733" lon="16.341175">
      <ele>827</ele>
      <time>2026-05-07T09:40:04Z</time>
    </trkpt>
    <trkpt lat="50.481671" lon="16.340935">
      <ele>823</ele>
      <time>2026-05-07T09:40:16Z</time>
    </trkpt>
    <trkpt lat="50.481607" lon="16.340718">
      <ele>819</ele>
      <time>2026-05-07T09:40:26Z</time>
    </trkpt>
    <trkpt lat="50.481588" lon="16.340549">
      <ele>818</ele>
      <time>2026-05-07T09:40:34Z</time>
    </trkpt>
    <trkpt lat="50.481578" lon="16.340459">
      <ele>817</ele>
      <time>2026-05-07T09:40:38Z</time>
    </trkpt>
    <trkpt lat="50.481518" lon="16.340294">
      <ele>814</ele>
      <time>2026-05-07T09:40:46Z</time>
    </trkpt>
    <trkpt lat="50.481222" lon="16.340107">
      <ele>803</ele>
      <time>2026-05-07T09:41:09Z</time>
    </trkpt>
    <trkpt lat="50.481144" lon="16.340018">
      <ele>801</ele>
      <time>2026-05-07T09:41:16Z</time>
    </trkpt>
    <trkpt lat="50.48106" lon="16.339907">
      <ele>798</ele>
      <time>2026-05-07T09:41:23Z</time>
    </trkpt>
    <trkpt lat="50.480985" lon="16.339809">
      <ele>796</ele>
      <time>2026-05-07T09:41:30Z</time>
    </trkpt>
    <trkpt lat="50.48089" lon="16.339822">
      <ele>793</ele>
      <time>2026-05-07T09:42:04Z</time>
    </trkpt>
    <trkpt lat="50.480817" lon="16.339848">
      <ele>790</ele>
      <time>2026-05-07T09:42:30Z</time>
    </trkpt>
    <trkpt lat="50.480716" lon="16.339891">
      <ele>787</ele>
      <time>2026-05-07T09:42:42Z</time>
    </trkpt>
    <trkpt lat="50.480591" lon="16.339916">
      <ele>784</ele>
      <time>2026-05-07T09:42:57Z</time>
    </trkpt>
    <trkpt lat="50.480386" lon="16.339902">
      <ele>780</ele>
      <time>2026-05-07T09:43:20Z</time>
    </trkpt>
    <trkpt lat="50.480227" lon="16.339896">
      <ele>777</ele>
      <time>2026-05-07T09:43:39Z</time>
    </trkpt>
    <trkpt lat="50.480081" lon="16.339939">
      <ele>774</ele>
      <time>2026-05-07T09:43:56Z</time>
    </trkpt>
    <trkpt lat="50.480051" lon="16.339948">
      <ele>774</ele>
      <time>2026-05-07T09:43:59Z</time>
    </trkpt>
    <trkpt lat="50.48003" lon="16.339954">
      <ele>773</ele>
      <time>2026-05-07T09:44:02Z</time>
    </trkpt>
    <trkpt lat="50.48002" lon="16.339957">
      <ele>773</ele>
      <time>2026-05-07T09:44:03Z</time>
    </trkpt>
    <trkpt lat="50.479981" lon="16.339968">
      <ele>772</ele>
      <time>2026-05-07T09:44:08Z</time>
    </trkpt>
    <trkpt lat="50.479865" lon="16.340002">
      <ele>769</ele>
      <time>2026-05-07T09:44:21Z</time>
    </trkpt>
    <trkpt lat="50.479534" lon="16.34019">
      <ele>765</ele>
      <time>2026-05-07T09:45:02Z</time>
    </trkpt>
    <trkpt lat="50.479212" lon="16.340249">
      <ele>763</ele>
      <time>2026-05-07T09:45:38Z</time>
    </trkpt>
    <trkpt lat="50.479061" lon="16.340291">
      <ele>763</ele>
      <time>2026-05-07T09:45:56Z</time>
    </trkpt>
    <trkpt lat="50.478724" lon="16.340429">
      <ele>762</ele>
      <time>2026-05-07T09:46:35Z</time>
    </trkpt>
    <trkpt lat="50.478229" lon="16.340369">
      <ele>757</ele>
      <time>2026-05-07T09:47:32Z</time>
    </trkpt>
    <trkpt lat="50.478068" lon="16.340349">
      <ele>756</ele>
      <time>2026-05-07T09:47:50Z</time>
    </trkpt>
    <trkpt lat="50.477995" lon="16.34033">
      <ele>757</ele>
      <time>2026-05-07T09:47:58Z</time>
    </trkpt>
    <trkpt lat="50.477813" lon="16.34029">
      <ele>758</ele>
      <time>2026-05-07T09:48:19Z</time>
    </trkpt>
    <trkpt lat="50.477636" lon="16.34032">
      <ele>759</ele>
      <time>2026-05-07T09:48:40Z</time>
    </trkpt>
    <trkpt lat="50.477423" lon="16.340324">
      <ele>759</ele>
      <time>2026-05-07T09:49:04Z</time>
    </trkpt>
    <trkpt lat="50.477099" lon="16.340068">
      <ele>758</ele>
      <time>2026-05-07T09:49:45Z</time>
    </trkpt>
    <trkpt lat="50.476616" lon="16.339641">
      <ele>757</ele>
      <time>2026-05-07T09:50:48Z</time>
    </trkpt>
    <trkpt lat="50.47645" lon="16.33944">
      <ele>757</ele>
      <time>2026-05-07T09:51:11Z</time>
    </trkpt>
    <trkpt lat="50.47628" lon="16.339234">
      <ele>756</ele>
      <time>2026-05-07T09:51:36Z</time>
    </trkpt>
    <trkpt lat="50.476088" lon="16.339002">
      <ele>756</ele>
      <time>2026-05-07T09:52:03Z</time>
    </trkpt>
    <trkpt lat="50.47595" lon="16.33879">
      <ele>755</ele>
      <time>2026-05-07T09:52:25Z</time>
    </trkpt>
    <trkpt lat="50.475917" lon="16.338747">
      <ele>755</ele>
      <time>2026-05-07T09:52:30Z</time>
    </trkpt>
    <trkpt lat="50.475885" lon="16.338703">
      <ele>755</ele>
      <time>2026-05-07T09:52:35Z</time>
    </trkpt>
    <trkpt lat="50.47584" lon="16.338675">
      <ele>755</ele>
      <time>2026-05-07T09:52:42Z</time>
    </trkpt>
    <trkpt lat="50.475795" lon="16.338666">
      <ele>756</ele>
      <time>2026-05-07T09:52:48Z</time>
    </trkpt>
    <trkpt lat="50.47575" lon="16.33867">
      <ele>756</ele>
      <time>2026-05-07T09:52:53Z</time>
    </trkpt>
    <trkpt lat="50.475691" lon="16.338704">
      <ele>756</ele>
      <time>2026-05-07T09:53:02Z</time>
    </trkpt>
    <trkpt lat="50.475658" lon="16.338596">
      <ele>755</ele>
      <time>2026-05-07T09:53:11Z</time>
    </trkpt>
    <trkpt lat="50.475551" lon="16.338332">
      <ele>754</ele>
      <time>2026-05-07T09:53:37Z</time>
    </trkpt>
    <trkpt lat="50.475431" lon="16.338073">
      <ele>753</ele>
      <time>2026-05-07T09:54:04Z</time>
    </trkpt>
    <trkpt lat="50.475416" lon="16.338042">
      <ele>752</ele>
      <time>2026-05-07T09:54:07Z</time>
    </trkpt>
    <trkpt lat="50.475372" lon="16.337952">
      <ele>753</ele>
      <time>2026-05-07T09:54:16Z</time>
    </trkpt>
    <trkpt lat="50.475307" lon="16.337819">
      <ele>753</ele>
      <time>2026-05-07T09:54:30Z</time>
    </trkpt>
  </trkseg>
</trk>
</gpx>