<?xml version="1.0" encoding="UTF-8"?><gpx creator="https://mapa-turystyczna.pl" xmlns="http://www.topografix.com/GPX/1/1" version="1.1" xmlns:xsi="http://www.w3.org/2001/XMLSchema-instance" xsi:schemaLocation="http://www.topografix.com/GPX/1/1 http://www.topografix.com/GPX/1/1/gpx.xsd">
  <metadata>
    <link href="https://mapa-turystyczna.pl">
      <text>mapa-turystyczna.pl</text>
    </link>
    <time>2026-05-07T08:43:32Z</time>
    <bounds maxlat="50.284502" maxlon="17.432277" minlat="50.256755" minlon="17.426091"/>
  </metadata>

<trk>
  <name>Jarnołtówek – Jarnołtówek</name>
  <link href="https://mapa-turystyczna.pl/route/s4t2">
    <text>Jarnołtówek – Jarnołtówek</text>
  </link>
  <trkseg>
    <trkpt lat="50.284502" lon="17.426091">
      <ele>357</ele>
      <time>2026-05-07T08:43:32Z</time>
    </trkpt>
    <trkpt lat="50.284453" lon="17.426127">
      <ele>357</ele>
      <time>2026-05-07T08:43:39Z</time>
    </trkpt>
    <trkpt lat="50.28439" lon="17.426159">
      <ele>357</ele>
      <time>2026-05-07T08:43:48Z</time>
    </trkpt>
    <trkpt lat="50.284314" lon="17.426164">
      <ele>357</ele>
      <time>2026-05-07T08:43:57Z</time>
    </trkpt>
    <trkpt lat="50.284068" lon="17.426289">
      <ele>358</ele>
      <time>2026-05-07T08:44:31Z</time>
    </trkpt>
    <trkpt lat="50.284054" lon="17.426304">
      <ele>358</ele>
      <time>2026-05-07T08:44:33Z</time>
    </trkpt>
    <trkpt lat="50.284007" lon="17.426355">
      <ele>358</ele>
      <time>2026-05-07T08:44:41Z</time>
    </trkpt>
    <trkpt lat="50.283868" lon="17.426543">
      <ele>360</ele>
      <time>2026-05-07T08:45:04Z</time>
    </trkpt>
    <trkpt lat="50.283829" lon="17.426582">
      <ele>360</ele>
      <time>2026-05-07T08:45:10Z</time>
    </trkpt>
    <trkpt lat="50.283596" lon="17.426758">
      <ele>361</ele>
      <time>2026-05-07T08:45:44Z</time>
    </trkpt>
    <trkpt lat="50.283404" lon="17.426883">
      <ele>361</ele>
      <time>2026-05-07T08:46:11Z</time>
    </trkpt>
    <trkpt lat="50.283305" lon="17.426961">
      <ele>361</ele>
      <time>2026-05-07T08:46:25Z</time>
    </trkpt>
    <trkpt lat="50.28325" lon="17.427015">
      <ele>362</ele>
      <time>2026-05-07T08:46:34Z</time>
    </trkpt>
    <trkpt lat="50.283067" lon="17.427192">
      <ele>364</ele>
      <time>2026-05-07T08:47:01Z</time>
    </trkpt>
    <trkpt lat="50.282896" lon="17.427384">
      <ele>365</ele>
      <time>2026-05-07T08:47:29Z</time>
    </trkpt>
    <trkpt lat="50.282504" lon="17.427825">
      <ele>366</ele>
      <time>2026-05-07T08:48:31Z</time>
    </trkpt>
    <trkpt lat="50.282208" lon="17.4281">
      <ele>367</ele>
      <time>2026-05-07T08:49:16Z</time>
    </trkpt>
    <trkpt lat="50.281999" lon="17.428294">
      <ele>369</ele>
      <time>2026-05-07T08:49:47Z</time>
    </trkpt>
    <trkpt lat="50.281569" lon="17.428695">
      <ele>371</ele>
      <time>2026-05-07T08:50:52Z</time>
    </trkpt>
    <trkpt lat="50.281537" lon="17.428724">
      <ele>372</ele>
      <time>2026-05-07T08:50:57Z</time>
    </trkpt>
    <trkpt lat="50.281481" lon="17.428734">
      <ele>372</ele>
      <time>2026-05-07T08:51:04Z</time>
    </trkpt>
    <trkpt lat="50.281225" lon="17.428781">
      <ele>374</ele>
      <time>2026-05-07T08:51:38Z</time>
    </trkpt>
    <trkpt lat="50.281115" lon="17.428898">
      <ele>375</ele>
      <time>2026-05-07T08:51:55Z</time>
    </trkpt>
    <trkpt lat="50.280987" lon="17.429069">
      <ele>376</ele>
      <time>2026-05-07T08:52:17Z</time>
    </trkpt>
    <trkpt lat="50.279662" lon="17.431012">
      <ele>388</ele>
      <time>2026-05-07T08:56:12Z</time>
    </trkpt>
    <trkpt lat="50.279313" lon="17.431446">
      <ele>391</ele>
      <time>2026-05-07T08:57:10Z</time>
    </trkpt>
    <trkpt lat="50.278992" lon="17.431887">
      <ele>394</ele>
      <time>2026-05-07T08:58:05Z</time>
    </trkpt>
    <trkpt lat="50.27893" lon="17.431965">
      <ele>396</ele>
      <time>2026-05-07T08:58:16Z</time>
    </trkpt>
    <trkpt lat="50.278833" lon="17.432071">
      <ele>400</ele>
      <time>2026-05-07T08:58:32Z</time>
    </trkpt>
    <trkpt lat="50.278848" lon="17.431856">
      <ele>396</ele>
      <time>2026-05-07T08:59:01Z</time>
    </trkpt>
    <trkpt lat="50.278903" lon="17.431604">
      <ele>394</ele>
      <time>2026-05-07T08:59:37Z</time>
    </trkpt>
    <trkpt lat="50.278929" lon="17.431395">
      <ele>394</ele>
      <time>2026-05-07T09:00:05Z</time>
    </trkpt>
    <trkpt lat="50.278926" lon="17.430963">
      <ele>395</ele>
      <time>2026-05-07T09:01:02Z</time>
    </trkpt>
    <trkpt lat="50.278895" lon="17.430327">
      <ele>401</ele>
      <time>2026-05-07T09:02:26Z</time>
    </trkpt>
    <trkpt lat="50.278879" lon="17.430078">
      <ele>402</ele>
      <time>2026-05-07T09:02:59Z</time>
    </trkpt>
    <trkpt lat="50.278864" lon="17.42985">
      <ele>402</ele>
      <time>2026-05-07T09:03:29Z</time>
    </trkpt>
    <trkpt lat="50.278852" lon="17.42959">
      <ele>402</ele>
      <time>2026-05-07T09:04:04Z</time>
    </trkpt>
    <trkpt lat="50.278759" lon="17.429544">
      <ele>405</ele>
      <time>2026-05-07T09:04:24Z</time>
    </trkpt>
    <trkpt lat="50.278699" lon="17.429493">
      <ele>406</ele>
      <time>2026-05-07T09:04:39Z</time>
    </trkpt>
    <trkpt lat="50.278633" lon="17.42948">
      <ele>409</ele>
      <time>2026-05-07T09:04:53Z</time>
    </trkpt>
    <trkpt lat="50.278581" lon="17.429496">
      <ele>410</ele>
      <time>2026-05-07T09:05:04Z</time>
    </trkpt>
    <trkpt lat="50.278511" lon="17.429576">
      <ele>413</ele>
      <time>2026-05-07T09:05:23Z</time>
    </trkpt>
    <trkpt lat="50.278418" lon="17.429716">
      <ele>417</ele>
      <time>2026-05-07T09:05:50Z</time>
    </trkpt>
    <trkpt lat="50.278261" lon="17.429844">
      <ele>421</ele>
      <time>2026-05-07T09:06:27Z</time>
    </trkpt>
    <trkpt lat="50.27813" lon="17.429909">
      <ele>424</ele>
      <time>2026-05-07T09:06:56Z</time>
    </trkpt>
    <trkpt lat="50.277993" lon="17.42996">
      <ele>426</ele>
      <time>2026-05-07T09:07:25Z</time>
    </trkpt>
    <trkpt lat="50.277683" lon="17.430075">
      <ele>429</ele>
      <time>2026-05-07T09:08:31Z</time>
    </trkpt>
    <trkpt lat="50.277431" lon="17.430169">
      <ele>431</ele>
      <time>2026-05-07T09:09:25Z</time>
    </trkpt>
    <trkpt lat="50.277275" lon="17.430223">
      <ele>433</ele>
      <time>2026-05-07T09:09:58Z</time>
    </trkpt>
    <trkpt lat="50.277155" lon="17.430322">
      <ele>433</ele>
      <time>2026-05-07T09:10:26Z</time>
    </trkpt>
    <trkpt lat="50.276946" lon="17.430542">
      <ele>435</ele>
      <time>2026-05-07T09:11:18Z</time>
    </trkpt>
    <trkpt lat="50.276814" lon="17.430724">
      <ele>436</ele>
      <time>2026-05-07T09:11:54Z</time>
    </trkpt>
    <trkpt lat="50.276708" lon="17.430866">
      <ele>437</ele>
      <time>2026-05-07T09:12:23Z</time>
    </trkpt>
    <trkpt lat="50.276594" lon="17.430976">
      <ele>439</ele>
      <time>2026-05-07T09:12:50Z</time>
    </trkpt>
    <trkpt lat="50.276459" lon="17.431033">
      <ele>442</ele>
      <time>2026-05-07T09:13:20Z</time>
    </trkpt>
    <trkpt lat="50.276343" lon="17.431081">
      <ele>444</ele>
      <time>2026-05-07T09:13:45Z</time>
    </trkpt>
    <trkpt lat="50.276178" lon="17.431112">
      <ele>447</ele>
      <time>2026-05-07T09:14:19Z</time>
    </trkpt>
    <trkpt lat="50.275777" lon="17.431129">
      <ele>456</ele>
      <time>2026-05-07T09:15:43Z</time>
    </trkpt>
    <trkpt lat="50.275377" lon="17.431127">
      <ele>468</ele>
      <time>2026-05-07T09:17:09Z</time>
    </trkpt>
    <trkpt lat="50.275141" lon="17.431159">
      <ele>473</ele>
      <time>2026-05-07T09:17:59Z</time>
    </trkpt>
    <trkpt lat="50.274983" lon="17.431231">
      <ele>476</ele>
      <time>2026-05-07T09:18:33Z</time>
    </trkpt>
    <trkpt lat="50.274742" lon="17.431392">
      <ele>480</ele>
      <time>2026-05-07T09:19:27Z</time>
    </trkpt>
    <trkpt lat="50.274522" lon="17.431566">
      <ele>484</ele>
      <time>2026-05-07T09:20:18Z</time>
    </trkpt>
    <trkpt lat="50.274172" lon="17.431797">
      <ele>489</ele>
      <time>2026-05-07T09:21:37Z</time>
    </trkpt>
    <trkpt lat="50.273859" lon="17.431986">
      <ele>491</ele>
      <time>2026-05-07T09:22:46Z</time>
    </trkpt>
    <trkpt lat="50.273574" lon="17.43217">
      <ele>494</ele>
      <time>2026-05-07T09:23:50Z</time>
    </trkpt>
    <trkpt lat="50.273473" lon="17.43225">
      <ele>495</ele>
      <time>2026-05-07T09:24:13Z</time>
    </trkpt>
    <trkpt lat="50.273368" lon="17.432277">
      <ele>496</ele>
      <time>2026-05-07T09:24:35Z</time>
    </trkpt>
    <trkpt lat="50.27331" lon="17.432272">
      <ele>497</ele>
      <time>2026-05-07T09:24:47Z</time>
    </trkpt>
    <trkpt lat="50.273262" lon="17.432226">
      <ele>498</ele>
      <time>2026-05-07T09:24:59Z</time>
    </trkpt>
    <trkpt lat="50.273183" lon="17.432103">
      <ele>500</ele>
      <time>2026-05-07T09:25:22Z</time>
    </trkpt>
    <trkpt lat="50.272975" lon="17.431721">
      <ele>505</ele>
      <time>2026-05-07T09:26:29Z</time>
    </trkpt>
    <trkpt lat="50.272887" lon="17.43154">
      <ele>508</ele>
      <time>2026-05-07T09:26:59Z</time>
    </trkpt>
    <trkpt lat="50.272765" lon="17.431371">
      <ele>511</ele>
      <time>2026-05-07T09:27:33Z</time>
    </trkpt>
    <trkpt lat="50.272541" lon="17.431121">
      <ele>518</ele>
      <time>2026-05-07T09:28:31Z</time>
    </trkpt>
    <trkpt lat="50.272357" lon="17.430968">
      <ele>524</ele>
      <time>2026-05-07T09:29:16Z</time>
    </trkpt>
    <trkpt lat="50.27229" lon="17.430941">
      <ele>526</ele>
      <time>2026-05-07T09:29:30Z</time>
    </trkpt>
    <trkpt lat="50.27218" lon="17.430901">
      <ele>529</ele>
      <time>2026-05-07T09:29:54Z</time>
    </trkpt>
    <trkpt lat="50.271994" lon="17.430786">
      <ele>533</ele>
      <time>2026-05-07T09:30:36Z</time>
    </trkpt>
    <trkpt lat="50.27188" lon="17.430689">
      <ele>536</ele>
      <time>2026-05-07T09:31:03Z</time>
    </trkpt>
    <trkpt lat="50.271801" lon="17.430638">
      <ele>538</ele>
      <time>2026-05-07T09:31:21Z</time>
    </trkpt>
    <trkpt lat="50.271717" lon="17.430601">
      <ele>540</ele>
      <time>2026-05-07T09:31:40Z</time>
    </trkpt>
    <trkpt lat="50.271627" lon="17.430566">
      <ele>542</ele>
      <time>2026-05-07T09:31:59Z</time>
    </trkpt>
    <trkpt lat="50.271546" lon="17.430491">
      <ele>544</ele>
      <time>2026-05-07T09:32:19Z</time>
    </trkpt>
    <trkpt lat="50.271476" lon="17.43041">
      <ele>545</ele>
      <time>2026-05-07T09:32:37Z</time>
    </trkpt>
    <trkpt lat="50.271369" lon="17.430322">
      <ele>548</ele>
      <time>2026-05-07T09:33:02Z</time>
    </trkpt>
    <trkpt lat="50.271268" lon="17.430188">
      <ele>549</ele>
      <time>2026-05-07T09:33:30Z</time>
    </trkpt>
    <trkpt lat="50.271124" lon="17.429906">
      <ele>552</ele>
      <time>2026-05-07T09:34:17Z</time>
    </trkpt>
    <trkpt lat="50.271021" lon="17.42978">
      <ele>555</ele>
      <time>2026-05-07T09:34:45Z</time>
    </trkpt>
    <trkpt lat="50.270946" lon="17.429743">
      <ele>558</ele>
      <time>2026-05-07T09:35:02Z</time>
    </trkpt>
    <trkpt lat="50.270857" lon="17.42974">
      <ele>560</ele>
      <time>2026-05-07T09:35:21Z</time>
    </trkpt>
    <trkpt lat="50.270692" lon="17.429745">
      <ele>566</ele>
      <time>2026-05-07T09:35:56Z</time>
    </trkpt>
    <trkpt lat="50.270315" lon="17.429722">
      <ele>578</ele>
      <time>2026-05-07T09:37:17Z</time>
    </trkpt>
    <trkpt lat="50.270217" lon="17.429716">
      <ele>581</ele>
      <time>2026-05-07T09:37:38Z</time>
    </trkpt>
    <trkpt lat="50.270159" lon="17.429764">
      <ele>582</ele>
      <time>2026-05-07T09:37:52Z</time>
    </trkpt>
    <trkpt lat="50.27012" lon="17.429804">
      <ele>584</ele>
      <time>2026-05-07T09:38:01Z</time>
    </trkpt>
    <trkpt lat="50.270042" lon="17.429901">
      <ele>586</ele>
      <time>2026-05-07T09:38:22Z</time>
    </trkpt>
    <trkpt lat="50.269698" lon="17.430014">
      <ele>595</ele>
      <time>2026-05-07T09:39:36Z</time>
    </trkpt>
    <trkpt lat="50.269605" lon="17.43007">
      <ele>597</ele>
      <time>2026-05-07T09:39:57Z</time>
    </trkpt>
    <trkpt lat="50.269257" lon="17.430279">
      <ele>606</ele>
      <time>2026-05-07T09:41:16Z</time>
    </trkpt>
    <trkpt lat="50.269168" lon="17.430319">
      <ele>608</ele>
      <time>2026-05-07T09:41:35Z</time>
    </trkpt>
    <trkpt lat="50.269079" lon="17.430314">
      <ele>610</ele>
      <time>2026-05-07T09:41:54Z</time>
    </trkpt>
    <trkpt lat="50.26891" lon="17.430196">
      <ele>615</ele>
      <time>2026-05-07T09:42:33Z</time>
    </trkpt>
    <trkpt lat="50.268798" lon="17.430171">
      <ele>617</ele>
      <time>2026-05-07T09:42:57Z</time>
    </trkpt>
    <trkpt lat="50.268699" lon="17.430049">
      <ele>619</ele>
      <time>2026-05-07T09:43:23Z</time>
    </trkpt>
    <trkpt lat="50.26862" lon="17.429875">
      <ele>622</ele>
      <time>2026-05-07T09:43:52Z</time>
    </trkpt>
    <trkpt lat="50.268575" lon="17.429693">
      <ele>625</ele>
      <time>2026-05-07T09:44:18Z</time>
    </trkpt>
    <trkpt lat="50.268542" lon="17.429578">
      <ele>627</ele>
      <time>2026-05-07T09:44:35Z</time>
    </trkpt>
    <trkpt lat="50.268485" lon="17.429486">
      <ele>629</ele>
      <time>2026-05-07T09:44:52Z</time>
    </trkpt>
    <trkpt lat="50.268395" lon="17.429388">
      <ele>631</ele>
      <time>2026-05-07T09:45:15Z</time>
    </trkpt>
    <trkpt lat="50.268332" lon="17.429311">
      <ele>633</ele>
      <time>2026-05-07T09:45:32Z</time>
    </trkpt>
    <trkpt lat="50.268265" lon="17.429139">
      <ele>633</ele>
      <time>2026-05-07T09:45:58Z</time>
    </trkpt>
    <trkpt lat="50.268191" lon="17.429008">
      <ele>635</ele>
      <time>2026-05-07T09:46:21Z</time>
    </trkpt>
    <trkpt lat="50.268094" lon="17.428934">
      <ele>636</ele>
      <time>2026-05-07T09:46:44Z</time>
    </trkpt>
    <trkpt lat="50.268004" lon="17.42889">
      <ele>638</ele>
      <time>2026-05-07T09:47:03Z</time>
    </trkpt>
    <trkpt lat="50.26792" lon="17.428887">
      <ele>639</ele>
      <time>2026-05-07T09:47:21Z</time>
    </trkpt>
    <trkpt lat="50.267824" lon="17.428938">
      <ele>640</ele>
      <time>2026-05-07T09:47:42Z</time>
    </trkpt>
    <trkpt lat="50.267709" lon="17.429034">
      <ele>643</ele>
      <time>2026-05-07T09:48:09Z</time>
    </trkpt>
    <trkpt lat="50.267552" lon="17.429147">
      <ele>648</ele>
      <time>2026-05-07T09:48:45Z</time>
    </trkpt>
    <trkpt lat="50.267437" lon="17.429147">
      <ele>650</ele>
      <time>2026-05-07T09:49:10Z</time>
    </trkpt>
    <trkpt lat="50.267195" lon="17.429088">
      <ele>655</ele>
      <time>2026-05-07T09:50:01Z</time>
    </trkpt>
    <trkpt lat="50.267102" lon="17.429061">
      <ele>657</ele>
      <time>2026-05-07T09:50:21Z</time>
    </trkpt>
    <trkpt lat="50.267037" lon="17.429091">
      <ele>658</ele>
      <time>2026-05-07T09:50:35Z</time>
    </trkpt>
    <trkpt lat="50.266976" lon="17.429151">
      <ele>659</ele>
      <time>2026-05-07T09:50:49Z</time>
    </trkpt>
    <trkpt lat="50.26691" lon="17.429262">
      <ele>660</ele>
      <time>2026-05-07T09:51:10Z</time>
    </trkpt>
    <trkpt lat="50.266786" lon="17.429384">
      <ele>663</ele>
      <time>2026-05-07T09:51:40Z</time>
    </trkpt>
    <trkpt lat="50.266693" lon="17.429565">
      <ele>665</ele>
      <time>2026-05-07T09:52:11Z</time>
    </trkpt>
    <trkpt lat="50.266546" lon="17.429699">
      <ele>668</ele>
      <time>2026-05-07T09:52:46Z</time>
    </trkpt>
    <trkpt lat="50.266464" lon="17.429894">
      <ele>669</ele>
      <time>2026-05-07T09:53:17Z</time>
    </trkpt>
    <trkpt lat="50.26643" lon="17.429993">
      <ele>670</ele>
      <time>2026-05-07T09:53:32Z</time>
    </trkpt>
    <trkpt lat="50.266404" lon="17.430092">
      <ele>670</ele>
      <time>2026-05-07T09:53:46Z</time>
    </trkpt>
    <trkpt lat="50.266372" lon="17.430225">
      <ele>671</ele>
      <time>2026-05-07T09:54:05Z</time>
    </trkpt>
    <trkpt lat="50.266303" lon="17.430319">
      <ele>672</ele>
      <time>2026-05-07T09:54:24Z</time>
    </trkpt>
    <trkpt lat="50.266123" lon="17.430569">
      <ele>675</ele>
      <time>2026-05-07T09:55:14Z</time>
    </trkpt>
    <trkpt lat="50.265885" lon="17.430868">
      <ele>681</ele>
      <time>2026-05-07T09:56:18Z</time>
    </trkpt>
    <trkpt lat="50.265707" lon="17.431126">
      <ele>685</ele>
      <time>2026-05-07T09:57:08Z</time>
    </trkpt>
    <trkpt lat="50.265568" lon="17.431244">
      <ele>690</ele>
      <time>2026-05-07T09:57:42Z</time>
    </trkpt>
    <trkpt lat="50.265477" lon="17.431291">
      <ele>693</ele>
      <time>2026-05-07T09:58:02Z</time>
    </trkpt>
    <trkpt lat="50.265299" lon="17.431324">
      <ele>701</ele>
      <time>2026-05-07T09:58:42Z</time>
    </trkpt>
    <trkpt lat="50.265146" lon="17.431374">
      <ele>708</ele>
      <time>2026-05-07T09:59:16Z</time>
    </trkpt>
    <trkpt lat="50.264957" lon="17.431599">
      <ele>715</ele>
      <time>2026-05-07T10:00:07Z</time>
    </trkpt>
    <trkpt lat="50.26485" lon="17.431686">
      <ele>720</ele>
      <time>2026-05-07T10:00:33Z</time>
    </trkpt>
    <trkpt lat="50.26476" lon="17.431754">
      <ele>724</ele>
      <time>2026-05-07T10:00:55Z</time>
    </trkpt>
    <trkpt lat="50.26465" lon="17.43185">
      <ele>727</ele>
      <time>2026-05-07T10:01:22Z</time>
    </trkpt>
    <trkpt lat="50.264537" lon="17.431971">
      <ele>731</ele>
      <time>2026-05-07T10:01:51Z</time>
    </trkpt>
    <trkpt lat="50.264411" lon="17.432044">
      <ele>734</ele>
      <time>2026-05-07T10:02:19Z</time>
    </trkpt>
    <trkpt lat="50.264278" lon="17.432006">
      <ele>739</ele>
      <time>2026-05-07T10:02:48Z</time>
    </trkpt>
    <trkpt lat="50.264167" lon="17.431963">
      <ele>742</ele>
      <time>2026-05-07T10:03:13Z</time>
    </trkpt>
    <trkpt lat="50.264095" lon="17.431894">
      <ele>745</ele>
      <time>2026-05-07T10:03:31Z</time>
    </trkpt>
    <trkpt lat="50.264008" lon="17.431794">
      <ele>748</ele>
      <time>2026-05-07T10:03:54Z</time>
    </trkpt>
    <trkpt lat="50.263946" lon="17.431773">
      <ele>750</ele>
      <time>2026-05-07T10:04:07Z</time>
    </trkpt>
    <trkpt lat="50.263841" lon="17.431727">
      <ele>753</ele>
      <time>2026-05-07T10:04:31Z</time>
    </trkpt>
    <trkpt lat="50.263789" lon="17.431695">
      <ele>755</ele>
      <time>2026-05-07T10:04:42Z</time>
    </trkpt>
    <trkpt lat="50.26372" lon="17.431695">
      <ele>757</ele>
      <time>2026-05-07T10:04:57Z</time>
    </trkpt>
    <trkpt lat="50.263638" lon="17.431734">
      <ele>759</ele>
      <time>2026-05-07T10:05:15Z</time>
    </trkpt>
    <trkpt lat="50.263531" lon="17.431735">
      <ele>762</ele>
      <time>2026-05-07T10:05:38Z</time>
    </trkpt>
    <trkpt lat="50.263421" lon="17.431698">
      <ele>765</ele>
      <time>2026-05-07T10:06:02Z</time>
    </trkpt>
    <trkpt lat="50.263344" lon="17.431687">
      <ele>767</ele>
      <time>2026-05-07T10:06:18Z</time>
    </trkpt>
    <trkpt lat="50.263265" lon="17.431655">
      <ele>768</ele>
      <time>2026-05-07T10:06:35Z</time>
    </trkpt>
    <trkpt lat="50.263172" lon="17.431617">
      <ele>770</ele>
      <time>2026-05-07T10:06:55Z</time>
    </trkpt>
    <trkpt lat="50.263122" lon="17.431492">
      <ele>770</ele>
      <time>2026-05-07T10:07:14Z</time>
    </trkpt>
    <trkpt lat="50.263073" lon="17.43132">
      <ele>769</ele>
      <time>2026-05-07T10:07:39Z</time>
    </trkpt>
    <trkpt lat="50.263061" lon="17.43126">
      <ele>769</ele>
      <time>2026-05-07T10:07:47Z</time>
    </trkpt>
    <trkpt lat="50.263052" lon="17.431215">
      <ele>769</ele>
      <time>2026-05-07T10:07:54Z</time>
    </trkpt>
    <trkpt lat="50.262821" lon="17.431025">
      <ele>770</ele>
      <time>2026-05-07T10:08:47Z</time>
    </trkpt>
    <trkpt lat="50.262603" lon="17.43085">
      <ele>771</ele>
      <time>2026-05-07T10:09:38Z</time>
    </trkpt>
    <trkpt lat="50.262416" lon="17.43074">
      <ele>773</ele>
      <time>2026-05-07T10:10:19Z</time>
    </trkpt>
    <trkpt lat="50.26223" lon="17.430607">
      <ele>775</ele>
      <time>2026-05-07T10:11:01Z</time>
    </trkpt>
    <trkpt lat="50.262026" lon="17.430414">
      <ele>778</ele>
      <time>2026-05-07T10:11:51Z</time>
    </trkpt>
    <trkpt lat="50.261917" lon="17.430324">
      <ele>780</ele>
      <time>2026-05-07T10:12:16Z</time>
    </trkpt>
    <trkpt lat="50.261844" lon="17.430274">
      <ele>780</ele>
      <time>2026-05-07T10:12:33Z</time>
    </trkpt>
    <trkpt lat="50.261586" lon="17.430084">
      <ele>785</ele>
      <time>2026-05-07T10:13:32Z</time>
    </trkpt>
    <trkpt lat="50.261445" lon="17.429931">
      <ele>789</ele>
      <time>2026-05-07T10:14:10Z</time>
    </trkpt>
    <trkpt lat="50.261326" lon="17.429823">
      <ele>793</ele>
      <time>2026-05-07T10:14:41Z</time>
    </trkpt>
    <trkpt lat="50.261169" lon="17.429691">
      <ele>797</ele>
      <time>2026-05-07T10:15:21Z</time>
    </trkpt>
    <trkpt lat="50.260868" lon="17.429362">
      <ele>804</ele>
      <time>2026-05-07T10:16:42Z</time>
    </trkpt>
    <trkpt lat="50.260541" lon="17.429092">
      <ele>813</ele>
      <time>2026-05-07T10:18:05Z</time>
    </trkpt>
    <trkpt lat="50.260338" lon="17.428887">
      <ele>818</ele>
      <time>2026-05-07T10:18:58Z</time>
    </trkpt>
    <trkpt lat="50.260211" lon="17.428718">
      <ele>818</ele>
      <time>2026-05-07T10:19:34Z</time>
    </trkpt>
    <trkpt lat="50.259971" lon="17.428372">
      <ele>817</ele>
      <time>2026-05-07T10:20:45Z</time>
    </trkpt>
    <trkpt lat="50.259851" lon="17.42824">
      <ele>818</ele>
      <time>2026-05-07T10:21:17Z</time>
    </trkpt>
    <trkpt lat="50.259741" lon="17.428155">
      <ele>820</ele>
      <time>2026-05-07T10:21:44Z</time>
    </trkpt>
    <trkpt lat="50.259628" lon="17.428091">
      <ele>822</ele>
      <time>2026-05-07T10:22:11Z</time>
    </trkpt>
    <trkpt lat="50.25957" lon="17.428063">
      <ele>824</ele>
      <time>2026-05-07T10:22:25Z</time>
    </trkpt>
    <trkpt lat="50.259506" lon="17.428048">
      <ele>825</ele>
      <time>2026-05-07T10:22:39Z</time>
    </trkpt>
    <trkpt lat="50.259272" lon="17.428049">
      <ele>830</ele>
      <time>2026-05-07T10:23:31Z</time>
    </trkpt>
    <trkpt lat="50.25917" lon="17.428014">
      <ele>833</ele>
      <time>2026-05-07T10:23:54Z</time>
    </trkpt>
    <trkpt lat="50.258989" lon="17.427886">
      <ele>840</ele>
      <time>2026-05-07T10:24:40Z</time>
    </trkpt>
    <trkpt lat="50.258684" lon="17.427719">
      <ele>848</ele>
      <time>2026-05-07T10:25:52Z</time>
    </trkpt>
    <trkpt lat="50.258642" lon="17.42772">
      <ele>848</ele>
      <time>2026-05-07T10:26:01Z</time>
    </trkpt>
    <trkpt lat="50.258467" lon="17.427844">
      <ele>853</ele>
      <time>2026-05-07T10:26:44Z</time>
    </trkpt>
    <trkpt lat="50.258306" lon="17.427955">
      <ele>856</ele>
      <time>2026-05-07T10:27:22Z</time>
    </trkpt>
    <trkpt lat="50.25802" lon="17.428106">
      <ele>859</ele>
      <time>2026-05-07T10:28:29Z</time>
    </trkpt>
    <trkpt lat="50.257874" lon="17.428254">
      <ele>862</ele>
      <time>2026-05-07T10:29:07Z</time>
    </trkpt>
    <trkpt lat="50.257656" lon="17.428307">
      <ele>867</ele>
      <time>2026-05-07T10:29:56Z</time>
    </trkpt>
    <trkpt lat="50.257404" lon="17.428482">
      <ele>872</ele>
      <time>2026-05-07T10:30:57Z</time>
    </trkpt>
    <trkpt lat="50.257326" lon="17.428517">
      <ele>874</ele>
      <time>2026-05-07T10:31:15Z</time>
    </trkpt>
    <trkpt lat="50.257157" lon="17.428608">
      <ele>877</ele>
      <time>2026-05-07T10:31:54Z</time>
    </trkpt>
    <trkpt lat="50.257045" lon="17.428708">
      <ele>881</ele>
      <time>2026-05-07T10:32:23Z</time>
    </trkpt>
    <trkpt lat="50.25694" lon="17.42878">
      <ele>884</ele>
      <time>2026-05-07T10:32:49Z</time>
    </trkpt>
    <trkpt lat="50.256885" lon="17.428787">
      <ele>886</ele>
      <time>2026-05-07T10:33:02Z</time>
    </trkpt>
    <trkpt lat="50.256806" lon="17.42878">
      <ele>889</ele>
      <time>2026-05-07T10:33:20Z</time>
    </trkpt>
    <trkpt lat="50.256755" lon="17.428761">
      <ele>891</ele>
      <time>2026-05-07T10:33:32Z</time>
    </trkpt>
    <trkpt lat="50.256806" lon="17.42878">
      <ele>889</ele>
      <time>2026-05-07T10:33:38Z</time>
    </trkpt>
    <trkpt lat="50.256885" lon="17.428787">
      <ele>886</ele>
      <time>2026-05-07T10:33:47Z</time>
    </trkpt>
    <trkpt lat="50.25694" lon="17.42878">
      <ele>884</ele>
      <time>2026-05-07T10:33:53Z</time>
    </trkpt>
    <trkpt lat="50.257045" lon="17.428708">
      <ele>881</ele>
      <time>2026-05-07T10:34:06Z</time>
    </trkpt>
    <trkpt lat="50.257157" lon="17.428608">
      <ele>877</ele>
      <time>2026-05-07T10:34:21Z</time>
    </trkpt>
    <trkpt lat="50.257326" lon="17.428517">
      <ele>874</ele>
      <time>2026-05-07T10:34:41Z</time>
    </trkpt>
    <trkpt lat="50.257404" lon="17.428482">
      <ele>872</ele>
      <time>2026-05-07T10:34:50Z</time>
    </trkpt>
    <trkpt lat="50.257656" lon="17.428307">
      <ele>867</ele>
      <time>2026-05-07T10:35:20Z</time>
    </trkpt>
    <trkpt lat="50.257874" lon="17.428254">
      <ele>862</ele>
      <time>2026-05-07T10:35:45Z</time>
    </trkpt>
    <trkpt lat="50.25802" lon="17.428106">
      <ele>859</ele>
      <time>2026-05-07T10:36:04Z</time>
    </trkpt>
    <trkpt lat="50.258306" lon="17.427955">
      <ele>856</ele>
      <time>2026-05-07T10:36:37Z</time>
    </trkpt>
    <trkpt lat="50.258467" lon="17.427844">
      <ele>853</ele>
      <time>2026-05-07T10:36:56Z</time>
    </trkpt>
    <trkpt lat="50.258642" lon="17.42772">
      <ele>848</ele>
      <time>2026-05-07T10:37:18Z</time>
    </trkpt>
    <trkpt lat="50.258684" lon="17.427719">
      <ele>848</ele>
      <time>2026-05-07T10:37:22Z</time>
    </trkpt>
    <trkpt lat="50.258989" lon="17.427886">
      <ele>840</ele>
      <time>2026-05-07T10:37:58Z</time>
    </trkpt>
    <trkpt lat="50.25917" lon="17.428014">
      <ele>833</ele>
      <time>2026-05-07T10:38:21Z</time>
    </trkpt>
    <trkpt lat="50.259272" lon="17.428049">
      <ele>830</ele>
      <time>2026-05-07T10:38:33Z</time>
    </trkpt>
    <trkpt lat="50.259506" lon="17.428048">
      <ele>825</ele>
      <time>2026-05-07T10:38:59Z</time>
    </trkpt>
    <trkpt lat="50.25957" lon="17.428063">
      <ele>824</ele>
      <time>2026-05-07T10:39:06Z</time>
    </trkpt>
    <trkpt lat="50.259628" lon="17.428091">
      <ele>822</ele>
      <time>2026-05-07T10:39:12Z</time>
    </trkpt>
    <trkpt lat="50.259741" lon="17.428155">
      <ele>820</ele>
      <time>2026-05-07T10:39:26Z</time>
    </trkpt>
    <trkpt lat="50.259851" lon="17.42824">
      <ele>818</ele>
      <time>2026-05-07T10:39:39Z</time>
    </trkpt>
    <trkpt lat="50.259971" lon="17.428372">
      <ele>817</ele>
      <time>2026-05-07T10:39:55Z</time>
    </trkpt>
    <trkpt lat="50.260211" lon="17.428718">
      <ele>818</ele>
      <time>2026-05-07T10:40:31Z</time>
    </trkpt>
    <trkpt lat="50.260338" lon="17.428887">
      <ele>818</ele>
      <time>2026-05-07T10:40:49Z</time>
    </trkpt>
    <trkpt lat="50.260541" lon="17.429092">
      <ele>813</ele>
      <time>2026-05-07T10:41:16Z</time>
    </trkpt>
    <trkpt lat="50.260868" lon="17.429362">
      <ele>804</ele>
      <time>2026-05-07T10:41:57Z</time>
    </trkpt>
    <trkpt lat="50.261169" lon="17.429691">
      <ele>797</ele>
      <time>2026-05-07T10:42:38Z</time>
    </trkpt>
    <trkpt lat="50.261326" lon="17.429823">
      <ele>793</ele>
      <time>2026-05-07T10:42:57Z</time>
    </trkpt>
    <trkpt lat="50.261445" lon="17.429931">
      <ele>789</ele>
      <time>2026-05-07T10:43:13Z</time>
    </trkpt>
    <trkpt lat="50.261586" lon="17.430084">
      <ele>785</ele>
      <time>2026-05-07T10:43:32Z</time>
    </trkpt>
    <trkpt lat="50.261844" lon="17.430274">
      <ele>780</ele>
      <time>2026-05-07T10:44:00Z</time>
    </trkpt>
    <trkpt lat="50.261917" lon="17.430324">
      <ele>780</ele>
      <time>2026-05-07T10:44:07Z</time>
    </trkpt>
    <trkpt lat="50.262026" lon="17.430414">
      <ele>778</ele>
      <time>2026-05-07T10:44:19Z</time>
    </trkpt>
    <trkpt lat="50.26223" lon="17.430607">
      <ele>775</ele>
      <time>2026-05-07T10:44:42Z</time>
    </trkpt>
    <trkpt lat="50.262416" lon="17.43074">
      <ele>773</ele>
      <time>2026-05-07T10:45:02Z</time>
    </trkpt>
    <trkpt lat="50.262603" lon="17.43085">
      <ele>771</ele>
      <time>2026-05-07T10:45:21Z</time>
    </trkpt>
    <trkpt lat="50.262821" lon="17.431025">
      <ele>770</ele>
      <time>2026-05-07T10:45:45Z</time>
    </trkpt>
    <trkpt lat="50.263052" lon="17.431215">
      <ele>769</ele>
      <time>2026-05-07T10:46:10Z</time>
    </trkpt>
    <trkpt lat="50.263061" lon="17.43126">
      <ele>769</ele>
      <time>2026-05-07T10:46:13Z</time>
    </trkpt>
    <trkpt lat="50.263073" lon="17.43132">
      <ele>769</ele>
      <time>2026-05-07T10:46:17Z</time>
    </trkpt>
    <trkpt lat="50.263122" lon="17.431492">
      <ele>770</ele>
      <time>2026-05-07T10:46:28Z</time>
    </trkpt>
    <trkpt lat="50.263172" lon="17.431617">
      <ele>770</ele>
      <time>2026-05-07T10:46:37Z</time>
    </trkpt>
    <trkpt lat="50.263265" lon="17.431655">
      <ele>768</ele>
      <time>2026-05-07T10:46:47Z</time>
    </trkpt>
    <trkpt lat="50.263344" lon="17.431687">
      <ele>767</ele>
      <time>2026-05-07T10:46:55Z</time>
    </trkpt>
    <trkpt lat="50.263421" lon="17.431698">
      <ele>765</ele>
      <time>2026-05-07T10:47:02Z</time>
    </trkpt>
    <trkpt lat="50.263531" lon="17.431735">
      <ele>762</ele>
      <time>2026-05-07T10:47:13Z</time>
    </trkpt>
    <trkpt lat="50.263638" lon="17.431734">
      <ele>759</ele>
      <time>2026-05-07T10:47:24Z</time>
    </trkpt>
    <trkpt lat="50.26372" lon="17.431695">
      <ele>757</ele>
      <time>2026-05-07T10:47:32Z</time>
    </trkpt>
    <trkpt lat="50.263789" lon="17.431695">
      <ele>755</ele>
      <time>2026-05-07T10:47:39Z</time>
    </trkpt>
    <trkpt lat="50.263841" lon="17.431727">
      <ele>753</ele>
      <time>2026-05-07T10:47:45Z</time>
    </trkpt>
    <trkpt lat="50.263946" lon="17.431773">
      <ele>750</ele>
      <time>2026-05-07T10:47:56Z</time>
    </trkpt>
    <trkpt lat="50.264008" lon="17.431794">
      <ele>748</ele>
      <time>2026-05-07T10:48:02Z</time>
    </trkpt>
    <trkpt lat="50.264095" lon="17.431894">
      <ele>745</ele>
      <time>2026-05-07T10:48:13Z</time>
    </trkpt>
    <trkpt lat="50.264167" lon="17.431963">
      <ele>742</ele>
      <time>2026-05-07T10:48:21Z</time>
    </trkpt>
    <trkpt lat="50.264278" lon="17.432006">
      <ele>739</ele>
      <time>2026-05-07T10:48:32Z</time>
    </trkpt>
    <trkpt lat="50.264411" lon="17.432044">
      <ele>734</ele>
      <time>2026-05-07T10:48:46Z</time>
    </trkpt>
    <trkpt lat="50.264537" lon="17.431971">
      <ele>731</ele>
      <time>2026-05-07T10:48:59Z</time>
    </trkpt>
    <trkpt lat="50.26465" lon="17.43185">
      <ele>727</ele>
      <time>2026-05-07T10:49:13Z</time>
    </trkpt>
    <trkpt lat="50.26476" lon="17.431754">
      <ele>724</ele>
      <time>2026-05-07T10:49:25Z</time>
    </trkpt>
    <trkpt lat="50.26485" lon="17.431686">
      <ele>720</ele>
      <time>2026-05-07T10:49:35Z</time>
    </trkpt>
    <trkpt lat="50.264957" lon="17.431599">
      <ele>715</ele>
      <time>2026-05-07T10:49:48Z</time>
    </trkpt>
    <trkpt lat="50.265146" lon="17.431374">
      <ele>708</ele>
      <time>2026-05-07T10:50:11Z</time>
    </trkpt>
    <trkpt lat="50.265299" lon="17.431324">
      <ele>701</ele>
      <time>2026-05-07T10:50:27Z</time>
    </trkpt>
    <trkpt lat="50.265477" lon="17.431291">
      <ele>693</ele>
      <time>2026-05-07T10:50:46Z</time>
    </trkpt>
    <trkpt lat="50.265568" lon="17.431244">
      <ele>690</ele>
      <time>2026-05-07T10:50:55Z</time>
    </trkpt>
    <trkpt lat="50.265707" lon="17.431126">
      <ele>685</ele>
      <time>2026-05-07T10:51:11Z</time>
    </trkpt>
    <trkpt lat="50.265885" lon="17.430868">
      <ele>681</ele>
      <time>2026-05-07T10:51:35Z</time>
    </trkpt>
    <trkpt lat="50.266123" lon="17.430569">
      <ele>675</ele>
      <time>2026-05-07T10:52:05Z</time>
    </trkpt>
    <trkpt lat="50.266303" lon="17.430319">
      <ele>672</ele>
      <time>2026-05-07T10:52:28Z</time>
    </trkpt>
    <trkpt lat="50.266372" lon="17.430225">
      <ele>671</ele>
      <time>2026-05-07T10:52:37Z</time>
    </trkpt>
    <trkpt lat="50.266404" lon="17.430092">
      <ele>670</ele>
      <time>2026-05-07T10:52:45Z</time>
    </trkpt>
    <trkpt lat="50.26643" lon="17.429993">
      <ele>670</ele>
      <time>2026-05-07T10:52:52Z</time>
    </trkpt>
    <trkpt lat="50.266464" lon="17.429894">
      <ele>669</ele>
      <time>2026-05-07T10:52:59Z</time>
    </trkpt>
    <trkpt lat="50.266546" lon="17.429699">
      <ele>668</ele>
      <time>2026-05-07T10:53:13Z</time>
    </trkpt>
    <trkpt lat="50.266693" lon="17.429565">
      <ele>665</ele>
      <time>2026-05-07T10:53:30Z</time>
    </trkpt>
    <trkpt lat="50.266786" lon="17.429384">
      <ele>663</ele>
      <time>2026-05-07T10:53:44Z</time>
    </trkpt>
    <trkpt lat="50.26691" lon="17.429262">
      <ele>660</ele>
      <time>2026-05-07T10:53:58Z</time>
    </trkpt>
    <trkpt lat="50.266976" lon="17.429151">
      <ele>659</ele>
      <time>2026-05-07T10:54:08Z</time>
    </trkpt>
    <trkpt lat="50.267037" lon="17.429091">
      <ele>658</ele>
      <time>2026-05-07T10:54:15Z</time>
    </trkpt>
    <trkpt lat="50.267102" lon="17.429061">
      <ele>657</ele>
      <time>2026-05-07T10:54:21Z</time>
    </trkpt>
    <trkpt lat="50.267195" lon="17.429088">
      <ele>655</ele>
      <time>2026-05-07T10:54:31Z</time>
    </trkpt>
    <trkpt lat="50.267437" lon="17.429147">
      <ele>650</ele>
      <time>2026-05-07T10:54:54Z</time>
    </trkpt>
    <trkpt lat="50.267552" lon="17.429147">
      <ele>648</ele>
      <time>2026-05-07T10:55:06Z</time>
    </trkpt>
    <trkpt lat="50.267709" lon="17.429034">
      <ele>643</ele>
      <time>2026-05-07T10:55:23Z</time>
    </trkpt>
    <trkpt lat="50.267824" lon="17.428938">
      <ele>640</ele>
      <time>2026-05-07T10:55:35Z</time>
    </trkpt>
    <trkpt lat="50.26792" lon="17.428887">
      <ele>639</ele>
      <time>2026-05-07T10:55:45Z</time>
    </trkpt>
    <trkpt lat="50.268004" lon="17.42889">
      <ele>638</ele>
      <time>2026-05-07T10:55:53Z</time>
    </trkpt>
    <trkpt lat="50.268094" lon="17.428934">
      <ele>636</ele>
      <time>2026-05-07T10:56:03Z</time>
    </trkpt>
    <trkpt lat="50.268191" lon="17.429008">
      <ele>635</ele>
      <time>2026-05-07T10:56:13Z</time>
    </trkpt>
    <trkpt lat="50.268265" lon="17.429139">
      <ele>633</ele>
      <time>2026-05-07T10:56:24Z</time>
    </trkpt>
    <trkpt lat="50.268332" lon="17.429311">
      <ele>633</ele>
      <time>2026-05-07T10:56:36Z</time>
    </trkpt>
    <trkpt lat="50.268395" lon="17.429388">
      <ele>631</ele>
      <time>2026-05-07T10:56:44Z</time>
    </trkpt>
    <trkpt lat="50.268485" lon="17.429486">
      <ele>629</ele>
      <time>2026-05-07T10:56:55Z</time>
    </trkpt>
    <trkpt lat="50.268542" lon="17.429578">
      <ele>627</ele>
      <time>2026-05-07T10:57:03Z</time>
    </trkpt>
    <trkpt lat="50.268575" lon="17.429693">
      <ele>625</ele>
      <time>2026-05-07T10:57:11Z</time>
    </trkpt>
    <trkpt lat="50.26862" lon="17.429875">
      <ele>622</ele>
      <time>2026-05-07T10:57:23Z</time>
    </trkpt>
    <trkpt lat="50.268699" lon="17.430049">
      <ele>619</ele>
      <time>2026-05-07T10:57:36Z</time>
    </trkpt>
    <trkpt lat="50.268798" lon="17.430171">
      <ele>617</ele>
      <time>2026-05-07T10:57:48Z</time>
    </trkpt>
    <trkpt lat="50.26891" lon="17.430196">
      <ele>615</ele>
      <time>2026-05-07T10:58:00Z</time>
    </trkpt>
    <trkpt lat="50.269079" lon="17.430314">
      <ele>610</ele>
      <time>2026-05-07T10:58:18Z</time>
    </trkpt>
    <trkpt lat="50.269168" lon="17.430319">
      <ele>608</ele>
      <time>2026-05-07T10:58:27Z</time>
    </trkpt>
    <trkpt lat="50.269257" lon="17.430279">
      <ele>606</ele>
      <time>2026-05-07T10:58:36Z</time>
    </trkpt>
    <trkpt lat="50.269605" lon="17.43007">
      <ele>597</ele>
      <time>2026-05-07T10:59:12Z</time>
    </trkpt>
    <trkpt lat="50.269698" lon="17.430014">
      <ele>595</ele>
      <time>2026-05-07T10:59:22Z</time>
    </trkpt>
    <trkpt lat="50.270042" lon="17.429901">
      <ele>586</ele>
      <time>2026-05-07T10:59:57Z</time>
    </trkpt>
    <trkpt lat="50.27012" lon="17.429804">
      <ele>584</ele>
      <time>2026-05-07T11:00:06Z</time>
    </trkpt>
    <trkpt lat="50.270159" lon="17.429764">
      <ele>582</ele>
      <time>2026-05-07T11:00:11Z</time>
    </trkpt>
    <trkpt lat="50.270217" lon="17.429716">
      <ele>581</ele>
      <time>2026-05-07T11:00:17Z</time>
    </trkpt>
    <trkpt lat="50.270315" lon="17.429722">
      <ele>578</ele>
      <time>2026-05-07T11:00:27Z</time>
    </trkpt>
    <trkpt lat="50.270692" lon="17.429745">
      <ele>566</ele>
      <time>2026-05-07T11:01:05Z</time>
    </trkpt>
    <trkpt lat="50.270857" lon="17.42974">
      <ele>560</ele>
      <time>2026-05-07T11:01:21Z</time>
    </trkpt>
    <trkpt lat="50.270946" lon="17.429743">
      <ele>558</ele>
      <time>2026-05-07T11:01:30Z</time>
    </trkpt>
    <trkpt lat="50.271021" lon="17.42978">
      <ele>555</ele>
      <time>2026-05-07T11:01:38Z</time>
    </trkpt>
    <trkpt lat="50.271124" lon="17.429906">
      <ele>552</ele>
      <time>2026-05-07T11:01:51Z</time>
    </trkpt>
    <trkpt lat="50.271268" lon="17.430188">
      <ele>549</ele>
      <time>2026-05-07T11:02:13Z</time>
    </trkpt>
    <trkpt lat="50.271369" lon="17.430322">
      <ele>548</ele>
      <time>2026-05-07T11:02:26Z</time>
    </trkpt>
    <trkpt lat="50.271476" lon="17.43041">
      <ele>545</ele>
      <time>2026-05-07T11:02:38Z</time>
    </trkpt>
    <trkpt lat="50.271546" lon="17.430491">
      <ele>544</ele>
      <time>2026-05-07T11:02:46Z</time>
    </trkpt>
    <trkpt lat="50.271627" lon="17.430566">
      <ele>542</ele>
      <time>2026-05-07T11:02:55Z</time>
    </trkpt>
    <trkpt lat="50.271717" lon="17.430601">
      <ele>540</ele>
      <time>2026-05-07T11:03:04Z</time>
    </trkpt>
    <trkpt lat="50.271801" lon="17.430638">
      <ele>538</ele>
      <time>2026-05-07T11:03:13Z</time>
    </trkpt>
    <trkpt lat="50.27188" lon="17.430689">
      <ele>536</ele>
      <time>2026-05-07T11:03:21Z</time>
    </trkpt>
    <trkpt lat="50.271994" lon="17.430786">
      <ele>533</ele>
      <time>2026-05-07T11:03:34Z</time>
    </trkpt>
    <trkpt lat="50.27218" lon="17.430901">
      <ele>529</ele>
      <time>2026-05-07T11:03:54Z</time>
    </trkpt>
    <trkpt lat="50.27229" lon="17.430941">
      <ele>526</ele>
      <time>2026-05-07T11:04:05Z</time>
    </trkpt>
    <trkpt lat="50.272357" lon="17.430968">
      <ele>524</ele>
      <time>2026-05-07T11:04:12Z</time>
    </trkpt>
    <trkpt lat="50.272541" lon="17.431121">
      <ele>518</ele>
      <time>2026-05-07T11:04:32Z</time>
    </trkpt>
    <trkpt lat="50.272765" lon="17.431371">
      <ele>511</ele>
      <time>2026-05-07T11:04:59Z</time>
    </trkpt>
    <trkpt lat="50.272887" lon="17.43154">
      <ele>508</ele>
      <time>2026-05-07T11:05:15Z</time>
    </trkpt>
    <trkpt lat="50.272975" lon="17.431721">
      <ele>505</ele>
      <time>2026-05-07T11:05:29Z</time>
    </trkpt>
    <trkpt lat="50.273183" lon="17.432103">
      <ele>500</ele>
      <time>2026-05-07T11:06:01Z</time>
    </trkpt>
    <trkpt lat="50.273262" lon="17.432226">
      <ele>498</ele>
      <time>2026-05-07T11:06:11Z</time>
    </trkpt>
    <trkpt lat="50.27331" lon="17.432272">
      <ele>497</ele>
      <time>2026-05-07T11:06:17Z</time>
    </trkpt>
    <trkpt lat="50.273368" lon="17.432277">
      <ele>496</ele>
      <time>2026-05-07T11:06:22Z</time>
    </trkpt>
    <trkpt lat="50.273473" lon="17.43225">
      <ele>495</ele>
      <time>2026-05-07T11:06:33Z</time>
    </trkpt>
    <trkpt lat="50.273574" lon="17.43217">
      <ele>494</ele>
      <time>2026-05-07T11:06:44Z</time>
    </trkpt>
    <trkpt lat="50.273859" lon="17.431986">
      <ele>491</ele>
      <time>2026-05-07T11:07:13Z</time>
    </trkpt>
    <trkpt lat="50.274172" lon="17.431797">
      <ele>489</ele>
      <time>2026-05-07T11:07:46Z</time>
    </trkpt>
    <trkpt lat="50.274522" lon="17.431566">
      <ele>484</ele>
      <time>2026-05-07T11:08:22Z</time>
    </trkpt>
    <trkpt lat="50.274742" lon="17.431392">
      <ele>480</ele>
      <time>2026-05-07T11:08:46Z</time>
    </trkpt>
    <trkpt lat="50.274983" lon="17.431231">
      <ele>476</ele>
      <time>2026-05-07T11:09:12Z</time>
    </trkpt>
    <trkpt lat="50.275141" lon="17.431159">
      <ele>473</ele>
      <time>2026-05-07T11:09:28Z</time>
    </trkpt>
    <trkpt lat="50.275377" lon="17.431127">
      <ele>468</ele>
      <time>2026-05-07T11:09:51Z</time>
    </trkpt>
    <trkpt lat="50.275777" lon="17.431129">
      <ele>456</ele>
      <time>2026-05-07T11:10:31Z</time>
    </trkpt>
    <trkpt lat="50.276178" lon="17.431112">
      <ele>447</ele>
      <time>2026-05-07T11:11:10Z</time>
    </trkpt>
    <trkpt lat="50.276343" lon="17.431081">
      <ele>444</ele>
      <time>2026-05-07T11:11:26Z</time>
    </trkpt>
    <trkpt lat="50.276459" lon="17.431033">
      <ele>442</ele>
      <time>2026-05-07T11:11:38Z</time>
    </trkpt>
    <trkpt lat="50.276594" lon="17.430976">
      <ele>439</ele>
      <time>2026-05-07T11:11:51Z</time>
    </trkpt>
    <trkpt lat="50.276708" lon="17.430866">
      <ele>437</ele>
      <time>2026-05-07T11:12:04Z</time>
    </trkpt>
    <trkpt lat="50.276814" lon="17.430724">
      <ele>436</ele>
      <time>2026-05-07T11:12:18Z</time>
    </trkpt>
    <trkpt lat="50.276946" lon="17.430542">
      <ele>435</ele>
      <time>2026-05-07T11:12:35Z</time>
    </trkpt>
    <trkpt lat="50.277155" lon="17.430322">
      <ele>433</ele>
      <time>2026-05-07T11:12:59Z</time>
    </trkpt>
    <trkpt lat="50.277275" lon="17.430223">
      <ele>433</ele>
      <time>2026-05-07T11:13:12Z</time>
    </trkpt>
    <trkpt lat="50.277431" lon="17.430169">
      <ele>431</ele>
      <time>2026-05-07T11:13:27Z</time>
    </trkpt>
    <trkpt lat="50.277683" lon="17.430075">
      <ele>429</ele>
      <time>2026-05-07T11:13:52Z</time>
    </trkpt>
    <trkpt lat="50.277993" lon="17.42996">
      <ele>426</ele>
      <time>2026-05-07T11:14:23Z</time>
    </trkpt>
    <trkpt lat="50.27813" lon="17.429909">
      <ele>424</ele>
      <time>2026-05-07T11:14:37Z</time>
    </trkpt>
    <trkpt lat="50.278261" lon="17.429844">
      <ele>421</ele>
      <time>2026-05-07T11:14:50Z</time>
    </trkpt>
    <trkpt lat="50.278418" lon="17.429716">
      <ele>417</ele>
      <time>2026-05-07T11:15:08Z</time>
    </trkpt>
    <trkpt lat="50.278511" lon="17.429576">
      <ele>413</ele>
      <time>2026-05-07T11:15:20Z</time>
    </trkpt>
    <trkpt lat="50.278581" lon="17.429496">
      <ele>410</ele>
      <time>2026-05-07T11:15:29Z</time>
    </trkpt>
    <trkpt lat="50.278633" lon="17.42948">
      <ele>409</ele>
      <time>2026-05-07T11:15:34Z</time>
    </trkpt>
    <trkpt lat="50.278699" lon="17.429493">
      <ele>406</ele>
      <time>2026-05-07T11:15:41Z</time>
    </trkpt>
    <trkpt lat="50.278759" lon="17.429544">
      <ele>405</ele>
      <time>2026-05-07T11:15:48Z</time>
    </trkpt>
    <trkpt lat="50.278852" lon="17.42959">
      <ele>402</ele>
      <time>2026-05-07T11:15:57Z</time>
    </trkpt>
    <trkpt lat="50.278864" lon="17.42985">
      <ele>402</ele>
      <time>2026-05-07T11:16:13Z</time>
    </trkpt>
    <trkpt lat="50.278879" lon="17.430078">
      <ele>402</ele>
      <time>2026-05-07T11:16:27Z</time>
    </trkpt>
    <trkpt lat="50.278895" lon="17.430327">
      <ele>401</ele>
      <time>2026-05-07T11:16:43Z</time>
    </trkpt>
    <trkpt lat="50.278926" lon="17.430963">
      <ele>395</ele>
      <time>2026-05-07T11:17:22Z</time>
    </trkpt>
    <trkpt lat="50.278929" lon="17.431395">
      <ele>394</ele>
      <time>2026-05-07T11:17:49Z</time>
    </trkpt>
    <trkpt lat="50.278903" lon="17.431604">
      <ele>394</ele>
      <time>2026-05-07T11:18:02Z</time>
    </trkpt>
    <trkpt lat="50.278848" lon="17.431856">
      <ele>396</ele>
      <time>2026-05-07T11:18:18Z</time>
    </trkpt>
    <trkpt lat="50.278833" lon="17.432071">
      <ele>400</ele>
      <time>2026-05-07T11:18:32Z</time>
    </trkpt>
    <trkpt lat="50.27893" lon="17.431965">
      <ele>396</ele>
      <time>2026-05-07T11:18:43Z</time>
    </trkpt>
    <trkpt lat="50.278992" lon="17.431887">
      <ele>394</ele>
      <time>2026-05-07T11:18:50Z</time>
    </trkpt>
    <trkpt lat="50.279313" lon="17.431446">
      <ele>391</ele>
      <time>2026-05-07T11:19:27Z</time>
    </trkpt>
    <trkpt lat="50.279662" lon="17.431012">
      <ele>388</ele>
      <time>2026-05-07T11:20:05Z</time>
    </trkpt>
    <trkpt lat="50.280987" lon="17.429069">
      <ele>376</ele>
      <time>2026-05-07T11:22:42Z</time>
    </trkpt>
    <trkpt lat="50.281115" lon="17.428898">
      <ele>375</ele>
      <time>2026-05-07T11:22:57Z</time>
    </trkpt>
    <trkpt lat="50.281225" lon="17.428781">
      <ele>374</ele>
      <time>2026-05-07T11:23:08Z</time>
    </trkpt>
    <trkpt lat="50.281481" lon="17.428734">
      <ele>372</ele>
      <time>2026-05-07T11:23:30Z</time>
    </trkpt>
    <trkpt lat="50.281537" lon="17.428724">
      <ele>372</ele>
      <time>2026-05-07T11:23:35Z</time>
    </trkpt>
    <trkpt lat="50.281569" lon="17.428695">
      <ele>371</ele>
      <time>2026-05-07T11:23:39Z</time>
    </trkpt>
    <trkpt lat="50.281999" lon="17.428294">
      <ele>369</ele>
      <time>2026-05-07T11:24:22Z</time>
    </trkpt>
    <trkpt lat="50.282208" lon="17.4281">
      <ele>367</ele>
      <time>2026-05-07T11:24:43Z</time>
    </trkpt>
    <trkpt lat="50.282504" lon="17.427825">
      <ele>366</ele>
      <time>2026-05-07T11:25:13Z</time>
    </trkpt>
    <trkpt lat="50.282896" lon="17.427384">
      <ele>365</ele>
      <time>2026-05-07T11:25:54Z</time>
    </trkpt>
    <trkpt lat="50.283067" lon="17.427192">
      <ele>364</ele>
      <time>2026-05-07T11:26:12Z</time>
    </trkpt>
    <trkpt lat="50.28325" lon="17.427015">
      <ele>362</ele>
      <time>2026-05-07T11:26:31Z</time>
    </trkpt>
    <trkpt lat="50.283305" lon="17.426961">
      <ele>361</ele>
      <time>2026-05-07T11:26:37Z</time>
    </trkpt>
    <trkpt lat="50.283404" lon="17.426883">
      <ele>361</ele>
      <time>2026-05-07T11:26:46Z</time>
    </trkpt>
    <trkpt lat="50.283596" lon="17.426758">
      <ele>361</ele>
      <time>2026-05-07T11:27:04Z</time>
    </trkpt>
    <trkpt lat="50.283829" lon="17.426582">
      <ele>360</ele>
      <time>2026-05-07T11:27:26Z</time>
    </trkpt>
    <trkpt lat="50.283868" lon="17.426543">
      <ele>360</ele>
      <time>2026-05-07T11:27:30Z</time>
    </trkpt>
    <trkpt lat="50.284007" lon="17.426355">
      <ele>358</ele>
      <time>2026-05-07T11:27:46Z</time>
    </trkpt>
    <trkpt lat="50.284054" lon="17.426304">
      <ele>358</ele>
      <time>2026-05-07T11:27:51Z</time>
    </trkpt>
    <trkpt lat="50.284068" lon="17.426289">
      <ele>358</ele>
      <time>2026-05-07T11:27:53Z</time>
    </trkpt>
    <trkpt lat="50.284314" lon="17.426164">
      <ele>357</ele>
      <time>2026-05-07T11:28:15Z</time>
    </trkpt>
    <trkpt lat="50.28439" lon="17.426159">
      <ele>357</ele>
      <time>2026-05-07T11:28:22Z</time>
    </trkpt>
    <trkpt lat="50.284453" lon="17.426127">
      <ele>357</ele>
      <time>2026-05-07T11:28:27Z</time>
    </trkpt>
    <trkpt lat="50.284502" lon="17.426091">
      <ele>357</ele>
      <time>2026-05-07T11:28:32Z</time>
    </trkpt>
  </trkseg>
</trk>
</gpx>