<?xml version="1.0" encoding="UTF-8"?><gpx creator="https://mapa-turystyczna.pl" xmlns="http://www.topografix.com/GPX/1/1" version="1.1" xmlns:xsi="http://www.w3.org/2001/XMLSchema-instance" xsi:schemaLocation="http://www.topografix.com/GPX/1/1 http://www.topografix.com/GPX/1/1/gpx.xsd">
  <metadata>
    <link href="https://mapa-turystyczna.pl">
      <text>mapa-turystyczna.pl</text>
    </link>
    <time>2026-05-07T08:43:33Z</time>
    <bounds maxlat="50.286909" maxlon="17.447367" minlat="50.256755" minlon="17.426091"/>
  </metadata>

<trk>
  <name>Jarnołtówek – Jarnołtówek</name>
  <link href="https://mapa-turystyczna.pl/route/sqll">
    <text>Jarnołtówek – Jarnołtówek</text>
  </link>
  <trkseg>
    <trkpt lat="50.284502" lon="17.426091">
      <ele>357</ele>
      <time>2026-05-07T08:43:33Z</time>
    </trkpt>
    <trkpt lat="50.284616" lon="17.426249">
      <ele>357</ele>
      <time>2026-05-07T08:43:58Z</time>
    </trkpt>
    <trkpt lat="50.284686" lon="17.426347">
      <ele>357</ele>
      <time>2026-05-07T08:44:13Z</time>
    </trkpt>
    <trkpt lat="50.284895" lon="17.426551">
      <ele>358</ele>
      <time>2026-05-07T08:44:53Z</time>
    </trkpt>
    <trkpt lat="50.284909" lon="17.426566">
      <ele>358</ele>
      <time>2026-05-07T08:44:55Z</time>
    </trkpt>
    <trkpt lat="50.284926" lon="17.426582">
      <ele>358</ele>
      <time>2026-05-07T08:44:58Z</time>
    </trkpt>
    <trkpt lat="50.2851" lon="17.426698">
      <ele>357</ele>
      <time>2026-05-07T08:45:29Z</time>
    </trkpt>
    <trkpt lat="50.28524" lon="17.426791">
      <ele>356</ele>
      <time>2026-05-07T08:45:54Z</time>
    </trkpt>
    <trkpt lat="50.285342" lon="17.42684">
      <ele>356</ele>
      <time>2026-05-07T08:46:11Z</time>
    </trkpt>
    <trkpt lat="50.28536" lon="17.426924">
      <ele>355</ele>
      <time>2026-05-07T08:46:20Z</time>
    </trkpt>
    <trkpt lat="50.285397" lon="17.427037">
      <ele>355</ele>
      <time>2026-05-07T08:46:33Z</time>
    </trkpt>
    <trkpt lat="50.285458" lon="17.427181">
      <ele>354</ele>
      <time>2026-05-07T08:46:51Z</time>
    </trkpt>
    <trkpt lat="50.285597" lon="17.427451">
      <ele>353</ele>
      <time>2026-05-07T08:47:27Z</time>
    </trkpt>
    <trkpt lat="50.285678" lon="17.427608">
      <ele>353</ele>
      <time>2026-05-07T08:47:48Z</time>
    </trkpt>
    <trkpt lat="50.28578" lon="17.427808">
      <ele>357</ele>
      <time>2026-05-07T08:48:14Z</time>
    </trkpt>
    <trkpt lat="50.285841" lon="17.427953">
      <ele>360</ele>
      <time>2026-05-07T08:48:33Z</time>
    </trkpt>
    <trkpt lat="50.285855" lon="17.427995">
      <ele>359</ele>
      <time>2026-05-07T08:48:37Z</time>
    </trkpt>
    <trkpt lat="50.285893" lon="17.428198">
      <ele>356</ele>
      <time>2026-05-07T08:48:57Z</time>
    </trkpt>
    <trkpt lat="50.285912" lon="17.428296">
      <ele>355</ele>
      <time>2026-05-07T08:49:07Z</time>
    </trkpt>
    <trkpt lat="50.285962" lon="17.428555">
      <ele>355</ele>
      <time>2026-05-07T08:49:31Z</time>
    </trkpt>
    <trkpt lat="50.286035" lon="17.429093">
      <ele>355</ele>
      <time>2026-05-07T08:50:22Z</time>
    </trkpt>
    <trkpt lat="50.286051" lon="17.429211">
      <ele>355</ele>
      <time>2026-05-07T08:50:33Z</time>
    </trkpt>
    <trkpt lat="50.286062" lon="17.429293">
      <ele>355</ele>
      <time>2026-05-07T08:50:40Z</time>
    </trkpt>
    <trkpt lat="50.286113" lon="17.429556">
      <ele>354</ele>
      <time>2026-05-07T08:51:05Z</time>
    </trkpt>
    <trkpt lat="50.286196" lon="17.429786">
      <ele>355</ele>
      <time>2026-05-07T08:51:30Z</time>
    </trkpt>
    <trkpt lat="50.286215" lon="17.42984">
      <ele>355</ele>
      <time>2026-05-07T08:51:35Z</time>
    </trkpt>
    <trkpt lat="50.286241" lon="17.429912">
      <ele>355</ele>
      <time>2026-05-07T08:51:43Z</time>
    </trkpt>
    <trkpt lat="50.286254" lon="17.429938">
      <ele>355</ele>
      <time>2026-05-07T08:51:46Z</time>
    </trkpt>
    <trkpt lat="50.286562" lon="17.430571">
      <ele>357</ele>
      <time>2026-05-07T08:52:59Z</time>
    </trkpt>
    <trkpt lat="50.286331" lon="17.430487">
      <ele>361</ele>
      <time>2026-05-07T08:53:33Z</time>
    </trkpt>
    <trkpt lat="50.286339" lon="17.430593">
      <ele>363</ele>
      <time>2026-05-07T08:53:43Z</time>
    </trkpt>
    <trkpt lat="50.286424" lon="17.430713">
      <ele>364</ele>
      <time>2026-05-07T08:54:00Z</time>
    </trkpt>
    <trkpt lat="50.286477" lon="17.430813">
      <ele>365</ele>
      <time>2026-05-07T08:54:12Z</time>
    </trkpt>
    <trkpt lat="50.286531" lon="17.430943">
      <ele>367</ele>
      <time>2026-05-07T08:54:27Z</time>
    </trkpt>
    <trkpt lat="50.28664" lon="17.431082">
      <ele>367</ele>
      <time>2026-05-07T08:54:47Z</time>
    </trkpt>
    <trkpt lat="50.286698" lon="17.431166">
      <ele>367</ele>
      <time>2026-05-07T08:54:58Z</time>
    </trkpt>
    <trkpt lat="50.286729" lon="17.431298">
      <ele>368</ele>
      <time>2026-05-07T08:55:12Z</time>
    </trkpt>
    <trkpt lat="50.286739" lon="17.431403">
      <ele>369</ele>
      <time>2026-05-07T08:55:22Z</time>
    </trkpt>
    <trkpt lat="50.286727" lon="17.431499">
      <ele>371</ele>
      <time>2026-05-07T08:55:31Z</time>
    </trkpt>
    <trkpt lat="50.286719" lon="17.431596">
      <ele>373</ele>
      <time>2026-05-07T08:55:40Z</time>
    </trkpt>
    <trkpt lat="50.286712" lon="17.431684">
      <ele>375</ele>
      <time>2026-05-07T08:55:49Z</time>
    </trkpt>
    <trkpt lat="50.286707" lon="17.431786">
      <ele>376</ele>
      <time>2026-05-07T08:55:59Z</time>
    </trkpt>
    <trkpt lat="50.286719" lon="17.43187">
      <ele>376</ele>
      <time>2026-05-07T08:56:07Z</time>
    </trkpt>
    <trkpt lat="50.286736" lon="17.431974">
      <ele>377</ele>
      <time>2026-05-07T08:56:17Z</time>
    </trkpt>
    <trkpt lat="50.286739" lon="17.43213">
      <ele>378</ele>
      <time>2026-05-07T08:56:31Z</time>
    </trkpt>
    <trkpt lat="50.28677" lon="17.432224">
      <ele>378</ele>
      <time>2026-05-07T08:56:41Z</time>
    </trkpt>
    <trkpt lat="50.286818" lon="17.432277">
      <ele>377</ele>
      <time>2026-05-07T08:56:50Z</time>
    </trkpt>
    <trkpt lat="50.286866" lon="17.432366">
      <ele>377</ele>
      <time>2026-05-07T08:57:00Z</time>
    </trkpt>
    <trkpt lat="50.28689" lon="17.432494">
      <ele>377</ele>
      <time>2026-05-07T08:57:13Z</time>
    </trkpt>
    <trkpt lat="50.286887" lon="17.432551">
      <ele>378</ele>
      <time>2026-05-07T08:57:18Z</time>
    </trkpt>
    <trkpt lat="50.286827" lon="17.432642">
      <ele>380</ele>
      <time>2026-05-07T08:57:31Z</time>
    </trkpt>
    <trkpt lat="50.286803" lon="17.432773">
      <ele>381</ele>
      <time>2026-05-07T08:57:43Z</time>
    </trkpt>
    <trkpt lat="50.28681" lon="17.432886">
      <ele>382</ele>
      <time>2026-05-07T08:57:54Z</time>
    </trkpt>
    <trkpt lat="50.286805" lon="17.433012">
      <ele>383</ele>
      <time>2026-05-07T08:58:06Z</time>
    </trkpt>
    <trkpt lat="50.286803" lon="17.433251">
      <ele>385</ele>
      <time>2026-05-07T08:58:28Z</time>
    </trkpt>
    <trkpt lat="50.286871" lon="17.433422">
      <ele>385</ele>
      <time>2026-05-07T08:58:47Z</time>
    </trkpt>
    <trkpt lat="50.286901" lon="17.43349">
      <ele>386</ele>
      <time>2026-05-07T08:58:54Z</time>
    </trkpt>
    <trkpt lat="50.286909" lon="17.433629">
      <ele>387</ele>
      <time>2026-05-07T08:59:07Z</time>
    </trkpt>
    <trkpt lat="50.286902" lon="17.433712">
      <ele>389</ele>
      <time>2026-05-07T08:59:15Z</time>
    </trkpt>
    <trkpt lat="50.286858" lon="17.433836">
      <ele>392</ele>
      <time>2026-05-07T08:59:29Z</time>
    </trkpt>
    <trkpt lat="50.286841" lon="17.433988">
      <ele>395</ele>
      <time>2026-05-07T08:59:44Z</time>
    </trkpt>
    <trkpt lat="50.286801" lon="17.434109">
      <ele>397</ele>
      <time>2026-05-07T08:59:57Z</time>
    </trkpt>
    <trkpt lat="50.286755" lon="17.43423">
      <ele>401</ele>
      <time>2026-05-07T09:00:11Z</time>
    </trkpt>
    <trkpt lat="50.286693" lon="17.434423">
      <ele>406</ele>
      <time>2026-05-07T09:00:32Z</time>
    </trkpt>
    <trkpt lat="50.286657" lon="17.434536">
      <ele>409</ele>
      <time>2026-05-07T09:00:45Z</time>
    </trkpt>
    <trkpt lat="50.286632" lon="17.434613">
      <ele>410</ele>
      <time>2026-05-07T09:00:53Z</time>
    </trkpt>
    <trkpt lat="50.286584" lon="17.434729">
      <ele>412</ele>
      <time>2026-05-07T09:01:06Z</time>
    </trkpt>
    <trkpt lat="50.28656" lon="17.434857">
      <ele>414</ele>
      <time>2026-05-07T09:01:18Z</time>
    </trkpt>
    <trkpt lat="50.286556" lon="17.435005">
      <ele>416</ele>
      <time>2026-05-07T09:01:32Z</time>
    </trkpt>
    <trkpt lat="50.286578" lon="17.435139">
      <ele>416</ele>
      <time>2026-05-07T09:01:45Z</time>
    </trkpt>
    <trkpt lat="50.286614" lon="17.435276">
      <ele>417</ele>
      <time>2026-05-07T09:01:59Z</time>
    </trkpt>
    <trkpt lat="50.286647" lon="17.435413">
      <ele>417</ele>
      <time>2026-05-07T09:02:13Z</time>
    </trkpt>
    <trkpt lat="50.286633" lon="17.435535">
      <ele>418</ele>
      <time>2026-05-07T09:02:24Z</time>
    </trkpt>
    <trkpt lat="50.286671" lon="17.435686">
      <ele>419</ele>
      <time>2026-05-07T09:02:39Z</time>
    </trkpt>
    <trkpt lat="50.28669" lon="17.435906">
      <ele>421</ele>
      <time>2026-05-07T09:03:00Z</time>
    </trkpt>
    <trkpt lat="50.286721" lon="17.436035">
      <ele>421</ele>
      <time>2026-05-07T09:03:13Z</time>
    </trkpt>
    <trkpt lat="50.286707" lon="17.436164">
      <ele>423</ele>
      <time>2026-05-07T09:03:25Z</time>
    </trkpt>
    <trkpt lat="50.286657" lon="17.436258">
      <ele>426</ele>
      <time>2026-05-07T09:03:37Z</time>
    </trkpt>
    <trkpt lat="50.286642" lon="17.436397">
      <ele>428</ele>
      <time>2026-05-07T09:03:51Z</time>
    </trkpt>
    <trkpt lat="50.286659" lon="17.43648">
      <ele>430</ele>
      <time>2026-05-07T09:03:59Z</time>
    </trkpt>
    <trkpt lat="50.286695" lon="17.436558">
      <ele>430</ele>
      <time>2026-05-07T09:04:08Z</time>
    </trkpt>
    <trkpt lat="50.286722" lon="17.436655">
      <ele>430</ele>
      <time>2026-05-07T09:04:18Z</time>
    </trkpt>
    <trkpt lat="50.286717" lon="17.436757">
      <ele>431</ele>
      <time>2026-05-07T09:04:27Z</time>
    </trkpt>
    <trkpt lat="50.286739" lon="17.436832">
      <ele>431</ele>
      <time>2026-05-07T09:04:35Z</time>
    </trkpt>
    <trkpt lat="50.286789" lon="17.436893">
      <ele>428</ele>
      <time>2026-05-07T09:04:45Z</time>
    </trkpt>
    <trkpt lat="50.286834" lon="17.436966">
      <ele>426</ele>
      <time>2026-05-07T09:04:55Z</time>
    </trkpt>
    <trkpt lat="50.286834" lon="17.437049">
      <ele>426</ele>
      <time>2026-05-07T09:05:02Z</time>
    </trkpt>
    <trkpt lat="50.2868" lon="17.437076">
      <ele>428</ele>
      <time>2026-05-07T09:05:09Z</time>
    </trkpt>
    <trkpt lat="50.286746" lon="17.437092">
      <ele>432</ele>
      <time>2026-05-07T09:05:18Z</time>
    </trkpt>
    <trkpt lat="50.286639" lon="17.437156">
      <ele>438</ele>
      <time>2026-05-07T09:05:36Z</time>
    </trkpt>
    <trkpt lat="50.28648" lon="17.437443">
      <ele>443</ele>
      <time>2026-05-07T09:06:12Z</time>
    </trkpt>
    <trkpt lat="50.286462" lon="17.437534">
      <ele>444</ele>
      <time>2026-05-07T09:06:21Z</time>
    </trkpt>
    <trkpt lat="50.28646" lon="17.437583">
      <ele>444</ele>
      <time>2026-05-07T09:06:25Z</time>
    </trkpt>
    <trkpt lat="50.286443" lon="17.437676">
      <ele>445</ele>
      <time>2026-05-07T09:06:35Z</time>
    </trkpt>
    <trkpt lat="50.286402" lon="17.437711">
      <ele>446</ele>
      <time>2026-05-07T09:06:42Z</time>
    </trkpt>
    <trkpt lat="50.286347" lon="17.437749">
      <ele>447</ele>
      <time>2026-05-07T09:06:50Z</time>
    </trkpt>
    <trkpt lat="50.286275" lon="17.437801">
      <ele>447</ele>
      <time>2026-05-07T09:07:02Z</time>
    </trkpt>
    <trkpt lat="50.286194" lon="17.437864">
      <ele>448</ele>
      <time>2026-05-07T09:07:15Z</time>
    </trkpt>
    <trkpt lat="50.286044" lon="17.438047">
      <ele>450</ele>
      <time>2026-05-07T09:07:43Z</time>
    </trkpt>
    <trkpt lat="50.285963" lon="17.438208">
      <ele>453</ele>
      <time>2026-05-07T09:08:02Z</time>
    </trkpt>
    <trkpt lat="50.285922" lon="17.438377">
      <ele>454</ele>
      <time>2026-05-07T09:08:19Z</time>
    </trkpt>
    <trkpt lat="50.285898" lon="17.438623">
      <ele>455</ele>
      <time>2026-05-07T09:08:42Z</time>
    </trkpt>
    <trkpt lat="50.285814" lon="17.438824">
      <ele>456</ele>
      <time>2026-05-07T09:09:05Z</time>
    </trkpt>
    <trkpt lat="50.285641" lon="17.43906">
      <ele>459</ele>
      <time>2026-05-07T09:09:38Z</time>
    </trkpt>
    <trkpt lat="50.285482" lon="17.439278">
      <ele>460</ele>
      <time>2026-05-07T09:10:09Z</time>
    </trkpt>
    <trkpt lat="50.285327" lon="17.439541">
      <ele>460</ele>
      <time>2026-05-07T09:10:42Z</time>
    </trkpt>
    <trkpt lat="50.28508" lon="17.439932">
      <ele>462</ele>
      <time>2026-05-07T09:11:33Z</time>
    </trkpt>
    <trkpt lat="50.284899" lon="17.440273">
      <ele>463</ele>
      <time>2026-05-07T09:12:14Z</time>
    </trkpt>
    <trkpt lat="50.284721" lon="17.440471">
      <ele>465</ele>
      <time>2026-05-07T09:12:46Z</time>
    </trkpt>
    <trkpt lat="50.284577" lon="17.440654">
      <ele>465</ele>
      <time>2026-05-07T09:13:13Z</time>
    </trkpt>
    <trkpt lat="50.284395" lon="17.440898">
      <ele>465</ele>
      <time>2026-05-07T09:13:48Z</time>
    </trkpt>
    <trkpt lat="50.284239" lon="17.441075">
      <ele>463</ele>
      <time>2026-05-07T09:14:16Z</time>
    </trkpt>
    <trkpt lat="50.284054" lon="17.441214">
      <ele>464</ele>
      <time>2026-05-07T09:14:46Z</time>
    </trkpt>
    <trkpt lat="50.283775" lon="17.441461">
      <ele>465</ele>
      <time>2026-05-07T09:15:32Z</time>
    </trkpt>
    <trkpt lat="50.283487" lon="17.441732">
      <ele>466</ele>
      <time>2026-05-07T09:16:21Z</time>
    </trkpt>
    <trkpt lat="50.283192" lon="17.442024">
      <ele>466</ele>
      <time>2026-05-07T09:17:12Z</time>
    </trkpt>
    <trkpt lat="50.283034" lon="17.442204">
      <ele>466</ele>
      <time>2026-05-07T09:17:40Z</time>
    </trkpt>
    <trkpt lat="50.282981" lon="17.442362">
      <ele>464</ele>
      <time>2026-05-07T09:17:57Z</time>
    </trkpt>
    <trkpt lat="50.28295" lon="17.442571">
      <ele>462</ele>
      <time>2026-05-07T09:18:17Z</time>
    </trkpt>
    <trkpt lat="50.282904" lon="17.442681">
      <ele>462</ele>
      <time>2026-05-07T09:18:29Z</time>
    </trkpt>
    <trkpt lat="50.282825" lon="17.442775">
      <ele>462</ele>
      <time>2026-05-07T09:18:44Z</time>
    </trkpt>
    <trkpt lat="50.282683" lon="17.442955">
      <ele>463</ele>
      <time>2026-05-07T09:19:10Z</time>
    </trkpt>
    <trkpt lat="50.282537" lon="17.443116">
      <ele>463</ele>
      <time>2026-05-07T09:19:36Z</time>
    </trkpt>
    <trkpt lat="50.282367" lon="17.443309">
      <ele>464</ele>
      <time>2026-05-07T09:20:07Z</time>
    </trkpt>
    <trkpt lat="50.282225" lon="17.443556">
      <ele>464</ele>
      <time>2026-05-07T09:20:37Z</time>
    </trkpt>
    <trkpt lat="50.282097" lon="17.443778">
      <ele>466</ele>
      <time>2026-05-07T09:21:05Z</time>
    </trkpt>
    <trkpt lat="50.281939" lon="17.443985">
      <ele>468</ele>
      <time>2026-05-07T09:21:35Z</time>
    </trkpt>
    <trkpt lat="50.281817" lon="17.444074">
      <ele>470</ele>
      <time>2026-05-07T09:21:55Z</time>
    </trkpt>
    <trkpt lat="50.281747" lon="17.44409">
      <ele>471</ele>
      <time>2026-05-07T09:22:05Z</time>
    </trkpt>
    <trkpt lat="50.281558" lon="17.444104">
      <ele>473</ele>
      <time>2026-05-07T09:22:33Z</time>
    </trkpt>
    <trkpt lat="50.28141" lon="17.444101">
      <ele>474</ele>
      <time>2026-05-07T09:22:54Z</time>
    </trkpt>
    <trkpt lat="50.281279" lon="17.444063">
      <ele>475</ele>
      <time>2026-05-07T09:23:14Z</time>
    </trkpt>
    <trkpt lat="50.281168" lon="17.44406">
      <ele>476</ele>
      <time>2026-05-07T09:23:30Z</time>
    </trkpt>
    <trkpt lat="50.280914" lon="17.444029">
      <ele>479</ele>
      <time>2026-05-07T09:24:07Z</time>
    </trkpt>
    <trkpt lat="50.280773" lon="17.444039">
      <ele>481</ele>
      <time>2026-05-07T09:24:28Z</time>
    </trkpt>
    <trkpt lat="50.280606" lon="17.444043">
      <ele>483</ele>
      <time>2026-05-07T09:24:52Z</time>
    </trkpt>
    <trkpt lat="50.280428" lon="17.44408">
      <ele>484</ele>
      <time>2026-05-07T09:25:18Z</time>
    </trkpt>
    <trkpt lat="50.280273" lon="17.444165">
      <ele>484</ele>
      <time>2026-05-07T09:25:42Z</time>
    </trkpt>
    <trkpt lat="50.280078" lon="17.444188">
      <ele>485</ele>
      <time>2026-05-07T09:26:11Z</time>
    </trkpt>
    <trkpt lat="50.279908" lon="17.444189">
      <ele>486</ele>
      <time>2026-05-07T09:26:35Z</time>
    </trkpt>
    <trkpt lat="50.279742" lon="17.444242">
      <ele>486</ele>
      <time>2026-05-07T09:27:00Z</time>
    </trkpt>
    <trkpt lat="50.279635" lon="17.444291">
      <ele>485</ele>
      <time>2026-05-07T09:27:16Z</time>
    </trkpt>
    <trkpt lat="50.279544" lon="17.444296">
      <ele>485</ele>
      <time>2026-05-07T09:27:29Z</time>
    </trkpt>
    <trkpt lat="50.27938" lon="17.444259">
      <ele>485</ele>
      <time>2026-05-07T09:27:54Z</time>
    </trkpt>
    <trkpt lat="50.279267" lon="17.444216">
      <ele>485</ele>
      <time>2026-05-07T09:28:10Z</time>
    </trkpt>
    <trkpt lat="50.279124" lon="17.444122">
      <ele>484</ele>
      <time>2026-05-07T09:28:33Z</time>
    </trkpt>
    <trkpt lat="50.279082" lon="17.444194">
      <ele>483</ele>
      <time>2026-05-07T09:28:39Z</time>
    </trkpt>
    <trkpt lat="50.279022" lon="17.444344">
      <ele>482</ele>
      <time>2026-05-07T09:28:51Z</time>
    </trkpt>
    <trkpt lat="50.278941" lon="17.444476">
      <ele>481</ele>
      <time>2026-05-07T09:29:03Z</time>
    </trkpt>
    <trkpt lat="50.278886" lon="17.444599">
      <ele>480</ele>
      <time>2026-05-07T09:29:13Z</time>
    </trkpt>
    <trkpt lat="50.278852" lon="17.444739">
      <ele>479</ele>
      <time>2026-05-07T09:29:23Z</time>
    </trkpt>
    <trkpt lat="50.278835" lon="17.444873">
      <ele>478</ele>
      <time>2026-05-07T09:29:32Z</time>
    </trkpt>
    <trkpt lat="50.278807" lon="17.44502">
      <ele>477</ele>
      <time>2026-05-07T09:29:42Z</time>
    </trkpt>
    <trkpt lat="50.278786" lon="17.445133">
      <ele>476</ele>
      <time>2026-05-07T09:29:50Z</time>
    </trkpt>
    <trkpt lat="50.278754" lon="17.445222">
      <ele>475</ele>
      <time>2026-05-07T09:29:57Z</time>
    </trkpt>
    <trkpt lat="50.278585" lon="17.445224">
      <ele>475</ele>
      <time>2026-05-07T09:30:14Z</time>
    </trkpt>
    <trkpt lat="50.278502" lon="17.445243">
      <ele>474</ele>
      <time>2026-05-07T09:30:22Z</time>
    </trkpt>
    <trkpt lat="50.278405" lon="17.445294">
      <ele>474</ele>
      <time>2026-05-07T09:30:33Z</time>
    </trkpt>
    <trkpt lat="50.278055" lon="17.445345">
      <ele>473</ele>
      <time>2026-05-07T09:31:21Z</time>
    </trkpt>
    <trkpt lat="50.277503" lon="17.445372">
      <ele>470</ele>
      <time>2026-05-07T09:32:36Z</time>
    </trkpt>
    <trkpt lat="50.277282" lon="17.445616">
      <ele>470</ele>
      <time>2026-05-07T09:33:12Z</time>
    </trkpt>
    <trkpt lat="50.277006" lon="17.445924">
      <ele>468</ele>
      <time>2026-05-07T09:33:58Z</time>
    </trkpt>
    <trkpt lat="50.276809" lon="17.446125">
      <ele>466</ele>
      <time>2026-05-07T09:34:30Z</time>
    </trkpt>
    <trkpt lat="50.276402" lon="17.446489">
      <ele>467</ele>
      <time>2026-05-07T09:35:34Z</time>
    </trkpt>
    <trkpt lat="50.27593" lon="17.446978">
      <ele>473</ele>
      <time>2026-05-07T09:36:51Z</time>
    </trkpt>
    <trkpt lat="50.275695" lon="17.447201">
      <ele>476</ele>
      <time>2026-05-07T09:37:28Z</time>
    </trkpt>
    <trkpt lat="50.275537" lon="17.447306">
      <ele>479</ele>
      <time>2026-05-07T09:37:52Z</time>
    </trkpt>
    <trkpt lat="50.275456" lon="17.447349">
      <ele>480</ele>
      <time>2026-05-07T09:38:03Z</time>
    </trkpt>
    <trkpt lat="50.275374" lon="17.447367">
      <ele>481</ele>
      <time>2026-05-07T09:38:15Z</time>
    </trkpt>
    <trkpt lat="50.275052" lon="17.447284">
      <ele>490</ele>
      <time>2026-05-07T09:39:00Z</time>
    </trkpt>
    <trkpt lat="50.274827" lon="17.44719">
      <ele>493</ele>
      <time>2026-05-07T09:39:32Z</time>
    </trkpt>
    <trkpt lat="50.274593" lon="17.447083">
      <ele>495</ele>
      <time>2026-05-07T09:40:05Z</time>
    </trkpt>
    <trkpt lat="50.27434" lon="17.447005">
      <ele>495</ele>
      <time>2026-05-07T09:40:40Z</time>
    </trkpt>
    <trkpt lat="50.274121" lon="17.446925">
      <ele>493</ele>
      <time>2026-05-07T09:41:11Z</time>
    </trkpt>
    <trkpt lat="50.273787" lon="17.446812">
      <ele>490</ele>
      <time>2026-05-07T09:41:57Z</time>
    </trkpt>
    <trkpt lat="50.273733" lon="17.446667">
      <ele>491</ele>
      <time>2026-05-07T09:42:12Z</time>
    </trkpt>
    <trkpt lat="50.273718" lon="17.446501">
      <ele>495</ele>
      <time>2026-05-07T09:42:27Z</time>
    </trkpt>
    <trkpt lat="50.273684" lon="17.446356">
      <ele>498</ele>
      <time>2026-05-07T09:42:41Z</time>
    </trkpt>
    <trkpt lat="50.27365" lon="17.446222">
      <ele>501</ele>
      <time>2026-05-07T09:42:54Z</time>
    </trkpt>
    <trkpt lat="50.273608" lon="17.446069">
      <ele>504</ele>
      <time>2026-05-07T09:43:09Z</time>
    </trkpt>
    <trkpt lat="50.273521" lon="17.445876">
      <ele>507</ele>
      <time>2026-05-07T09:43:29Z</time>
    </trkpt>
    <trkpt lat="50.273482" lon="17.445769">
      <ele>509</ele>
      <time>2026-05-07T09:43:40Z</time>
    </trkpt>
    <trkpt lat="50.273421" lon="17.445624">
      <ele>511</ele>
      <time>2026-05-07T09:43:56Z</time>
    </trkpt>
    <trkpt lat="50.273461" lon="17.445474">
      <ele>511</ele>
      <time>2026-05-07T09:44:10Z</time>
    </trkpt>
    <trkpt lat="50.273536" lon="17.445232">
      <ele>510</ele>
      <time>2026-05-07T09:44:33Z</time>
    </trkpt>
    <trkpt lat="50.273689" lon="17.444907">
      <ele>505</ele>
      <time>2026-05-07T09:45:08Z</time>
    </trkpt>
    <trkpt lat="50.273808" lon="17.444705">
      <ele>500</ele>
      <time>2026-05-07T09:45:33Z</time>
    </trkpt>
    <trkpt lat="50.273754" lon="17.444546">
      <ele>505</ele>
      <time>2026-05-07T09:45:54Z</time>
    </trkpt>
    <trkpt lat="50.273668" lon="17.444468">
      <ele>510</ele>
      <time>2026-05-07T09:46:13Z</time>
    </trkpt>
    <trkpt lat="50.273584" lon="17.444438">
      <ele>514</ele>
      <time>2026-05-07T09:46:29Z</time>
    </trkpt>
    <trkpt lat="50.273499" lon="17.444458">
      <ele>517</ele>
      <time>2026-05-07T09:46:45Z</time>
    </trkpt>
    <trkpt lat="50.273274" lon="17.444552">
      <ele>525</ele>
      <time>2026-05-07T09:47:27Z</time>
    </trkpt>
    <trkpt lat="50.273158" lon="17.444588">
      <ele>530</ele>
      <time>2026-05-07T09:47:48Z</time>
    </trkpt>
    <trkpt lat="50.273014" lon="17.444585">
      <ele>536</ele>
      <time>2026-05-07T09:48:15Z</time>
    </trkpt>
    <trkpt lat="50.272854" lon="17.444484">
      <ele>541</ele>
      <time>2026-05-07T09:48:46Z</time>
    </trkpt>
    <trkpt lat="50.272726" lon="17.444363">
      <ele>544</ele>
      <time>2026-05-07T09:49:12Z</time>
    </trkpt>
    <trkpt lat="50.272607" lon="17.444301">
      <ele>547</ele>
      <time>2026-05-07T09:49:34Z</time>
    </trkpt>
    <trkpt lat="50.272529" lon="17.444294">
      <ele>548</ele>
      <time>2026-05-07T09:49:47Z</time>
    </trkpt>
    <trkpt lat="50.272309" lon="17.444304">
      <ele>549</ele>
      <time>2026-05-07T09:50:25Z</time>
    </trkpt>
    <trkpt lat="50.272073" lon="17.44435">
      <ele>549</ele>
      <time>2026-05-07T09:51:06Z</time>
    </trkpt>
    <trkpt lat="50.271787" lon="17.444467">
      <ele>551</ele>
      <time>2026-05-07T09:51:57Z</time>
    </trkpt>
    <trkpt lat="50.271575" lon="17.444625">
      <ele>554</ele>
      <time>2026-05-07T09:52:38Z</time>
    </trkpt>
    <trkpt lat="50.270988" lon="17.445191">
      <ele>558</ele>
      <time>2026-05-07T09:54:37Z</time>
    </trkpt>
    <trkpt lat="50.270503" lon="17.445622">
      <ele>564</ele>
      <time>2026-05-07T09:56:13Z</time>
    </trkpt>
    <trkpt lat="50.270191" lon="17.445779">
      <ele>566</ele>
      <time>2026-05-07T09:57:10Z</time>
    </trkpt>
    <trkpt lat="50.269855" lon="17.445951">
      <ele>570</ele>
      <time>2026-05-07T09:58:11Z</time>
    </trkpt>
    <trkpt lat="50.269422" lon="17.446174">
      <ele>573</ele>
      <time>2026-05-07T09:59:30Z</time>
    </trkpt>
    <trkpt lat="50.269245" lon="17.446258">
      <ele>575</ele>
      <time>2026-05-07T10:00:02Z</time>
    </trkpt>
    <trkpt lat="50.268968" lon="17.446332">
      <ele>576</ele>
      <time>2026-05-07T10:00:50Z</time>
    </trkpt>
    <trkpt lat="50.268757" lon="17.446399">
      <ele>576</ele>
      <time>2026-05-07T10:01:27Z</time>
    </trkpt>
    <trkpt lat="50.268493" lon="17.446484">
      <ele>575</ele>
      <time>2026-05-07T10:02:14Z</time>
    </trkpt>
    <trkpt lat="50.268345" lon="17.44652">
      <ele>574</ele>
      <time>2026-05-07T10:02:39Z</time>
    </trkpt>
    <trkpt lat="50.268272" lon="17.446512">
      <ele>573</ele>
      <time>2026-05-07T10:02:52Z</time>
    </trkpt>
    <trkpt lat="50.268149" lon="17.446469">
      <ele>573</ele>
      <time>2026-05-07T10:03:14Z</time>
    </trkpt>
    <trkpt lat="50.268047" lon="17.446364">
      <ele>574</ele>
      <time>2026-05-07T10:03:35Z</time>
    </trkpt>
    <trkpt lat="50.267967" lon="17.446203">
      <ele>576</ele>
      <time>2026-05-07T10:03:57Z</time>
    </trkpt>
    <trkpt lat="50.267852" lon="17.445956">
      <ele>580</ele>
      <time>2026-05-07T10:04:32Z</time>
    </trkpt>
    <trkpt lat="50.267605" lon="17.445546">
      <ele>585</ele>
      <time>2026-05-07T10:05:34Z</time>
    </trkpt>
    <trkpt lat="50.267439" lon="17.445289">
      <ele>589</ele>
      <time>2026-05-07T10:06:15Z</time>
    </trkpt>
    <trkpt lat="50.26714" lon="17.444942">
      <ele>589</ele>
      <time>2026-05-07T10:07:19Z</time>
    </trkpt>
    <trkpt lat="50.266092" lon="17.443419">
      <ele>605</ele>
      <time>2026-05-07T10:11:26Z</time>
    </trkpt>
    <trkpt lat="50.265971" lon="17.443298">
      <ele>607</ele>
      <time>2026-05-07T10:11:51Z</time>
    </trkpt>
    <trkpt lat="50.265773" lon="17.44317">
      <ele>611</ele>
      <time>2026-05-07T10:12:28Z</time>
    </trkpt>
    <trkpt lat="50.265567" lon="17.443038">
      <ele>615</ele>
      <time>2026-05-07T10:13:07Z</time>
    </trkpt>
    <trkpt lat="50.265372" lon="17.443009">
      <ele>617</ele>
      <time>2026-05-07T10:13:41Z</time>
    </trkpt>
    <trkpt lat="50.265022" lon="17.443019">
      <ele>620</ele>
      <time>2026-05-07T10:14:42Z</time>
    </trkpt>
    <trkpt lat="50.264684" lon="17.442991">
      <ele>622</ele>
      <time>2026-05-07T10:15:40Z</time>
    </trkpt>
    <trkpt lat="50.264287" lon="17.442981">
      <ele>627</ele>
      <time>2026-05-07T10:16:49Z</time>
    </trkpt>
    <trkpt lat="50.264129" lon="17.442931">
      <ele>629</ele>
      <time>2026-05-07T10:17:17Z</time>
    </trkpt>
    <trkpt lat="50.263857" lon="17.442816">
      <ele>631</ele>
      <time>2026-05-07T10:18:06Z</time>
    </trkpt>
    <trkpt lat="50.263611" lon="17.442602">
      <ele>634</ele>
      <time>2026-05-07T10:18:54Z</time>
    </trkpt>
    <trkpt lat="50.263205" lon="17.442403">
      <ele>634</ele>
      <time>2026-05-07T10:20:08Z</time>
    </trkpt>
    <trkpt lat="50.262679" lon="17.441981">
      <ele>640</ele>
      <time>2026-05-07T10:21:50Z</time>
    </trkpt>
    <trkpt lat="50.262193" lon="17.441555">
      <ele>644</ele>
      <time>2026-05-07T10:23:26Z</time>
    </trkpt>
    <trkpt lat="50.261816" lon="17.441107">
      <ele>646</ele>
      <time>2026-05-07T10:24:47Z</time>
    </trkpt>
    <trkpt lat="50.26172" lon="17.440986">
      <ele>647</ele>
      <time>2026-05-07T10:25:09Z</time>
    </trkpt>
    <trkpt lat="50.261611" lon="17.440848">
      <ele>649</ele>
      <time>2026-05-07T10:25:33Z</time>
    </trkpt>
    <trkpt lat="50.261608" lon="17.440642">
      <ele>652</ele>
      <time>2026-05-07T10:26:04Z</time>
    </trkpt>
    <trkpt lat="50.26154" lon="17.440246">
      <ele>658</ele>
      <time>2026-05-07T10:27:06Z</time>
    </trkpt>
    <trkpt lat="50.261504" lon="17.439846">
      <ele>664</ele>
      <time>2026-05-07T10:28:06Z</time>
    </trkpt>
    <trkpt lat="50.261496" lon="17.439514">
      <ele>666</ele>
      <time>2026-05-07T10:28:55Z</time>
    </trkpt>
    <trkpt lat="50.261472" lon="17.439162">
      <ele>670</ele>
      <time>2026-05-07T10:29:48Z</time>
    </trkpt>
    <trkpt lat="50.26149" lon="17.438744">
      <ele>676</ele>
      <time>2026-05-07T10:30:51Z</time>
    </trkpt>
    <trkpt lat="50.261487" lon="17.438524">
      <ele>679</ele>
      <time>2026-05-07T10:31:24Z</time>
    </trkpt>
    <trkpt lat="50.261468" lon="17.438215">
      <ele>683</ele>
      <time>2026-05-07T10:32:10Z</time>
    </trkpt>
    <trkpt lat="50.261394" lon="17.437947">
      <ele>685</ele>
      <time>2026-05-07T10:32:53Z</time>
    </trkpt>
    <trkpt lat="50.26131" lon="17.437743">
      <ele>686</ele>
      <time>2026-05-07T10:33:29Z</time>
    </trkpt>
    <trkpt lat="50.261257" lon="17.437494">
      <ele>689</ele>
      <time>2026-05-07T10:34:08Z</time>
    </trkpt>
    <trkpt lat="50.261238" lon="17.43722">
      <ele>693</ele>
      <time>2026-05-07T10:34:49Z</time>
    </trkpt>
    <trkpt lat="50.261185" lon="17.437025">
      <ele>695</ele>
      <time>2026-05-07T10:35:21Z</time>
    </trkpt>
    <trkpt lat="50.261056" lon="17.436683">
      <ele>698</ele>
      <time>2026-05-07T10:36:19Z</time>
    </trkpt>
    <trkpt lat="50.261054" lon="17.436661">
      <ele>698</ele>
      <time>2026-05-07T10:36:23Z</time>
    </trkpt>
    <trkpt lat="50.261017" lon="17.436429">
      <ele>701</ele>
      <time>2026-05-07T10:36:58Z</time>
    </trkpt>
    <trkpt lat="50.261016" lon="17.436269">
      <ele>704</ele>
      <time>2026-05-07T10:37:22Z</time>
    </trkpt>
    <trkpt lat="50.261052" lon="17.435957">
      <ele>709</ele>
      <time>2026-05-07T10:38:10Z</time>
    </trkpt>
    <trkpt lat="50.26106" lon="17.435743">
      <ele>712</ele>
      <time>2026-05-07T10:38:42Z</time>
    </trkpt>
    <trkpt lat="50.261104" lon="17.435324">
      <ele>720</ele>
      <time>2026-05-07T10:39:47Z</time>
    </trkpt>
    <trkpt lat="50.261117" lon="17.434957">
      <ele>727</ele>
      <time>2026-05-07T10:40:43Z</time>
    </trkpt>
    <trkpt lat="50.26111" lon="17.434473">
      <ele>734</ele>
      <time>2026-05-07T10:41:55Z</time>
    </trkpt>
    <trkpt lat="50.261089" lon="17.434043">
      <ele>740</ele>
      <time>2026-05-07T10:43:00Z</time>
    </trkpt>
    <trkpt lat="50.26107" lon="17.433565">
      <ele>747</ele>
      <time>2026-05-07T10:44:12Z</time>
    </trkpt>
    <trkpt lat="50.26106" lon="17.433361">
      <ele>749</ele>
      <time>2026-05-07T10:44:43Z</time>
    </trkpt>
    <trkpt lat="50.261036" lon="17.43303">
      <ele>754</ele>
      <time>2026-05-07T10:45:32Z</time>
    </trkpt>
    <trkpt lat="50.260998" lon="17.432674">
      <ele>759</ele>
      <time>2026-05-07T10:46:26Z</time>
    </trkpt>
    <trkpt lat="50.260922" lon="17.432279">
      <ele>765</ele>
      <time>2026-05-07T10:47:28Z</time>
    </trkpt>
    <trkpt lat="50.260867" lon="17.43196">
      <ele>769</ele>
      <time>2026-05-07T10:48:18Z</time>
    </trkpt>
    <trkpt lat="50.260827" lon="17.431721">
      <ele>767</ele>
      <time>2026-05-07T10:48:54Z</time>
    </trkpt>
    <trkpt lat="50.260803" lon="17.431591">
      <ele>767</ele>
      <time>2026-05-07T10:49:14Z</time>
    </trkpt>
    <trkpt lat="50.260795" lon="17.431551">
      <ele>767</ele>
      <time>2026-05-07T10:49:20Z</time>
    </trkpt>
    <trkpt lat="50.260775" lon="17.431508">
      <ele>766</ele>
      <time>2026-05-07T10:49:28Z</time>
    </trkpt>
    <trkpt lat="50.260746" lon="17.43148">
      <ele>766</ele>
      <time>2026-05-07T10:49:36Z</time>
    </trkpt>
    <trkpt lat="50.260716" lon="17.43145">
      <ele>766</ele>
      <time>2026-05-07T10:49:44Z</time>
    </trkpt>
    <trkpt lat="50.260699" lon="17.431425">
      <ele>766</ele>
      <time>2026-05-07T10:49:49Z</time>
    </trkpt>
    <trkpt lat="50.260687" lon="17.431395">
      <ele>766</ele>
      <time>2026-05-07T10:49:55Z</time>
    </trkpt>
    <trkpt lat="50.260681" lon="17.431358">
      <ele>765</ele>
      <time>2026-05-07T10:50:00Z</time>
    </trkpt>
    <trkpt lat="50.260647" lon="17.431142">
      <ele>765</ele>
      <time>2026-05-07T10:50:33Z</time>
    </trkpt>
    <trkpt lat="50.261106" lon="17.430816">
      <ele>785</ele>
      <time>2026-05-07T10:52:45Z</time>
    </trkpt>
    <trkpt lat="50.261169" lon="17.430751">
      <ele>787</ele>
      <time>2026-05-07T10:53:04Z</time>
    </trkpt>
    <trkpt lat="50.261224" lon="17.43068">
      <ele>788</ele>
      <time>2026-05-07T10:53:22Z</time>
    </trkpt>
    <trkpt lat="50.261467" lon="17.430342">
      <ele>787</ele>
      <time>2026-05-07T10:54:42Z</time>
    </trkpt>
    <trkpt lat="50.261534" lon="17.430218">
      <ele>786</ele>
      <time>2026-05-07T10:55:08Z</time>
    </trkpt>
    <trkpt lat="50.261586" lon="17.430084">
      <ele>785</ele>
      <time>2026-05-07T10:55:33Z</time>
    </trkpt>
    <trkpt lat="50.261445" lon="17.429931">
      <ele>789</ele>
      <time>2026-05-07T10:56:11Z</time>
    </trkpt>
    <trkpt lat="50.261326" lon="17.429823">
      <ele>793</ele>
      <time>2026-05-07T10:56:42Z</time>
    </trkpt>
    <trkpt lat="50.261169" lon="17.429691">
      <ele>797</ele>
      <time>2026-05-07T10:57:22Z</time>
    </trkpt>
    <trkpt lat="50.260868" lon="17.429362">
      <ele>804</ele>
      <time>2026-05-07T10:58:43Z</time>
    </trkpt>
    <trkpt lat="50.260541" lon="17.429092">
      <ele>813</ele>
      <time>2026-05-07T11:00:06Z</time>
    </trkpt>
    <trkpt lat="50.260338" lon="17.428887">
      <ele>818</ele>
      <time>2026-05-07T11:00:59Z</time>
    </trkpt>
    <trkpt lat="50.260211" lon="17.428718">
      <ele>818</ele>
      <time>2026-05-07T11:01:35Z</time>
    </trkpt>
    <trkpt lat="50.259971" lon="17.428372">
      <ele>817</ele>
      <time>2026-05-07T11:02:46Z</time>
    </trkpt>
    <trkpt lat="50.259851" lon="17.42824">
      <ele>818</ele>
      <time>2026-05-07T11:03:18Z</time>
    </trkpt>
    <trkpt lat="50.259741" lon="17.428155">
      <ele>820</ele>
      <time>2026-05-07T11:03:45Z</time>
    </trkpt>
    <trkpt lat="50.259628" lon="17.428091">
      <ele>822</ele>
      <time>2026-05-07T11:04:12Z</time>
    </trkpt>
    <trkpt lat="50.25957" lon="17.428063">
      <ele>824</ele>
      <time>2026-05-07T11:04:26Z</time>
    </trkpt>
    <trkpt lat="50.259506" lon="17.428048">
      <ele>825</ele>
      <time>2026-05-07T11:04:40Z</time>
    </trkpt>
    <trkpt lat="50.259272" lon="17.428049">
      <ele>830</ele>
      <time>2026-05-07T11:05:32Z</time>
    </trkpt>
    <trkpt lat="50.25917" lon="17.428014">
      <ele>833</ele>
      <time>2026-05-07T11:05:55Z</time>
    </trkpt>
    <trkpt lat="50.258989" lon="17.427886">
      <ele>840</ele>
      <time>2026-05-07T11:06:41Z</time>
    </trkpt>
    <trkpt lat="50.258684" lon="17.427719">
      <ele>848</ele>
      <time>2026-05-07T11:07:53Z</time>
    </trkpt>
    <trkpt lat="50.258642" lon="17.42772">
      <ele>849</ele>
      <time>2026-05-07T11:08:02Z</time>
    </trkpt>
    <trkpt lat="50.258467" lon="17.427844">
      <ele>853</ele>
      <time>2026-05-07T11:08:45Z</time>
    </trkpt>
    <trkpt lat="50.258306" lon="17.427955">
      <ele>856</ele>
      <time>2026-05-07T11:09:23Z</time>
    </trkpt>
    <trkpt lat="50.25802" lon="17.428106">
      <ele>859</ele>
      <time>2026-05-07T11:10:30Z</time>
    </trkpt>
    <trkpt lat="50.257874" lon="17.428254">
      <ele>862</ele>
      <time>2026-05-07T11:11:08Z</time>
    </trkpt>
    <trkpt lat="50.257656" lon="17.428307">
      <ele>867</ele>
      <time>2026-05-07T11:11:57Z</time>
    </trkpt>
    <trkpt lat="50.257404" lon="17.428482">
      <ele>872</ele>
      <time>2026-05-07T11:12:58Z</time>
    </trkpt>
    <trkpt lat="50.257326" lon="17.428517">
      <ele>874</ele>
      <time>2026-05-07T11:13:16Z</time>
    </trkpt>
    <trkpt lat="50.257157" lon="17.428608">
      <ele>877</ele>
      <time>2026-05-07T11:13:55Z</time>
    </trkpt>
    <trkpt lat="50.257045" lon="17.428708">
      <ele>881</ele>
      <time>2026-05-07T11:14:24Z</time>
    </trkpt>
    <trkpt lat="50.25694" lon="17.42878">
      <ele>884</ele>
      <time>2026-05-07T11:14:50Z</time>
    </trkpt>
    <trkpt lat="50.256885" lon="17.428787">
      <ele>886</ele>
      <time>2026-05-07T11:15:03Z</time>
    </trkpt>
    <trkpt lat="50.256806" lon="17.42878">
      <ele>889</ele>
      <time>2026-05-07T11:15:21Z</time>
    </trkpt>
    <trkpt lat="50.256755" lon="17.428761">
      <ele>891</ele>
      <time>2026-05-07T11:15:33Z</time>
    </trkpt>
    <trkpt lat="50.256806" lon="17.42878">
      <ele>889</ele>
      <time>2026-05-07T11:15:39Z</time>
    </trkpt>
    <trkpt lat="50.256885" lon="17.428787">
      <ele>886</ele>
      <time>2026-05-07T11:15:48Z</time>
    </trkpt>
    <trkpt lat="50.25694" lon="17.42878">
      <ele>884</ele>
      <time>2026-05-07T11:15:54Z</time>
    </trkpt>
    <trkpt lat="50.257045" lon="17.428708">
      <ele>881</ele>
      <time>2026-05-07T11:16:07Z</time>
    </trkpt>
    <trkpt lat="50.257157" lon="17.428608">
      <ele>877</ele>
      <time>2026-05-07T11:16:22Z</time>
    </trkpt>
    <trkpt lat="50.257326" lon="17.428517">
      <ele>874</ele>
      <time>2026-05-07T11:16:42Z</time>
    </trkpt>
    <trkpt lat="50.257404" lon="17.428482">
      <ele>872</ele>
      <time>2026-05-07T11:16:51Z</time>
    </trkpt>
    <trkpt lat="50.257656" lon="17.428307">
      <ele>867</ele>
      <time>2026-05-07T11:17:21Z</time>
    </trkpt>
    <trkpt lat="50.257874" lon="17.428254">
      <ele>862</ele>
      <time>2026-05-07T11:17:46Z</time>
    </trkpt>
    <trkpt lat="50.25802" lon="17.428106">
      <ele>859</ele>
      <time>2026-05-07T11:18:05Z</time>
    </trkpt>
    <trkpt lat="50.258306" lon="17.427955">
      <ele>856</ele>
      <time>2026-05-07T11:18:38Z</time>
    </trkpt>
    <trkpt lat="50.258467" lon="17.427844">
      <ele>853</ele>
      <time>2026-05-07T11:18:57Z</time>
    </trkpt>
    <trkpt lat="50.258642" lon="17.42772">
      <ele>849</ele>
      <time>2026-05-07T11:19:19Z</time>
    </trkpt>
    <trkpt lat="50.258684" lon="17.427719">
      <ele>848</ele>
      <time>2026-05-07T11:19:23Z</time>
    </trkpt>
    <trkpt lat="50.258989" lon="17.427886">
      <ele>840</ele>
      <time>2026-05-07T11:19:59Z</time>
    </trkpt>
    <trkpt lat="50.25917" lon="17.428014">
      <ele>833</ele>
      <time>2026-05-07T11:20:22Z</time>
    </trkpt>
    <trkpt lat="50.259272" lon="17.428049">
      <ele>830</ele>
      <time>2026-05-07T11:20:34Z</time>
    </trkpt>
    <trkpt lat="50.259506" lon="17.428048">
      <ele>825</ele>
      <time>2026-05-07T11:21:00Z</time>
    </trkpt>
    <trkpt lat="50.25957" lon="17.428063">
      <ele>824</ele>
      <time>2026-05-07T11:21:07Z</time>
    </trkpt>
    <trkpt lat="50.259628" lon="17.428091">
      <ele>822</ele>
      <time>2026-05-07T11:21:13Z</time>
    </trkpt>
    <trkpt lat="50.259741" lon="17.428155">
      <ele>820</ele>
      <time>2026-05-07T11:21:27Z</time>
    </trkpt>
    <trkpt lat="50.259851" lon="17.42824">
      <ele>818</ele>
      <time>2026-05-07T11:21:40Z</time>
    </trkpt>
    <trkpt lat="50.259971" lon="17.428372">
      <ele>817</ele>
      <time>2026-05-07T11:21:56Z</time>
    </trkpt>
    <trkpt lat="50.260211" lon="17.428718">
      <ele>818</ele>
      <time>2026-05-07T11:22:32Z</time>
    </trkpt>
    <trkpt lat="50.260338" lon="17.428887">
      <ele>818</ele>
      <time>2026-05-07T11:22:50Z</time>
    </trkpt>
    <trkpt lat="50.260541" lon="17.429092">
      <ele>813</ele>
      <time>2026-05-07T11:23:17Z</time>
    </trkpt>
    <trkpt lat="50.260868" lon="17.429362">
      <ele>804</ele>
      <time>2026-05-07T11:23:58Z</time>
    </trkpt>
    <trkpt lat="50.261169" lon="17.429691">
      <ele>797</ele>
      <time>2026-05-07T11:24:39Z</time>
    </trkpt>
    <trkpt lat="50.261326" lon="17.429823">
      <ele>793</ele>
      <time>2026-05-07T11:24:58Z</time>
    </trkpt>
    <trkpt lat="50.261445" lon="17.429931">
      <ele>789</ele>
      <time>2026-05-07T11:25:14Z</time>
    </trkpt>
    <trkpt lat="50.261586" lon="17.430084">
      <ele>785</ele>
      <time>2026-05-07T11:25:33Z</time>
    </trkpt>
    <trkpt lat="50.261844" lon="17.430274">
      <ele>780</ele>
      <time>2026-05-07T11:26:01Z</time>
    </trkpt>
    <trkpt lat="50.261917" lon="17.430324">
      <ele>780</ele>
      <time>2026-05-07T11:26:08Z</time>
    </trkpt>
    <trkpt lat="50.262026" lon="17.430414">
      <ele>778</ele>
      <time>2026-05-07T11:26:20Z</time>
    </trkpt>
    <trkpt lat="50.26223" lon="17.430607">
      <ele>775</ele>
      <time>2026-05-07T11:26:43Z</time>
    </trkpt>
    <trkpt lat="50.262416" lon="17.43074">
      <ele>773</ele>
      <time>2026-05-07T11:27:03Z</time>
    </trkpt>
    <trkpt lat="50.262603" lon="17.43085">
      <ele>771</ele>
      <time>2026-05-07T11:27:22Z</time>
    </trkpt>
    <trkpt lat="50.262821" lon="17.431025">
      <ele>770</ele>
      <time>2026-05-07T11:27:46Z</time>
    </trkpt>
    <trkpt lat="50.263052" lon="17.431215">
      <ele>769</ele>
      <time>2026-05-07T11:28:11Z</time>
    </trkpt>
    <trkpt lat="50.263061" lon="17.43126">
      <ele>769</ele>
      <time>2026-05-07T11:28:14Z</time>
    </trkpt>
    <trkpt lat="50.263073" lon="17.43132">
      <ele>769</ele>
      <time>2026-05-07T11:28:18Z</time>
    </trkpt>
    <trkpt lat="50.263122" lon="17.431492">
      <ele>770</ele>
      <time>2026-05-07T11:28:29Z</time>
    </trkpt>
    <trkpt lat="50.263172" lon="17.431617">
      <ele>770</ele>
      <time>2026-05-07T11:28:38Z</time>
    </trkpt>
    <trkpt lat="50.263265" lon="17.431655">
      <ele>768</ele>
      <time>2026-05-07T11:28:48Z</time>
    </trkpt>
    <trkpt lat="50.263344" lon="17.431687">
      <ele>767</ele>
      <time>2026-05-07T11:28:56Z</time>
    </trkpt>
    <trkpt lat="50.263421" lon="17.431698">
      <ele>765</ele>
      <time>2026-05-07T11:29:03Z</time>
    </trkpt>
    <trkpt lat="50.263531" lon="17.431735">
      <ele>762</ele>
      <time>2026-05-07T11:29:14Z</time>
    </trkpt>
    <trkpt lat="50.263638" lon="17.431734">
      <ele>759</ele>
      <time>2026-05-07T11:29:25Z</time>
    </trkpt>
    <trkpt lat="50.26372" lon="17.431695">
      <ele>757</ele>
      <time>2026-05-07T11:29:33Z</time>
    </trkpt>
    <trkpt lat="50.263789" lon="17.431695">
      <ele>755</ele>
      <time>2026-05-07T11:29:40Z</time>
    </trkpt>
    <trkpt lat="50.263841" lon="17.431727">
      <ele>753</ele>
      <time>2026-05-07T11:29:46Z</time>
    </trkpt>
    <trkpt lat="50.263946" lon="17.431773">
      <ele>750</ele>
      <time>2026-05-07T11:29:57Z</time>
    </trkpt>
    <trkpt lat="50.264008" lon="17.431794">
      <ele>748</ele>
      <time>2026-05-07T11:30:03Z</time>
    </trkpt>
    <trkpt lat="50.264095" lon="17.431894">
      <ele>745</ele>
      <time>2026-05-07T11:30:14Z</time>
    </trkpt>
    <trkpt lat="50.264167" lon="17.431963">
      <ele>742</ele>
      <time>2026-05-07T11:30:22Z</time>
    </trkpt>
    <trkpt lat="50.264278" lon="17.432006">
      <ele>739</ele>
      <time>2026-05-07T11:30:33Z</time>
    </trkpt>
    <trkpt lat="50.264411" lon="17.432044">
      <ele>734</ele>
      <time>2026-05-07T11:30:47Z</time>
    </trkpt>
    <trkpt lat="50.264537" lon="17.431971">
      <ele>731</ele>
      <time>2026-05-07T11:31:00Z</time>
    </trkpt>
    <trkpt lat="50.26465" lon="17.43185">
      <ele>727</ele>
      <time>2026-05-07T11:31:14Z</time>
    </trkpt>
    <trkpt lat="50.26476" lon="17.431754">
      <ele>724</ele>
      <time>2026-05-07T11:31:26Z</time>
    </trkpt>
    <trkpt lat="50.26485" lon="17.431686">
      <ele>720</ele>
      <time>2026-05-07T11:31:36Z</time>
    </trkpt>
    <trkpt lat="50.264957" lon="17.431599">
      <ele>715</ele>
      <time>2026-05-07T11:31:49Z</time>
    </trkpt>
    <trkpt lat="50.265146" lon="17.431374">
      <ele>708</ele>
      <time>2026-05-07T11:32:12Z</time>
    </trkpt>
    <trkpt lat="50.265299" lon="17.431324">
      <ele>701</ele>
      <time>2026-05-07T11:32:28Z</time>
    </trkpt>
    <trkpt lat="50.265477" lon="17.431291">
      <ele>693</ele>
      <time>2026-05-07T11:32:47Z</time>
    </trkpt>
    <trkpt lat="50.265568" lon="17.431244">
      <ele>690</ele>
      <time>2026-05-07T11:32:56Z</time>
    </trkpt>
    <trkpt lat="50.265707" lon="17.431126">
      <ele>685</ele>
      <time>2026-05-07T11:33:12Z</time>
    </trkpt>
    <trkpt lat="50.265885" lon="17.430868">
      <ele>681</ele>
      <time>2026-05-07T11:33:36Z</time>
    </trkpt>
    <trkpt lat="50.266123" lon="17.430569">
      <ele>675</ele>
      <time>2026-05-07T11:34:06Z</time>
    </trkpt>
    <trkpt lat="50.266303" lon="17.430319">
      <ele>672</ele>
      <time>2026-05-07T11:34:29Z</time>
    </trkpt>
    <trkpt lat="50.266372" lon="17.430225">
      <ele>671</ele>
      <time>2026-05-07T11:34:38Z</time>
    </trkpt>
    <trkpt lat="50.266404" lon="17.430092">
      <ele>670</ele>
      <time>2026-05-07T11:34:46Z</time>
    </trkpt>
    <trkpt lat="50.26643" lon="17.429993">
      <ele>670</ele>
      <time>2026-05-07T11:34:53Z</time>
    </trkpt>
    <trkpt lat="50.266464" lon="17.429894">
      <ele>669</ele>
      <time>2026-05-07T11:35:00Z</time>
    </trkpt>
    <trkpt lat="50.266546" lon="17.429699">
      <ele>668</ele>
      <time>2026-05-07T11:35:14Z</time>
    </trkpt>
    <trkpt lat="50.266693" lon="17.429565">
      <ele>665</ele>
      <time>2026-05-07T11:35:31Z</time>
    </trkpt>
    <trkpt lat="50.266786" lon="17.429384">
      <ele>663</ele>
      <time>2026-05-07T11:35:45Z</time>
    </trkpt>
    <trkpt lat="50.26691" lon="17.429262">
      <ele>660</ele>
      <time>2026-05-07T11:35:59Z</time>
    </trkpt>
    <trkpt lat="50.266976" lon="17.429151">
      <ele>659</ele>
      <time>2026-05-07T11:36:09Z</time>
    </trkpt>
    <trkpt lat="50.267037" lon="17.429091">
      <ele>658</ele>
      <time>2026-05-07T11:36:16Z</time>
    </trkpt>
    <trkpt lat="50.267102" lon="17.429061">
      <ele>657</ele>
      <time>2026-05-07T11:36:22Z</time>
    </trkpt>
    <trkpt lat="50.267195" lon="17.429088">
      <ele>655</ele>
      <time>2026-05-07T11:36:32Z</time>
    </trkpt>
    <trkpt lat="50.267437" lon="17.429147">
      <ele>650</ele>
      <time>2026-05-07T11:36:55Z</time>
    </trkpt>
    <trkpt lat="50.267552" lon="17.429147">
      <ele>648</ele>
      <time>2026-05-07T11:37:07Z</time>
    </trkpt>
    <trkpt lat="50.267709" lon="17.429034">
      <ele>643</ele>
      <time>2026-05-07T11:37:24Z</time>
    </trkpt>
    <trkpt lat="50.267824" lon="17.428938">
      <ele>641</ele>
      <time>2026-05-07T11:37:36Z</time>
    </trkpt>
    <trkpt lat="50.26792" lon="17.428887">
      <ele>639</ele>
      <time>2026-05-07T11:37:46Z</time>
    </trkpt>
    <trkpt lat="50.268004" lon="17.42889">
      <ele>638</ele>
      <time>2026-05-07T11:37:54Z</time>
    </trkpt>
    <trkpt lat="50.268094" lon="17.428934">
      <ele>636</ele>
      <time>2026-05-07T11:38:04Z</time>
    </trkpt>
    <trkpt lat="50.268191" lon="17.429008">
      <ele>635</ele>
      <time>2026-05-07T11:38:14Z</time>
    </trkpt>
    <trkpt lat="50.268265" lon="17.429139">
      <ele>633</ele>
      <time>2026-05-07T11:38:25Z</time>
    </trkpt>
    <trkpt lat="50.268332" lon="17.429311">
      <ele>633</ele>
      <time>2026-05-07T11:38:37Z</time>
    </trkpt>
    <trkpt lat="50.268395" lon="17.429388">
      <ele>631</ele>
      <time>2026-05-07T11:38:45Z</time>
    </trkpt>
    <trkpt lat="50.268485" lon="17.429486">
      <ele>629</ele>
      <time>2026-05-07T11:38:56Z</time>
    </trkpt>
    <trkpt lat="50.268542" lon="17.429578">
      <ele>627</ele>
      <time>2026-05-07T11:39:04Z</time>
    </trkpt>
    <trkpt lat="50.268575" lon="17.429693">
      <ele>625</ele>
      <time>2026-05-07T11:39:12Z</time>
    </trkpt>
    <trkpt lat="50.26862" lon="17.429875">
      <ele>622</ele>
      <time>2026-05-07T11:39:24Z</time>
    </trkpt>
    <trkpt lat="50.268699" lon="17.430049">
      <ele>619</ele>
      <time>2026-05-07T11:39:37Z</time>
    </trkpt>
    <trkpt lat="50.268798" lon="17.430171">
      <ele>617</ele>
      <time>2026-05-07T11:39:49Z</time>
    </trkpt>
    <trkpt lat="50.26891" lon="17.430196">
      <ele>615</ele>
      <time>2026-05-07T11:40:01Z</time>
    </trkpt>
    <trkpt lat="50.269079" lon="17.430314">
      <ele>610</ele>
      <time>2026-05-07T11:40:19Z</time>
    </trkpt>
    <trkpt lat="50.269168" lon="17.430319">
      <ele>608</ele>
      <time>2026-05-07T11:40:28Z</time>
    </trkpt>
    <trkpt lat="50.269257" lon="17.430279">
      <ele>606</ele>
      <time>2026-05-07T11:40:37Z</time>
    </trkpt>
    <trkpt lat="50.269605" lon="17.43007">
      <ele>597</ele>
      <time>2026-05-07T11:41:13Z</time>
    </trkpt>
    <trkpt lat="50.269698" lon="17.430014">
      <ele>595</ele>
      <time>2026-05-07T11:41:23Z</time>
    </trkpt>
    <trkpt lat="50.270042" lon="17.429901">
      <ele>586</ele>
      <time>2026-05-07T11:41:58Z</time>
    </trkpt>
    <trkpt lat="50.27012" lon="17.429804">
      <ele>584</ele>
      <time>2026-05-07T11:42:07Z</time>
    </trkpt>
    <trkpt lat="50.270159" lon="17.429764">
      <ele>583</ele>
      <time>2026-05-07T11:42:12Z</time>
    </trkpt>
    <trkpt lat="50.270217" lon="17.429716">
      <ele>581</ele>
      <time>2026-05-07T11:42:18Z</time>
    </trkpt>
    <trkpt lat="50.270315" lon="17.429722">
      <ele>578</ele>
      <time>2026-05-07T11:42:28Z</time>
    </trkpt>
    <trkpt lat="50.270692" lon="17.429745">
      <ele>566</ele>
      <time>2026-05-07T11:43:06Z</time>
    </trkpt>
    <trkpt lat="50.270857" lon="17.42974">
      <ele>560</ele>
      <time>2026-05-07T11:43:22Z</time>
    </trkpt>
    <trkpt lat="50.270946" lon="17.429743">
      <ele>558</ele>
      <time>2026-05-07T11:43:31Z</time>
    </trkpt>
    <trkpt lat="50.271021" lon="17.42978">
      <ele>555</ele>
      <time>2026-05-07T11:43:39Z</time>
    </trkpt>
    <trkpt lat="50.271124" lon="17.429906">
      <ele>552</ele>
      <time>2026-05-07T11:43:52Z</time>
    </trkpt>
    <trkpt lat="50.271268" lon="17.430188">
      <ele>549</ele>
      <time>2026-05-07T11:44:14Z</time>
    </trkpt>
    <trkpt lat="50.271369" lon="17.430322">
      <ele>548</ele>
      <time>2026-05-07T11:44:27Z</time>
    </trkpt>
    <trkpt lat="50.271476" lon="17.43041">
      <ele>545</ele>
      <time>2026-05-07T11:44:39Z</time>
    </trkpt>
    <trkpt lat="50.271546" lon="17.430491">
      <ele>544</ele>
      <time>2026-05-07T11:44:47Z</time>
    </trkpt>
    <trkpt lat="50.271627" lon="17.430566">
      <ele>542</ele>
      <time>2026-05-07T11:44:56Z</time>
    </trkpt>
    <trkpt lat="50.271717" lon="17.430601">
      <ele>540</ele>
      <time>2026-05-07T11:45:05Z</time>
    </trkpt>
    <trkpt lat="50.271801" lon="17.430638">
      <ele>538</ele>
      <time>2026-05-07T11:45:14Z</time>
    </trkpt>
    <trkpt lat="50.27188" lon="17.430689">
      <ele>536</ele>
      <time>2026-05-07T11:45:22Z</time>
    </trkpt>
    <trkpt lat="50.271994" lon="17.430786">
      <ele>533</ele>
      <time>2026-05-07T11:45:35Z</time>
    </trkpt>
    <trkpt lat="50.27218" lon="17.430901">
      <ele>529</ele>
      <time>2026-05-07T11:45:55Z</time>
    </trkpt>
    <trkpt lat="50.27229" lon="17.430941">
      <ele>526</ele>
      <time>2026-05-07T11:46:06Z</time>
    </trkpt>
    <trkpt lat="50.272357" lon="17.430968">
      <ele>524</ele>
      <time>2026-05-07T11:46:13Z</time>
    </trkpt>
    <trkpt lat="50.272541" lon="17.431121">
      <ele>518</ele>
      <time>2026-05-07T11:46:33Z</time>
    </trkpt>
    <trkpt lat="50.272765" lon="17.431371">
      <ele>511</ele>
      <time>2026-05-07T11:47:00Z</time>
    </trkpt>
    <trkpt lat="50.272887" lon="17.43154">
      <ele>508</ele>
      <time>2026-05-07T11:47:16Z</time>
    </trkpt>
    <trkpt lat="50.272975" lon="17.431721">
      <ele>505</ele>
      <time>2026-05-07T11:47:30Z</time>
    </trkpt>
    <trkpt lat="50.273183" lon="17.432103">
      <ele>500</ele>
      <time>2026-05-07T11:48:02Z</time>
    </trkpt>
    <trkpt lat="50.273262" lon="17.432226">
      <ele>498</ele>
      <time>2026-05-07T11:48:12Z</time>
    </trkpt>
    <trkpt lat="50.27331" lon="17.432272">
      <ele>497</ele>
      <time>2026-05-07T11:48:18Z</time>
    </trkpt>
    <trkpt lat="50.273368" lon="17.432277">
      <ele>496</ele>
      <time>2026-05-07T11:48:23Z</time>
    </trkpt>
    <trkpt lat="50.273473" lon="17.43225">
      <ele>495</ele>
      <time>2026-05-07T11:48:34Z</time>
    </trkpt>
    <trkpt lat="50.273574" lon="17.43217">
      <ele>494</ele>
      <time>2026-05-07T11:48:45Z</time>
    </trkpt>
    <trkpt lat="50.273859" lon="17.431986">
      <ele>491</ele>
      <time>2026-05-07T11:49:14Z</time>
    </trkpt>
    <trkpt lat="50.274172" lon="17.431797">
      <ele>489</ele>
      <time>2026-05-07T11:49:47Z</time>
    </trkpt>
    <trkpt lat="50.274522" lon="17.431566">
      <ele>484</ele>
      <time>2026-05-07T11:50:23Z</time>
    </trkpt>
    <trkpt lat="50.274742" lon="17.431392">
      <ele>480</ele>
      <time>2026-05-07T11:50:47Z</time>
    </trkpt>
    <trkpt lat="50.274983" lon="17.431231">
      <ele>476</ele>
      <time>2026-05-07T11:51:13Z</time>
    </trkpt>
    <trkpt lat="50.275141" lon="17.431159">
      <ele>473</ele>
      <time>2026-05-07T11:51:29Z</time>
    </trkpt>
    <trkpt lat="50.275377" lon="17.431127">
      <ele>468</ele>
      <time>2026-05-07T11:51:52Z</time>
    </trkpt>
    <trkpt lat="50.275777" lon="17.431129">
      <ele>456</ele>
      <time>2026-05-07T11:52:32Z</time>
    </trkpt>
    <trkpt lat="50.276178" lon="17.431112">
      <ele>447</ele>
      <time>2026-05-07T11:53:11Z</time>
    </trkpt>
    <trkpt lat="50.276343" lon="17.431081">
      <ele>444</ele>
      <time>2026-05-07T11:53:27Z</time>
    </trkpt>
    <trkpt lat="50.276459" lon="17.431033">
      <ele>442</ele>
      <time>2026-05-07T11:53:39Z</time>
    </trkpt>
    <trkpt lat="50.276594" lon="17.430976">
      <ele>439</ele>
      <time>2026-05-07T11:53:52Z</time>
    </trkpt>
    <trkpt lat="50.276708" lon="17.430866">
      <ele>437</ele>
      <time>2026-05-07T11:54:05Z</time>
    </trkpt>
    <trkpt lat="50.276814" lon="17.430724">
      <ele>436</ele>
      <time>2026-05-07T11:54:19Z</time>
    </trkpt>
    <trkpt lat="50.276946" lon="17.430542">
      <ele>435</ele>
      <time>2026-05-07T11:54:36Z</time>
    </trkpt>
    <trkpt lat="50.277155" lon="17.430322">
      <ele>433</ele>
      <time>2026-05-07T11:55:00Z</time>
    </trkpt>
    <trkpt lat="50.277275" lon="17.430223">
      <ele>433</ele>
      <time>2026-05-07T11:55:13Z</time>
    </trkpt>
    <trkpt lat="50.277431" lon="17.430169">
      <ele>431</ele>
      <time>2026-05-07T11:55:28Z</time>
    </trkpt>
    <trkpt lat="50.277683" lon="17.430075">
      <ele>429</ele>
      <time>2026-05-07T11:55:53Z</time>
    </trkpt>
    <trkpt lat="50.277993" lon="17.42996">
      <ele>426</ele>
      <time>2026-05-07T11:56:24Z</time>
    </trkpt>
    <trkpt lat="50.27813" lon="17.429909">
      <ele>424</ele>
      <time>2026-05-07T11:56:38Z</time>
    </trkpt>
    <trkpt lat="50.278261" lon="17.429844">
      <ele>421</ele>
      <time>2026-05-07T11:56:51Z</time>
    </trkpt>
    <trkpt lat="50.278418" lon="17.429716">
      <ele>417</ele>
      <time>2026-05-07T11:57:09Z</time>
    </trkpt>
    <trkpt lat="50.278511" lon="17.429576">
      <ele>413</ele>
      <time>2026-05-07T11:57:21Z</time>
    </trkpt>
    <trkpt lat="50.278581" lon="17.429496">
      <ele>410</ele>
      <time>2026-05-07T11:57:30Z</time>
    </trkpt>
    <trkpt lat="50.278633" lon="17.42948">
      <ele>409</ele>
      <time>2026-05-07T11:57:35Z</time>
    </trkpt>
    <trkpt lat="50.278699" lon="17.429493">
      <ele>406</ele>
      <time>2026-05-07T11:57:42Z</time>
    </trkpt>
    <trkpt lat="50.278759" lon="17.429544">
      <ele>405</ele>
      <time>2026-05-07T11:57:49Z</time>
    </trkpt>
    <trkpt lat="50.278852" lon="17.42959">
      <ele>402</ele>
      <time>2026-05-07T11:57:58Z</time>
    </trkpt>
    <trkpt lat="50.278864" lon="17.42985">
      <ele>402</ele>
      <time>2026-05-07T11:58:14Z</time>
    </trkpt>
    <trkpt lat="50.278879" lon="17.430078">
      <ele>402</ele>
      <time>2026-05-07T11:58:28Z</time>
    </trkpt>
    <trkpt lat="50.278895" lon="17.430327">
      <ele>401</ele>
      <time>2026-05-07T11:58:44Z</time>
    </trkpt>
    <trkpt lat="50.278926" lon="17.430963">
      <ele>395</ele>
      <time>2026-05-07T11:59:23Z</time>
    </trkpt>
    <trkpt lat="50.278929" lon="17.431395">
      <ele>394</ele>
      <time>2026-05-07T11:59:50Z</time>
    </trkpt>
    <trkpt lat="50.278903" lon="17.431604">
      <ele>394</ele>
      <time>2026-05-07T12:00:03Z</time>
    </trkpt>
    <trkpt lat="50.278848" lon="17.431856">
      <ele>396</ele>
      <time>2026-05-07T12:00:19Z</time>
    </trkpt>
    <trkpt lat="50.278833" lon="17.432071">
      <ele>400</ele>
      <time>2026-05-07T12:00:33Z</time>
    </trkpt>
    <trkpt lat="50.27893" lon="17.431965">
      <ele>396</ele>
      <time>2026-05-07T12:00:44Z</time>
    </trkpt>
    <trkpt lat="50.278992" lon="17.431887">
      <ele>394</ele>
      <time>2026-05-07T12:00:51Z</time>
    </trkpt>
    <trkpt lat="50.279313" lon="17.431446">
      <ele>391</ele>
      <time>2026-05-07T12:01:28Z</time>
    </trkpt>
    <trkpt lat="50.279662" lon="17.431012">
      <ele>388</ele>
      <time>2026-05-07T12:02:06Z</time>
    </trkpt>
    <trkpt lat="50.280987" lon="17.429069">
      <ele>376</ele>
      <time>2026-05-07T12:04:43Z</time>
    </trkpt>
    <trkpt lat="50.281115" lon="17.428898">
      <ele>375</ele>
      <time>2026-05-07T12:04:58Z</time>
    </trkpt>
    <trkpt lat="50.281225" lon="17.428781">
      <ele>374</ele>
      <time>2026-05-07T12:05:09Z</time>
    </trkpt>
    <trkpt lat="50.281481" lon="17.428734">
      <ele>372</ele>
      <time>2026-05-07T12:05:31Z</time>
    </trkpt>
    <trkpt lat="50.281537" lon="17.428724">
      <ele>372</ele>
      <time>2026-05-07T12:05:36Z</time>
    </trkpt>
    <trkpt lat="50.281569" lon="17.428695">
      <ele>371</ele>
      <time>2026-05-07T12:05:40Z</time>
    </trkpt>
    <trkpt lat="50.281999" lon="17.428294">
      <ele>369</ele>
      <time>2026-05-07T12:06:23Z</time>
    </trkpt>
    <trkpt lat="50.282208" lon="17.4281">
      <ele>367</ele>
      <time>2026-05-07T12:06:44Z</time>
    </trkpt>
    <trkpt lat="50.282504" lon="17.427825">
      <ele>366</ele>
      <time>2026-05-07T12:07:14Z</time>
    </trkpt>
    <trkpt lat="50.282896" lon="17.427384">
      <ele>365</ele>
      <time>2026-05-07T12:07:55Z</time>
    </trkpt>
    <trkpt lat="50.283067" lon="17.427192">
      <ele>364</ele>
      <time>2026-05-07T12:08:13Z</time>
    </trkpt>
    <trkpt lat="50.28325" lon="17.427015">
      <ele>362</ele>
      <time>2026-05-07T12:08:32Z</time>
    </trkpt>
    <trkpt lat="50.283305" lon="17.426961">
      <ele>361</ele>
      <time>2026-05-07T12:08:38Z</time>
    </trkpt>
    <trkpt lat="50.283404" lon="17.426883">
      <ele>361</ele>
      <time>2026-05-07T12:08:47Z</time>
    </trkpt>
    <trkpt lat="50.283596" lon="17.426758">
      <ele>361</ele>
      <time>2026-05-07T12:09:05Z</time>
    </trkpt>
    <trkpt lat="50.283829" lon="17.426582">
      <ele>360</ele>
      <time>2026-05-07T12:09:27Z</time>
    </trkpt>
    <trkpt lat="50.283868" lon="17.426543">
      <ele>360</ele>
      <time>2026-05-07T12:09:31Z</time>
    </trkpt>
    <trkpt lat="50.284007" lon="17.426355">
      <ele>358</ele>
      <time>2026-05-07T12:09:47Z</time>
    </trkpt>
    <trkpt lat="50.284054" lon="17.426304">
      <ele>358</ele>
      <time>2026-05-07T12:09:52Z</time>
    </trkpt>
    <trkpt lat="50.284068" lon="17.426289">
      <ele>358</ele>
      <time>2026-05-07T12:09:54Z</time>
    </trkpt>
    <trkpt lat="50.284314" lon="17.426164">
      <ele>357</ele>
      <time>2026-05-07T12:10:16Z</time>
    </trkpt>
    <trkpt lat="50.28439" lon="17.426159">
      <ele>357</ele>
      <time>2026-05-07T12:10:23Z</time>
    </trkpt>
    <trkpt lat="50.284453" lon="17.426127">
      <ele>357</ele>
      <time>2026-05-07T12:10:28Z</time>
    </trkpt>
    <trkpt lat="50.284502" lon="17.426091">
      <ele>357</ele>
      <time>2026-05-07T12:10:33Z</time>
    </trkpt>
  </trkseg>
</trk>
</gpx>