<?xml version="1.0" encoding="UTF-8"?><gpx creator="https://mapa-turystyczna.pl" xmlns="http://www.topografix.com/GPX/1/1" version="1.1" xmlns:xsi="http://www.w3.org/2001/XMLSchema-instance" xsi:schemaLocation="http://www.topografix.com/GPX/1/1 http://www.topografix.com/GPX/1/1/gpx.xsd">
  <metadata>
    <link href="https://mapa-turystyczna.pl">
      <text>mapa-turystyczna.pl</text>
    </link>
    <time>2026-05-07T08:18:13Z</time>
    <bounds maxlat="50.684909" maxlon="16.278944" minlat="50.680855" minlon="16.27812"/>
  </metadata>

<trk>
  <name>Schronisko PTTK Andrzejówka – Schronisko PTTK Andrzejówka</name>
  <link href="https://mapa-turystyczna.pl/route/5vj4">
    <text>Schronisko PTTK Andrzejówka – Schronisko PTTK Andrzejówka</text>
  </link>
  <trkseg>
    <trkpt lat="50.684909" lon="16.278203">
      <ele>796</ele>
      <time>2026-05-07T08:18:13Z</time>
    </trkpt>
    <trkpt lat="50.684811" lon="16.278226">
      <ele>796</ele>
      <time>2026-05-07T08:18:36Z</time>
    </trkpt>
    <trkpt lat="50.684659" lon="16.278272">
      <ele>797</ele>
      <time>2026-05-07T08:19:13Z</time>
    </trkpt>
    <trkpt lat="50.684471" lon="16.278383">
      <ele>798</ele>
      <time>2026-05-07T08:19:41Z</time>
    </trkpt>
    <trkpt lat="50.684424" lon="16.278412">
      <ele>799</ele>
      <time>2026-05-07T08:19:48Z</time>
    </trkpt>
    <trkpt lat="50.684072" lon="16.278624">
      <ele>805</ele>
      <time>2026-05-07T08:20:41Z</time>
    </trkpt>
    <trkpt lat="50.68366" lon="16.278833">
      <ele>809</ele>
      <time>2026-05-07T08:21:41Z</time>
    </trkpt>
    <trkpt lat="50.68344" lon="16.278944">
      <ele>811</ele>
      <time>2026-05-07T08:22:13Z</time>
    </trkpt>
    <trkpt lat="50.683346" lon="16.278918">
      <ele>811</ele>
      <time>2026-05-07T08:22:31Z</time>
    </trkpt>
    <trkpt lat="50.683254" lon="16.278884">
      <ele>812</ele>
      <time>2026-05-07T08:22:49Z</time>
    </trkpt>
    <trkpt lat="50.683196" lon="16.27887">
      <ele>812</ele>
      <time>2026-05-07T08:23:01Z</time>
    </trkpt>
    <trkpt lat="50.683139" lon="16.278825">
      <ele>812</ele>
      <time>2026-05-07T08:23:13Z</time>
    </trkpt>
    <trkpt lat="50.683042" lon="16.278892">
      <ele>813</ele>
      <time>2026-05-07T08:23:48Z</time>
    </trkpt>
    <trkpt lat="50.682961" lon="16.278895">
      <ele>815</ele>
      <time>2026-05-07T08:24:15Z</time>
    </trkpt>
    <trkpt lat="50.682893" lon="16.278847">
      <ele>816</ele>
      <time>2026-05-07T08:24:40Z</time>
    </trkpt>
    <trkpt lat="50.682815" lon="16.278777">
      <ele>818</ele>
      <time>2026-05-07T08:25:09Z</time>
    </trkpt>
    <trkpt lat="50.68274" lon="16.278737">
      <ele>820</ele>
      <time>2026-05-07T08:25:36Z</time>
    </trkpt>
    <trkpt lat="50.682614" lon="16.278723">
      <ele>824</ele>
      <time>2026-05-07T08:26:19Z</time>
    </trkpt>
    <trkpt lat="50.682486" lon="16.278731">
      <ele>828</ele>
      <time>2026-05-07T08:27:03Z</time>
    </trkpt>
    <trkpt lat="50.682395" lon="16.278667">
      <ele>833</ele>
      <time>2026-05-07T08:27:38Z</time>
    </trkpt>
    <trkpt lat="50.68232" lon="16.278597">
      <ele>837</ele>
      <time>2026-05-07T08:28:09Z</time>
    </trkpt>
    <trkpt lat="50.682203" lon="16.278581">
      <ele>843</ele>
      <time>2026-05-07T08:28:53Z</time>
    </trkpt>
    <trkpt lat="50.682095" lon="16.278523">
      <ele>856</ele>
      <time>2026-05-07T08:29:45Z</time>
    </trkpt>
    <trkpt lat="50.681939" lon="16.278357">
      <ele>875</ele>
      <time>2026-05-07T08:31:09Z</time>
    </trkpt>
    <trkpt lat="50.681864" lon="16.278324">
      <ele>882</ele>
      <time>2026-05-07T08:31:42Z</time>
    </trkpt>
    <trkpt lat="50.6818" lon="16.278297">
      <ele>888</ele>
      <time>2026-05-07T08:32:10Z</time>
    </trkpt>
    <trkpt lat="50.681722" lon="16.278335">
      <ele>896</ele>
      <time>2026-05-07T08:32:45Z</time>
    </trkpt>
    <trkpt lat="50.681681" lon="16.278394">
      <ele>898</ele>
      <time>2026-05-07T08:33:04Z</time>
    </trkpt>
    <trkpt lat="50.681623" lon="16.278455">
      <ele>901</ele>
      <time>2026-05-07T08:33:28Z</time>
    </trkpt>
    <trkpt lat="50.68157" lon="16.278463">
      <ele>903</ele>
      <time>2026-05-07T08:33:48Z</time>
    </trkpt>
    <trkpt lat="50.681479" lon="16.278421">
      <ele>909</ele>
      <time>2026-05-07T08:34:23Z</time>
    </trkpt>
    <trkpt lat="50.681343" lon="16.278353">
      <ele>917</ele>
      <time>2026-05-07T08:35:16Z</time>
    </trkpt>
    <trkpt lat="50.681244" lon="16.278267">
      <ele>921</ele>
      <time>2026-05-07T08:35:54Z</time>
    </trkpt>
    <trkpt lat="50.681191" lon="16.278227">
      <ele>923</ele>
      <time>2026-05-07T08:36:14Z</time>
    </trkpt>
    <trkpt lat="50.681123" lon="16.278219">
      <ele>925</ele>
      <time>2026-05-07T08:36:38Z</time>
    </trkpt>
    <trkpt lat="50.680934" lon="16.278187">
      <ele>931</ele>
      <time>2026-05-07T08:37:42Z</time>
    </trkpt>
    <trkpt lat="50.680855" lon="16.27812">
      <ele>934</ele>
      <time>2026-05-07T08:38:13Z</time>
    </trkpt>
    <trkpt lat="50.680934" lon="16.278187">
      <ele>931</ele>
      <time>2026-05-07T08:38:23Z</time>
    </trkpt>
    <trkpt lat="50.681123" lon="16.278219">
      <ele>925</ele>
      <time>2026-05-07T08:38:45Z</time>
    </trkpt>
    <trkpt lat="50.681191" lon="16.278227">
      <ele>923</ele>
      <time>2026-05-07T08:38:53Z</time>
    </trkpt>
    <trkpt lat="50.681244" lon="16.278267">
      <ele>921</ele>
      <time>2026-05-07T08:38:59Z</time>
    </trkpt>
    <trkpt lat="50.681343" lon="16.278353">
      <ele>917</ele>
      <time>2026-05-07T08:39:12Z</time>
    </trkpt>
    <trkpt lat="50.681479" lon="16.278421">
      <ele>909</ele>
      <time>2026-05-07T08:39:30Z</time>
    </trkpt>
    <trkpt lat="50.68157" lon="16.278463">
      <ele>903</ele>
      <time>2026-05-07T08:39:41Z</time>
    </trkpt>
    <trkpt lat="50.681623" lon="16.278455">
      <ele>901</ele>
      <time>2026-05-07T08:39:48Z</time>
    </trkpt>
    <trkpt lat="50.681681" lon="16.278394">
      <ele>898</ele>
      <time>2026-05-07T08:39:56Z</time>
    </trkpt>
    <trkpt lat="50.681722" lon="16.278335">
      <ele>896</ele>
      <time>2026-05-07T08:40:02Z</time>
    </trkpt>
    <trkpt lat="50.6818" lon="16.278297">
      <ele>888</ele>
      <time>2026-05-07T08:40:14Z</time>
    </trkpt>
    <trkpt lat="50.681864" lon="16.278324">
      <ele>882</ele>
      <time>2026-05-07T08:40:23Z</time>
    </trkpt>
    <trkpt lat="50.681939" lon="16.278357">
      <ele>875</ele>
      <time>2026-05-07T08:40:34Z</time>
    </trkpt>
    <trkpt lat="50.682095" lon="16.278523">
      <ele>856</ele>
      <time>2026-05-07T08:41:02Z</time>
    </trkpt>
    <trkpt lat="50.682203" lon="16.278581">
      <ele>843</ele>
      <time>2026-05-07T08:41:20Z</time>
    </trkpt>
    <trkpt lat="50.68232" lon="16.278597">
      <ele>837</ele>
      <time>2026-05-07T08:41:34Z</time>
    </trkpt>
    <trkpt lat="50.682395" lon="16.278667">
      <ele>833</ele>
      <time>2026-05-07T08:41:45Z</time>
    </trkpt>
    <trkpt lat="50.682486" lon="16.278731">
      <ele>828</ele>
      <time>2026-05-07T08:41:56Z</time>
    </trkpt>
    <trkpt lat="50.682614" lon="16.278723">
      <ele>824</ele>
      <time>2026-05-07T08:42:11Z</time>
    </trkpt>
    <trkpt lat="50.68274" lon="16.278737">
      <ele>820</ele>
      <time>2026-05-07T08:42:25Z</time>
    </trkpt>
    <trkpt lat="50.682815" lon="16.278777">
      <ele>818</ele>
      <time>2026-05-07T08:42:34Z</time>
    </trkpt>
    <trkpt lat="50.682893" lon="16.278847">
      <ele>816</ele>
      <time>2026-05-07T08:42:44Z</time>
    </trkpt>
    <trkpt lat="50.682961" lon="16.278895">
      <ele>815</ele>
      <time>2026-05-07T08:42:52Z</time>
    </trkpt>
    <trkpt lat="50.683042" lon="16.278892">
      <ele>813</ele>
      <time>2026-05-07T08:43:01Z</time>
    </trkpt>
    <trkpt lat="50.683139" lon="16.278825">
      <ele>812</ele>
      <time>2026-05-07T08:43:13Z</time>
    </trkpt>
    <trkpt lat="50.683196" lon="16.27887">
      <ele>812</ele>
      <time>2026-05-07T08:43:25Z</time>
    </trkpt>
    <trkpt lat="50.683254" lon="16.278884">
      <ele>812</ele>
      <time>2026-05-07T08:43:37Z</time>
    </trkpt>
    <trkpt lat="50.683346" lon="16.278918">
      <ele>811</ele>
      <time>2026-05-07T08:43:55Z</time>
    </trkpt>
    <trkpt lat="50.68344" lon="16.278944">
      <ele>811</ele>
      <time>2026-05-07T08:44:13Z</time>
    </trkpt>
    <trkpt lat="50.68366" lon="16.278833">
      <ele>809</ele>
      <time>2026-05-07T08:44:34Z</time>
    </trkpt>
    <trkpt lat="50.684072" lon="16.278624">
      <ele>805</ele>
      <time>2026-05-07T08:45:15Z</time>
    </trkpt>
    <trkpt lat="50.684424" lon="16.278412">
      <ele>799</ele>
      <time>2026-05-07T08:45:50Z</time>
    </trkpt>
    <trkpt lat="50.684471" lon="16.278383">
      <ele>798</ele>
      <time>2026-05-07T08:45:54Z</time>
    </trkpt>
    <trkpt lat="50.684659" lon="16.278272">
      <ele>797</ele>
      <time>2026-05-07T08:46:13Z</time>
    </trkpt>
    <trkpt lat="50.684811" lon="16.278226">
      <ele>796</ele>
      <time>2026-05-07T08:46:50Z</time>
    </trkpt>
    <trkpt lat="50.684909" lon="16.278203">
      <ele>796</ele>
      <time>2026-05-07T08:47:13Z</time>
    </trkpt>
  </trkseg>
</trk>
</gpx>