<?xml version="1.0" encoding="UTF-8"?><gpx creator="https://mapa-turystyczna.pl" xmlns="http://www.topografix.com/GPX/1/1" version="1.1" xmlns:xsi="http://www.w3.org/2001/XMLSchema-instance" xsi:schemaLocation="http://www.topografix.com/GPX/1/1 http://www.topografix.com/GPX/1/1/gpx.xsd">
  <metadata>
    <link href="https://mapa-turystyczna.pl">
      <text>mapa-turystyczna.pl</text>
    </link>
    <time>2026-05-07T08:18:51Z</time>
    <bounds maxlat="50.687301" maxlon="16.278944" minlat="50.680855" minlon="16.239677"/>
  </metadata>

<trk>
  <name>Sokołowsko – Sokołowsko</name>
  <link href="https://mapa-turystyczna.pl/route/h8dr">
    <text>Sokołowsko – Sokołowsko</text>
  </link>
  <trkseg>
    <trkpt lat="50.687171" lon="16.239866">
      <ele>578</ele>
      <time>2026-05-07T08:18:51Z</time>
    </trkpt>
    <trkpt lat="50.686977" lon="16.239791">
      <ele>580</ele>
      <time>2026-05-07T08:19:15Z</time>
    </trkpt>
    <trkpt lat="50.686892" lon="16.239754">
      <ele>580</ele>
      <time>2026-05-07T08:19:26Z</time>
    </trkpt>
    <trkpt lat="50.68686" lon="16.23974">
      <ele>580</ele>
      <time>2026-05-07T08:19:30Z</time>
    </trkpt>
    <trkpt lat="50.686794" lon="16.239712">
      <ele>579</ele>
      <time>2026-05-07T08:19:38Z</time>
    </trkpt>
    <trkpt lat="50.686713" lon="16.239677">
      <ele>579</ele>
      <time>2026-05-07T08:19:48Z</time>
    </trkpt>
    <trkpt lat="50.686613" lon="16.239682">
      <ele>579</ele>
      <time>2026-05-07T08:20:00Z</time>
    </trkpt>
    <trkpt lat="50.686445" lon="16.239691">
      <ele>577</ele>
      <time>2026-05-07T08:20:20Z</time>
    </trkpt>
    <trkpt lat="50.686114" lon="16.239735">
      <ele>578</ele>
      <time>2026-05-07T08:21:00Z</time>
    </trkpt>
    <trkpt lat="50.685863" lon="16.239765">
      <ele>581</ele>
      <time>2026-05-07T08:21:31Z</time>
    </trkpt>
    <trkpt lat="50.685604" lon="16.239823">
      <ele>583</ele>
      <time>2026-05-07T08:22:02Z</time>
    </trkpt>
    <trkpt lat="50.685513" lon="16.239857">
      <ele>584</ele>
      <time>2026-05-07T08:22:14Z</time>
    </trkpt>
    <trkpt lat="50.685448" lon="16.239894">
      <ele>585</ele>
      <time>2026-05-07T08:22:22Z</time>
    </trkpt>
    <trkpt lat="50.685244" lon="16.239986">
      <ele>587</ele>
      <time>2026-05-07T08:22:48Z</time>
    </trkpt>
    <trkpt lat="50.684937" lon="16.240126">
      <ele>591</ele>
      <time>2026-05-07T08:23:26Z</time>
    </trkpt>
    <trkpt lat="50.684736" lon="16.24007">
      <ele>592</ele>
      <time>2026-05-07T08:23:51Z</time>
    </trkpt>
    <trkpt lat="50.684539" lon="16.239987">
      <ele>591</ele>
      <time>2026-05-07T08:24:10Z</time>
    </trkpt>
    <trkpt lat="50.684413" lon="16.23998">
      <ele>590</ele>
      <time>2026-05-07T08:24:21Z</time>
    </trkpt>
    <trkpt lat="50.684091" lon="16.239983">
      <ele>587</ele>
      <time>2026-05-07T08:24:51Z</time>
    </trkpt>
    <trkpt lat="50.684012" lon="16.23999">
      <ele>587</ele>
      <time>2026-05-07T08:24:59Z</time>
    </trkpt>
    <trkpt lat="50.683791" lon="16.239993">
      <ele>586</ele>
      <time>2026-05-07T08:25:19Z</time>
    </trkpt>
    <trkpt lat="50.683749" lon="16.239993">
      <ele>586</ele>
      <time>2026-05-07T08:25:23Z</time>
    </trkpt>
    <trkpt lat="50.683635" lon="16.239979">
      <ele>586</ele>
      <time>2026-05-07T08:25:33Z</time>
    </trkpt>
    <trkpt lat="50.683409" lon="16.239947">
      <ele>585</ele>
      <time>2026-05-07T08:25:54Z</time>
    </trkpt>
    <trkpt lat="50.683299" lon="16.239951">
      <ele>585</ele>
      <time>2026-05-07T08:26:04Z</time>
    </trkpt>
    <trkpt lat="50.682808" lon="16.240138">
      <ele>585</ele>
      <time>2026-05-07T08:26:51Z</time>
    </trkpt>
    <trkpt lat="50.682346" lon="16.24032">
      <ele>589</ele>
      <time>2026-05-07T08:28:19Z</time>
    </trkpt>
    <trkpt lat="50.68224" lon="16.240365">
      <ele>590</ele>
      <time>2026-05-07T08:28:39Z</time>
    </trkpt>
    <trkpt lat="50.682195" lon="16.240384">
      <ele>591</ele>
      <time>2026-05-07T08:28:48Z</time>
    </trkpt>
    <trkpt lat="50.681964" lon="16.24048">
      <ele>596</ele>
      <time>2026-05-07T08:29:32Z</time>
    </trkpt>
    <trkpt lat="50.681868" lon="16.240429">
      <ele>598</ele>
      <time>2026-05-07T08:29:51Z</time>
    </trkpt>
    <trkpt lat="50.681721" lon="16.240335">
      <ele>599</ele>
      <time>2026-05-07T08:30:51Z</time>
    </trkpt>
    <trkpt lat="50.681868" lon="16.240429">
      <ele>598</ele>
      <time>2026-05-07T08:31:51Z</time>
    </trkpt>
    <trkpt lat="50.681964" lon="16.24048">
      <ele>596</ele>
      <time>2026-05-07T08:32:03Z</time>
    </trkpt>
    <trkpt lat="50.682195" lon="16.240384">
      <ele>591</ele>
      <time>2026-05-07T08:32:33Z</time>
    </trkpt>
    <trkpt lat="50.68224" lon="16.240365">
      <ele>590</ele>
      <time>2026-05-07T08:32:39Z</time>
    </trkpt>
    <trkpt lat="50.682346" lon="16.24032">
      <ele>589</ele>
      <time>2026-05-07T08:32:53Z</time>
    </trkpt>
    <trkpt lat="50.682808" lon="16.240138">
      <ele>585</ele>
      <time>2026-05-07T08:33:51Z</time>
    </trkpt>
    <trkpt lat="50.683299" lon="16.239951">
      <ele>585</ele>
      <time>2026-05-07T08:35:09Z</time>
    </trkpt>
    <trkpt lat="50.683409" lon="16.239947">
      <ele>585</ele>
      <time>2026-05-07T08:35:26Z</time>
    </trkpt>
    <trkpt lat="50.683635" lon="16.239979">
      <ele>586</ele>
      <time>2026-05-07T08:36:00Z</time>
    </trkpt>
    <trkpt lat="50.683749" lon="16.239993">
      <ele>586</ele>
      <time>2026-05-07T08:36:18Z</time>
    </trkpt>
    <trkpt lat="50.683791" lon="16.239993">
      <ele>586</ele>
      <time>2026-05-07T08:36:24Z</time>
    </trkpt>
    <trkpt lat="50.684012" lon="16.23999">
      <ele>587</ele>
      <time>2026-05-07T08:36:58Z</time>
    </trkpt>
    <trkpt lat="50.684091" lon="16.239983">
      <ele>587</ele>
      <time>2026-05-07T08:37:11Z</time>
    </trkpt>
    <trkpt lat="50.684413" lon="16.23998">
      <ele>590</ele>
      <time>2026-05-07T08:38:00Z</time>
    </trkpt>
    <trkpt lat="50.684539" lon="16.239987">
      <ele>591</ele>
      <time>2026-05-07T08:38:20Z</time>
    </trkpt>
    <trkpt lat="50.684736" lon="16.24007">
      <ele>592</ele>
      <time>2026-05-07T08:38:51Z</time>
    </trkpt>
    <trkpt lat="50.684937" lon="16.240126">
      <ele>591</ele>
      <time>2026-05-07T08:39:16Z</time>
    </trkpt>
    <trkpt lat="50.685244" lon="16.239986">
      <ele>587</ele>
      <time>2026-05-07T08:39:54Z</time>
    </trkpt>
    <trkpt lat="50.685448" lon="16.239894">
      <ele>585</ele>
      <time>2026-05-07T08:40:20Z</time>
    </trkpt>
    <trkpt lat="50.685513" lon="16.239857">
      <ele>584</ele>
      <time>2026-05-07T08:40:28Z</time>
    </trkpt>
    <trkpt lat="50.685604" lon="16.239823">
      <ele>583</ele>
      <time>2026-05-07T08:40:40Z</time>
    </trkpt>
    <trkpt lat="50.685863" lon="16.239765">
      <ele>581</ele>
      <time>2026-05-07T08:41:11Z</time>
    </trkpt>
    <trkpt lat="50.686114" lon="16.239735">
      <ele>578</ele>
      <time>2026-05-07T08:41:42Z</time>
    </trkpt>
    <trkpt lat="50.686445" lon="16.239691">
      <ele>577</ele>
      <time>2026-05-07T08:42:22Z</time>
    </trkpt>
    <trkpt lat="50.686613" lon="16.239682">
      <ele>579</ele>
      <time>2026-05-07T08:42:42Z</time>
    </trkpt>
    <trkpt lat="50.686713" lon="16.239677">
      <ele>579</ele>
      <time>2026-05-07T08:42:54Z</time>
    </trkpt>
    <trkpt lat="50.686794" lon="16.239712">
      <ele>579</ele>
      <time>2026-05-07T08:43:04Z</time>
    </trkpt>
    <trkpt lat="50.68686" lon="16.23974">
      <ele>580</ele>
      <time>2026-05-07T08:43:12Z</time>
    </trkpt>
    <trkpt lat="50.686892" lon="16.239754">
      <ele>580</ele>
      <time>2026-05-07T08:43:16Z</time>
    </trkpt>
    <trkpt lat="50.686977" lon="16.239791">
      <ele>580</ele>
      <time>2026-05-07T08:43:27Z</time>
    </trkpt>
    <trkpt lat="50.687171" lon="16.239866">
      <ele>578</ele>
      <time>2026-05-07T08:43:51Z</time>
    </trkpt>
    <trkpt lat="50.687126" lon="16.240225">
      <ele>578</ele>
      <time>2026-05-07T08:44:19Z</time>
    </trkpt>
    <trkpt lat="50.687083" lon="16.240601">
      <ele>578</ele>
      <time>2026-05-07T08:44:49Z</time>
    </trkpt>
    <trkpt lat="50.687043" lon="16.240953">
      <ele>579</ele>
      <time>2026-05-07T08:45:16Z</time>
    </trkpt>
    <trkpt lat="50.687" lon="16.241163">
      <ele>580</ele>
      <time>2026-05-07T08:45:33Z</time>
    </trkpt>
    <trkpt lat="50.686948" lon="16.241382">
      <ele>580</ele>
      <time>2026-05-07T08:45:51Z</time>
    </trkpt>
    <trkpt lat="50.686794" lon="16.242033">
      <ele>581</ele>
      <time>2026-05-07T08:46:45Z</time>
    </trkpt>
    <trkpt lat="50.686774" lon="16.242323">
      <ele>581</ele>
      <time>2026-05-07T08:47:08Z</time>
    </trkpt>
    <trkpt lat="50.686766" lon="16.242435">
      <ele>582</ele>
      <time>2026-05-07T08:47:16Z</time>
    </trkpt>
    <trkpt lat="50.68675" lon="16.242853">
      <ele>583</ele>
      <time>2026-05-07T08:47:49Z</time>
    </trkpt>
    <trkpt lat="50.686775" lon="16.242901">
      <ele>583</ele>
      <time>2026-05-07T08:47:54Z</time>
    </trkpt>
    <trkpt lat="50.686828" lon="16.243002">
      <ele>584</ele>
      <time>2026-05-07T08:48:04Z</time>
    </trkpt>
    <trkpt lat="50.686871" lon="16.243085">
      <ele>584</ele>
      <time>2026-05-07T08:48:12Z</time>
    </trkpt>
    <trkpt lat="50.686917" lon="16.243369">
      <ele>585</ele>
      <time>2026-05-07T08:48:35Z</time>
    </trkpt>
    <trkpt lat="50.686973" lon="16.243709">
      <ele>585</ele>
      <time>2026-05-07T08:49:02Z</time>
    </trkpt>
    <trkpt lat="50.687014" lon="16.243894">
      <ele>585</ele>
      <time>2026-05-07T08:49:17Z</time>
    </trkpt>
    <trkpt lat="50.687075" lon="16.244102">
      <ele>586</ele>
      <time>2026-05-07T08:49:35Z</time>
    </trkpt>
    <trkpt lat="50.68712" lon="16.244353">
      <ele>587</ele>
      <time>2026-05-07T08:49:55Z</time>
    </trkpt>
    <trkpt lat="50.687116" lon="16.244583">
      <ele>587</ele>
      <time>2026-05-07T08:50:12Z</time>
    </trkpt>
    <trkpt lat="50.687002" lon="16.245325">
      <ele>589</ele>
      <time>2026-05-07T08:51:11Z</time>
    </trkpt>
    <trkpt lat="50.686981" lon="16.245632">
      <ele>591</ele>
      <time>2026-05-07T08:51:35Z</time>
    </trkpt>
    <trkpt lat="50.687001" lon="16.245986">
      <ele>593</ele>
      <time>2026-05-07T08:52:03Z</time>
    </trkpt>
    <trkpt lat="50.687009" lon="16.246121">
      <ele>594</ele>
      <time>2026-05-07T08:52:13Z</time>
    </trkpt>
    <trkpt lat="50.687091" lon="16.246815">
      <ele>595</ele>
      <time>2026-05-07T08:53:08Z</time>
    </trkpt>
    <trkpt lat="50.687142" lon="16.247761">
      <ele>600</ele>
      <time>2026-05-07T08:54:21Z</time>
    </trkpt>
    <trkpt lat="50.687163" lon="16.248161">
      <ele>603</ele>
      <time>2026-05-07T08:54:53Z</time>
    </trkpt>
    <trkpt lat="50.687148" lon="16.248377">
      <ele>604</ele>
      <time>2026-05-07T08:55:09Z</time>
    </trkpt>
    <trkpt lat="50.687145" lon="16.24842">
      <ele>604</ele>
      <time>2026-05-07T08:55:13Z</time>
    </trkpt>
    <trkpt lat="50.687122" lon="16.24875">
      <ele>608</ele>
      <time>2026-05-07T08:55:39Z</time>
    </trkpt>
    <trkpt lat="50.687105" lon="16.249005">
      <ele>610</ele>
      <time>2026-05-07T08:55:59Z</time>
    </trkpt>
    <trkpt lat="50.687048" lon="16.249335">
      <ele>613</ele>
      <time>2026-05-07T08:56:25Z</time>
    </trkpt>
    <trkpt lat="50.68698" lon="16.249536">
      <ele>613</ele>
      <time>2026-05-07T08:56:43Z</time>
    </trkpt>
    <trkpt lat="50.686778" lon="16.250153">
      <ele>615</ele>
      <time>2026-05-07T08:57:36Z</time>
    </trkpt>
    <trkpt lat="50.686511" lon="16.250818">
      <ele>614</ele>
      <time>2026-05-07T08:58:37Z</time>
    </trkpt>
    <trkpt lat="50.686375" lon="16.251266">
      <ele>615</ele>
      <time>2026-05-07T08:59:16Z</time>
    </trkpt>
    <trkpt lat="50.68629" lon="16.251645">
      <ele>618</ele>
      <time>2026-05-07T08:59:47Z</time>
    </trkpt>
    <trkpt lat="50.686272" lon="16.25183">
      <ele>620</ele>
      <time>2026-05-07T09:00:01Z</time>
    </trkpt>
    <trkpt lat="50.686304" lon="16.252369">
      <ele>628</ele>
      <time>2026-05-07T09:00:44Z</time>
    </trkpt>
    <trkpt lat="50.686425" lon="16.253661">
      <ele>631</ele>
      <time>2026-05-07T09:02:25Z</time>
    </trkpt>
    <trkpt lat="50.686578" lon="16.254773">
      <ele>629</ele>
      <time>2026-05-07T09:03:53Z</time>
    </trkpt>
    <trkpt lat="50.686807" lon="16.255691">
      <ele>635</ele>
      <time>2026-05-07T09:05:09Z</time>
    </trkpt>
    <trkpt lat="50.686974" lon="16.256341">
      <ele>637</ele>
      <time>2026-05-07T09:06:03Z</time>
    </trkpt>
    <trkpt lat="50.687071" lon="16.256863">
      <ele>638</ele>
      <time>2026-05-07T09:06:45Z</time>
    </trkpt>
    <trkpt lat="50.687163" lon="16.258086">
      <ele>638</ele>
      <time>2026-05-07T09:08:20Z</time>
    </trkpt>
    <trkpt lat="50.687228" lon="16.259081">
      <ele>642</ele>
      <time>2026-05-07T09:09:38Z</time>
    </trkpt>
    <trkpt lat="50.687276" lon="16.259759">
      <ele>648</ele>
      <time>2026-05-07T09:10:31Z</time>
    </trkpt>
    <trkpt lat="50.687301" lon="16.260274">
      <ele>653</ele>
      <time>2026-05-07T09:11:11Z</time>
    </trkpt>
    <trkpt lat="50.687291" lon="16.260731">
      <ele>655</ele>
      <time>2026-05-07T09:11:46Z</time>
    </trkpt>
    <trkpt lat="50.687252" lon="16.260946">
      <ele>655</ele>
      <time>2026-05-07T09:12:04Z</time>
    </trkpt>
    <trkpt lat="50.687186" lon="16.261168">
      <ele>655</ele>
      <time>2026-05-07T09:12:23Z</time>
    </trkpt>
    <trkpt lat="50.687073" lon="16.261334">
      <ele>654</ele>
      <time>2026-05-07T09:12:41Z</time>
    </trkpt>
    <trkpt lat="50.686937" lon="16.261435">
      <ele>652</ele>
      <time>2026-05-07T09:13:00Z</time>
    </trkpt>
    <trkpt lat="50.686529" lon="16.261587">
      <ele>655</ele>
      <time>2026-05-07T09:13:51Z</time>
    </trkpt>
    <trkpt lat="50.68642" lon="16.262529">
      <ele>673</ele>
      <time>2026-05-07T09:15:42Z</time>
    </trkpt>
    <trkpt lat="50.68639" lon="16.262923">
      <ele>680</ele>
      <time>2026-05-07T09:16:27Z</time>
    </trkpt>
    <trkpt lat="50.686405" lon="16.263204">
      <ele>685</ele>
      <time>2026-05-07T09:17:00Z</time>
    </trkpt>
    <trkpt lat="50.686395" lon="16.2635">
      <ele>691</ele>
      <time>2026-05-07T09:17:34Z</time>
    </trkpt>
    <trkpt lat="50.686309" lon="16.263803">
      <ele>698</ele>
      <time>2026-05-07T09:18:13Z</time>
    </trkpt>
    <trkpt lat="50.686201" lon="16.264178">
      <ele>706</ele>
      <time>2026-05-07T09:19:01Z</time>
    </trkpt>
    <trkpt lat="50.686066" lon="16.264687">
      <ele>714</ele>
      <time>2026-05-07T09:20:04Z</time>
    </trkpt>
    <trkpt lat="50.685842" lon="16.265297">
      <ele>726</ele>
      <time>2026-05-07T09:21:25Z</time>
    </trkpt>
    <trkpt lat="50.685711" lon="16.265529">
      <ele>732</ele>
      <time>2026-05-07T09:22:01Z</time>
    </trkpt>
    <trkpt lat="50.685577" lon="16.265704">
      <ele>736</ele>
      <time>2026-05-07T09:22:32Z</time>
    </trkpt>
    <trkpt lat="50.685481" lon="16.265876">
      <ele>741</ele>
      <time>2026-05-07T09:22:59Z</time>
    </trkpt>
    <trkpt lat="50.685391" lon="16.266313">
      <ele>745</ele>
      <time>2026-05-07T09:23:50Z</time>
    </trkpt>
    <trkpt lat="50.685258" lon="16.267426">
      <ele>748</ele>
      <time>2026-05-07T09:25:57Z</time>
    </trkpt>
    <trkpt lat="50.685119" lon="16.26823">
      <ele>756</ele>
      <time>2026-05-07T09:27:31Z</time>
    </trkpt>
    <trkpt lat="50.684965" lon="16.268659">
      <ele>758</ele>
      <time>2026-05-07T09:28:26Z</time>
    </trkpt>
    <trkpt lat="50.684854" lon="16.269106">
      <ele>764</ele>
      <time>2026-05-07T09:29:20Z</time>
    </trkpt>
    <trkpt lat="50.684685" lon="16.269678">
      <ele>770</ele>
      <time>2026-05-07T09:30:32Z</time>
    </trkpt>
    <trkpt lat="50.684592" lon="16.270109">
      <ele>775</ele>
      <time>2026-05-07T09:31:23Z</time>
    </trkpt>
    <trkpt lat="50.68455" lon="16.270382">
      <ele>776</ele>
      <time>2026-05-07T09:31:54Z</time>
    </trkpt>
    <trkpt lat="50.684514" lon="16.270588">
      <ele>777</ele>
      <time>2026-05-07T09:32:18Z</time>
    </trkpt>
    <trkpt lat="50.684225" lon="16.271557">
      <ele>776</ele>
      <time>2026-05-07T09:34:18Z</time>
    </trkpt>
    <trkpt lat="50.684104" lon="16.27201">
      <ele>775</ele>
      <time>2026-05-07T09:35:13Z</time>
    </trkpt>
    <trkpt lat="50.684014" lon="16.272654">
      <ele>773</ele>
      <time>2026-05-07T09:36:27Z</time>
    </trkpt>
    <trkpt lat="50.683844" lon="16.273409">
      <ele>771</ele>
      <time>2026-05-07T09:37:56Z</time>
    </trkpt>
    <trkpt lat="50.683729" lon="16.273866">
      <ele>771</ele>
      <time>2026-05-07T09:38:51Z</time>
    </trkpt>
    <trkpt lat="50.683738" lon="16.274036">
      <ele>772</ele>
      <time>2026-05-07T09:39:11Z</time>
    </trkpt>
    <trkpt lat="50.683779" lon="16.274279">
      <ele>772</ele>
      <time>2026-05-07T09:39:40Z</time>
    </trkpt>
    <trkpt lat="50.683853" lon="16.2747">
      <ele>773</ele>
      <time>2026-05-07T09:40:32Z</time>
    </trkpt>
    <trkpt lat="50.683854" lon="16.275121">
      <ele>775</ele>
      <time>2026-05-07T09:41:21Z</time>
    </trkpt>
    <trkpt lat="50.683828" lon="16.275513">
      <ele>777</ele>
      <time>2026-05-07T09:42:07Z</time>
    </trkpt>
    <trkpt lat="50.683816" lon="16.275782">
      <ele>778</ele>
      <time>2026-05-07T09:42:39Z</time>
    </trkpt>
    <trkpt lat="50.683822" lon="16.276196">
      <ele>780</ele>
      <time>2026-05-07T09:43:28Z</time>
    </trkpt>
    <trkpt lat="50.683828" lon="16.276415">
      <ele>781</ele>
      <time>2026-05-07T09:43:53Z</time>
    </trkpt>
    <trkpt lat="50.683848" lon="16.276962">
      <ele>784</ele>
      <time>2026-05-07T09:44:58Z</time>
    </trkpt>
    <trkpt lat="50.683875" lon="16.27727">
      <ele>787</ele>
      <time>2026-05-07T09:45:34Z</time>
    </trkpt>
    <trkpt lat="50.684001" lon="16.277651">
      <ele>792</ele>
      <time>2026-05-07T09:46:26Z</time>
    </trkpt>
    <trkpt lat="50.684115" lon="16.277864">
      <ele>795</ele>
      <time>2026-05-07T09:46:59Z</time>
    </trkpt>
    <trkpt lat="50.684218" lon="16.277991">
      <ele>796</ele>
      <time>2026-05-07T09:47:23Z</time>
    </trkpt>
    <trkpt lat="50.684338" lon="16.278088">
      <ele>797</ele>
      <time>2026-05-07T09:47:48Z</time>
    </trkpt>
    <trkpt lat="50.684431" lon="16.278152">
      <ele>797</ele>
      <time>2026-05-07T09:48:07Z</time>
    </trkpt>
    <trkpt lat="50.684659" lon="16.278272">
      <ele>797</ele>
      <time>2026-05-07T09:48:51Z</time>
    </trkpt>
    <trkpt lat="50.684471" lon="16.278383">
      <ele>798</ele>
      <time>2026-05-07T09:49:19Z</time>
    </trkpt>
    <trkpt lat="50.684424" lon="16.278412">
      <ele>799</ele>
      <time>2026-05-07T09:49:26Z</time>
    </trkpt>
    <trkpt lat="50.684072" lon="16.278624">
      <ele>805</ele>
      <time>2026-05-07T09:50:19Z</time>
    </trkpt>
    <trkpt lat="50.68366" lon="16.278833">
      <ele>809</ele>
      <time>2026-05-07T09:51:19Z</time>
    </trkpt>
    <trkpt lat="50.68344" lon="16.278944">
      <ele>811</ele>
      <time>2026-05-07T09:51:51Z</time>
    </trkpt>
    <trkpt lat="50.683346" lon="16.278918">
      <ele>811</ele>
      <time>2026-05-07T09:52:09Z</time>
    </trkpt>
    <trkpt lat="50.683254" lon="16.278884">
      <ele>812</ele>
      <time>2026-05-07T09:52:27Z</time>
    </trkpt>
    <trkpt lat="50.683196" lon="16.27887">
      <ele>812</ele>
      <time>2026-05-07T09:52:39Z</time>
    </trkpt>
    <trkpt lat="50.683139" lon="16.278825">
      <ele>812</ele>
      <time>2026-05-07T09:52:51Z</time>
    </trkpt>
    <trkpt lat="50.683042" lon="16.278892">
      <ele>813</ele>
      <time>2026-05-07T09:53:26Z</time>
    </trkpt>
    <trkpt lat="50.682961" lon="16.278895">
      <ele>815</ele>
      <time>2026-05-07T09:53:53Z</time>
    </trkpt>
    <trkpt lat="50.682893" lon="16.278847">
      <ele>816</ele>
      <time>2026-05-07T09:54:18Z</time>
    </trkpt>
    <trkpt lat="50.682815" lon="16.278777">
      <ele>818</ele>
      <time>2026-05-07T09:54:47Z</time>
    </trkpt>
    <trkpt lat="50.68274" lon="16.278737">
      <ele>820</ele>
      <time>2026-05-07T09:55:14Z</time>
    </trkpt>
    <trkpt lat="50.682614" lon="16.278723">
      <ele>824</ele>
      <time>2026-05-07T09:55:57Z</time>
    </trkpt>
    <trkpt lat="50.682486" lon="16.278731">
      <ele>828</ele>
      <time>2026-05-07T09:56:41Z</time>
    </trkpt>
    <trkpt lat="50.682395" lon="16.278667">
      <ele>832</ele>
      <time>2026-05-07T09:57:16Z</time>
    </trkpt>
    <trkpt lat="50.68232" lon="16.278597">
      <ele>836</ele>
      <time>2026-05-07T09:57:47Z</time>
    </trkpt>
    <trkpt lat="50.682203" lon="16.278581">
      <ele>843</ele>
      <time>2026-05-07T09:58:31Z</time>
    </trkpt>
    <trkpt lat="50.682095" lon="16.278523">
      <ele>856</ele>
      <time>2026-05-07T09:59:23Z</time>
    </trkpt>
    <trkpt lat="50.681939" lon="16.278357">
      <ele>875</ele>
      <time>2026-05-07T10:00:47Z</time>
    </trkpt>
    <trkpt lat="50.681864" lon="16.278324">
      <ele>882</ele>
      <time>2026-05-07T10:01:20Z</time>
    </trkpt>
    <trkpt lat="50.6818" lon="16.278297">
      <ele>888</ele>
      <time>2026-05-07T10:01:48Z</time>
    </trkpt>
    <trkpt lat="50.681722" lon="16.278335">
      <ele>896</ele>
      <time>2026-05-07T10:02:23Z</time>
    </trkpt>
    <trkpt lat="50.681681" lon="16.278394">
      <ele>898</ele>
      <time>2026-05-07T10:02:42Z</time>
    </trkpt>
    <trkpt lat="50.681623" lon="16.278455">
      <ele>901</ele>
      <time>2026-05-07T10:03:06Z</time>
    </trkpt>
    <trkpt lat="50.68157" lon="16.278463">
      <ele>903</ele>
      <time>2026-05-07T10:03:26Z</time>
    </trkpt>
    <trkpt lat="50.681479" lon="16.278421">
      <ele>909</ele>
      <time>2026-05-07T10:04:01Z</time>
    </trkpt>
    <trkpt lat="50.681343" lon="16.278353">
      <ele>917</ele>
      <time>2026-05-07T10:04:54Z</time>
    </trkpt>
    <trkpt lat="50.681244" lon="16.278267">
      <ele>921</ele>
      <time>2026-05-07T10:05:32Z</time>
    </trkpt>
    <trkpt lat="50.681191" lon="16.278227">
      <ele>923</ele>
      <time>2026-05-07T10:05:52Z</time>
    </trkpt>
    <trkpt lat="50.681123" lon="16.278219">
      <ele>925</ele>
      <time>2026-05-07T10:06:16Z</time>
    </trkpt>
    <trkpt lat="50.680934" lon="16.278187">
      <ele>931</ele>
      <time>2026-05-07T10:07:20Z</time>
    </trkpt>
    <trkpt lat="50.680855" lon="16.27812">
      <ele>934</ele>
      <time>2026-05-07T10:07:51Z</time>
    </trkpt>
    <trkpt lat="50.680934" lon="16.278187">
      <ele>931</ele>
      <time>2026-05-07T10:08:01Z</time>
    </trkpt>
    <trkpt lat="50.681123" lon="16.278219">
      <ele>925</ele>
      <time>2026-05-07T10:08:23Z</time>
    </trkpt>
    <trkpt lat="50.681191" lon="16.278227">
      <ele>923</ele>
      <time>2026-05-07T10:08:31Z</time>
    </trkpt>
    <trkpt lat="50.681244" lon="16.278267">
      <ele>921</ele>
      <time>2026-05-07T10:08:37Z</time>
    </trkpt>
    <trkpt lat="50.681343" lon="16.278353">
      <ele>917</ele>
      <time>2026-05-07T10:08:50Z</time>
    </trkpt>
    <trkpt lat="50.681479" lon="16.278421">
      <ele>909</ele>
      <time>2026-05-07T10:09:08Z</time>
    </trkpt>
    <trkpt lat="50.68157" lon="16.278463">
      <ele>903</ele>
      <time>2026-05-07T10:09:19Z</time>
    </trkpt>
    <trkpt lat="50.681623" lon="16.278455">
      <ele>901</ele>
      <time>2026-05-07T10:09:26Z</time>
    </trkpt>
    <trkpt lat="50.681681" lon="16.278394">
      <ele>898</ele>
      <time>2026-05-07T10:09:34Z</time>
    </trkpt>
    <trkpt lat="50.681722" lon="16.278335">
      <ele>896</ele>
      <time>2026-05-07T10:09:40Z</time>
    </trkpt>
    <trkpt lat="50.6818" lon="16.278297">
      <ele>888</ele>
      <time>2026-05-07T10:09:52Z</time>
    </trkpt>
    <trkpt lat="50.681864" lon="16.278324">
      <ele>882</ele>
      <time>2026-05-07T10:10:01Z</time>
    </trkpt>
    <trkpt lat="50.681939" lon="16.278357">
      <ele>875</ele>
      <time>2026-05-07T10:10:12Z</time>
    </trkpt>
    <trkpt lat="50.682095" lon="16.278523">
      <ele>856</ele>
      <time>2026-05-07T10:10:40Z</time>
    </trkpt>
    <trkpt lat="50.682203" lon="16.278581">
      <ele>843</ele>
      <time>2026-05-07T10:10:58Z</time>
    </trkpt>
    <trkpt lat="50.68232" lon="16.278597">
      <ele>836</ele>
      <time>2026-05-07T10:11:12Z</time>
    </trkpt>
    <trkpt lat="50.682395" lon="16.278667">
      <ele>832</ele>
      <time>2026-05-07T10:11:23Z</time>
    </trkpt>
    <trkpt lat="50.682486" lon="16.278731">
      <ele>828</ele>
      <time>2026-05-07T10:11:34Z</time>
    </trkpt>
    <trkpt lat="50.682614" lon="16.278723">
      <ele>824</ele>
      <time>2026-05-07T10:11:49Z</time>
    </trkpt>
    <trkpt lat="50.68274" lon="16.278737">
      <ele>820</ele>
      <time>2026-05-07T10:12:03Z</time>
    </trkpt>
    <trkpt lat="50.682815" lon="16.278777">
      <ele>818</ele>
      <time>2026-05-07T10:12:12Z</time>
    </trkpt>
    <trkpt lat="50.682893" lon="16.278847">
      <ele>816</ele>
      <time>2026-05-07T10:12:22Z</time>
    </trkpt>
    <trkpt lat="50.682961" lon="16.278895">
      <ele>815</ele>
      <time>2026-05-07T10:12:30Z</time>
    </trkpt>
    <trkpt lat="50.683042" lon="16.278892">
      <ele>813</ele>
      <time>2026-05-07T10:12:39Z</time>
    </trkpt>
    <trkpt lat="50.683139" lon="16.278825">
      <ele>812</ele>
      <time>2026-05-07T10:12:51Z</time>
    </trkpt>
    <trkpt lat="50.683196" lon="16.27887">
      <ele>812</ele>
      <time>2026-05-07T10:13:03Z</time>
    </trkpt>
    <trkpt lat="50.683254" lon="16.278884">
      <ele>812</ele>
      <time>2026-05-07T10:13:15Z</time>
    </trkpt>
    <trkpt lat="50.683346" lon="16.278918">
      <ele>811</ele>
      <time>2026-05-07T10:13:33Z</time>
    </trkpt>
    <trkpt lat="50.68344" lon="16.278944">
      <ele>811</ele>
      <time>2026-05-07T10:13:51Z</time>
    </trkpt>
    <trkpt lat="50.68366" lon="16.278833">
      <ele>809</ele>
      <time>2026-05-07T10:14:12Z</time>
    </trkpt>
    <trkpt lat="50.684072" lon="16.278624">
      <ele>805</ele>
      <time>2026-05-07T10:14:53Z</time>
    </trkpt>
    <trkpt lat="50.684424" lon="16.278412">
      <ele>799</ele>
      <time>2026-05-07T10:15:28Z</time>
    </trkpt>
    <trkpt lat="50.684471" lon="16.278383">
      <ele>798</ele>
      <time>2026-05-07T10:15:32Z</time>
    </trkpt>
    <trkpt lat="50.684659" lon="16.278272">
      <ele>797</ele>
      <time>2026-05-07T10:15:51Z</time>
    </trkpt>
    <trkpt lat="50.684811" lon="16.278226">
      <ele>796</ele>
      <time>2026-05-07T10:16:28Z</time>
    </trkpt>
    <trkpt lat="50.684909" lon="16.278203">
      <ele>796</ele>
      <time>2026-05-07T10:16:51Z</time>
    </trkpt>
    <trkpt lat="50.684811" lon="16.278226">
      <ele>796</ele>
      <time>2026-05-07T10:17:14Z</time>
    </trkpt>
    <trkpt lat="50.684659" lon="16.278272">
      <ele>797</ele>
      <time>2026-05-07T10:17:51Z</time>
    </trkpt>
    <trkpt lat="50.684431" lon="16.278152">
      <ele>797</ele>
      <time>2026-05-07T10:18:13Z</time>
    </trkpt>
    <trkpt lat="50.684338" lon="16.278088">
      <ele>797</ele>
      <time>2026-05-07T10:18:23Z</time>
    </trkpt>
    <trkpt lat="50.684218" lon="16.277991">
      <ele>796</ele>
      <time>2026-05-07T10:18:35Z</time>
    </trkpt>
    <trkpt lat="50.684115" lon="16.277864">
      <ele>795</ele>
      <time>2026-05-07T10:18:47Z</time>
    </trkpt>
    <trkpt lat="50.684001" lon="16.277651">
      <ele>792</ele>
      <time>2026-05-07T10:19:04Z</time>
    </trkpt>
    <trkpt lat="50.683875" lon="16.27727">
      <ele>787</ele>
      <time>2026-05-07T10:19:29Z</time>
    </trkpt>
    <trkpt lat="50.683848" lon="16.276962">
      <ele>784</ele>
      <time>2026-05-07T10:19:48Z</time>
    </trkpt>
    <trkpt lat="50.683828" lon="16.276415">
      <ele>781</ele>
      <time>2026-05-07T10:20:20Z</time>
    </trkpt>
    <trkpt lat="50.683822" lon="16.276196">
      <ele>780</ele>
      <time>2026-05-07T10:20:33Z</time>
    </trkpt>
    <trkpt lat="50.683816" lon="16.275782">
      <ele>778</ele>
      <time>2026-05-07T10:20:57Z</time>
    </trkpt>
    <trkpt lat="50.683828" lon="16.275513">
      <ele>777</ele>
      <time>2026-05-07T10:21:13Z</time>
    </trkpt>
    <trkpt lat="50.683854" lon="16.275121">
      <ele>775</ele>
      <time>2026-05-07T10:21:36Z</time>
    </trkpt>
    <trkpt lat="50.683853" lon="16.2747">
      <ele>773</ele>
      <time>2026-05-07T10:22:01Z</time>
    </trkpt>
    <trkpt lat="50.683779" lon="16.274279">
      <ele>772</ele>
      <time>2026-05-07T10:22:26Z</time>
    </trkpt>
    <trkpt lat="50.683738" lon="16.274036">
      <ele>772</ele>
      <time>2026-05-07T10:22:41Z</time>
    </trkpt>
    <trkpt lat="50.683729" lon="16.273866">
      <ele>771</ele>
      <time>2026-05-07T10:22:51Z</time>
    </trkpt>
    <trkpt lat="50.683844" lon="16.273409">
      <ele>771</ele>
      <time>2026-05-07T10:23:24Z</time>
    </trkpt>
    <trkpt lat="50.684014" lon="16.272654">
      <ele>773</ele>
      <time>2026-05-07T10:24:18Z</time>
    </trkpt>
    <trkpt lat="50.684104" lon="16.27201">
      <ele>775</ele>
      <time>2026-05-07T10:25:02Z</time>
    </trkpt>
    <trkpt lat="50.684225" lon="16.271557">
      <ele>776</ele>
      <time>2026-05-07T10:25:35Z</time>
    </trkpt>
    <trkpt lat="50.684514" lon="16.270588">
      <ele>777</ele>
      <time>2026-05-07T10:26:47Z</time>
    </trkpt>
    <trkpt lat="50.68455" lon="16.270382">
      <ele>776</ele>
      <time>2026-05-07T10:27:01Z</time>
    </trkpt>
    <trkpt lat="50.684592" lon="16.270109">
      <ele>775</ele>
      <time>2026-05-07T10:27:20Z</time>
    </trkpt>
    <trkpt lat="50.684685" lon="16.269678">
      <ele>770</ele>
      <time>2026-05-07T10:27:51Z</time>
    </trkpt>
    <trkpt lat="50.684854" lon="16.269106">
      <ele>764</ele>
      <time>2026-05-07T10:28:33Z</time>
    </trkpt>
    <trkpt lat="50.684965" lon="16.268659">
      <ele>758</ele>
      <time>2026-05-07T10:29:06Z</time>
    </trkpt>
    <trkpt lat="50.685119" lon="16.26823">
      <ele>756</ele>
      <time>2026-05-07T10:29:39Z</time>
    </trkpt>
    <trkpt lat="50.685258" lon="16.267426">
      <ele>748</ele>
      <time>2026-05-07T10:30:35Z</time>
    </trkpt>
    <trkpt lat="50.685391" lon="16.266313">
      <ele>745</ele>
      <time>2026-05-07T10:31:51Z</time>
    </trkpt>
    <trkpt lat="50.685481" lon="16.265876">
      <ele>741</ele>
      <time>2026-05-07T10:32:22Z</time>
    </trkpt>
    <trkpt lat="50.685577" lon="16.265704">
      <ele>736</ele>
      <time>2026-05-07T10:32:38Z</time>
    </trkpt>
    <trkpt lat="50.685711" lon="16.265529">
      <ele>732</ele>
      <time>2026-05-07T10:32:57Z</time>
    </trkpt>
    <trkpt lat="50.685842" lon="16.265297">
      <ele>726</ele>
      <time>2026-05-07T10:33:19Z</time>
    </trkpt>
    <trkpt lat="50.686066" lon="16.264687">
      <ele>714</ele>
      <time>2026-05-07T10:34:07Z</time>
    </trkpt>
    <trkpt lat="50.686201" lon="16.264178">
      <ele>706</ele>
      <time>2026-05-07T10:34:45Z</time>
    </trkpt>
    <trkpt lat="50.686309" lon="16.263803">
      <ele>698</ele>
      <time>2026-05-07T10:35:14Z</time>
    </trkpt>
    <trkpt lat="50.686395" lon="16.2635">
      <ele>691</ele>
      <time>2026-05-07T10:35:37Z</time>
    </trkpt>
    <trkpt lat="50.686405" lon="16.263204">
      <ele>685</ele>
      <time>2026-05-07T10:35:58Z</time>
    </trkpt>
    <trkpt lat="50.68639" lon="16.262923">
      <ele>680</ele>
      <time>2026-05-07T10:36:17Z</time>
    </trkpt>
    <trkpt lat="50.68642" lon="16.262529">
      <ele>673</ele>
      <time>2026-05-07T10:36:45Z</time>
    </trkpt>
    <trkpt lat="50.686529" lon="16.261587">
      <ele>655</ele>
      <time>2026-05-07T10:37:51Z</time>
    </trkpt>
    <trkpt lat="50.686937" lon="16.261435">
      <ele>652</ele>
      <time>2026-05-07T10:38:34Z</time>
    </trkpt>
    <trkpt lat="50.687073" lon="16.261334">
      <ele>654</ele>
      <time>2026-05-07T10:38:49Z</time>
    </trkpt>
    <trkpt lat="50.687186" lon="16.261168">
      <ele>655</ele>
      <time>2026-05-07T10:39:05Z</time>
    </trkpt>
    <trkpt lat="50.687252" lon="16.260946">
      <ele>655</ele>
      <time>2026-05-07T10:39:20Z</time>
    </trkpt>
    <trkpt lat="50.687291" lon="16.260731">
      <ele>655</ele>
      <time>2026-05-07T10:39:35Z</time>
    </trkpt>
    <trkpt lat="50.687301" lon="16.260274">
      <ele>653</ele>
      <time>2026-05-07T10:40:04Z</time>
    </trkpt>
    <trkpt lat="50.687276" lon="16.259759">
      <ele>648</ele>
      <time>2026-05-07T10:40:38Z</time>
    </trkpt>
    <trkpt lat="50.687228" lon="16.259081">
      <ele>642</ele>
      <time>2026-05-07T10:41:22Z</time>
    </trkpt>
    <trkpt lat="50.687163" lon="16.258086">
      <ele>638</ele>
      <time>2026-05-07T10:42:27Z</time>
    </trkpt>
    <trkpt lat="50.687071" lon="16.256863">
      <ele>638</ele>
      <time>2026-05-07T10:43:46Z</time>
    </trkpt>
    <trkpt lat="50.686974" lon="16.256341">
      <ele>637</ele>
      <time>2026-05-07T10:44:21Z</time>
    </trkpt>
    <trkpt lat="50.686807" lon="16.255691">
      <ele>635</ele>
      <time>2026-05-07T10:45:06Z</time>
    </trkpt>
    <trkpt lat="50.686578" lon="16.254773">
      <ele>629</ele>
      <time>2026-05-07T10:46:10Z</time>
    </trkpt>
    <trkpt lat="50.686425" lon="16.253661">
      <ele>631</ele>
      <time>2026-05-07T10:47:23Z</time>
    </trkpt>
    <trkpt lat="50.686304" lon="16.252369">
      <ele>628</ele>
      <time>2026-05-07T10:48:47Z</time>
    </trkpt>
    <trkpt lat="50.686272" lon="16.25183">
      <ele>620</ele>
      <time>2026-05-07T10:49:22Z</time>
    </trkpt>
    <trkpt lat="50.68629" lon="16.251645">
      <ele>618</ele>
      <time>2026-05-07T10:49:35Z</time>
    </trkpt>
    <trkpt lat="50.686375" lon="16.251266">
      <ele>615</ele>
      <time>2026-05-07T10:50:01Z</time>
    </trkpt>
    <trkpt lat="50.686511" lon="16.250818">
      <ele>614</ele>
      <time>2026-05-07T10:50:33Z</time>
    </trkpt>
    <trkpt lat="50.686778" lon="16.250153">
      <ele>615</ele>
      <time>2026-05-07T10:51:23Z</time>
    </trkpt>
    <trkpt lat="50.68698" lon="16.249536">
      <ele>613</ele>
      <time>2026-05-07T10:52:08Z</time>
    </trkpt>
    <trkpt lat="50.687048" lon="16.249335">
      <ele>613</ele>
      <time>2026-05-07T10:52:23Z</time>
    </trkpt>
    <trkpt lat="50.687105" lon="16.249005">
      <ele>610</ele>
      <time>2026-05-07T10:52:45Z</time>
    </trkpt>
    <trkpt lat="50.687122" lon="16.24875">
      <ele>608</ele>
      <time>2026-05-07T10:53:01Z</time>
    </trkpt>
    <trkpt lat="50.687145" lon="16.24842">
      <ele>604</ele>
      <time>2026-05-07T10:53:23Z</time>
    </trkpt>
    <trkpt lat="50.687148" lon="16.248377">
      <ele>604</ele>
      <time>2026-05-07T10:53:26Z</time>
    </trkpt>
    <trkpt lat="50.687163" lon="16.248161">
      <ele>603</ele>
      <time>2026-05-07T10:53:40Z</time>
    </trkpt>
    <trkpt lat="50.687142" lon="16.247761">
      <ele>600</ele>
      <time>2026-05-07T10:54:06Z</time>
    </trkpt>
    <trkpt lat="50.687091" lon="16.246815">
      <ele>595</ele>
      <time>2026-05-07T10:55:07Z</time>
    </trkpt>
    <trkpt lat="50.687009" lon="16.246121">
      <ele>594</ele>
      <time>2026-05-07T10:55:52Z</time>
    </trkpt>
    <trkpt lat="50.687001" lon="16.245986">
      <ele>593</ele>
      <time>2026-05-07T10:56:01Z</time>
    </trkpt>
    <trkpt lat="50.686981" lon="16.245632">
      <ele>591</ele>
      <time>2026-05-07T10:56:24Z</time>
    </trkpt>
    <trkpt lat="50.687002" lon="16.245325">
      <ele>589</ele>
      <time>2026-05-07T10:56:44Z</time>
    </trkpt>
    <trkpt lat="50.687116" lon="16.244583">
      <ele>587</ele>
      <time>2026-05-07T10:57:33Z</time>
    </trkpt>
    <trkpt lat="50.68712" lon="16.244353">
      <ele>587</ele>
      <time>2026-05-07T10:57:48Z</time>
    </trkpt>
    <trkpt lat="50.687075" lon="16.244102">
      <ele>586</ele>
      <time>2026-05-07T10:58:05Z</time>
    </trkpt>
    <trkpt lat="50.687014" lon="16.243894">
      <ele>585</ele>
      <time>2026-05-07T10:58:19Z</time>
    </trkpt>
    <trkpt lat="50.686973" lon="16.243709">
      <ele>585</ele>
      <time>2026-05-07T10:58:32Z</time>
    </trkpt>
    <trkpt lat="50.686917" lon="16.243369">
      <ele>585</ele>
      <time>2026-05-07T10:58:55Z</time>
    </trkpt>
    <trkpt lat="50.686871" lon="16.243085">
      <ele>584</ele>
      <time>2026-05-07T10:59:14Z</time>
    </trkpt>
    <trkpt lat="50.686828" lon="16.243002">
      <ele>584</ele>
      <time>2026-05-07T10:59:20Z</time>
    </trkpt>
    <trkpt lat="50.686775" lon="16.242901">
      <ele>583</ele>
      <time>2026-05-07T10:59:29Z</time>
    </trkpt>
    <trkpt lat="50.68675" lon="16.242853">
      <ele>583</ele>
      <time>2026-05-07T10:59:33Z</time>
    </trkpt>
    <trkpt lat="50.686766" lon="16.242435">
      <ele>582</ele>
      <time>2026-05-07T11:00:00Z</time>
    </trkpt>
    <trkpt lat="50.686774" lon="16.242323">
      <ele>581</ele>
      <time>2026-05-07T11:00:07Z</time>
    </trkpt>
    <trkpt lat="50.686794" lon="16.242033">
      <ele>581</ele>
      <time>2026-05-07T11:00:26Z</time>
    </trkpt>
    <trkpt lat="50.686948" lon="16.241382">
      <ele>580</ele>
      <time>2026-05-07T11:01:11Z</time>
    </trkpt>
    <trkpt lat="50.687" lon="16.241163">
      <ele>580</ele>
      <time>2026-05-07T11:01:26Z</time>
    </trkpt>
    <trkpt lat="50.687043" lon="16.240953">
      <ele>579</ele>
      <time>2026-05-07T11:01:40Z</time>
    </trkpt>
    <trkpt lat="50.687083" lon="16.240601">
      <ele>578</ele>
      <time>2026-05-07T11:02:03Z</time>
    </trkpt>
    <trkpt lat="50.687126" lon="16.240225">
      <ele>578</ele>
      <time>2026-05-07T11:02:27Z</time>
    </trkpt>
    <trkpt lat="50.687171" lon="16.239866">
      <ele>578</ele>
      <time>2026-05-07T11:02:51Z</time>
    </trkpt>
  </trkseg>
</trk>
</gpx>